{"version": 0.6, "generator": "Overpass API 0.7.61.5 4133829e", "osm3s": {"timestamp_osm_base": "2024-03-08T21:11:44Z", "copyright": "The data included in this document is from www.openstreetmap.org. The data is made available under ODbL."}, "elements": [{"type": "node", "id": 250765963, "lat": 58.1811179, "lon": 13.5407931, "tags": {"addr:city": "Falk\u00f6ping", "addr:country": "SE", "addr:postcode": "521 30", "addr:street": "M\u00f6ssebergsg\u00e5rden", "amenity": "cafe", "email": "cafe@mossebergsgarden.se", "name": "M\u00f6ssebergsg\u00e5rden", "phone": "+46-515-10986", "website": "www.cafemossebergsgarden.se"}}, {"type": "node", "id": 282030301, "lat": 58.1745366, "lon": 13.5532042, "tags": {"amenity": "restaurant", "cuisine": "italian", "name": "Gondolino", "phone": "+46-515-13530"}}, {"type": "node", "id": 282030303, "lat": 58.1621711, "lon": 13.5513091, "tags": {"addr:city": "Falk\u00f6ping", "addr:country": "SE", "addr:housenumber": "4", "addr:postcode": "521 43", "addr:street": "Sankt Olofsgatan", "amenity": "restaurant", "cuisine": "pizza", "entrance": "yes", "name": "Mingus"}}, {"type": "node", "id": 282032197, "lat": 58.1608586, "lon": 13.5535955, "tags": {"amenity": "restaurant", "cuisine": "asian", "name": "Asian Wok", "outdoor_seating": "yes", "wheelchair": "yes"}}, {"type": "node", "id": 282032198, "lat": 58.1614794, "lon": 13.5533666, "tags": {"amenity": "cafe", "brand": "Espresso House", "brand:wikidata": "Q10489162", "brand:wikipedia": "sv:Espresso House", "cuisine": "coffee_shop", "name": "Espresso House", "takeaway": "yes", "wheelchair": "yes"}}, {"type": "node", "id": 449404034, "lat": 57.8049025, "lon": 13.4212141}, {"type": "node", "id": 645449313, "lat": 57.8841167, "lon": 13.0173837, "tags": {"amenity": "restaurant", "cuisine": "pizza", "name": "Borgstena Pizzeria", "takeaway": "yes"}}, {"type": "node", "id": 725404962, "lat": 58.1626905, "lon": 13.5511021, "tags": {"amenity": "restaurant", "cuisine": "italian", "name": "Trattoria Pino", "was:amenity": "bank", "was:brand": "SEB", "was:brand:wikidata": "Q975655", "was:brand:wikipedia": "en:SEB Group", "was:name": "SEB"}}, {"type": "node", "id": 1077752262, "lat": 58.1711362, "lon": 13.5252151, "tags": {"addr:city": "Falk\u00f6ping", "addr:country": "SE", "addr:housenumber": "1", "addr:street": "Gl\u00e4ntanv\u00e4gen", "amenity": "cafe", "entrance": "yes", "name": "Sn\u00f6flingan"}}, {"type": "node", "id": 1188877764, "lat": 58.1627536, "lon": 13.5708377, "tags": {"amenity": "cafe", "name": "M\u00f6ssebergsbagaren"}}, {"type": "node", "id": 1340872796, "lat": 57.7954596, "lon": 13.4108336, "tags": {"amenity": "restaurant", "name": "Bryggan"}}, {"type": "node", "id": 1395086022, "lat": 58.1831646, "lon": 13.540175, "tags": {"addr:city": "Falk\u00f6ping", "addr:country": "SE", "addr:postcode": "521 30", "addr:street": "M\u00f6sseberg Bredablick", "entrance": "main"}}, {"type": "node", "id": 1397443968, "lat": 57.8607502, "lon": 12.9237498, "tags": {"amenity": "cafe", "email": "info@vangakvarn.se", "name": "V\u00e4nga Kvarncaf\u00e9", "website": "https://www.vangakvarn.se/"}}, {"type": "node", "id": 1452602207, "lat": 57.7930213, "lon": 13.4127952, "tags": {"amenity": "cafe"}}, {"type": "node", "id": 1460303312, "lat": 57.794453, "lon": 13.4148384, "tags": {"amenity": "cafe", "name": "Format Caf\u00e9 & Butik"}}, {"type": "node", "id": 1803184179, "lat": 58.1727048, "lon": 13.5518604, "tags": {"addr:city": "Falk\u00f6ping", "addr:country": "SE", "addr:housenumber": "54", "addr:postcode": "521 35", "addr:street": "Sankt Olofsgatan", "amenity": "restaurant", "cuisine": "pizza", "entrance": "yes", "name": "Restaurang Alfred", "opening_hours": "Mo-Th 11:30-22:00; Fr 11:30-23:00; Sa 12:00-23:00; Su 12:00-22:00", "phone": "+46-515-82260"}}, {"type": "node", "id": 1803184260, "lat": 58.1734191, "lon": 13.5515926, "tags": {"amenity": "cafe", "name": "Systrarnas"}}, {"type": "node", "id": 1803184311, "lat": 58.1746542, "lon": 13.5481573, "tags": {"amenity": "cafe", "name": "\u00d6stg\u00f6ta Bageri & Cafe"}}, {"type": "node", "id": 1809172681, "lat": 57.7794125, "lon": 13.661811}, {"type": "node", "id": 1809172685, "lat": 57.7794853, "lon": 13.6617396}, {"type": "node", "id": 1809172687, "lat": 57.7794617, "lon": 13.6621048}, {"type": "node", "id": 1809172689, "lat": 57.7794877, "lon": 13.6620793}, {"type": "node", "id": 1809172690, "lat": 57.7795326, "lon": 13.6623579}, {"type": "node", "id": 1809172692, "lat": 57.7796189, "lon": 13.6617621}, {"type": "node", "id": 1809172693, "lat": 57.7796139, "lon": 13.6621002}, {"type": "node", "id": 1809172695, "lat": 57.779653, "lon": 13.6622397}, {"type": "node", "id": 1809172710, "lat": 57.7797006, "lon": 13.6616818}, {"type": "node", "id": 1809172717, "lat": 57.7797738, "lon": 13.6619433}, {"type": "node", "id": 2424998530, "lat": 57.9299429, "lon": 13.4940934, "tags": {"amenity": "cafe", "contact:website": "http://isaksservicecenter.se", "cuisine": "ice_cream", "layer": "2", "name": "Basta Kvarnkaf\u00e9", "operator": "Isaks Service Center AB", "outdoor_seating": "yes", "phone": "+46-321-29883"}}, {"type": "node", "id": 2431526599, "lat": 58.1628938, "lon": 13.5550479, "tags": {"addr:city": "Falk\u00f6ping", "addr:country": "SE", "addr:housenumber": "10", "addr:postcode": "521 42", "addr:street": "Dotorpsgatan", "amenity": "restaurant", "cuisine": "thai", "entrance": "yes", "name": "Aroy Thai Restaurant", "phone": "+46-515-10034"}}, {"type": "node", "id": 2431526600, "lat": 58.2140255, "lon": 13.6291366, "tags": {"amenity": "restaurant", "cuisine": "regional", "name": "Berga Golfrestaurang", "phone": "+46-515-31325"}}, {"type": "node", "id": 2431526601, "lat": 58.1811336, "lon": 13.5513489, "tags": {"addr:city": "Falk\u00f6ping", "addr:country": "SE", "addr:housenumber": "115", "addr:postcode": "521 32", "addr:street": "Danska v\u00e4gen", "amenity": "restaurant", "cuisine": "pizza", "entrance": "yes", "name": "Boden Pizzeria", "phone": "+46-515-82281"}}, {"type": "node", "id": 2431526603, "lat": 58.1876747, "lon": 13.551727, "tags": {"amenity": "cafe", "name": "Caf\u00e9 Entr\u00e9"}}, {"type": "node", "id": 2431526604, "lat": 58.162017, "lon": 13.5556256, "tags": {"amenity": "cafe", "name": "Caf\u00e9 Tant Brun", "opening_hours": "Mo-Fr 06:45-18:00; Sa 09:00-13:00", "phone": "+46-515-12500"}}, {"type": "node", "id": 2431526608, "lat": 58.1672885, "lon": 13.5594153, "tags": {"amenity": "restaurant", "cuisine": "regional", "name": "Hotell Falk\u00f6pings Restaurang", "phone": "+46-515-83170"}}, {"type": "node", "id": 2431526609, "lat": 58.1750025, "lon": 13.5520288, "tags": {"amenity": "restaurant", "cuisine": "regional", "name": "Hotell Rantens Restaurang", "opening_hours": "Mo-Fr 11:30-15:00,18:00-21:30; Sa 12:00-21:30; Su 13:00-16:00", "phone": "+46-515-13030"}}, {"type": "node", "id": 2431526611, "lat": 58.1666198, "lon": 13.5338719, "tags": {"amenity": "cafe", "name": "Osterian", "opening_hours": "Mo-Fr 10:00-18:00; Sa 10:00-15:00; Su 11:00-15:00", "website": "https://www.falbygdensost.se/var_butik_och_restaurang/restaurang/"}}, {"type": "node", "id": 2440130458, "lat": 58.161711, "lon": 13.5525145, "tags": {"amenity": "restaurant", "cuisine": "chinese", "name": "Shanghai", "source": "knowledge"}}, {"type": "node", "id": 2440130474, "lat": 58.165675, "lon": 13.5427242, "tags": {"addr:city": "Falk\u00f6ping", "addr:country": "SE", "addr:housenumber": "26", "addr:postcode": "521 30", "addr:street": "Mossv\u00e4gen", "amenity": "restaurant", "cuisine": "regional", "entrance": "yes", "name": "\u00c5kerstr\u00f6ms Restaurang & Catering", "source": "knowledge", "source:housenumber": "http://www.lunchtajm.se/falkoping/restaurang/21/akerstroms-restaurang-o-catering.html"}}, {"type": "node", "id": 2440620097, "lat": 57.9894648, "lon": 13.0935238}, {"type": "node", "id": 2440620101, "lat": 57.9895161, "lon": 13.0936796}, {"type": "node", "id": 2440620103, "lat": 57.9895399, "lon": 13.0931225}, {"type": "node", "id": 2440620107, "lat": 57.9896143, "lon": 13.0933487}, {"type": "node", "id": 2440620113, "lat": 57.9897085, "lon": 13.092925}, {"type": "node", "id": 2440620115, "lat": 57.9897608, "lon": 13.0930839}, {"type": "node", "id": 2440620121, "lat": 57.989859, "lon": 13.092969}, {"type": "node", "id": 2510047426, "lat": 58.1678356, "lon": 13.553705, "tags": {"amenity": "restaurant", "email": "falkoping@olearys.se", "name": "O'Learys", "opening_hours": "Mo-Th 16:00-23:00; Fr 11:30-02:00, Sa 12:00-02:00, Su 12:00-21:00", "phone": "+46-515-644000", "website": "https://olearys.se/falkoping"}}, {"type": "node", "id": 2599942047, "lat": 58.1834443, "lon": 13.5456021, "tags": {"amenity": "restaurant", "name": "M\u00f6ssebergs kurort"}}, {"type": "node", "id": 2599942080, "lat": 58.1830597, "lon": 13.5404027}, {"type": "node", "id": 2599942084, "lat": 58.1830452, "lon": 13.5400562}, {"type": "node", "id": 2599942090, "lat": 58.1832458, "lon": 13.5405876}, {"type": "node", "id": 2599942095, "lat": 58.1833179, "lon": 13.5403273}, {"type": "node", "id": 2923840877, "lat": 57.8045439, "lon": 13.4215483}, {"type": "node", "id": 2923840878, "lat": 57.8045652, "lon": 13.4211503}, {"type": "node", "id": 2923840882, "lat": 57.8048812, "lon": 13.421612}, {"type": "node", "id": 2923840883, "lat": 57.8048852, "lon": 13.4215363}, {"type": "node", "id": 2923840884, "lat": 57.8048961, "lon": 13.4213345}, {"type": "node", "id": 2923870054, "lat": 57.7956575, "lon": 13.4141092, "tags": {"amenity": "cafe", "name": "Caf\u00e9 Wangerud"}}, {"type": "node", "id": 2923870055, "lat": 57.7925676, "lon": 13.4125771, "tags": {"amenity": "cafe", "name": "Gunthers Br\u00f6d", "shop": "bakery"}}, {"type": "node", "id": 2923870064, "lat": 57.7944461, "lon": 13.4137094, "tags": {"amenity": "restaurant", "cuisine": "chinese", "name": "Restaurang Mings Palace"}}, {"type": "node", "id": 2923872257, "lat": 57.7948413, "lon": 13.4157506, "tags": {"amenity": "restaurant", "cuisine": "thai", "name": "Jenny's Thai", "website": "https://jennysthai.se/"}}, {"type": "node", "id": 2937576446, "lat": 58.0778662, "lon": 13.126631, "tags": {"amenity": "cafe", "internet_access": "no", "name": "Lillputtland"}}, {"type": "node", "id": 3039942355, "lat": 57.7692652, "lon": 13.4005963}, {"type": "node", "id": 3039942356, "lat": 57.7692936, "lon": 13.4002861}, {"type": "node", "id": 3039942358, "lat": 57.7695354, "lon": 13.4004017}, {"type": "node", "id": 3039942360, "lat": 57.7695388, "lon": 13.400365}, {"type": "node", "id": 3144409435, "lat": 57.7964516, "lon": 13.4082747, "tags": {"amenity": "restaurant", "name": "Restaurang Kallbadhuset"}}, {"type": "node", "id": 3312533998, "lat": 57.7932364, "lon": 13.4141401, "tags": {"amenity": "restaurant", "capacity": "50", "cuisine": "pizza", "name": "Pizzeria Jamaica", "smoking": "outside"}}, {"type": "node", "id": 3312533999, "lat": 57.792616, "lon": 13.4122786, "tags": {"amenity": "restaurant", "cuisine": "pizza", "name": "Campino"}}, {"type": "node", "id": 3355551134, "lat": 57.8280304, "lon": 13.0098585}, {"type": "node", "id": 3355551135, "lat": 57.8280172, "lon": 13.0100887}, {"type": "node", "id": 3355551136, "lat": 57.8278512, "lon": 13.010059}, {"type": "node", "id": 3355551137, "lat": 57.827863, "lon": 13.0098189}, {"type": "node", "id": 3472192571, "lat": 58.1455712, "lon": 13.3158046}, {"type": "node", "id": 3472192572, "lat": 58.1455721, "lon": 13.3160482}, {"type": "node", "id": 3472192573, "lat": 58.1456339, "lon": 13.3159546}, {"type": "node", "id": 3472192574, "lat": 58.1456342, "lon": 13.3160474}, {"type": "node", "id": 3472192575, "lat": 58.1456824, "lon": 13.3158032}, {"type": "node", "id": 3472192576, "lat": 58.1456829, "lon": 13.315954}, {"type": "node", "id": 3488878538, "lat": 58.0932105, "lon": 13.6076311}, {"type": "node", "id": 3488878539, "lat": 58.0932151, "lon": 13.6074166}, {"type": "node", "id": 3488878544, "lat": 58.093313, "lon": 13.6078439}, {"type": "node", "id": 3488878545, "lat": 58.0933156, "lon": 13.6077256, "tags": {"addr:city": "Vartofta", "addr:country": "SE", "addr:postcode": "521 97", "addr:street": "Sl\u00f6ta Valltorp"}}, {"type": "node", "id": 3488878546, "lat": 58.0933174, "lon": 13.6076393}, {"type": "node", "id": 3488878548, "lat": 58.0933455, "lon": 13.6076385}, {"type": "node", "id": 3488878549, "lat": 58.0933501, "lon": 13.6074269}, {"type": "node", "id": 3488878556, "lat": 58.0934512, "lon": 13.6078545}, {"type": "node", "id": 3488878557, "lat": 58.0934556, "lon": 13.6076469}, {"type": "node", "id": 4391450496, "lat": 57.8248735, "lon": 13.0092915, "tags": {"addr:country": "SE", "addr:housenumber": "30", "addr:postcode": "51334", "addr:street": "Nya Kyrkv\u00e4gen", "amenity": "restaurant", "name": "Chillers Restaurang"}}, {"type": "node", "id": 4846380367, "lat": 57.9878788, "lon": 13.0611334, "tags": {"amenity": "restaurant", "cuisine": "pizza", "name": "Parkudden Pizzeria"}}, {"type": "node", "id": 4846383220, "lat": 57.9871337, "lon": 13.0545003, "tags": {"amenity": "cafe", "name": "G\u00e4sene caf\u00e9", "opening_hours": "Tu-Th 10:00-16:00"}}, {"type": "node", "id": 4847629445, "lat": 57.9899324, "lon": 13.0931921}, {"type": "node", "id": 5362875088, "lat": 58.0788231, "lon": 13.0210922, "tags": {"amenity": "cafe", "name": "Pars Caf\u00e9", "wheelchair": "yes"}}, {"type": "node", "id": 5420955627, "lat": 57.8854406, "lon": 13.6485413, "tags": {"amenity": "cafe", "name": "\u00c5r\u00e5s kvarn"}}, {"type": "node", "id": 5653165132, "lat": 57.9449359, "lon": 13.1867102, "tags": {"addr:country": "SE", "addr:postcode": "52496", "addr:street": "Kyrkbyn i Od", "amenity": "cafe", "contact:phone": "+46 51360029", "contact:website": "http://www.creadiem.se", "name": "Crea Diem Bokcafe", "opening_hours": "Tu-Su 11:00-18:00"}}, {"type": "node", "id": 5789284214, "lat": 58.0780468, "lon": 13.0228605, "tags": {"amenity": "restaurant", "cuisine": "thai", "name": "Thai Makinna"}}, {"type": "node", "id": 5865748801, "lat": 58.1376069, "lon": 13.5986296}, {"type": "node", "id": 5865749634, "lat": 58.1375361, "lon": 13.5982798}, {"type": "node", "id": 5865749708, "lat": 58.1376652, "lon": 13.5983936}, {"type": "node", "id": 5865749882, "lat": 58.1374778, "lon": 13.5985158}, {"type": "node", "id": 6651729385, "lat": 57.9090755, "lon": 13.4546935, "tags": {"addr:housenumber": "114", "addr:place": "Ved\u00e5sla, \u00d6sterg\u00e5rden", "addr:postcode": "523 75", "amenity": "restaurant", "cuisine": "local", "name": "Hermans lada", "website": "https://hermanslada.se/"}}, {"type": "node", "id": 6742394482, "lat": 58.1744962, "lon": 13.5522231, "tags": {"amenity": "restaurant", "cuisine": "sushi", "name": "Khaan Sushi"}}, {"type": "node", "id": 7057284385, "lat": 58.1654545, "lon": 13.5522829, "tags": {"amenity": "restaurant", "name": "amazing thai", "opening_hours": "Mo-Th 11:30-21:00, Fr 11:30-22:00, Sa 12:00-22:00, Su 12:00-21:00", "website": "https://www.amazing-thai.se/"}}, {"type": "node", "id": 7445185736, "lat": 57.7795866, "lon": 13.6617937}, {"type": "node", "id": 7445185737, "lat": 57.7795509, "lon": 13.6616661}, {"type": "node", "id": 7445185738, "lat": 57.7795136, "lon": 13.6617027}, {"type": "node", "id": 7445185739, "lat": 57.7795041, "lon": 13.6616691}, {"type": "node", "id": 7445185740, "lat": 57.7794738, "lon": 13.6616988}, {"type": "node", "id": 7526442222, "lat": 58.1722953, "lon": 13.4104335, "tags": {"amenity": "cafe", "contact:website": "https://www.antikfiket.se", "name": "Antik-Fiket"}}, {"type": "node", "id": 7529672987, "lat": 58.1607454, "lon": 13.5541503, "tags": {"addr:city": "Falk\u00f6ping", "addr:country": "SE", "addr:housenumber": "9", "addr:postcode": "521 42", "addr:street": "Stora Torget", "amenity": "restaurant", "cuisine": "indian", "name": "Mumbai Masala", "phone": "+46 515 13840", "website": "https://www.mumbaimasala.se/"}}, {"type": "node", "id": 7529716285, "lat": 58.162408, "lon": 13.5545839, "tags": {"amenity": "cafe", "name": "island vibes"}}, {"type": "node", "id": 8509819039, "lat": 57.8699643, "lon": 13.046468, "tags": {"addr:city": "Borgstena", "addr:country": "SE", "addr:postcode": "513 97", "addr:street": "Uddetorp S\u00e4teri", "amenity": "cafe", "name": "Uddetorp S\u00e4teri", "website": "https://uddetorpsateri.se/"}}, {"type": "node", "id": 8764592834, "lat": 57.8091161, "lon": 13.4096437, "tags": {"addr:city": "Ulricehamn", "addr:country": "SE", "addr:housenumber": "7", "addr:postcode": "52337", "addr:street": "Karlsn\u00e4sv\u00e4gen", "amenity": "restaurant", "name": "Lunchh\u00f6rnan i Ulricehamn", "phone": "+46 70 823 0436"}}, {"type": "node", "id": 8764592835, "lat": 57.8098047, "lon": 13.4133353, "tags": {"addr:city": "Ulricehamn", "addr:country": "SE", "addr:housenumber": "3", "addr:postcode": "52337", "addr:street": "Vistaforsv\u00e4gen", "amenity": "restaurant", "cuisine": "regional", "name": "Patriks Mat", "website": "http://patricksmat.com/"}}, {"type": "node", "id": 9135906050, "lat": 58.183093, "lon": 13.5402827}, {"type": "node", "id": 9135906051, "lat": 58.1830063, "lon": 13.5401965}, {"type": "node", "id": 9905564838, "lat": 57.7918563, "lon": 13.4133436, "tags": {"amenity": "cafe", "name": "Torgstallet"}}, {"type": "node", "id": 10116922793, "lat": 58.0784079, "lon": 13.0202972, "tags": {"amenity": "cafe"}}, {"type": "node", "id": 10948530740, "lat": 57.7695515, "lon": 13.4004069}, {"type": "node", "id": 10948530741, "lat": 57.7695335, "lon": 13.4006028}, {"type": "node", "id": 10948530742, "lat": 57.7694807, "lon": 13.4006684}, {"type": "node", "id": 10948530743, "lat": 57.769488, "lon": 13.4005881}, {"type": "node", "id": 10948530744, "lat": 57.7694077, "lon": 13.4006422}, {"type": "node", "id": 10948530745, "lat": 57.7694549, "lon": 13.4006601}, {"type": "node", "id": 10948530746, "lat": 57.7694527, "lon": 13.4006846}, {"type": "node", "id": 10948530747, "lat": 57.7694052, "lon": 13.4006693}, {"type": "node", "id": 10948530748, "lat": 57.7694843, "lon": 13.4006282, "tags": {"amenity": "loading_dock"}}, {"type": "node", "id": 11295695351, "lat": 57.8277628, "lon": 13.1976795, "tags": {"addr:city": "H\u00f6kerum", "addr:housenumber": "105", "addr:postcode": "523 99", "addr:street": "T\u00f6ve", "amenity": "cafe", "check_date": "2023-10-28", "contact:facebook": "https://sv-se.facebook.com/people/\u00c5dalens-Caf\u00e9-Present/100057044246993", "cuisine": "coffee_shop;sandwich;ice_cream;cake;pankcake;dessert", "diet:vegan": "yes", "diet:vegetarian": "yes", "name": "\u00c5dalens Caf\u00e9 i Nitta", "opening_hours": "Fr-Su 11:00-17:00", "outdoor_seating": "yes", "phone": "+46-706-694690", "reservation": "yes", "toilets": "yes", "website": "https://www.adalenscafe.se/"}}, {"type": "way", "id": 169760145, "nodes": [1809172690, 1809172695, 1809172693, 1809172717, 1809172710, 1809172692, 7445185736, 7445185737, 7445185738, 7445185739, 7445185740, 1809172685, 1809172681, 1809172689, 1809172687, 1809172690], "tags": {"amenity": "restaurant", "building": "yes", "cuisine": "regional", "name": "Rasta", "source": "Bing"}}, {"type": "way", "id": 235987166, "nodes": [4847629445, 2440620101, 2440620097, 2440620107, 2440620103, 2440620113, 2440620115, 2440620121, 4847629445], "tags": {"amenity": "restaurant", "building": "yes", "name": "Liljebacken", "source": "Bing"}}, {"type": "way", "id": 254180493, "nodes": [2599942080, 9135906050, 9135906051, 2599942084, 1395086022, 2599942095, 2599942090, 2599942080], "tags": {"amenity": "restaurant", "building": "civic", "cuisine": "regional", "name": "Bredablick", "phone": "+46-515-15110", "source": "survey"}}, {"type": "way", "id": 288829446, "nodes": [2923840884, 449404034, 2923840878, 2923840877, 2923840882, 2923840883, 2923840884], "tags": {"amenity": "restaurant", "building": "yes", "name": "Nyboholms v\u00e4rdshus"}}, {"type": "way", "id": 299911650, "nodes": [3039942360, 3039942358, 10948530740, 10948530741, 10948530743, 10948530748, 10948530742, 10948530745, 10948530746, 10948530747, 10948530744, 3039942355, 3039942356, 3039942360], "tags": {"amenity": "cafe", "building": "yes", "name": "Skottek", "opening_hours": "Su 11:30-17:00; Mo 11:30-15:00; Tu-Sa 11:30-21:00"}}, {"type": "way", "id": 328726490, "nodes": [3355551134, 3355551135, 3355551136, 3355551137, 3355551134], "tags": {"amenity": "restaurant", "building": "apartments", "name": "Pizzerie Roma", "website": "http://www.pizzeriaromaifristad.se/"}}, {"type": "way", "id": 340016037, "nodes": [3472192575, 3472192571, 3472192572, 3472192574, 3472192573, 3472192576, 3472192575], "tags": {"addr:city": "Floby", "addr:country": "SE", "addr:postcode": "521 56", "addr:street": "Alphems Arboretum", "amenity": "cafe", "building": "yes"}}, {"type": "way", "id": 341800201, "nodes": [3488878557, 3488878556, 3488878544, 3488878545, 3488878546, 3488878538, 3488878539, 3488878549, 3488878548, 3488878557], "tags": {"amenity": "restaurant", "building": "civic", "name": "Valltorps Limousine & Spa"}}, {"type": "way", "id": 620889463, "nodes": [5865749634, 5865749708, 5865748801, 5865749882, 5865749634], "tags": {"amenity": "restaurant", "building": "yes", "name": "\u00c5llebergs Cafe & Restaurang", "note": "Verksamhet", "note:detail": "Ospecificerad"}}]}