{"version": 0.6, "generator": "Overpass API 0.7.61.5 4133829e", "osm3s": {"timestamp_osm_base": "2024-03-08T21:11:44Z", "copyright": "The data included in this document is from www.openstreetmap.org. The data is made available under ODbL."}, "elements": [{"type": "node", "id": 442278220, "lat": 58.6646334, "lon": 16.180994, "tags": {"addr:country": "SE", "addr:housenumber": "19", "addr:postcode": "61630", "addr:street": "Nyk\u00f6pingsv\u00e4gen", "amenity": "restaurant", "name": "\u00c5by krog"}}, {"type": "node", "id": 759936577, "lat": 58.66524, "lon": 16.1822104, "tags": {"addr:city": "\u00c5by", "addr:country": "SE", "addr:housenumber": "24", "addr:postcode": "61630", "addr:street": "Nyk\u00f6pingsv\u00e4gen", "amenity": "restaurant", "name": "Prestige"}}, {"type": "node", "id": 808622891, "lat": 58.9005252, "lon": 15.8242891, "tags": {"amenity": "cafe", "name": "Maria cafe", "opening_hours": "10:00-18:00"}}, {"type": "node", "id": 813846329, "lat": 58.6745036, "lon": 16.1219304, "tags": {"amenity": "cafe", "name": "Hulta glass", "opening_hours": "10:00-18:00"}}, {"type": "node", "id": 821862999, "lat": 58.8313139, "lon": 15.9267694, "tags": {"addr:country": "SE", "addr:housenumber": "42B", "addr:postcode": "61014", "addr:street": "Glasbruksv\u00e4gen", "alt_name": "Rejmyre G\u00e4stgiveri", "amenity": "restaurant", "name": "Rejmyre Gestgifveri", "website": "http://www.rejmyregestgifveri.se"}}, {"type": "node", "id": 1255871537, "lat": 58.67358, "lon": 16.173697, "tags": {"addr:country": "SE", "addr:housenumber": "32a", "addr:street": "\u00c4ttetorpsv\u00e4gen", "amenity": "cafe", "name": "Caf\u00e9 Kajen"}}, {"type": "node", "id": 1946182987, "lat": 58.8310844, "lon": 15.9262835, "tags": {"amenity": "restaurant", "cuisine": "pizza", "name": "Pizzeria Rejmyre"}}, {"type": "node", "id": 1946244029, "lat": 58.7085745, "lon": 15.7747049, "tags": {"amenity": "cafe"}}, {"type": "node", "id": 1946244047, "lat": 58.7077038, "lon": 15.7749436, "tags": {"amenity": "restaurant", "name": "Joans"}}, {"type": "node", "id": 2209040787, "lat": 59.0155311, "lon": 15.5798966, "tags": {"amenity": "restaurant", "name": "Brevensg\u00e5rden Restaurang"}}, {"type": "node", "id": 2298184124, "lat": 59.0268366, "lon": 15.6705267, "tags": {"amenity": "restaurant", "name": "Ditt Skafferi", "website": "https://www.dittskafferi.se/"}}, {"type": "node", "id": 2423368790, "lat": 59.0439166, "lon": 15.8718749, "tags": {"amenity": "restaurant", "cuisine": "thai", "name": "Restaurang Thai Wok"}}, {"type": "node", "id": 2423368798, "lat": 59.0442548, "lon": 15.8721714, "tags": {"amenity": "restaurant", "cuisine": "pizza", "name": "Salambo Pizza/Kebab"}}, {"type": "node", "id": 2423368814, "lat": 59.0430459, "lon": 15.8728368, "tags": {"amenity": "restaurant", "cuisine": "regional", "name": "Joan's"}}, {"type": "node", "id": 2423373298, "lat": 59.0493319, "lon": 15.8758232, "tags": {"amenity": "restaurant", "name": "Restaurang NiV\u00e5"}}, {"type": "node", "id": 2699720378, "lat": 58.6751934, "lon": 15.8428676}, {"type": "node", "id": 2699720412, "lat": 58.6750789, "lon": 15.8424059}, {"type": "node", "id": 2699720415, "lat": 58.6750847, "lon": 15.8428726}, {"type": "node", "id": 2699720428, "lat": 58.6751876, "lon": 15.8424009}, {"type": "node", "id": 3121690615, "lat": 59.0112989, "lon": 15.5827074}, {"type": "node", "id": 3121690616, "lat": 59.0113168, "lon": 15.5828286}, {"type": "node", "id": 3121690620, "lat": 59.0113935, "lon": 15.5827858}, {"type": "node", "id": 3121690621, "lat": 59.0114067, "lon": 15.5828745}, {"type": "node", "id": 3121690622, "lat": 59.0114294, "lon": 15.5826345}, {"type": "node", "id": 3121690623, "lat": 59.0114605, "lon": 15.5828444}, {"type": "node", "id": 3300063696, "lat": 58.8928374, "lon": 15.430725}, {"type": "node", "id": 3300063700, "lat": 58.8928773, "lon": 15.4305463}, {"type": "node", "id": 3300063701, "lat": 58.8928744, "lon": 15.4309938}, {"type": "node", "id": 3300063702, "lat": 58.8929192, "lon": 15.4307932}, {"type": "node", "id": 3300063703, "lat": 58.8929847, "lon": 15.4310857}, {"type": "node", "id": 3300063704, "lat": 58.8930134, "lon": 15.430957}, {"type": "node", "id": 3300063706, "lat": 58.8931967, "lon": 15.4311097}, {"type": "node", "id": 3300063708, "lat": 58.8932527, "lon": 15.4308591}, {"type": "node", "id": 3645599435, "lat": 58.9708867, "lon": 16.1934609, "tags": {"amenity": "restaurant", "name": "Dufweholms Herrg\u00e5rd"}}, {"type": "node", "id": 4185228782, "lat": 58.7078087, "lon": 15.7630618, "tags": {"amenity": "restaurant", "cuisine": "sushi", "name": "Sushiakademien", "source": "survey"}}, {"type": "node", "id": 4970220094, "lat": 58.7148008, "lon": 15.3587902, "tags": {"amenity": "restaurant", "cuisine": "regional", "name": "Tj\u00e4llmo g\u00e4stgifvareg\u00e5rd", "source": "survey"}}, {"type": "node", "id": 5020598077, "lat": 58.7164836, "lon": 15.7118627, "tags": {"amenity": "cafe"}}, {"type": "node", "id": 5430022585, "lat": 59.0435024, "lon": 15.8769159, "tags": {"amenity": "restaurant"}}, {"type": "node", "id": 5706436539, "lat": 59.0438017, "lon": 15.8733222}, {"type": "node", "id": 5706436540, "lat": 59.0437172, "lon": 15.873173}, {"type": "node", "id": 5706436541, "lat": 59.0437283, "lon": 15.8733407}, {"type": "node", "id": 5706436542, "lat": 59.0437905, "lon": 15.8731546}, {"type": "node", "id": 5734940607, "lat": 58.7046832, "lon": 15.7929448}, {"type": "node", "id": 5734940608, "lat": 58.7046666, "lon": 15.7930722}, {"type": "node", "id": 5734940609, "lat": 58.7047567, "lon": 15.7931182}, {"type": "node", "id": 5734940610, "lat": 58.7047739, "lon": 15.7929895}, {"type": "node", "id": 5859600777, "lat": 58.7218828, "lon": 16.0849402}, {"type": "node", "id": 5859600778, "lat": 58.7218638, "lon": 16.085295}, {"type": "node", "id": 5859600779, "lat": 58.7220472, "lon": 16.085338}, {"type": "node", "id": 5859600780, "lat": 58.7220343, "lon": 16.0855376}, {"type": "node", "id": 5859600781, "lat": 58.7218096, "lon": 16.0854839}, {"type": "node", "id": 5859600782, "lat": 58.7217638, "lon": 16.0853901}, {"type": "node", "id": 5859600783, "lat": 58.7217859, "lon": 16.0849161}, {"type": "node", "id": 6152551130, "lat": 58.9271213, "lon": 15.5203762, "tags": {"amenity": "restaurant", "name": "Boo Natur", "website": "https://boo-natur.se/"}}, {"type": "node", "id": 6746088328, "lat": 58.991982, "lon": 16.1963007}, {"type": "node", "id": 6746088329, "lat": 58.9918597, "lon": 16.1960438}, {"type": "node", "id": 6746088330, "lat": 58.9917754, "lon": 16.196195}, {"type": "node", "id": 6746088331, "lat": 58.9918978, "lon": 16.1964519}, {"type": "node", "id": 6902527798, "lat": 58.9911246, "lon": 16.1856363}, {"type": "node", "id": 6902527799, "lat": 58.991113, "lon": 16.1857641}, {"type": "node", "id": 6902527800, "lat": 58.9910575, "lon": 16.1857452}, {"type": "node", "id": 6902527801, "lat": 58.9910693, "lon": 16.1856156}, {"type": "node", "id": 6902527802, "lat": 58.9910551, "lon": 16.1856107}, {"type": "node", "id": 6902527803, "lat": 58.9910662, "lon": 16.1854884}, {"type": "node", "id": 6902527804, "lat": 58.9910818, "lon": 16.1854938}, {"type": "node", "id": 6902527805, "lat": 58.9910911, "lon": 16.1853914}, {"type": "node", "id": 6902527806, "lat": 58.9911464, "lon": 16.1854103}, {"type": "node", "id": 6902527807, "lat": 58.9911372, "lon": 16.185512}, {"type": "node", "id": 6902527808, "lat": 58.9911469, "lon": 16.1855153}, {"type": "node", "id": 6902527809, "lat": 58.9911355, "lon": 16.18564}, {"type": "node", "id": 11068694378, "lat": 59.0438013, "lon": 15.871922, "tags": {"amenity": "restaurant", "cuisine": "indian", "name": "Raja", "opening_hours": "Mo-Sa 11:00-20:00", "takeaway": "yes"}}, {"type": "way", "id": 264280353, "nodes": [2699720412, 2699720415, 2699720378, 2699720428, 2699720412], "tags": {"amenity": "cafe", "building": "yes", "opening_hours": "10:00-16:00", "operator": "Svenska Kyrkan", "outdoor_seating": "yes", "payment:cash": "yes", "wheelchair": "yes"}}, {"type": "way", "id": 307104199, "nodes": [3121690622, 3121690623, 3121690621, 3121690620, 3121690616, 3121690615, 3121690622], "tags": {"addr:housenumber": "15", "addr:street": "Bruksgatan", "amenity": "cafe", "building": "yes", "name": "Brevens Hj\u00e4rta", "old_name": "Saker & Ting caf\u00e9"}}, {"type": "way", "id": 323215571, "nodes": [3300063700, 3300063708, 3300063706, 3300063704, 3300063703, 3300063701, 3300063702, 3300063696, 3300063700], "tags": {"amenity": "cafe", "building": "commercial", "cuisine": "ice_cream", "name": "Go Glass", "opening_hours": "11:00-18:00", "outdoor_seating": "yes", "website": "http://goglass.se/"}}, {"type": "way", "id": 599953867, "nodes": [5706436541, 5706436539, 5706436542, 5706436540, 5706436541], "tags": {"amenity": "cafe", "building": "yes", "name": "Tennisparkens kiosk"}}, {"type": "way", "id": 604382338, "nodes": [5734940607, 5734940608, 5734940609, 5734940610, 5734940607], "tags": {"amenity": "cafe", "building": "yes", "name": "Klippestorpsg\u00e5rden", "outdoor_seating": "yes"}}, {"type": "way", "id": 620164189, "nodes": [5859600783, 5859600782, 5859600781, 5859600780, 5859600779, 5859600778, 5859600777, 5859600783], "tags": {"amenity": "cafe", "building": "yes", "name": "S\u00f6rsj\u00f6ns camping"}}, {"type": "way", "id": 718366086, "nodes": [6746088328, 6746088329, 6746088330, 6746088331, 6746088328], "tags": {"amenity": "restaurant", "building": "yes", "name": "Villa Sandhem"}}, {"type": "way", "id": 737271625, "nodes": [6902527798, 6902527799, 6902527800, 6902527801, 6902527802, 6902527803, 6902527804, 6902527805, 6902527806, 6902527807, 6902527808, 6902527809, 6902527798], "tags": {"amenity": "restaurant", "building": "yes", "cuisine": "pizza", "name": "Nobel Pizzeria & Grill"}}]}