{"version": 0.6, "generator": "Overpass API 0.7.61.5 4133829e", "osm3s": {"timestamp_osm_base": "2024-03-08T20:58:30Z", "copyright": "The data included in this document is from www.openstreetmap.org. The data is made available under ODbL."}, "elements": [{"type": "node", "id": 787196142, "lat": 56.2596042, "lon": 12.9688902, "tags": {"amenity": "pharmacy", "brand": "Apoteket", "brand:wikidata": "Q1785637", "healthcare": "pharmacy", "name": "Apoteket", "opening_hours": "Mo-Fr 08:30-20:00", "operator": "Apoteket AB", "website": "https://www.apoteket.se"}}, {"type": "node", "id": 787196164, "lat": 56.2620645, "lon": 12.9697863, "tags": {"addr:city": "Munka-Ljungby", "addr:country": "SE", "addr:housenumber": "4", "addr:street": "Nygatan", "amenity": "clinic", "name": "L\u00e4kargruppen Munka Ljungby"}}, {"type": "node", "id": 907179312, "lat": 56.0547363, "lon": 12.9730493, "tags": {"amenity": "pharmacy", "name": "Apoteksombud", "website:stock": "https://www.fass.se/"}}, {"type": "node", "id": 1779588333, "lat": 56.1137812, "lon": 13.0834803, "tags": {"amenity": "veterinary", "name": "Djurklinik"}}, {"type": "node", "id": 2421924210, "lat": 56.0748344, "lon": 13.2370712, "tags": {"amenity": "clinic"}}, {"type": "node", "id": 5792903710, "lat": 56.158924, "lon": 13.603009}, {"type": "node", "id": 5792903711, "lat": 56.157992, "lon": 13.6028195}, {"type": "node", "id": 5792903712, "lat": 56.1580543, "lon": 13.6019042}, {"type": "node", "id": 5792903713, "lat": 56.158551, "lon": 13.602035}, {"type": "node", "id": 5818107442, "lat": 56.1380504, "lon": 13.4010137}, {"type": "node", "id": 5818109855, "lat": 56.1383126, "lon": 13.4006705}, {"type": "node", "id": 5818109856, "lat": 56.1381865, "lon": 13.4003859}, {"type": "node", "id": 5818109857, "lat": 56.137785, "lon": 13.4003419}, {"type": "node", "id": 5818109858, "lat": 56.1380163, "lon": 13.4000018}, {"type": "node", "id": 5818109859, "lat": 56.1381274, "lon": 13.4002525}, {"type": "node", "id": 5818109860, "lat": 56.1379822, "lon": 13.4004465}, {"type": "node", "id": 5818109861, "lat": 56.1380405, "lon": 13.4005967}, {"type": "node", "id": 5822617067, "lat": 56.1338371, "lon": 13.3965308}, {"type": "node", "id": 5822617068, "lat": 56.133901, "lon": 13.3963484}, {"type": "node", "id": 5822617069, "lat": 56.1341297, "lon": 13.3966064}, {"type": "node", "id": 5822617070, "lat": 56.133972, "lon": 13.3970877}, {"type": "node", "id": 5822617071, "lat": 56.1338756, "lon": 13.3969838}, {"type": "node", "id": 5822617072, "lat": 56.1339784, "lon": 13.3966903}, {"type": "node", "id": 5863500345, "lat": 56.2915479, "lon": 13.7146389}, {"type": "node", "id": 5863500346, "lat": 56.2912963, "lon": 13.7149018}, {"type": "node", "id": 5863500347, "lat": 56.2915404, "lon": 13.7157735}, {"type": "node", "id": 5863500348, "lat": 56.2916818, "lon": 13.7160605}, {"type": "node", "id": 5863500349, "lat": 56.2919081, "lon": 13.7158379}, {"type": "node", "id": 5879784179, "lat": 56.291204, "lon": 13.7107685, "tags": {"addr:city": "Bj\u00e4rnum", "addr:country": "SE", "addr:housenumber": "1", "addr:postcode": "282 63", "addr:street": "S\u00f6dra v\u00e4gen", "amenity": "pharmacy", "app:apple": "https://itunes.apple.com/se/app/kronans-apotek/id1129771604?l=en", "app:google": "https://play.google.com/store/apps/details?id=se.kronansapotek.kronan", "brand": "Kronans Apotek Bj\u00e4rnum", "dispensing": "yes", "name": "Kronans Apotek", "opening_hours": "Mo-Fr 10:00-12:15,13:00-17:00", "operator": "Kronans Droghandel Apotek AB", "phone": "+46771612612", "website:stock": "https://www.fass.se/"}}, {"type": "node", "id": 5883022483, "lat": 56.1583222, "lon": 13.6019795}, {"type": "node", "id": 5890758642, "lat": 56.1586968, "lon": 13.6023065}, {"type": "node", "id": 5890758643, "lat": 56.1588019, "lon": 13.6025343}, {"type": "node", "id": 5890758644, "lat": 56.158875, "lon": 13.6027009}, {"type": "node", "id": 6698005129, "lat": 56.2836608, "lon": 13.2794934, "tags": {"amenity": "dentist", "name": "Tandl\u00e4karna Kockum & Kockum"}}, {"type": "node", "id": 6698005131, "lat": 56.2843352, "lon": 13.2787853, "tags": {"amenity": "clinic", "name": "V\u00e5rdcentralen \u00d6rkelljunga"}}, {"type": "node", "id": 6698005184, "lat": 56.2838201, "lon": 13.2766825, "tags": {"amenity": "pharmacy", "name": "Apoteket"}}, {"type": "node", "id": 6698016803, "lat": 56.282897, "lon": 13.2782274, "tags": {"amenity": "veterinary", "name": "Veterin\u00e4rResurs"}}, {"type": "node", "id": 6770555267, "lat": 56.2580114, "lon": 12.9696647, "tags": {"amenity": "clinic", "description": "Barnav\u00e5rdscentral"}}, {"type": "node", "id": 6770566599, "lat": 56.2588575, "lon": 12.9707497, "tags": {"amenity": "dentist", "name": "Munka Tandl\u00e4karna"}}, {"type": "node", "id": 8398953017, "lat": 56.1588152, "lon": 13.6002549, "tags": {"amenity": "pharmacy", "brand": "Kronans Apotek", "brand:wikidata": "Q10549422", "brand:wikipedia": "sv:Kronans Droghandel", "check_date": "2023-11-06", "healthcare": "pharmacy", "name": "Kronans Apotek", "name:en": "Kronans Apotek", "opening_hours": "Mo-Fr 09:00-18:00; Sa 10:00-13:00", "payment:mastercard": "yes", "payment:visa": "yes", "wheelchair": "yes"}}, {"type": "way", "id": 611890092, "nodes": [5792903710, 5792903711, 5792903712, 5883022483, 5792903713, 5890758642, 5890758643, 5890758644, 5792903710], "tags": {"amenity": "hospital", "healthcare": "hospital"}}, {"type": "way", "id": 615256895, "nodes": [5818109856, 5818109855, 5818107442, 5818109857, 5818109858, 5818109859, 5818109860, 5818109861, 5818109856], "tags": {"amenity": "clinic", "building": "yes", "healthcare": "clinic"}}, {"type": "way", "id": 615256898, "nodes": [5818109855, 5818109858, 5818109857, 5818107442, 5818109855], "tags": {"amenity": "hospital", "healthcare": "hospital"}}, {"type": "way", "id": 615785449, "nodes": [5822617067, 5822617068, 5822617069, 5822617070, 5822617071, 5822617072, 5822617067], "tags": {"amenity": "dentist", "building": "yes", "healthcare": "dentist"}}, {"type": "way", "id": 620630150, "nodes": [5863500349, 5863500348, 5863500347, 5863500346, 5863500345, 5863500349], "tags": {"addr:country": "SE", "addr:housenumber": "12", "addr:street": "Algatan", "amenity": "clinic", "name": "Bj\u00e4rnums v\u00e5rdcentral"}}]}