{"version": 0.6, "generator": "Overpass API 0.7.61.5 4133829e", "osm3s": {"timestamp_osm_base": "2024-03-08T20:58:30Z", "copyright": "The data included in this document is from www.openstreetmap.org. The data is made available under ODbL."}, "elements": [{"type": "node", "id": 459849755, "lat": 58.5335073, "lon": 15.0126693}, {"type": "node", "id": 636865758, "lat": 58.530651, "lon": 14.5118215, "tags": {"amenity": "pharmacy", "brand": "Kronans Apotek", "brand:wikidata": "Q10549422", "brand:wikipedia": "sv:Kronans Droghandel", "dispensing": "yes", "drive_through": "no", "healthcare": "pharmacy", "name": "Kronans Apotek", "opening_hours": "Mo-Fr 09:00-18:00; Sa 10:00-13:00"}}, {"type": "node", "id": 652711673, "lat": 58.3257111, "lon": 15.1252776, "tags": {"amenity": "pharmacy", "operator": "Apotek Hj\u00e4rtat", "website:stock": "https://www.fass.se/"}}, {"type": "node", "id": 1452600153, "lat": 58.5618484, "lon": 15.2774557, "tags": {"amenity": "clinic", "name": "V\u00e5rdcentralen Borensberg"}}, {"type": "node", "id": 1452600168, "lat": 58.5619505, "lon": 15.2773608, "tags": {"amenity": "dentist", "name": "Folktandv\u00e5rden Borensberg"}}, {"type": "node", "id": 1452600280, "lat": 58.5620528, "lon": 15.2775268, "tags": {"amenity": "pharmacy", "dispensing": "yes", "healthcare": "pharmacy", "name": "Kronans Apotek", "website:stock": "https://www.fass.se/"}}, {"type": "node", "id": 1687591283, "lat": 58.5332175, "lon": 15.012995}, {"type": "node", "id": 1687591296, "lat": 58.5333934, "lon": 15.0145206}, {"type": "node", "id": 1689323845, "lat": 58.5331999, "lon": 15.01337}, {"type": "node", "id": 1708425394, "lat": 58.5338317, "lon": 15.0135683}, {"type": "node", "id": 1714285444, "lat": 58.5367187, "lon": 15.0388342, "tags": {"addr:country": "SE", "addr:housenumber": "4D", "addr:postcode": "59130", "addr:street": "Kungsgatan", "amenity": "pharmacy", "app:apk": "se.apoteket.recept", "app:apple": "https://itunes.apple.com/se/app/mitt-apotek/id1053398061", "branch": "Apoteket Kronan", "brand": "Apoteket", "name": "Apoteket", "operator": "Apoteket AB (556138-6532)", "owner": "Svenska Staten", "ownership": "national", "phone": "+46771450450", "website": "https://www.apoteket.se/privatpersoner/common/apotek.aspx?id=a00570001", "website:stock": "https://www.fass.se/"}}, {"type": "node", "id": 1715053824, "lat": 58.5370116, "lon": 15.0108621, "tags": {"amenity": "veterinary", "name": "Motala Djurklinik", "website": "https://www.motaladjurklinik.se/"}}, {"type": "node", "id": 1719523765, "lat": 58.5329724, "lon": 15.0146898}, {"type": "node", "id": 1746045584, "lat": 58.5451117, "lon": 15.0285476}, {"type": "node", "id": 1746045599, "lat": 58.5455711, "lon": 15.0273762}, {"type": "node", "id": 1746045652, "lat": 58.5444279, "lon": 15.0253478}, {"type": "node", "id": 1746045658, "lat": 58.5449814, "lon": 15.0287577}, {"type": "node", "id": 1746535294, "lat": 58.5435751, "lon": 15.0293527}, {"type": "node", "id": 1746535295, "lat": 58.5429465, "lon": 15.0264236}, {"type": "node", "id": 1746535296, "lat": 58.5447286, "lon": 15.0294159}, {"type": "node", "id": 1746535298, "lat": 58.5431409, "lon": 15.028763}, {"type": "node", "id": 1746535301, "lat": 58.5438433, "lon": 15.0244072}, {"type": "node", "id": 1818529672, "lat": 58.3112193, "lon": 14.9059979}, {"type": "node", "id": 1818529682, "lat": 58.3109993, "lon": 14.9059927}, {"type": "node", "id": 1818529684, "lat": 58.310886, "lon": 14.9059179}, {"type": "node", "id": 1818529717, "lat": 58.3109754, "lon": 14.905427}, {"type": "node", "id": 1821978422, "lat": 58.5335922, "lon": 15.0139025}, {"type": "node", "id": 2001891530, "lat": 58.5292431, "lon": 15.050824}, {"type": "node", "id": 2001891533, "lat": 58.5291044, "lon": 15.0508366}, {"type": "node", "id": 2001891534, "lat": 58.5290955, "lon": 15.0516965}, {"type": "node", "id": 2001891535, "lat": 58.5292286, "lon": 15.0517083}, {"type": "node", "id": 2001919520, "lat": 58.5398968, "lon": 15.0006054, "tags": {"amenity": "clinic", "emergency": "no", "name": "Mariebergs v\u00e5rdcentral"}}, {"type": "node", "id": 2030160634, "lat": 58.5434583, "lon": 15.0278041}, {"type": "node", "id": 2030160640, "lat": 58.5435307, "lon": 15.0273377}, {"type": "node", "id": 2060084002, "lat": 58.5337679, "lon": 15.0136214}, {"type": "node", "id": 2060084005, "lat": 58.5333158, "lon": 15.01484}, {"type": "node", "id": 2060084009, "lat": 58.5334505, "lon": 15.0142888}, {"type": "node", "id": 2069048910, "lat": 58.544928, "lon": 15.0288904}, {"type": "node", "id": 2308755803, "lat": 58.324276, "lon": 15.1239829}, {"type": "node", "id": 2308755813, "lat": 58.3243221, "lon": 15.1233621}, {"type": "node", "id": 2308755817, "lat": 58.3243775, "lon": 15.1233968}, {"type": "node", "id": 2308755822, "lat": 58.3243909, "lon": 15.1229649}, {"type": "node", "id": 2308755824, "lat": 58.3244775, "lon": 15.1241091}, {"type": "node", "id": 2308755830, "lat": 58.3246479, "lon": 15.1231258}, {"type": "node", "id": 2775037099, "lat": 58.4475059, "lon": 14.8875628}, {"type": "node", "id": 2775037104, "lat": 58.4473193, "lon": 14.8875597}, {"type": "node", "id": 2775037107, "lat": 58.4474695, "lon": 14.8878984}, {"type": "node", "id": 2775037108, "lat": 58.4473666, "lon": 14.8877187}, {"type": "node", "id": 2775037112, "lat": 58.4474759, "lon": 14.8876258}, {"type": "node", "id": 2775037113, "lat": 58.4475199, "lon": 14.8877027}, {"type": "node", "id": 2775037114, "lat": 58.4474913, "lon": 14.8877627}, {"type": "node", "id": 2929286374, "lat": 58.3945671, "lon": 15.0873722, "tags": {"amenity": "pharmacy", "website:stock": "https://www.fass.se/"}}, {"type": "node", "id": 3534467983, "lat": 58.4473043, "lon": 14.889207, "tags": {"amenity": "dentist"}}, {"type": "node", "id": 3536189271, "lat": 58.4475593, "lon": 14.8994248}, {"type": "node", "id": 3536189291, "lat": 58.4479088, "lon": 14.9017988}, {"type": "node", "id": 3536189423, "lat": 58.4485615, "lon": 14.8989989}, {"type": "node", "id": 3536189449, "lat": 58.4491724, "lon": 14.8999699}, {"type": "node", "id": 3536189453, "lat": 58.4492618, "lon": 14.9009057}, {"type": "node", "id": 3536189459, "lat": 58.4493406, "lon": 14.900841}, {"type": "node", "id": 3536189471, "lat": 58.4494415, "lon": 14.8987379}, {"type": "node", "id": 3536189477, "lat": 58.4495254, "lon": 14.8995598}, {"type": "node", "id": 3557089111, "lat": 58.4526627, "lon": 14.9003473}, {"type": "node", "id": 3557089112, "lat": 58.4528383, "lon": 14.9010974}, {"type": "node", "id": 3557089113, "lat": 58.4532444, "lon": 14.8994924}, {"type": "node", "id": 3557089114, "lat": 58.4533707, "lon": 14.9008928}, {"type": "node", "id": 3557089115, "lat": 58.4533789, "lon": 14.8997966}, {"type": "node", "id": 3845571560, "lat": 58.5371108, "lon": 15.0343594, "tags": {"addr:country": "SE", "addr:housenumber": "9", "addr:postcode": "59130", "addr:street": "Urban Hj\u00e4rnes V\u00e4g", "amenity": "pharmacy", "app:apple": "https://itunes.apple.com/se/app/kronans-apotek/id1129771604?l=en", "app:google": "https://play.google.com/store/apps/details?id=se.kronansapotek.kronan", "brand": "Kronans Apotek", "check_date": "2023-07-31", "dispensing": "yes", "name": "Kronans Apotek", "operator": "Kronans Droghandel Apotek AB", "phone": "+46771612612", "website:stock": "https://www.fass.se/"}}, {"type": "node", "id": 4321260696, "lat": 58.3662705, "lon": 15.2944204, "tags": {"addr:city": "Mantorp", "addr:country": "SE", "addr:housenumber": "2", "addr:postcode": "59017", "addr:street": "Runv\u00e4gen", "amenity": "pharmacy", "app:apple": "https://itunes.apple.com/se/app/kronans-apotek/id1129771604?l=en", "app:google": "https://play.google.com/store/apps/details?id=se.kronansapotek.kronan", "brand": "Kronans apotek", "dispensing": "yes", "name": "Kronans Apotek", "opening_hours": "Mo-Fr 10:00-19:00; Sa 10:00-17:00; Su 11:00-17:00", "operator": "Kronans Droghandel Apotek AB", "phone": "+46771612612", "website": "https://www.kronansapotek.se/", "website:stock": "https://www.fass.se/", "wheelchair": "yes"}}, {"type": "node", "id": 5739071995, "lat": 58.3110221, "lon": 14.9058677}, {"type": "node", "id": 5739071996, "lat": 58.3110583, "lon": 14.9056641}, {"type": "node", "id": 5739071997, "lat": 58.311088, "lon": 14.9055014}, {"type": "node", "id": 5739071998, "lat": 58.3112563, "lon": 14.9057947}, {"type": "node", "id": 5875259916, "lat": 58.4474033, "lon": 14.8873838}, {"type": "node", "id": 5875259918, "lat": 58.4473866, "lon": 14.887677}, {"type": "node", "id": 5875259920, "lat": 58.4475148, "lon": 14.8878037}, {"type": "node", "id": 6518688938, "lat": 58.5443286, "lon": 15.0300081}, {"type": "node", "id": 6518688944, "lat": 58.5442181, "lon": 15.0302451}, {"type": "node", "id": 6518728946, "lat": 58.5450766, "lon": 15.0284979}, {"type": "node", "id": 6518728949, "lat": 58.5455429, "lon": 15.0271397}, {"type": "node", "id": 6518728950, "lat": 58.5453795, "lon": 15.0268705}, {"type": "node", "id": 6518728951, "lat": 58.5447838, "lon": 15.0259117}, {"type": "node", "id": 6708252252, "lat": 58.3885413, "lon": 15.0874271}, {"type": "node", "id": 6708252253, "lat": 58.3880822, "lon": 15.0877909}, {"type": "node", "id": 6708252254, "lat": 58.3881623, "lon": 15.0879912}, {"type": "node", "id": 6708252255, "lat": 58.3883475, "lon": 15.0878444}, {"type": "node", "id": 6708252256, "lat": 58.3883978, "lon": 15.0880745}, {"type": "node", "id": 6708252257, "lat": 58.3883144, "lon": 15.0881406}, {"type": "node", "id": 6708252258, "lat": 58.3883359, "lon": 15.0883864}, {"type": "node", "id": 6708252259, "lat": 58.3886442, "lon": 15.0881421}, {"type": "node", "id": 6708252260, "lat": 58.3886087, "lon": 15.0879798}, {"type": "node", "id": 6708252261, "lat": 58.3885112, "lon": 15.0879808}, {"type": "node", "id": 6708252262, "lat": 58.3884602, "lon": 15.0877472}, {"type": "node", "id": 6708252263, "lat": 58.3885639, "lon": 15.0876651}, {"type": "node", "id": 7551821871, "lat": 58.3885875, "lon": 15.0879966}, {"type": "node", "id": 7551821872, "lat": 58.3885733, "lon": 15.0879316}, {"type": "node", "id": 7551821873, "lat": 58.3883023, "lon": 15.0882328}, {"type": "node", "id": 7551821874, "lat": 58.3883298, "lon": 15.0882111}, {"type": "node", "id": 7551821875, "lat": 58.3881473, "lon": 15.0879228}, {"type": "node", "id": 7551821876, "lat": 58.3881164, "lon": 15.0879473}, {"type": "node", "id": 7551821877, "lat": 58.3885495, "lon": 15.0875991}, {"type": "node", "id": 7551821878, "lat": 58.3885745, "lon": 15.0875792}, {"type": "node", "id": 7757278644, "lat": 58.4465733, "lon": 14.8885649, "tags": {"amenity": "dentist", "name": "Folktandv\u00e5rden Vadstena"}}, {"type": "node", "id": 9008145606, "lat": 58.530458, "lon": 14.5153917, "tags": {"addr:city": "Karlsborg", "addr:country": "SE", "addr:housenumber": "4B", "addr:postcode": "546 30", "addr:street": "K\u00e4rleksstigen", "amenity": "clinic", "name": "N\u00e4rh\u00e4lsan Karlsborg v\u00e5rdcentral", "operator": "V\u00e4stra G\u00f6talandsregionen", "phone": "+46 505 183 00", "website": "https://www.narhalsan.se/hitta-mottagning/karlsborg/narhalsan-karlsborg-vardcentral/"}}, {"type": "node", "id": 9029777347, "lat": 58.530311, "lon": 14.5153588, "tags": {"addr:city": "Karlsborg", "addr:country": "SE", "addr:housenumber": "4B", "addr:postcode": "546 30", "addr:street": "K\u00e4rleksstigen", "amenity": "clinic", "name": "N\u00e4rh\u00e4lsan Karlsborg rehabmottagning", "operator": "V\u00e4stra G\u00f6talandsregionen", "phone": "+46 505 183 38", "website": "https://www.narhalsan.se/hitta-mottagning/karlsborg/narhalsan-karlsborg-rehabmottagning/"}}, {"type": "node", "id": 9029795184, "lat": 58.530381, "lon": 14.5153508, "tags": {"addr:city": "Karlsborg", "addr:country": "SE", "addr:housenumber": "4B", "addr:postcode": "546 30", "addr:street": "K\u00e4rleksstigen", "amenity": "clinic", "name": "N\u00e4rh\u00e4lsan Karlsborg barnav\u00e5rdscentral", "operator": "V\u00e4stra G\u00f6talandsregionen", "phone": "+46 505 183 00", "website": "https://www.narhalsan.se/hitta-mottagning/karlsborg/narhalsan-karlsborg-barnavardscentral/"}}, {"type": "node", "id": 11099430528, "lat": 58.3261369, "lon": 15.1263222, "tags": {"amenity": "clinic", "fixme": "Inte exakt placering, flytta till r\u00e4tt plats i gallerian", "name": "Familjel\u00e4karna"}}, {"type": "node", "id": 11099430540, "lat": 58.3262701, "lon": 15.1282727, "tags": {"amenity": "dentist", "name": "Svart\u00e5 tandklinik"}}, {"type": "node", "id": 11099430551, "lat": 58.3264366, "lon": 15.1256253, "tags": {"amenity": "pharmacy", "fixme": "Inte exakt placering, flytta till r\u00e4tt plats i gallerian", "name": "Kronans apotek"}}, {"type": "node", "id": 11254889606, "lat": 58.3883114, "lon": 15.0877929, "tags": {"amenity": "hospital", "healthcare": "hospital", "name": "V\u00e5rdcentralen"}}, {"type": "way", "id": 162837811, "nodes": [6518728949, 6518728950, 6518728951, 1746045652, 1746535301, 1746535295, 2030160640, 2030160634, 1746535298, 1746535294, 6518688944, 6518688938, 1746535296, 2069048910, 1746045658, 6518728946, 1746045584, 1746045599, 6518728949], "tags": {"amenity": "hospital", "emergency": "yes", "health_specialty:emergency_medicine": "yes", "health_specialty:family_medicine": "yes", "health_specialty:intensive_care_medicine": "no", "health_specialty:orthopaedics": "yes", "health_specialty:surgery": "yes", "name": "Lasarettet i Motala", "website": "https://www.regionostergotland.se/Halsa-och-vard/Vara-sjukhus/Lasarettet-i-Motala/", "wikidata": "Q76448896"}}, {"type": "way", "id": 170696944, "nodes": [1818529682, 5739071995, 1818529672, 5739071998, 5739071996, 5739071997, 1818529717, 1818529684, 1818529682], "tags": {"amenity": "veterinary", "building": "yes", "source": "Bing"}}, {"type": "way", "id": 189602676, "nodes": [2001891530, 2001891533, 2001891534, 2001891535, 2001891530], "tags": {"amenity": "clinic", "building": "yes", "emergency": "no", "name": "Brinkens V\u00e5rdcentral"}}, {"type": "way", "id": 195587513, "nodes": [1687591283, 459849755, 1708425394, 2060084002, 1821978422, 2060084009, 1687591296, 2060084005, 1719523765, 1689323845, 1687591283], "tags": {"amenity": "dentist"}}, {"type": "way", "id": 221892858, "nodes": [2308755824, 2308755803, 2308755817, 2308755813, 2308755822, 2308755830, 2308755824], "tags": {"amenity": "clinic", "building": "hospital", "name": "V\u00e5rdcentralen Mj\u00f6lby", "source": "Bing"}}, {"type": "way", "id": 272561863, "nodes": [2775037112, 2775037113, 2775037114, 5875259920, 2775037107, 2775037108, 5875259918, 2775037104, 5875259916, 2775037099, 2775037112], "tags": {"addr:city": "Vadstena", "addr:country": "SE", "addr:housenumber": "7", "addr:postcode": "592 30", "addr:street": "R\u00e5dhustorget", "amenity": "pharmacy", "app:apk": "se.apoteket.recept", "app:apple": "https://itunes.apple.com/se/app/mitt-apotek/id1053398061", "branch": "Apoteket \u00d6rnen", "brand": "Apoteket", "building": "yes", "name": "Apoteket", "operator": "Apoteket AB (556138-6532)", "owner": "Svenska Staten", "ownership": "national", "phone": "+46771450450", "website:stock": "https://www.fass.se/"}}, {"type": "way", "id": 347273074, "nodes": [3536189453, 3536189459, 3536189449, 3536189477, 3536189471, 3536189423, 3536189271, 3536189291, 3536189453], "tags": {"amenity": "clinic"}}, {"type": "way", "id": 349921345, "nodes": [3557089115, 3557089114, 3557089112, 3557089111, 3557089113, 3557089115], "tags": {"amenity": "hospital"}}, {"type": "way", "id": 713462776, "nodes": [6708252252, 6708252253, 7551821876, 7551821875, 6708252254, 6708252255, 6708252256, 6708252257, 7551821874, 7551821873, 6708252258, 6708252259, 6708252260, 7551821871, 7551821872, 6708252261, 6708252262, 6708252263, 7551821877, 7551821878, 6708252252], "tags": {"addr:street": "Mj\u00f6lbygatan", "amenity": "clinic", "building": "hospital", "healthcare": "clinic", "name": "V\u00e5rdcentralen", "operator": "Region \u00d6sterg\u00f6tland", "operator:type": "public"}}]}