{"version": 0.6, "generator": "Overpass API 0.7.61.5 4133829e", "osm3s": {"timestamp_osm_base": "2024-03-08T20:57:30Z", "copyright": "The data included in this document is from www.openstreetmap.org. The data is made available under ODbL."}, "elements": [{"type": "node", "id": 593983999, "lat": 56.8362331, "lon": 13.9338873, "tags": {"amenity": "clinic", "name": "V\u00e5rdcentral Kungsh\u00f6gen"}}, {"type": "node", "id": 593984008, "lat": 56.836397, "lon": 13.934366, "tags": {"amenity": "clinic", "name": "V\u00e5rdcentral Sl\u00e4ndan"}}, {"type": "node", "id": 773589653, "lat": 56.8343207, "lon": 13.9406751, "tags": {"addr:country": "SE", "addr:housenumber": "5", "addr:street": "Eskilsgatan", "amenity": "pharmacy", "app:apk": "se.apoteket.recept", "app:apple": "https://itunes.apple.com/se/app/mitt-apotek/id1053398061", "branch": "Apoteket Kronan", "brand": "Apoteket", "healthcare": "pharmacy", "name": "Apoteket Kronan", "opening_hours": "Mo-Fr 09:00-18:00; Sa 09:00-14:00; PH,Su off", "operator": "Apoteket AB (556138-6532)", "owner": "Svenska Staten", "ownership": "national", "phone": "+46771450450", "website:stock": "https://www.fass.se/", "wheelchair": "yes"}}, {"type": "node", "id": 773589683, "lat": 56.8364232, "lon": 13.9350468, "tags": {"addr:country": "SE", "addr:housenumber": "19", "addr:street": "Storgatan", "amenity": "dentist", "brand": "Folktandv\u00e5rden", "brand:wikidata": "Q10497476", "brand:wikipedia": "sv:Folktandv\u00e5rden", "name": "Folktandv\u00e5rden"}}, {"type": "node", "id": 775282464, "lat": 56.8428947, "lon": 13.9465803, "tags": {"amenity": "dentist", "name": "Solrosen"}}, {"type": "node", "id": 957688611, "lat": 56.8398749, "lon": 13.9231956, "tags": {"amenity": "dentist"}}, {"type": "node", "id": 3817836309, "lat": 56.5558141, "lon": 14.1439435}, {"type": "node", "id": 3817836311, "lat": 56.5558617, "lon": 14.1441265}, {"type": "node", "id": 3817836319, "lat": 56.5560026, "lon": 14.1437824}, {"type": "node", "id": 3817836321, "lat": 56.5560501, "lon": 14.1439653}, {"type": "node", "id": 4171913243, "lat": 56.836205, "lon": 13.9326559}, {"type": "node", "id": 4171913248, "lat": 56.8363706, "lon": 13.9331507}, {"type": "node", "id": 4171929098, "lat": 56.8360914, "lon": 13.9327035}, {"type": "node", "id": 4171929104, "lat": 56.8354107, "lon": 13.9336992}, {"type": "node", "id": 4171929130, "lat": 56.8360605, "lon": 13.932762}, {"type": "node", "id": 4171929132, "lat": 56.8355291, "lon": 13.9346782}, {"type": "node", "id": 4171929133, "lat": 56.8359729, "lon": 13.9347437}, {"type": "node", "id": 4172269890, "lat": 56.8352476, "lon": 13.9371394}, {"type": "node", "id": 4172269892, "lat": 56.8355218, "lon": 13.937498}, {"type": "node", "id": 4172269893, "lat": 56.8356051, "lon": 13.9375104}, {"type": "node", "id": 4172269894, "lat": 56.8357484, "lon": 13.9373595}, {"type": "node", "id": 4172269895, "lat": 56.8359739, "lon": 13.9370999}, {"type": "node", "id": 4172269898, "lat": 56.8360662, "lon": 13.9370328}, {"type": "node", "id": 4172269900, "lat": 56.8366886, "lon": 13.9365637}, {"type": "node", "id": 4217429499, "lat": 56.8364438, "lon": 13.9333343}, {"type": "node", "id": 4217429500, "lat": 56.8364849, "lon": 13.9334865}, {"type": "node", "id": 4217429501, "lat": 56.8365692, "lon": 13.93379}, {"type": "node", "id": 4217429502, "lat": 56.8366669, "lon": 13.9341859}, {"type": "node", "id": 4217429503, "lat": 56.8367091, "lon": 13.9343477}, {"type": "node", "id": 4217429504, "lat": 56.8367167, "lon": 13.9344309}, {"type": "node", "id": 4217429513, "lat": 56.8361843, "lon": 13.9325944}, {"type": "node", "id": 4222947481, "lat": 56.8307688, "lon": 13.9483975}, {"type": "node", "id": 4222947482, "lat": 56.8308433, "lon": 13.9480944}, {"type": "node", "id": 4222947483, "lat": 56.8307588, "lon": 13.948025}, {"type": "node", "id": 4222947484, "lat": 56.8306843, "lon": 13.9483282}, {"type": "node", "id": 4223395070, "lat": 56.8177812, "lon": 13.905734}, {"type": "node", "id": 4223395071, "lat": 56.8176858, "lon": 13.9051651}, {"type": "node", "id": 4223395072, "lat": 56.8174948, "lon": 13.9052721}, {"type": "node", "id": 4223395073, "lat": 56.8175441, "lon": 13.9055659}, {"type": "node", "id": 4223395074, "lat": 56.8175779, "lon": 13.9055469}, {"type": "node", "id": 4223395075, "lat": 56.8176241, "lon": 13.905822}, {"type": "node", "id": 4359316261, "lat": 56.7863839, "lon": 14.4518335, "tags": {"amenity": "pharmacy", "website:stock": "https://www.fass.se/"}}, {"type": "node", "id": 4725936848, "lat": 56.8143656, "lon": 13.907245, "tags": {"amenity": "pharmacy", "drive_through": "no", "healthcare": "pharmacy", "name": "LloydsApotek", "operator": "LloydsApotek AB", "owner": "Admenta Sweden AB", "ownership": "private", "website:stock": "https://www.fass.se/", "wikipedia": "sv:LloydsApotek"}}, {"type": "node", "id": 4725936850, "lat": 56.8346013, "lon": 13.9439746, "tags": {"amenity": "pharmacy", "app:apple": "https://itunes.apple.com/se/app/apotek-hj%C3%A4rtat-n%C3%A4ra-dig/id1150817089", "app:google": "https://play.google.com/store/apps/details?id=com.presencekit.apotek.se&hl=en_US", "brand": "Apotek Hj\u00e4rtat", "brand:wikidata": "Q10416114", "brand:wikipedia": "sv:Apotek Hj\u00e4rtat", "healthcare": "pharmacy", "name": "Apotek Hj\u00e4rtat", "opening_hours": "Mo-Su 08:00-20:00", "operator": "Apotek Hj\u00e4rtat Retail AB", "owner": "ICA Gruppen AB", "ownership": "private", "phone": "+46771405405", "website:stock": "https://www.fass.se/", "wheelchair": "yes"}}, {"type": "node", "id": 5359864880, "lat": 56.5556914, "lon": 14.1441984}, {"type": "node", "id": 5359864881, "lat": 56.5557246, "lon": 14.144324}, {"type": "node", "id": 5359864882, "lat": 56.5556027, "lon": 14.1444301}, {"type": "node", "id": 5359864883, "lat": 56.5555945, "lon": 14.1443988}, {"type": "node", "id": 5359864884, "lat": 56.555532, "lon": 14.1444531}, {"type": "node", "id": 5359864885, "lat": 56.5554771, "lon": 14.1442455}, {"type": "node", "id": 5359864886, "lat": 56.5555519, "lon": 14.1441804}, {"type": "node", "id": 5359864887, "lat": 56.5555818, "lon": 14.1442938}, {"type": "node", "id": 5718885043, "lat": 56.8354721, "lon": 13.9344885}, {"type": "node", "id": 5887702198, "lat": 56.8361686, "lon": 13.9324075}, {"type": "node", "id": 5887702206, "lat": 56.8345282, "lon": 13.9361988}, {"type": "node", "id": 5887702209, "lat": 56.8344776, "lon": 13.9360097}, {"type": "node", "id": 5887702210, "lat": 56.8346096, "lon": 13.935602}, {"type": "node", "id": 5887702211, "lat": 56.8348334, "lon": 13.9342448}, {"type": "node", "id": 5887702227, "lat": 56.8351393, "lon": 13.9341281}, {"type": "node", "id": 5887702228, "lat": 56.8352582, "lon": 13.9340208}, {"type": "node", "id": 5887702229, "lat": 56.8353323, "lon": 13.9338867}, {"type": "node", "id": 6103232205, "lat": 56.8348684, "lon": 13.9353894, "tags": {"amenity": "pharmacy", "brand": "Apotek Hj\u00e4rtat", "brand:wikidata": "Q10416114", "brand:wikipedia": "sv:Apotek Hj\u00e4rtat", "dispensing": "yes", "healthcare": "pharmacy", "name": "Apotek Hj\u00e4rtat", "owner": "V\u00e5rdapoteket i Norden AB", "ownership": "private", "source:owner": "wikipedia", "website:stock": "https://www.fass.se/", "wikipedia": "sv:V\u00e5rdapoteket i Norden"}}, {"type": "node", "id": 6504255381, "lat": 56.8370379, "lon": 13.9363354}, {"type": "node", "id": 6504255383, "lat": 56.8367673, "lon": 13.9346775}, {"type": "node", "id": 6504255487, "lat": 56.8354169, "lon": 13.9337794}, {"type": "node", "id": 6522048004, "lat": 56.5520798, "lon": 14.1407869, "tags": {"amenity": "pharmacy", "brand": "Apotek Hj\u00e4rtat", "brand:wikidata": "Q10416114", "brand:wikipedia": "sv:Apotek Hj\u00e4rtat", "dispensing": "yes", "healthcare": "pharmacy", "name": "Apotek Hj\u00e4rtat"}}, {"type": "node", "id": 7422330571, "lat": 56.8364347, "lon": 13.9319819}, {"type": "node", "id": 7422330572, "lat": 56.8366198, "lon": 13.931686}, {"type": "node", "id": 7422330574, "lat": 56.8363796, "lon": 13.9310936}, {"type": "node", "id": 7422330576, "lat": 56.8362736, "lon": 13.9304267}, {"type": "node", "id": 7422330578, "lat": 56.8357409, "lon": 13.9307646}, {"type": "node", "id": 7422330579, "lat": 56.8356808, "lon": 13.9308746}, {"type": "node", "id": 7422340125, "lat": 56.8364133, "lon": 13.9312219}, {"type": "node", "id": 7603485645, "lat": 56.8322258, "lon": 13.9411631, "tags": {"amenity": "clinic", "healthcare": "clinic", "healthcare:speciality": "maternity", "name": "Barnmorskemottagning", "operator": "Region Kronoberg", "operator:type": "government"}}, {"type": "node", "id": 7603485646, "lat": 56.8319039, "lon": 13.9409512, "tags": {"amenity": "clinic", "healthcare": "clinic", "healthcare:speciality": "youth", "name": "Ungdomsmottagning", "opening_hours:covid19": "restricted; no drop-in", "operator": "Region Kronoberg", "operator:type": "government", "phone": "+46 372 58 58 40", "website": "https://www.umo.se/hitta-mottagning/kontaktkort/Ungdomsmottagningen-Ljungby/"}}, {"type": "node", "id": 7707964323, "lat": 56.833712, "lon": 13.9377271, "tags": {"addr:city": "Ljungby", "addr:country": "SE", "addr:housenumber": "9", "addr:street": "Storgatan", "amenity": "dentist", "healthcare": "dentist", "name": "Sunnerbotandl\u00e4karna", "opening_hours": "Mo-Th 07:30-17:00; Fr 07:30-12:00", "website": "https://www.1177.se/Kronoberg/hitta-vard/kontaktkort/Sunnerbotandlakarna-Tandlakare-Anna-Berg-Ljungby/"}}, {"type": "node", "id": 9901956676, "lat": 56.8370219, "lon": 13.9363975}, {"type": "node", "id": 11608864215, "lat": 56.8368449, "lon": 13.9364857}, {"type": "node", "id": 11608864241, "lat": 56.8368576, "lon": 13.9351721}, {"type": "node", "id": 11608864244, "lat": 56.8368723, "lon": 13.9352476}, {"type": "node", "id": 11608892426, "lat": 56.8370268, "lon": 13.9362626}, {"type": "node", "id": 11608892431, "lat": 56.8370354, "lon": 13.9363187}, {"type": "node", "id": 11608892433, "lat": 56.8370347, "lon": 13.9363144}, {"type": "node", "id": 11608892439, "lat": 56.8370358, "lon": 13.9363213}, {"type": "way", "id": 378370252, "nodes": [3817836321, 3817836311, 3817836309, 3817836319, 3817836321], "tags": {"amenity": "veterinary", "building": "yes", "name": "\u00c4lmhults Veterin\u00e4rklinik"}}, {"type": "way", "id": 416456880, "nodes": [5887702209, 5887702206, 4172269890, 4172269892, 4172269893, 4172269894, 4172269895, 4172269898, 4172269900, 11608864215, 9901956676, 6504255381, 11608892439, 11608892431, 11608892433, 11608892426, 11608864244, 11608864241, 6504255383, 4217429504, 4217429503, 4217429502, 4217429501, 4217429500, 4217429499, 4171913248, 4171913243, 4217429513, 4171929098, 4171929130]}, {"type": "way", "id": 422539153, "nodes": [4222947481, 4222947482, 4222947483, 4222947484, 4222947481], "tags": {"addr:city": "Ljungby", "addr:country": "SE", "addr:housenumber": "36", "addr:street": "Storgatan", "amenity": "clinic", "building": "yes", "healthcare": "clinic", "healthcare:speciality": "drug_addicted;psychiatry", "name": "Integrerad missbruks- och beroendemottagning", "operator": "Region Kronoberg", "operator:type": "government", "social_facility:for": "drug_addicted"}}, {"type": "way", "id": 422593159, "nodes": [4223395070, 4223395071, 4223395072, 4223395073, 4223395074, 4223395075, 4223395070], "tags": {"addr:city": "Ljungby", "addr:country": "SE", "addr:housenumber": "9", "addr:postcode": "341 32", "addr:street": "Ringv\u00e4gen", "amenity": "veterinary", "building": "yes", "name": "Ljungby Sm\u00e5djursklinik"}}, {"type": "way", "id": 427437106, "nodes": [5887702198, 7422330571, 7422330572, 7422340125, 7422330574, 7422330576, 7422330578, 7422330579, 5887702198]}, {"type": "way", "id": 555563745, "nodes": [5359864880, 5359864881, 5359864882, 5359864883, 5359864884, 5359864885, 5359864886, 5359864887, 5359864880], "tags": {"amenity": "dentist", "building": "yes", "healthcare": "dentist"}}, {"type": "way", "id": 623431607, "nodes": [4171929104, 5887702229, 5887702228, 5887702227, 5887702211, 5887702210, 5887702209]}, {"type": "way", "id": 629124677, "nodes": [4171929130, 4171929133, 4171929132, 5718885043, 6504255487, 4171929104]}, {"type": "relation", "id": 6359614, "members": [{"type": "way", "ref": 416456880, "role": "outer"}, {"type": "way", "ref": 629124677, "role": "outer"}, {"type": "way", "ref": 623431607, "role": "outer"}, {"type": "way", "ref": 427437106, "role": "outer"}], "tags": {"amenity": "hospital", "emergency": "yes", "health_specialty:emergency_medicine": "yes", "health_specialty:family_medicine": "yes", "health_specialty:intensive_care_medicine": "yes", "health_specialty:orthopaedics": "yes", "health_specialty:surgery": "yes", "healthcare": "hospital", "healthcare:speciality": "general;emergency", "name": "Ljungby Lasarett", "name:en": "Ljungby Hospital", "name:sv": "Lasarettet Ljungby", "opening_hours": "24/7", "operator": "Region Kronoberg", "type": "multipolygon", "wikidata": "Q56248604"}}]}