{"version": 0.6, "generator": "Overpass API 0.7.61.5 4133829e", "osm3s": {"timestamp_osm_base": "2024-03-08T21:17:56Z", "copyright": "The data included in this document is from www.openstreetmap.org. The data is made available under ODbL."}, "elements": [{"type": "node", "id": 567188763, "lat": 57.6661407, "lon": 14.9720987, "tags": {"amenity": "atm", "brand": "Bankomat", "brand:wikipedia": "sv:Bankomat", "operator": "Bankomat AB"}}, {"type": "node", "id": 724307774, "lat": 57.4012405, "lon": 14.6653275, "tags": {"amenity": "atm", "brand": "Bankomat", "brand:wikipedia": "sv:Bankomat", "ele": "220.8", "operator": "Bankomat AB"}}, {"type": "node", "id": 724307779, "lat": 57.4012004, "lon": 14.6652976, "tags": {"addr:country": "SE", "addr:housenumber": "18", "addr:street": "\u00d6stra J\u00e4rnv\u00e4gsgatan", "amenity": "bank", "brand": "Swedbank", "brand:wikidata": "Q1145493", "brand:wikipedia": "sv:Swedbank", "ele": "220.0", "name": "Swedbank", "operator": "Swedbank"}}, {"type": "node", "id": 724307793, "lat": 57.4006979, "lon": 14.6663468, "tags": {"addr:country": "SE", "addr:housenumber": "10", "addr:street": "Storgatan", "amenity": "bank", "brand": "Handelsbanken", "brand:wikidata": "Q1421630", "brand:wikipedia": "sv:Handelsbanken", "ele": "243.3", "name": "Handelsbanken"}}, {"type": "node", "id": 724307801, "lat": 57.4006435, "lon": 14.6675144, "tags": {"amenity": "atm", "ele": "227.1"}}, {"type": "node", "id": 1894209903, "lat": 57.6527407, "lon": 14.6977297, "tags": {"amenity": "atm", "brand": "Bankomat", "brand:wikipedia": "sv:Bankomat", "operator": "Bankomat AB"}}, {"type": "node", "id": 1898766886, "lat": 57.6531339, "lon": 14.6958709, "tags": {"amenity": "atm", "brand": "Bankomat", "brand:wikipedia": "sv:Bankomat", "operator": "Bankomat AB", "source": "local_knowledge"}}, {"type": "node", "id": 2397085896, "lat": 57.670608, "lon": 14.970411, "tags": {"amenity": "atm"}}, {"type": "node", "id": 2626409388, "lat": 57.6662096, "lon": 14.9721303, "tags": {"amenity": "bank", "brand": "Swedbank", "brand:wikidata": "Q1145493", "brand:wikipedia": "sv:Swedbank", "name": "Swedbank"}}, {"type": "node", "id": 3194810666, "lat": 57.4256341, "lon": 15.0875538}, {"type": "node", "id": 3194810667, "lat": 57.4254873, "lon": 15.0876909}, {"type": "node", "id": 3194887536, "lat": 57.4253825, "lon": 15.087575}, {"type": "node", "id": 3194887537, "lat": 57.4254286, "lon": 15.0877457}, {"type": "node", "id": 3211775373, "lat": 57.4255879, "lon": 15.0873832}, {"type": "node", "id": 3678276441, "lat": 57.6489677, "lon": 14.7012375, "tags": {"amenity": "atm"}}, {"type": "node", "id": 4110270098, "lat": 57.427844, "lon": 15.0545482, "tags": {"amenity": "payment_terminal", "note": "payment terminal for use of tokens in \"M\u00e4stertv\u00e4tten\" do it yourself car wash", "payment:mastercard": "yes", "payment:visa": "yes"}}, {"type": "node", "id": 4245134789, "lat": 57.6526816, "lon": 14.6975476, "tags": {"addr:street": "Stortorget", "amenity": "bank", "brand": "Swedbank", "brand:wikidata": "Q1145493", "brand:wikipedia": "sv:Swedbank", "name": "Swedbank"}}, {"type": "node", "id": 5838598618, "lat": 57.4271605, "lon": 15.0835953, "tags": {"addr:city": "Vetlanda", "addr:country": "SE", "addr:housenumber": "1B", "addr:postcode": "57432", "addr:street": "Stationsgatan", "amenity": "bank", "atm": "no", "bic": "NDEASESS", "branch": "Nordea Bank AB", "brand": "Nordea", "brand:wikidata": "Q1123823", "brand:wikipedia": "sv:Nordea", "name": "Nordea", "source": "local knowledge", "wheelchair": "yes"}}, {"type": "way", "id": 313493327, "nodes": [3194810667, 3194810666, 3211775373, 3194887536, 3194887537, 3194810667], "tags": {"amenity": "bank", "atm": "yes", "brand": "SEB", "brand:wikidata": "Q975655", "brand:wikipedia": "sv:Skandinaviska Enskilda Banken", "building": "yes", "building:levels": "3", "building:material": "plaster", "colour": "yellow", "name": "SEB", "operator": "SEB", "roof:colour": "green", "roof:levels": "1", "roof:material": "copper", "roof:shape": "saltbox"}}]}