{"version": 0.6, "generator": "Overpass API 0.7.61.5 4133829e", "osm3s": {"timestamp_osm_base": "2024-03-08T21:11:44Z", "copyright": "The data included in this document is from www.openstreetmap.org. The data is made available under ODbL."}, "elements": [{"type": "node", "id": 35176941, "lat": 60.4853999, "lon": 15.4329406, "tags": {"addr:city": "Borl\u00e4nge", "addr:country": "SE", "addr:housenumber": "28", "addr:postcode": "784 33", "addr:street": "Borgan\u00e4sv\u00e4gen", "amenity": "restaurant", "name": "My Mix"}}, {"type": "node", "id": 35176945, "lat": 60.4854712, "lon": 15.4329621, "tags": {"amenity": "restaurant", "cuisine": "thai", "name": "Agnes Thai Restaurant"}}, {"type": "node", "id": 35176946, "lat": 60.4856585, "lon": 15.4332055, "tags": {"amenity": "restaurant", "name": "House of Blues", "old_name": "Restaurang Saga;Klin"}}, {"type": "node", "id": 35176976, "lat": 60.4859178, "lon": 15.4340462, "tags": {"amenity": "restaurant", "created_by": "JOSM", "cuisine": "thai", "indoor_seating": "yes", "name": "Restaurang Thai & Sushi", "opening_hours": "Mo-Th 11:00-20:30; Fr 11:00-21:00; Sa 11:30-21:30", "outdoor_seating": "no"}}, {"type": "node", "id": 35176980, "lat": 60.4858403, "lon": 15.4341957, "tags": {"addr:city": "Borl\u00e4nge", "addr:country": "SE", "addr:housenumber": "12A", "addr:postcode": "784 33", "addr:street": "M\u00e5laregatan", "amenity": "restaurant", "cuisine": "chinese", "name": "Golden Palace", "opening_hours": "Tu 11:00-20:00; We,Th 11:00-21:00; Fr 11:00-22:00; Sa 13:00-22:00; Su 13:00-20:00", "phone": "+46-243-19610"}}, {"type": "node", "id": 35176985, "lat": 60.4867252, "lon": 15.4342479, "tags": {"amenity": "cafe", "name": "Bok & Caf\u00e9 Emmanuel"}}, {"type": "node", "id": 35176991, "lat": 60.4869071, "lon": 15.4343677, "tags": {"addr:city": "Borl\u00e4nge", "addr:country": "SE", "addr:housenumber": "43", "addr:postcode": "784 33", "addr:street": "Borgan\u00e4sv\u00e4gen", "amenity": "restaurant", "indoor_seating": "yes", "name": "Blackstone Steakhouse", "old_name": "Dublins;Stella Blue;Restaurang Limit;La Coya Tapas & Steakhouse", "opening_hours": "Mo-Fr 16:00-23:00; Sa 13:00-23:00; Su 16:00-23:00", "outdoor_seating": "yes", "phone": "+46-243-12227"}}, {"type": "node", "id": 35176997, "lat": 60.4867501, "lon": 15.4348543, "tags": {"addr:city": "Borl\u00e4nge", "addr:country": "SE", "addr:housenumber": "2", "addr:postcode": "784 33", "addr:street": "Vattugatan", "amenity": "restaurant", "cuisine": "thai", "indoor_seating": "yes", "name": "Coco Thai Restaurang", "not:brand:wikidata": "Q65084369", "opening_hours": "Mo-Th 11:00-21:00; Fr 11:00-21:30; Sa 12:00-21:30; Su 12:00-21:00", "outdoor_seating": "no", "phone": "0243-88445"}}, {"type": "node", "id": 35177002, "lat": 60.4874761, "lon": 15.4339143, "tags": {"addr:city": "Borl\u00e4nge", "addr:country": "SE", "addr:housenumber": "17", "addr:postcode": "784 33", "addr:street": "Sveagatan", "amenity": "restaurant", "cuisine": "italian", "indoor_seating": "yes", "name": "Restaurang Basta", "opening_hours": "Mo 16:00-22:00; Tu-Th 16:00-23:00; Fr,Sa 11:30-24:00; Su 12:00-21:30", "outdoor_seating": "yes", "website": "https://www.restaurangbasta.se/"}}, {"type": "node", "id": 35177004, "lat": 60.4875064, "lon": 15.4351055, "tags": {"addr:city": "Borl\u00e4nge", "addr:country": "SE", "addr:housenumber": "48", "addr:postcode": "784 33", "addr:street": "Borgan\u00e4sv\u00e4gen", "amenity": "restaurant", "name": "Pinchos", "phone": "+46-243-15934", "website": "https://www.pinchos.se/"}}, {"type": "node", "id": 35177010, "lat": 60.487734, "lon": 15.434341, "tags": {"addr:city": "Borl\u00e4nge", "addr:country": "SE", "addr:housenumber": "19", "addr:postcode": "784 33", "addr:street": "Sveagatan", "amenity": "restaurant", "cuisine": "pizza", "indoor_seating": "yes", "name": "Sve\u00e1s bistro", "old_name": "Pizzeria Luna", "opening_hours": "Mo-Th 11:00-21:00; Fr,Sa 11:00-22:00", "outdoor_seating": "no", "phone": "+46 243 144 64", "short_name": "Luna", "website": "https://www.sveasbistro.se"}}, {"type": "node", "id": 110989809, "lat": 60.4856153, "lon": 15.4325628, "tags": {"amenity": "cafe", "name": "Cafe Caal"}}, {"type": "node", "id": 110989814, "lat": 60.4851462, "lon": 15.4334395, "tags": {"amenity": "restaurant", "cuisine": "greek", "indoor_seating": "yes", "name": "Rhodos", "old_name": "Lilla Krogen;Kalles krog", "opening_hours": "Mo-Th 11:00-21:00; Fr 11:00-22:00; Sa 12:00-22:00; Su 12:00-21:00", "outdoor_seating": "yes"}}, {"type": "node", "id": 322587020, "lat": 60.5140885, "lon": 15.7145439, "tags": {"amenity": "restaurant", "name": "Vika n\u00e4ra", "shop": "convenience"}}, {"type": "node", "id": 413703467, "lat": 60.5076238, "lon": 15.5530741, "tags": {"amenity": "cafe", "name": "Orn\u00e4sstugan"}}, {"type": "node", "id": 413770747, "lat": 60.4630439, "lon": 15.5686968, "tags": {"amenity": "cafe", "name": "Tors\u00e5ngs Caf\u00e9", "phone": "+46-243-60014", "website": "https://torsangscafe.n.nu/"}}, {"type": "node", "id": 426613534, "lat": 60.5157056, "lon": 15.4060202, "tags": {"alt_name": "Kvarnsveden krog", "amenity": "restaurant", "contact:website": "http://www.akropolisiborlange.se", "cuisine": "pizza", "name": "Akropolis", "payment:cash": "yes"}}, {"type": "node", "id": 426614571, "lat": 60.5160427, "lon": 15.4148025, "tags": {"amenity": "restaurant", "cuisine": "pizza", "name": "Helenas restaurant"}}, {"type": "node", "id": 458444139, "lat": 60.4991437, "lon": 15.4580332, "tags": {"addr:city": "Borl\u00e4nge", "addr:country": "SE", "addr:housenumber": "3", "addr:street": "Faluv\u00e4gen", "amenity": "restaurant", "cuisine": "pizza", "indoor_seating": "yes", "name": "K\u00f6nigsee Pizzeria", "outdoor_seating": "yes", "phone": "+46-243-211780"}}, {"type": "node", "id": 497120465, "lat": 60.6104792, "lon": 15.6322317, "tags": {"amenity": "restaurant", "check_date:opening_hours": "2023-06-22", "cuisine": "pizza;salad;kebab", "name": "Falu Salladsbar", "opening_hours": "Mo-Th 11:00-21:00; Fr 11:00-22:00; Sa 12:00-22:00; Su 12:00-21:00", "phone": "+46 23 120 87"}}, {"type": "node", "id": 556146031, "lat": 60.5625877, "lon": 15.7798633}, {"type": "node", "id": 556146047, "lat": 60.5622309, "lon": 15.7800406}, {"type": "node", "id": 556146062, "lat": 60.5622091, "lon": 15.7798593}, {"type": "node", "id": 556146071, "lat": 60.5620678, "lon": 15.7799295}, {"type": "node", "id": 556146083, "lat": 60.5621206, "lon": 15.7803689}, {"type": "node", "id": 556146095, "lat": 60.5626186, "lon": 15.7801215}, {"type": "node", "id": 600401326, "lat": 60.4822474, "lon": 15.4285853, "tags": {"addr:city": "Borl\u00e4nge", "addr:country": "SE", "addr:housenumber": "1", "addr:street": "Tunagatan", "amenity": "restaurant", "name": "Broken Dreams", "phone": "+46-243-217431", "website": "https://www.brokendreams.se/"}}, {"type": "node", "id": 694345247, "lat": 60.6065769, "lon": 15.65153}, {"type": "node", "id": 694345248, "lat": 60.6068317, "lon": 15.6521009}, {"type": "node", "id": 694345249, "lat": 60.6068857, "lon": 15.6520512}, {"type": "node", "id": 694345250, "lat": 60.6069316, "lon": 15.6521492}, {"type": "node", "id": 694345251, "lat": 60.6070388, "lon": 15.6519555}, {"type": "node", "id": 694345252, "lat": 60.6069154, "lon": 15.6516176}, {"type": "node", "id": 694345253, "lat": 60.6069418, "lon": 15.6515694}, {"type": "node", "id": 694345254, "lat": 60.6067718, "lon": 15.6511769}, {"type": "node", "id": 715555101, "lat": 60.5108574, "lon": 15.5676465}, {"type": "node", "id": 715555102, "lat": 60.5108141, "lon": 15.5679061}, {"type": "node", "id": 715555104, "lat": 60.5109688, "lon": 15.5680128}, {"type": "node", "id": 715555107, "lat": 60.5110013, "lon": 15.5678184}, {"type": "node", "id": 742413792, "lat": 60.5009451, "lon": 15.4557629, "tags": {"amenity": "restaurant", "cuisine": "pizza", "name": "Kak\u00e5 Pizzeria"}}, {"type": "node", "id": 742494368, "lat": 60.4823274, "lon": 15.4307555, "tags": {"amenity": "restaurant", "check_date:opening_hours": "2024-03-07", "cuisine": "italian;pizza", "indoor_seating": "yes", "name": "Restaurang La Cantina", "opening_hours:signed": "no", "outdoor_seating": "no"}}, {"type": "node", "id": 821435050, "lat": 60.5971197, "lon": 15.6539581, "tags": {"addr:city": "Falun", "addr:country": "SE", "addr:housenumber": "10", "addr:postcode": "791 42", "addr:street": "Strandv\u00e4gen", "amenity": "cafe", "indoor_seating": "no", "name": "Caf\u00e9 Slussvaktarn", "outdoor_seating": "yes", "phone": "+46 23 252 84", "website": "https://www.slussvaktarn.se/"}}, {"type": "node", "id": 872112822, "lat": 60.6005716, "lon": 15.6183738}, {"type": "node", "id": 872112827, "lat": 60.6006278, "lon": 15.6185785}, {"type": "node", "id": 872112835, "lat": 60.6006822, "lon": 15.6185165}, {"type": "node", "id": 872112840, "lat": 60.6006261, "lon": 15.6183118}, {"type": "node", "id": 919833442, "lat": 60.4960238, "lon": 15.438855, "tags": {"addr:city": "Borl\u00e4nge", "addr:housenumber": "2", "addr:postcode": "784 44", "addr:street": "Gammelg\u00e5rdsv\u00e4gen", "amenity": "cafe", "name": "Gammelg\u00e5rdens Caf\u00e9", "outdoor_seating": "yes"}}, {"type": "node", "id": 933888416, "lat": 60.4735862, "lon": 15.4590919, "tags": {"addr:city": "Borl\u00e4nge", "addr:country": "SE", "addr:housenumber": "22", "addr:postcode": "784 37", "addr:street": "Gyllehemsv\u00e4gen", "amenity": "restaurant", "brand": "Br\u00f6dernas", "cuisine": "burger", "name": "Br\u00f6dernas", "old_name": "Borl\u00e4nge V\u00e4rdshus", "website": "https://www.brodernas.nu"}}, {"type": "node", "id": 1020942063, "lat": 60.6006263, "lon": 15.616219}, {"type": "node", "id": 1020942072, "lat": 60.6004783, "lon": 15.6163919}, {"type": "node", "id": 1020942144, "lat": 60.6005761, "lon": 15.6160409}, {"type": "node", "id": 1020942652, "lat": 60.6004281, "lon": 15.6162139}, {"type": "node", "id": 1033178867, "lat": 60.5923261, "lon": 15.6390532}, {"type": "node", "id": 1033178869, "lat": 60.5920233, "lon": 15.6392296}, {"type": "node", "id": 1033178870, "lat": 60.5920713, "lon": 15.6391142}, {"type": "node", "id": 1033178873, "lat": 60.5922662, "lon": 15.6393437}, {"type": "node", "id": 1033178876, "lat": 60.5920445, "lon": 15.6390705}, {"type": "node", "id": 1033178886, "lat": 60.5923455, "lon": 15.6390036}, {"type": "node", "id": 1033178899, "lat": 60.5921899, "lon": 15.6393072}, {"type": "node", "id": 1033178911, "lat": 60.5922122, "lon": 15.6393434}, {"type": "node", "id": 1033178920, "lat": 60.5922331, "lon": 15.6392901}, {"type": "node", "id": 1033178931, "lat": 60.592361, "lon": 15.6391104}, {"type": "node", "id": 1033178936, "lat": 60.5921779, "lon": 15.6387307}, {"type": "node", "id": 1035403988, "lat": 60.6069903, "lon": 15.5983836}, {"type": "node", "id": 1035404177, "lat": 60.6069844, "lon": 15.5983706}, {"type": "node", "id": 1035404180, "lat": 60.6070752, "lon": 15.5985727}, {"type": "node", "id": 1035404185, "lat": 60.606912, "lon": 15.5988936}, {"type": "node", "id": 1035404286, "lat": 60.6070129, "lon": 15.5987149}, {"type": "node", "id": 1035404327, "lat": 60.6070832, "lon": 15.5985905}, {"type": "node", "id": 1035404387, "lat": 60.6068781, "lon": 15.5988188}, {"type": "node", "id": 1035404582, "lat": 60.6068146, "lon": 15.598679}, {"type": "node", "id": 1102511134, "lat": 60.6186973, "lon": 15.6230229}, {"type": "node", "id": 1102511208, "lat": 60.6188116, "lon": 15.6228376}, {"type": "node", "id": 1102511313, "lat": 60.6187541, "lon": 15.622926}, {"type": "node", "id": 1102511373, "lat": 60.6188143, "lon": 15.6232936}, {"type": "node", "id": 1102511460, "lat": 60.6189261, "lon": 15.6231112}, {"type": "node", "id": 1102511507, "lat": 60.6188808, "lon": 15.6231852}, {"type": "node", "id": 1124356995, "lat": 60.5921496, "lon": 15.6394012}, {"type": "node", "id": 1124357023, "lat": 60.5921708, "lon": 15.6393517}, {"type": "node", "id": 1260408747, "lat": 60.6087421, "lon": 15.6265716, "tags": {"addr:country": "SE", "addr:housenumber": "23", "addr:postcode": "79172", "addr:street": "Nybrogatan", "amenity": "restaurant", "cuisine": "chinese", "indoor_seating": "yes", "name": "Restaurang China Thai", "opening_hours": "Mo-Th 11:00-21:00; Fr 11:00-22:00; Sa 12:00-22:00; Su 12:00-21:00", "outdoor_seating": "no", "website": "http://restaurangchinathai.com/", "wheelchair": "yes"}}, {"type": "node", "id": 1296101035, "lat": 60.4834202, "lon": 15.4291784, "tags": {"addr:city": "Borl\u00e4nge", "addr:country": "SE", "addr:housenumber": "1", "addr:street": "Borgan\u00e4sv\u00e4gen", "amenity": "restaurant", "indoor_seating": "yes", "name": "\u00c4teriet", "opening_hours": "Mo-Fr 11:00-22:00; Sa 12:00-22:00", "outdoor_seating": "yes", "phone": "+46-243-82210", "website": "https://ateriet.se/"}}, {"type": "node", "id": 1296135095, "lat": 60.7336874, "lon": 15.4392214, "tags": {"addr:country": "SE", "addr:housenumber": "2", "addr:street": "Bjurs\u00e5sv\u00e4gen", "amenity": "restaurant", "cuisine": "pizza", "name": "Korskrogen"}}, {"type": "node", "id": 1305472920, "lat": 60.4468561, "lon": 15.4792758, "tags": {"amenity": "restaurant", "name": "Busk\u00e5kers G\u00e4stgiveri"}}, {"type": "node", "id": 1351015241, "lat": 60.4334345, "lon": 16.2108207}, {"type": "node", "id": 1351015242, "lat": 60.4334967, "lon": 16.2108673}, {"type": "node", "id": 1351015243, "lat": 60.4335095, "lon": 16.2104087}, {"type": "node", "id": 1351015244, "lat": 60.4335168, "lon": 16.2107572}, {"type": "node", "id": 1351015246, "lat": 60.4335472, "lon": 16.2105901}, {"type": "node", "id": 1351015248, "lat": 60.4335718, "lon": 16.2104553}, {"type": "node", "id": 1351015257, "lat": 60.4336292, "lon": 16.2108412}, {"type": "node", "id": 1351015259, "lat": 60.4336596, "lon": 16.2106741}, {"type": "node", "id": 1368376705, "lat": 60.4820198, "lon": 15.4140441, "tags": {"amenity": "restaurant", "cuisine": "pizza", "name": "Pizzeria Pronto"}}, {"type": "node", "id": 1392493753, "lat": 60.7422448, "lon": 15.449972, "tags": {"addr:city": "Bjurs\u00e5s", "addr:street": "Proselins v\u00e4g", "amenity": "restaurant", "name": "D\u00f6ssbergets V\u00e4rdshus", "phone": "+46 23-50737", "website": "https://dossberget.se/"}}, {"type": "node", "id": 1448711343, "lat": 60.4950742, "lon": 15.4432266}, {"type": "node", "id": 1448711344, "lat": 60.495077, "lon": 15.4437732}, {"type": "node", "id": 1448711345, "lat": 60.4949075, "lon": 15.4439065}, {"type": "node", "id": 1448711346, "lat": 60.4949925, "lon": 15.4433121}, {"type": "node", "id": 1448711347, "lat": 60.49499, "lon": 15.4436772}, {"type": "node", "id": 1448711348, "lat": 60.4948818, "lon": 15.4430807}, {"type": "node", "id": 1448711350, "lat": 60.4948197, "lon": 15.4436825}, {"type": "node", "id": 1448711351, "lat": 60.4949526, "lon": 15.4434902}, {"type": "node", "id": 1448711352, "lat": 60.4950215, "lon": 15.4429417}, {"type": "node", "id": 1448711353, "lat": 60.4948136, "lon": 15.4433537}, {"type": "node", "id": 1448711354, "lat": 60.49504, "lon": 15.4440205}, {"type": "node", "id": 1559769922, "lat": 60.6090028, "lon": 15.6464586, "tags": {"amenity": "cafe", "name": "Rygg\u00e5sstugan Caf\u00e9", "website": "https://www.visitdalarna.se/boka/se-gora/a1497369/rygg%C3%A5sstugan-caf%C3%A9-falun/detaljer"}}, {"type": "node", "id": 1562780361, "lat": 60.6227556, "lon": 15.6171615}, {"type": "node", "id": 1562780422, "lat": 60.6229283, "lon": 15.6171283}, {"type": "node", "id": 1562780427, "lat": 60.622813, "lon": 15.6173115}, {"type": "node", "id": 1562780435, "lat": 60.622871, "lon": 15.6169783}, {"type": "node", "id": 1563378940, "lat": 60.6014064, "lon": 15.6236012, "tags": {"amenity": "cafe", "name": "Ernst Rolf-g\u00e5rden", "opening_hours": "2021 Jul 01-2021 Aug 08 Tu-Su 13:00-17:00", "outdoor_seating": "yes", "payment:swish": "yes", "tourism": "attraction", "website": "https://www.falun.se/gora--uppleva/kultur/museer-och-konst/museer/ernst-rolfgarden.html", "wikidata": "Q10488329", "wikimedia_commons": "File:Ernst_Rolf-g\u00e5rden_i_Falun.jpg", "wikipedia": "sv:Ernst Rolf-g\u00e5rden"}}, {"type": "node", "id": 1617039031, "lat": 60.6085838, "lon": 15.6292883, "tags": {"addr:city": "Falun", "addr:country": "SE", "addr:housenumber": "41", "addr:postcode": "791 71", "addr:street": "\u00c5sgatan", "amenity": "restaurant", "ele": "112.94", "indoor_seating": "yes", "name": "Banken Bar & Brasserie", "opening_hours": "Mo-Th 11:30-14:00,17:00-20:00; Fr 11:30-20:00; Sa 13:00-20:00", "outdoor_seating": "yes", "phone": "+46 23 711911", "source": "survey", "website": "https://bankenfalun.se/BBB-home/"}}, {"type": "node", "id": 1617039032, "lat": 60.6087339, "lon": 15.6293518, "tags": {"addr:country": "SE", "addr:housenumber": "28", "addr:postcode": "791 71", "addr:street": "\u00c5sgatan", "amenity": "restaurant", "ele": "113.57", "name": "Hammars Pizza & Pasta", "opening_hours": "Mo-Fr 08:00-18:00; Sa 09:00-16:00", "phone": "+46 23-39039", "source": "survey"}}, {"type": "node", "id": 1617126434, "lat": 60.6069351, "lon": 15.6516585}, {"type": "node", "id": 1617126439, "lat": 60.6069742, "lon": 15.6521593}, {"type": "node", "id": 1617126443, "lat": 60.6069188, "lon": 15.6516885}, {"type": "node", "id": 1617126444, "lat": 60.6070405, "lon": 15.65203}, {"type": "node", "id": 1617126445, "lat": 60.6070212, "lon": 15.6519857}, {"type": "node", "id": 1617126446, "lat": 60.6069543, "lon": 15.6521087}, {"type": "node", "id": 1617126447, "lat": 60.6068606, "lon": 15.6521032}, {"type": "node", "id": 1641473325, "lat": 60.4754332, "lon": 15.720522}, {"type": "node", "id": 1641473328, "lat": 60.4754333, "lon": 15.7207263}, {"type": "node", "id": 1641473330, "lat": 60.4756604, "lon": 15.7206064}, {"type": "node", "id": 1641473332, "lat": 60.4756025, "lon": 15.7204326}, {"type": "node", "id": 1693134219, "lat": 60.4842041, "lon": 15.4177858, "tags": {"amenity": "cafe", "level": "3", "name": "Caf\u00e9 Kompis"}}, {"type": "node", "id": 1693134220, "lat": 60.4839345, "lon": 15.4184348, "tags": {"addr:city": "Borl\u00e4nge", "addr:country": "SE", "addr:housenumber": "10", "addr:postcode": "781 70", "amenity": "cafe", "level": "1", "name": "Caf\u00e9 Kupolen", "phone": "+46-243-248020"}}, {"type": "node", "id": 1707563533, "lat": 60.541167, "lon": 16.2223979}, {"type": "node", "id": 1707563535, "lat": 60.5410481, "lon": 16.2224035}, {"type": "node", "id": 1707563536, "lat": 60.5411703, "lon": 16.222695}, {"type": "node", "id": 1707563539, "lat": 60.5410515, "lon": 16.2227006}, {"type": "node", "id": 1712514176, "lat": 60.461401, "lon": 15.5692784, "tags": {"addr:city": "Borl\u00e4nge", "addr:housenumber": "281A", "addr:place": "Tylla", "addr:postcode": "781 92", "amenity": "restaurant", "cuisine": "pizza", "indoor_seating": "yes", "name": "\u00c4lvkanten", "outdoor_seating": "yes", "phone": "+46-243-60000", "source": "survey"}}, {"type": "node", "id": 1751720826, "lat": 60.4878647, "lon": 15.4258566, "tags": {"addr:city": "Borl\u00e4nge", "addr:country": "SE", "addr:housenumber": "14", "addr:postcode": "784 31", "addr:street": "Hagav\u00e4gen", "amenity": "restaurant", "check_date:opening_hours": "2023-10-27", "cuisine": "pizza", "dog": "no", "indoor_seating": "yes", "name": "Haga Pizzeria", "opening_hours": "Mo-Fr 11:00-22:00, Fr-Su 12:00-22:00", "outdoor_seating": "no", "phone": "+46-243-84444", "source": "survey"}}, {"type": "node", "id": 1751721651, "lat": 60.4882688, "lon": 15.4250949, "tags": {"addr:city": "Borl\u00e4nge", "addr:country": "SE", "addr:housenumber": "16", "addr:postcode": "784 31", "addr:street": "Hagav\u00e4gen", "amenity": "restaurant", "check_date": "2023-10-27", "contact:website": "https://grillhouseborlange.se/", "name": "Borl\u00e4nge Grill house", "opening_hours": "Mo-Fr 11:00-22:00; Sa,Su 12:00-22:00", "phone": "+46-243-12300", "short_name": "Grillhouse", "source": "survey"}}, {"type": "node", "id": 1784418777, "lat": 60.5857963, "lon": 15.6341945}, {"type": "node", "id": 1784418780, "lat": 60.5858873, "lon": 15.6341129}, {"type": "node", "id": 1784418781, "lat": 60.5859092, "lon": 15.6344223}, {"type": "node", "id": 1784418782, "lat": 60.5859454, "lon": 15.6342453}, {"type": "node", "id": 2210464355, "lat": 60.4840414, "lon": 15.4191749, "tags": {"amenity": "restaurant", "name": "Thai Restaurang"}}, {"type": "node", "id": 2228215121, "lat": 60.581066, "lon": 15.6769166, "tags": {"amenity": "restaurant", "name": "Sj\u00f6sidan Falun", "old_name": "Fr\u00e4mby Udde Resort", "website": "https://www.sjosidanfalun.se/"}}, {"type": "node", "id": 2293785238, "lat": 60.4864952, "lon": 15.4082043, "tags": {"amenity": "restaurant", "name": "K\u00f6k Nystr\u00f6m", "opening_hours": "Mo-Fr 11:00-14:00", "takeaway": "yes", "website": "http://www.koknystrom.se"}}, {"type": "node", "id": 2311455957, "lat": 60.4757436, "lon": 15.4332133, "tags": {"amenity": "restaurant", "contact:phone": "+46-243-88255", "cuisine": "thai", "name": "J&J Thai Take Away and Minimarket", "opening_hours": "Mo-Fr 10:00-19:00; Sa 11:00-16:00", "takeaway": "yes"}}, {"type": "node", "id": 2311455977, "lat": 60.4754897, "lon": 15.4335513, "tags": {"amenity": "cafe", "name": "Caf\u00e9 Backa"}}, {"type": "node", "id": 2365122888, "lat": 60.5949369, "lon": 15.5722482, "tags": {"amenity": "cafe", "source": "survey"}}, {"type": "node", "id": 2379092410, "lat": 60.4524873, "lon": 16.0337207, "tags": {"amenity": "restaurant", "cuisine": "pizza", "name": "Abbes resturang & pizzeria"}}, {"type": "node", "id": 2402783665, "lat": 60.4875359, "lon": 15.4252421, "tags": {"amenity": "restaurant", "cuisine": "pizza", "name": "American Take Away", "opening_hours": "Mo-Su 11:00-22:00", "source": "local_knowledge"}}, {"type": "node", "id": 2404702238, "lat": 60.6088324, "lon": 15.6405214, "tags": {"amenity": "restaurant", "ele": "130.7", "name": "Restaurang Gastronomen"}}, {"type": "node", "id": 2406457058, "lat": 60.490374, "lon": 15.830008, "tags": {"addr:city": "Falun", "addr:country": "SE", "addr:housenumber": "113", "addr:postcode": "791 92", "addr:street": "Lun\u00e5n", "amenity": "cafe", "cash_withdrawal:fee": "yes", "ele": "161", "name": "Stora Lun\u00e5n G\u00e5rdsmejeri", "outdoor_seating": "yes", "phone": "+46 70 523 53 25", "shop": "dairy", "smoking": "no", "toilets": "yes", "toilets:access": "customers", "website": "https://www.storalunan.se/"}}, {"type": "node", "id": 2421272907, "lat": 60.4916117, "lon": 15.4170637, "tags": {"amenity": "restaurant", "cuisine": "pizza"}}, {"type": "node", "id": 2428563992, "lat": 60.5138123, "lon": 15.3844032}, {"type": "node", "id": 2428563993, "lat": 60.5139073, "lon": 15.3846238}, {"type": "node", "id": 2428563994, "lat": 60.5139979, "lon": 15.3848155}, {"type": "node", "id": 2428563997, "lat": 60.5138783, "lon": 15.3846694}, {"type": "node", "id": 2428563998, "lat": 60.513873, "lon": 15.3847686}, {"type": "node", "id": 2428564000, "lat": 60.5137581, "lon": 15.3844601}, {"type": "node", "id": 2428564001, "lat": 60.5138453, "lon": 15.3848008}, {"type": "node", "id": 2428564006, "lat": 60.513939, "lon": 15.3849215}, {"type": "node", "id": 2447199536, "lat": 60.4867262, "lon": 15.435368, "tags": {"addr:city": "Borl\u00e4nge", "addr:country": "SE", "addr:housenumber": "3", "addr:postcode": "784 33", "addr:street": "Vattugatan", "amenity": "cafe", "indoor_seating": "yes", "name": "Almas Caf\u00e9", "opening_hours": "Mo-Fr 06:45-18:00; Sa 10:00-15:00", "outdoor_seating": "yes", "phone": "+46-243-10202", "source": "local_knowledge", "website": "http://www.almascafe.com"}}, {"type": "node", "id": 2447199538, "lat": 60.4840064, "lon": 15.4350504, "tags": {"amenity": "restaurant", "check_date": "2023-11-29", "check_date:opening_hours": "2023-08-16", "cuisine": "pizza", "diet:vegan": "yes", "diet:vegetarian": "yes", "indoor_seating": "yes", "name": "Pizzeria Tre Kronor", "opening_hours": "Mo-Fr 11:00-22:00; Sa 12:00-22:00; Su 12:00-22:00", "outdoor_seating": "no", "payment:credit_cards": "yes", "payment:debit_cards": "yes", "payment:swish": "yes", "phone": "+46 243 87 111", "source": "local_knowledge"}}, {"type": "node", "id": 2460671630, "lat": 60.6186222, "lon": 15.6324908, "tags": {"addr:city": "Falun", "addr:country": "SE", "addr:housenumber": "1", "addr:postcode": "791 33", "addr:street": "Frejav\u00e4gen", "amenity": "restaurant", "cuisine": "pizza", "ele": "146.3", "name": "Pizzeria Akropolis", "phone": "+46 23-16800", "source": "survey"}}, {"type": "node", "id": 2578599101, "lat": 60.4490967, "lon": 15.4999607, "tags": {"amenity": "restaurant", "name": "Charlies Bar", "old_name": "Travrestaurangen"}}, {"type": "node", "id": 2585528917, "lat": 60.4849143, "lon": 15.4339132, "tags": {"addr:city": "Borl\u00e4nge", "addr:country": "SE", "addr:housenumber": "13", "addr:postcode": "784 33", "addr:street": "Stationsgatan", "amenity": "restaurant", "cuisine": "indian", "indoor_seating": "yes", "name": "Dala Indiskt K\u00f6k", "opening_hours": "Mo-Sa 11:00-23:00; Su 12:00-22:00", "outdoor_seating": "yes"}}, {"type": "node", "id": 2631283449, "lat": 60.5981686, "lon": 15.6442884, "tags": {"addr:city": "Falun", "addr:country": "SE", "addr:housenumber": "3", "addr:postcode": "791 19", "addr:street": "Pelle Bergs backe", "amenity": "restaurant", "name": "CariAnna", "phone": "+46 23-13620", "website": "https://www.carianna.se/"}}, {"type": "node", "id": 2685602923, "lat": 60.4854556, "lon": 15.4116034, "tags": {"amenity": "restaurant", "name": "Restaurang Octaven"}}, {"type": "node", "id": 2771245739, "lat": 60.6060885, "lon": 15.6271462, "tags": {"addr:city": "Falun", "addr:country": "SE", "addr:housenumber": "2-4", "addr:postcode": "791 60", "addr:street": "Stigaregatan", "amenity": "restaurant", "ele": "114.72", "name": "Kopparhatten", "opening_hours": "Tu,Th 10:00-22:00, We,Fr 10:00-02:00, Sa 12:00-02:00, Su 12:00-01:00", "phone": "+46 23-19169", "source": "survey"}}, {"type": "node", "id": 2969303540, "lat": 60.6003932, "lon": 15.6149964, "tags": {"addr:housenumber": "11", "addr:street": "Krong\u00e5rdsv\u00e4gen", "amenity": "cafe", "check_date": "2023-12-16", "internet_access": "wlan", "internet_access:fee": "customers", "name": "Gjuthuset", "opening_hours": "Mo off; Tu-Su 10:00-16:00", "outdoor_seating": "yes", "payment:cash": "yes", "payment:credit_cards": "yes", "payment:debit_cards": "yes", "phone": "+46 79 337 54 09"}}, {"type": "node", "id": 3424920888, "lat": 60.6041553, "lon": 15.6303981, "tags": {"addr:city": "Falun", "addr:postcode": "791 62", "addr:street": "Myntgatan", "amenity": "cafe", "check_date:opening_hours": "2022-11-01", "indoor_seating": "yes", "name": "Konditori Focus", "opening_hours": "Mo-Fr 08:00-18:00; Sa 09:00-17:00; Su 11:00-16:00", "outdoor_seating": "yes", "phone": "+46 23 20 760"}}, {"type": "node", "id": 3440067591, "lat": 60.6043704, "lon": 15.6302125, "tags": {"addr:city": "Falun", "addr:country": "SE", "addr:housenumber": "10", "addr:postcode": "791 62", "addr:street": "Myntgatan", "amenity": "restaurant", "check_date": "2023-03-01", "contact:facebook": "https://www.facebook.com/texaslonghornfalun", "contact:instagram": "https://www.instagram.com/texaslonghornfalun", "cuisine": "steak_house", "diet:vegetarian": "yes", "ele": "71.18", "email": "falun@texaslonghorn.se", "indoor_seating": "yes", "name": "Texas Longhorn", "opening_hours": "Mo-Fr 16:00-22:00; Sa 14:00-22:00; Su 14:00-21:00", "outdoor_seating": "yes", "payment:cash": "no", "payment:credit_cards": "yes", "payment:debit_cards": "yes", "payment:swish": "yes", "phone": "+46 23-232 09", "source": "survey", "start_date": "2021-06", "website": "https://www.texaslonghorn.se/restaurang/falun/"}}, {"type": "node", "id": 3552778183, "lat": 60.6123641, "lon": 15.7261463, "tags": {"amenity": "cafe", "name": "Caf\u00e9 Linnean"}}, {"type": "node", "id": 3562806910, "lat": 60.6055615, "lon": 15.6292247, "tags": {"addr:city": "Falun", "addr:country": "SE", "addr:housenumber": "1", "addr:postcode": "791 60", "addr:street": "H\u00e4lsingtorget", "amenity": "restaurant", "bar": "yes", "contact:facebook": "https://www.facebook.com/blackstonefalun", "cuisine": "steak_house", "diet:gluten_free": "yes", "diet:vegan": "yes", "diet:vegetarian": "yes", "email": "falun@blackstonesteakhouse.se", "indoor_seating": "yes", "name": "Blackstone Steakhouse", "opening_hours": "16:00-23:00; Sa 13:00-23:00", "outdoor_seating": "yes", "phone": "+46 23-122 22", "reservation": "yes", "toilets": "yes", "website": "https://www.blackstonesteakhouse.se/", "wheelchair": "yes"}}, {"type": "node", "id": 3663507521, "lat": 60.605991, "lon": 15.6319996, "tags": {"addr:city": "Falun", "addr:country": "SE", "addr:floor": "1", "addr:housenumber": "26", "addr:postcode": "791 71", "addr:street": "Holmgatan", "amenity": "restaurant", "check_date": "2022-12-01", "cuisine": "chinese", "indoor_seating": "yes", "name": "Golden Palace", "opening_hours": "Mo 11:00-15:00; Tu-Th 11:00-21:00; Fr 11:00-22:00; Sa 12:00-22:00; Su 13:00-20:00", "outdoor_seating": "no", "phone": "+46 23 268 88"}}, {"type": "node", "id": 3682517662, "lat": 60.5172238, "lon": 15.4177297}, {"type": "node", "id": 3682517663, "lat": 60.5171223, "lon": 15.4177148}, {"type": "node", "id": 3682517664, "lat": 60.5171172, "lon": 15.4178575}, {"type": "node", "id": 3682517665, "lat": 60.5172187, "lon": 15.4178724}, {"type": "node", "id": 3702483382, "lat": 60.4758046, "lon": 15.4487408, "tags": {"amenity": "restaurant", "check_date": "2024-03-05", "cuisine": "pizza", "indoor_seating": "yes", "name": "Gylle pizzeria", "opening_hours": "Mo-Su 13:00-21:00", "outdoor_seating": "yes", "source": "survey"}}, {"type": "node", "id": 3717479508, "lat": 60.605725, "lon": 15.63485, "tags": {"amenity": "restaurant", "check_date:opening_hours": "2023-01-30", "indoor_seating": "yes", "name": "Pinchos", "opening_hours": "Mo-Fr 16:00-18:00+; Sa,Su 08:00-18:00+", "outdoor_seating": "yes", "payment:cash": "no", "payment:credit_cards": "yes", "payment:debit_cards": "yes"}}, {"type": "node", "id": 3717479511, "lat": 60.606311, "lon": 15.63246, "tags": {"amenity": "cafe", "contact:facebook": "https://www.facebook.com/Fruitenza/", "cuisine": "crepe;smoothie", "name": "Fruitenza", "opening_hours": "Mo-Fr 10:30-19:00; Sa 11:00-19:00"}}, {"type": "node", "id": 3717479512, "lat": 60.608947, "lon": 15.627542, "tags": {"amenity": "cafe", "name": "Portofino"}}, {"type": "node", "id": 3717479521, "lat": 60.6101677, "lon": 15.6261193, "tags": {"addr:city": "Falun", "addr:housenumber": "27", "addr:street": "Slaggatan", "amenity": "restaurant", "cuisine": "mexican", "diet:vegan": "yes", "diet:vegetarian": "yes", "indoor_seating": "yes", "name": "La Tia Taco", "opening_hours": "We,Th 10:00-22:00, Fr 10:00-01:00, Sa 11:00-01:00", "outdoor_seating": "no", "website": "https://latiataco.se/"}}, {"type": "node", "id": 3717479522, "lat": 60.606384, "lon": 15.6326603, "tags": {"addr:city": "Falun", "addr:country": "SE", "addr:housenumber": "20", "addr:postcode": "791 71", "addr:street": "\u00c5sgatan", "amenity": "restaurant", "check_date:opening_hours": "2023-02-20", "contact:facebook": "https://www.facebook.com/Tairyo-Japanese-Restaurant-Falun-848154458635098/", "cuisine": "japanese;teppanyaki;suishi", "email": "info@tairyo.se", "indoor_seating": "yes", "name": "Tairyo Japanese Restaurant", "opening_hours": "Mo-Fr 11:00-21:00; Sa 11:00-22:00", "outdoor_seating": "yes", "phone": "+46 23 141 42", "website": "https://www.kokukujiragroup.se/restauranger/falun/"}}, {"type": "node", "id": 3717482228, "lat": 60.608514, "lon": 15.628035, "tags": {"amenity": "restaurant", "bar": "yes", "check_date": "2022-07-26", "name": "Mimos", "opening_hours": "Mo-Th 11:00-22:00; Fr 11:00-22:00+; Sa 12:00-22:00+; Su 12:00-21:00", "phone": "+46 23 201 01", "website": "https://www.mimosrestaurang.se"}}, {"type": "node", "id": 3717482231, "lat": 60.6070623, "lon": 15.6296243, "tags": {"amenity": "restaurant", "indoor_seating": "yes", "level": "0", "name": "Piacetto coffee", "opening_hours": "Mo-Fr 08:00-20:00; Sa 09:00-18:00; Su 10:00-17:00", "outdoor_seating": "yes"}}, {"type": "node", "id": 3717482236, "lat": 60.6109117, "lon": 15.6256463, "tags": {"amenity": "restaurant", "cuisine": "chinese", "name": "Restaurang Hong Kong", "opening_hours": "Tu-Fr 11:00-21:00; Sa,Su 12:00-21:00"}}, {"type": "node", "id": 3717482240, "lat": 60.608465, "lon": 15.625111, "tags": {"amenity": "restaurant", "cuisine": "thai", "indoor_seating": "yes", "name": "Sawanee", "opening_hours": "Mo-Fr 11:00-14:00; Sa 11:00-16:00", "outdoor_seating": "no", "website": "https://www.sawanee.se/"}}, {"type": "node", "id": 3717482241, "lat": 60.60689, "lon": 15.630543, "tags": {"amenity": "cafe", "indoor_seating": "yes", "name": "Gott & Reko", "old_name": "Selmas", "opening_hours": "Mo,Tu 10:00-17:00; We-Fr 10:00-18:00; Sa 11:00-16:00", "outdoor_seating": "yes"}}, {"type": "node", "id": 3717482244, "lat": 60.6066563, "lon": 15.6344453, "tags": {"addr:city": "Falun", "addr:country": "SE", "addr:housenumber": "12", "addr:postcode": "791 30", "addr:street": "Trotzgatan", "amenity": "restaurant", "check_date:opening_hours": "2022-08-27", "contact:facebook": "https://www.facebook.com/sushiloversfalun", "cuisine": "sushi", "diet:vegetarian": "yes", "email": "christian@sushilovers.se", "indoor_seating": "yes", "name": "Sushi Lovers Falun", "opening_hours": "Mo-Fr 11:00-19:00; Sa 12:00-19:00", "outdoor_seating": "no", "payment:cash": "yes", "payment:credit_cards": "yes", "payment:debit_cards": "yes", "phone": "+46 23 122 23", "takeaway": "yes", "website": "https://www.sushilovers.se/", "wheelchair": "yes"}}, {"type": "node", "id": 3717482247, "lat": 60.614318, "lon": 15.652833, "tags": {"amenity": "restaurant", "name": "Vildg\u00e5sen", "website": "https://vildgasen.se/"}}, {"type": "node", "id": 3872402297, "lat": 60.5109236, "lon": 15.5677649}, {"type": "node", "id": 3872402298, "lat": 60.5109345, "lon": 15.5676997}, {"type": "node", "id": 3970746670, "lat": 60.609917, "lon": 15.6277378, "tags": {"amenity": "restaurant", "check_date:opening_hours": "2022-07-26", "cuisine": "pizza", "ele": "124.9", "indoor_seating": "yes", "name": "Capri Pizzeria", "opening_hours": "Mo-Fr 11:00-22:00, Fr,Sa 12:00-22:00", "outdoor_seating": "no", "phone": "+46 23 279 00", "source": "survey", "website": "https://pizza.nu"}}, {"type": "node", "id": 4014164069, "lat": 60.6234369, "lon": 15.6569154, "tags": {"alt_name": "Nya Skyttepaviljongen", "amenity": "cafe", "name": "Skyttepaviljongen caf\u00e9 & bageri", "opening_hours": "We-Su 11:00-17:00", "shop": "bakery", "website": "https://skyttepaviljongen.se"}}, {"type": "node", "id": 4023430847, "lat": 60.6249079, "lon": 15.6121594, "tags": {"amenity": "restaurant", "name": "Falujungfrun", "website": "https://www.dalawardshus.se/restaurang-rattvik-och-falun/falujungfrun"}}, {"type": "node", "id": 4272022179, "lat": 60.6375079, "lon": 15.5972607}, {"type": "node", "id": 4272022180, "lat": 60.6376152, "lon": 15.5968036}, {"type": "node", "id": 4272022181, "lat": 60.6376761, "lon": 15.5970124}, {"type": "node", "id": 4272022182, "lat": 60.6376199, "lon": 15.5971251}, {"type": "node", "id": 4272022183, "lat": 60.6374375, "lon": 15.597019}, {"type": "node", "id": 4272022184, "lat": 60.6376103, "lon": 15.5970921}, {"type": "node", "id": 4287595314, "lat": 60.449695, "lon": 15.4716968, "tags": {"addr:city": "Borl\u00e4nge", "addr:postcode": "784 63", "amenity": "cafe", "name": "Caf\u00e9 Frostbrunnsdalen", "phone": "+46-70-7473163", "source": "survey"}}, {"type": "node", "id": 4364263349, "lat": 60.7673463, "lon": 15.4609158}, {"type": "node", "id": 4364263350, "lat": 60.7673326, "lon": 15.4612662}, {"type": "node", "id": 4364263351, "lat": 60.7672458, "lon": 15.4608993}, {"type": "node", "id": 4364263352, "lat": 60.7672321, "lon": 15.4612496}, {"type": "node", "id": 4685113960, "lat": 60.4860704, "lon": 15.4167162, "tags": {"amenity": "restaurant", "brand": "Pizza Hut", "brand:wikidata": "Q191615", "brand:wikipedia": "en:Pizza Hut", "cuisine": "pizza", "ele": "138.67", "name": "Pizza Hut", "opening_hours": "Mo-Th 10:30-21:00; Fr,Sa 10:30-22:00; Su 11:00-21:00", "opening_hours:covid19": "Mo-Su 11:00-20:00", "source": "survey", "toilets:wheelchair": "no", "wheelchair": "yes"}}, {"type": "node", "id": 4784380788, "lat": 60.5910725, "lon": 15.7493046, "tags": {"addr:city": "Falun", "addr:country": "SE", "addr:housenumber": "40", "addr:postcode": "791 46", "addr:street": "Centralv\u00e4gen", "amenity": "restaurant", "contact:facebook": "https://www.facebook.com/hosjopizzeria/", "cuisine": "pizza", "name": "Hosj\u00f6 Pizzeria", "source": "survey"}}, {"type": "node", "id": 4788860735, "lat": 60.4846794, "lon": 15.4176684, "tags": {"addr:city": "Borl\u00e4nge", "addr:postcode": "781 70", "amenity": "cafe", "brand": "Wayne's Coffee", "brand:wikidata": "Q2637272", "brand:wikipedia": "en:Wayne's Coffee", "cuisine": "coffee_shop", "level": "3", "name": "Wayne's Coffee", "phone": "+46-243-12330", "takeaway": "yes"}}, {"type": "node", "id": 4935196394, "lat": 60.6528733, "lon": 15.7755693, "tags": {"amenity": "restaurant", "cuisine": "pizza", "indoor_seating": "yes", "internet_access:fee": "no", "name": "Sundborns Pizzeria", "outdoor_seating": "yes", "takeaway": "yes"}}, {"type": "node", "id": 4955589091, "lat": 60.6505837, "lon": 15.7775072, "tags": {"amenity": "cafe", "name": "Tr\u00e4dg\u00e5rdscaf\u00e9"}}, {"type": "node", "id": 4989811920, "lat": 60.595681, "lon": 15.6416291, "tags": {"amenity": "restaurant", "cuisine": "pizza", "indoor_seating": "yes", "name": "Mon Ami", "opening_hours": "Mo-Th 11:00-21:00; Fr 11:00-22:00; Sa,Su 12:00-22:00; PH 12:00-22:00", "outdoor_seating": "yes", "phone": "+46 23-391 91"}}, {"type": "node", "id": 5215712595, "lat": 60.6181211, "lon": 15.654989, "tags": {"addr:housenumber": "10", "addr:street": "Lugnetv\u00e4gen", "amenity": "cafe", "check_date": "2023-11-23", "delivery": "no", "drive_through": "no", "internet_access:fee": "customers", "name": "Lugnets Restaurang & Caf\u00e9 i Falun", "opening_hours": "09:00-16:00", "payment:cash": "yes", "payment:credit_cards": "yes", "payment:debit_cards": "yes", "phone": "+46 23 102 10", "website": "https://www.lugnet.se/om-lugnet/cafeer-och-restauranger/lugnets-restaurang-och-cafe.html", "wheelchair": "yes"}}, {"type": "node", "id": 5264335002, "lat": 60.5484676, "lon": 15.5139778, "tags": {"amenity": "restaurant", "golf": "clubhouse", "name": "Aspeboda Golfkrog", "website": "http://aspebodagolf.com/restaurang-2"}}, {"type": "node", "id": 5280170059, "lat": 60.4934032, "lon": 15.446634, "tags": {"amenity": "restaurant", "name": "Bl\u00e5 L\u00e5gan", "website": "www.blalagan.se"}}, {"type": "node", "id": 5764498334, "lat": 60.6508993, "lon": 15.7757109}, {"type": "node", "id": 5764498335, "lat": 60.6507585, "lon": 15.7757427}, {"type": "node", "id": 5764498336, "lat": 60.6507833, "lon": 15.7761991}, {"type": "node", "id": 5764498337, "lat": 60.650924, "lon": 15.7761673}, {"type": "node", "id": 5778744458, "lat": 60.604964, "lon": 15.6286651, "tags": {"addr:city": "Falun", "addr:country": "SE", "addr:housenumber": "43", "addr:postcode": "791 60", "addr:street": "Myntgatan", "amenity": "restaurant", "bar": "yes", "email": "falun@falun.heymakers.se", "name": "Heymakers", "phone": "+46 23 666 25 00", "sport": "10pin", "website": "https://falun.heymakers.se/kontakt/"}}, {"type": "node", "id": 6535067967, "lat": 60.6069128, "lon": 15.6284167, "tags": {"addr:city": "Falun", "addr:country": "SE", "addr:housenumber": "20", "addr:postcode": "791 71", "addr:street": "\u00d6stra Hamngatan", "amenity": "cafe", "brand": "Wayne's Coffee", "brand:wikidata": "Q2637272", "brand:wikipedia": "en:Wayne's Coffee", "cuisine": "coffee_shop", "level": "0", "name": "Wayne's Coffee", "opening_hours": "Mo-Th 10:00-18:00; Fr 10:00-16:00; Su 11:00-15:00", "phone": "+46 73 823 69 82", "takeaway": "yes", "website": "https://www.waynescoffee.se/kafe/waynes-falun/"}}, {"type": "node", "id": 6539025494, "lat": 60.4870364, "lon": 15.4343819, "tags": {"addr:city": "Borl\u00e4nge", "addr:country": "SE", "addr:housenumber": "1", "addr:postcode": "784 33", "addr:street": "Sveatorget", "amenity": "restaurant", "indoor_seating": "yes", "name": "Freaks!", "opening_hours": "Mo-Th 11:00-23:00, Fr 11:00-01:00, Sa 12:00-23:00, Su 16:00-23:00", "outdoor_seating": "no", "website": "https://freaksrestaurants.se"}}, {"type": "node", "id": 6595502859, "lat": 60.5970121, "lon": 15.6135507, "tags": {"addr:city": "Falun", "addr:country": "SE", "addr:housenumber": "12", "addr:postcode": "791 61", "addr:street": "M\u00e5ns Nils v\u00e4g", "amenity": "restaurant", "contact:instagram": "https://www.instagram.com/pzasverige", "cuisine": "pizza", "email": "pza@pza.se", "name": "P-za", "opening_hours": "Mo-Sa 11:00-20:00; Su 12:00-20:00", "payment:cash": "no", "phone": "+46 23 22 100", "website": "https://www.pza.se"}}, {"type": "node", "id": 6700509222, "lat": 60.595072, "lon": 15.6431434, "tags": {"addr:city": "Falun", "addr:country": "SE", "addr:housenumber": "2", "addr:postcode": "791 50", "addr:street": "Kvarnbergsv\u00e4gen", "amenity": "restaurant", "check_date": "2023-12-26", "contact:facebook": "https://www.facebook.com/piccolomondofalun/", "cuisine": "pizza", "diet:gluten_free": "yes", "diet:vegan": "yes", "diet:vegetarian": "yes", "drive_through": "no", "highchair": "yes", "indoor_seating": "yes", "name": "Pizzeria Piccolo Mondo", "opening_hours": "May-Aug Mo-Fr 11:00-22:00; May-Aug Sa,Su 12:00-22:00; Sep-Apr Mo-Th 11:00-21:00; Sep-Apr Su 12:00-21:00; Sep-Apr Fr 11:00-22:00; Sep-Apr Sa 12:00-22:00", "outdoor_seating": "yes", "payment:cash": "yes", "payment:credit_cards": "yes", "payment:debit_cards": "yes", "payment:mastercard": "yes", "payment:visa": "yes", "phone": "+46 23 100 45", "source": "local knowledge", "takeaway": "yes", "toilets": "yes", "website": "https://www.piccolomondo-falun.com/", "wheelchair": "no"}}, {"type": "node", "id": 6851403106, "lat": 60.6035641, "lon": 15.6304296, "tags": {"addr:city": "Falun", "addr:country": "SE", "addr:housenumber": "29", "addr:postcode": "791 62", "addr:street": "Myntgatan", "amenity": "restaurant", "bar": "yes", "changing_table": "no", "check_date:diet:vegetarian": "2021-01-26", "cuisine": "pizza;kebab", "diet:vegetarian": "yes", "lunch": "yes", "lunch:menu": "Mo-Su 11:00-14:00", "name": "Restaurang & Pizzeria \"Golden\"", "opening_hours": "Mo-Tu 11:00-21:00; We-Tu 11:00-22:00; Fr 11:00-22:00; Sa 12:00-22:00; Su 12:00-21:00; Sep-Apr Mo-Th 11:00-21:00; Fr 11:00-22:00; Sa 12:00-22:00; Su 12:00-21:00", "payment:cash": "yes", "phone": "+46 23 299 91", "takeaway": "yes", "toilets": "yes", "toilets:wheelchair": "no", "website": "http://pizzeriagolden.com/", "wheelchair": "yes"}}, {"type": "node", "id": 6995768175, "lat": 60.6060183, "lon": 15.6330384, "tags": {"addr:city": "Falun", "addr:country": "SE", "addr:housenumber": "25", "addr:postcode": "791 71", "addr:street": "\u00c5sgatan", "amenity": "restaurant", "bar": "yes", "check_date": "2022-07-11", "check_date:opening_hours": "2023-12-28", "cuisine": "burger", "diet:vegan": "yes", "diet:vegetarian": "yes", "highchair": "yes", "indoor_seating": "yes", "level": "1", "name": "Bastard Burgers", "opening_hours": "Mo-Th 11:00-20:00; Fr 11:00-21:00; Sa 12:00-21:00; Su 12:00-19:00", "outdoor_seating": "yes", "payment:cash": "no", "payment:credit_cards": "yes", "payment:debit_cards": "yes", "payment:swish": "no", "phone": "+46 23 10 802", "smoking": "no", "takeaway": "yes", "toilets": "yes", "website": "https://bastardburgers.se/restaurang/falun/", "wheelchair": "yes"}}, {"type": "node", "id": 7028820435, "lat": 60.6065171, "lon": 15.6297207, "tags": {"addr:city": "Falun", "addr:country": "SE", "addr:housenumber": "2", "addr:postcode": "791 71", "addr:street": "Falugatan", "amenity": "restaurant", "contact:facebook": "https://www.facebook.com/tazagrill2/", "contact:instagram": "https://instagram.com/tazagrill2", "cuisine": "pizza;kebab;falafel;burger;shawarma;grill;salad;Pirog", "drive_through": "no", "indoor_seating": "yes", "name": "Taza Grillen 2", "opening_hours": "Mo-Th 10:00-21:00; Fr-Sa 10:00-03:00; Su 10:00-21:00", "outdoor_seating": "yes", "phone": "+46 23 265 00", "start_date": "2019-10-11"}}, {"type": "node", "id": 7028930216, "lat": 60.5921407, "lon": 15.6394222}, {"type": "node", "id": 7041347270, "lat": 60.5858614, "lon": 15.6340607}, {"type": "node", "id": 7041347271, "lat": 60.58591, "lon": 15.6340662}, {"type": "node", "id": 7041347272, "lat": 60.5859706, "lon": 15.6342962}, {"type": "node", "id": 7041347273, "lat": 60.5859718, "lon": 15.6341909}, {"type": "node", "id": 7069088405, "lat": 60.6062796, "lon": 15.6287998, "tags": {"addr:city": "Falun", "addr:country": "SE", "addr:housenumber": "16", "addr:postcode": "791 71", "addr:street": "\u00d6stra Hamngatan", "amenity": "restaurant", "bar": "yes", "contact:facebook": "https://facebook.com/bastafalun/", "cuisine": "italian", "email": "falun@restaurangbasta.se", "indoor_seating": "yes", "name": "Basta! Urban Italian", "opening_hours": "Mo-Fr 16:00-18:00+; Sa 11:00-18:00+; Su 12:00-18:00+", "opening_hours:kitchen": "Tu-Th 16:00-22:00; Fr,Sa 11:30-22:00; Su 12:00-21:00", "opening_hours:url": "https://www.restaurangbasta.se/restaurang-basta-falun/", "outdoor_seating": "yes", "phone": "+46 23 100 30", "website": "https://www.restaurangbasta.se/restauranger/falun"}}, {"type": "node", "id": 7197148134, "lat": 60.4838856, "lon": 15.4175392, "tags": {"addr:city": "Borl\u00e4nge", "addr:country": "SE", "addr:housenumber": "53", "addr:postcode": "781 70", "addr:street": "Kupolen", "amenity": "restaurant", "cuisine": "sushi;poke;sashimi;dim_sum", "delivery": "yes", "name": "Sushi Yama Dim Sum", "opening_hours": "Mo-Fr 10:00-20:00; Sa 10:00-18:00, Su 11:00-18:00", "phone": "+46 243 80 000", "website": "https://www.sushiyama.se/restaurants/sushi-yama-dim-sum-kupolen-borlange/"}}, {"type": "node", "id": 7346075613, "lat": 60.6820215, "lon": 15.5041686}, {"type": "node", "id": 7346075614, "lat": 60.6822036, "lon": 15.5045158}, {"type": "node", "id": 7346075615, "lat": 60.6821347, "lon": 15.5046662}, {"type": "node", "id": 7346075616, "lat": 60.6819527, "lon": 15.504319}, {"type": "node", "id": 7726508576, "lat": 60.6053277, "lon": 15.6296271, "tags": {"amenity": "restaurant", "name": "K\u00fclselska Krogen"}}, {"type": "node", "id": 8025717711, "lat": 60.6040309, "lon": 15.6299559, "tags": {"addr:city": "Falun", "addr:country": "SE", "addr:housenumber": "33B", "addr:postcode": "791 62", "addr:street": "Myntgatan", "amenity": "restaurant", "cuisine": "greek", "indoor_seating": "yes", "name": "Restaurang Tzatziki", "opening_hours": "Mo-Th 11:00-21:00; Fr 11:00-22:00; Sa 12:00-22:00; Su 12:00-21:00", "outdoor_seating": "no"}}, {"type": "node", "id": 8025717712, "lat": 60.6040858, "lon": 15.6298857, "tags": {"amenity": "restaurant", "cuisine": "sushi", "name": "Sushi House", "opening_hours": "Mo-Th 11:00-20:00; Fr 11:00-21:00; Sa 12:00-21:00; Su 12:00-20:00"}}, {"type": "node", "id": 8065164385, "lat": 60.8089754, "lon": 15.7577383, "tags": {"amenity": "restaurant", "cuisine": "pizza", "name": "Resturang & Pizzeria Enviken"}}, {"type": "node", "id": 8083810688, "lat": 60.5931372, "lon": 15.6855118, "tags": {"amenity": "restaurant", "cuisine": "pizza", "name": "La Marina"}}, {"type": "node", "id": 8083816048, "lat": 60.6055737, "lon": 15.6335124, "tags": {"amenity": "restaurant", "bar": "yes", "check_date:opening_hours": "2023-02-20", "indoor_seating": "yes", "level": "2", "name": "O'learys", "opening_hours:signed": "no", "outdoor_seating": "yes", "website": "https://olearys.se/falun/"}}, {"type": "node", "id": 8088185269, "lat": 60.6054946, "lon": 15.6329184, "tags": {"amenity": "cafe", "brand": "Espresso House", "brand:wikidata": "Q10489162", "brand:wikipedia": "en:Espresso House", "cuisine": "coffee_shop", "indoor_seating": "yes", "level": "0", "name": "Espresso House", "opening_hours": "Mo-Fr 07:00-19:00; Sa 08:00-18:00; Su 08:00-17:00", "outdoor_seating": "yes", "takeaway": "yes"}}, {"type": "node", "id": 8170763350, "lat": 60.6069077, "lon": 15.6297525, "tags": {"amenity": "cafe", "indoor_seating": "yes", "level": "0", "name": "Lounge", "outdoor_seating": "yes"}}, {"type": "node", "id": 8174067147, "lat": 60.6150694, "lon": 15.6382687, "tags": {"addr:city": "Falun", "addr:country": "SE", "addr:housenumber": "26", "addr:street": "Linn\u00e9v\u00e4gen", "alt_name": "Pizzeria Mia", "amenity": "restaurant", "contact:facebook": "https://www.facebook.com/PIZZA-MIA-102307764445392/", "cuisine": "pizza;kebab", "delivery": "yes", "diet:gluten_free": "yes", "indoor_seating": "yes", "name": "Pizza Mia", "opening_hours": "Mo-Fr 15:00-21:30; Sa-Su 13:00-21:30", "outdoor_seating": "no", "phone": "+46 23 132 50", "start_date": "1980"}}, {"type": "node", "id": 8336010378, "lat": 60.6063811, "lon": 15.6323451, "tags": {"addr:city": "Falun", "addr:country": "SE", "addr:housenumber": "29C", "addr:postcode": "791 71", "addr:street": "\u00c5sgatan", "amenity": "restaurant", "contact:facebook": "https://www.facebook.com/aaimakitchen", "contact:instagram": "https://www.instagram.com/aaimakitchen", "cuisine": "indian", "indoor_seating": "yes", "name": "Aaima Kitchen", "opening_hours": "Mo-Th 11:00-20:00; Fr 11:00-21:00; Sa 13:00-21:00", "outdoor_seating": "yes", "website": "https://www.aaimakitchen.se/"}}, {"type": "node", "id": 8399457317, "lat": 60.6062727, "lon": 15.635647, "tags": {"amenity": "restaurant", "name": "Milano", "opening_hours": "Mo-Fr 11:00-14:00", "website": "https://milanofalun.se"}}, {"type": "node", "id": 8449878426, "lat": 60.6212217, "lon": 15.5955813, "tags": {"amenity": "restaurant", "cuisine": "pizza;kebab", "diet:gluten_free": "yes", "name": "Sl\u00e4tta Pizzeria & Kebab", "phone": "+46 23 640 44"}}, {"type": "node", "id": 8567957469, "lat": 60.4620966, "lon": 15.475436, "tags": {"amenity": "restaurant", "indoor_seating": "yes", "name": "Tunasalen", "opening_hours": "Mo-Fr 08:00-14:00; Sa,Su 11:00-15:00", "outdoor_seating": "no", "payment:cash": "yes", "website": "https://tunasalen.se"}}, {"type": "node", "id": 8603121255, "lat": 60.4857238, "lon": 15.4328533, "tags": {"amenity": "restaurant", "indoor_seating": "yes", "name": "Tairyo", "opening_hours": "Mo-Fr 11:00-21:00; Sa 11:00-22:00", "outdoor_seating": "yes", "payment:cash": "no", "payment:credit_cards": "yes", "payment:debit_cards": "yes"}}, {"type": "node", "id": 8777424665, "lat": 60.4842948, "lon": 15.4310464, "tags": {"amenity": "restaurant", "indoor_seating": "yes", "name": "Hawaii Pizzeria", "opening_hours": "Mo-Th 10:00-22:00, Fr 10:00-03:00, Sa 12:00-03:00, Su 12:00-22:00", "outdoor_seating": "yes", "phone": "+46 243 199 05"}}, {"type": "node", "id": 8798245882, "lat": 60.5876616, "lon": 15.712099, "tags": {"amenity": "restaurant", "cuisine": "pizza", "name": "Pizzeria Chic"}}, {"type": "node", "id": 8831887401, "lat": 60.4331397, "lon": 16.2130369, "tags": {"amenity": "restaurant", "name": "Sommarst\u00e4llet"}}, {"type": "node", "id": 8859151013, "lat": 60.6086156, "lon": 15.629478, "tags": {"addr:city": "Falun", "addr:country": "SE", "addr:housenumber": "28", "addr:postcode": "791 71", "addr:street": "\u00c5sgatan", "amenity": "cafe", "bakehouse": "yes", "cuisine": "sandwich;salad", "diet:gluten_free": "yes", "email": "info@falubrod.se", "name": "Falu Br\u00f6d & Patisserie", "opening_hours": "Mo-Fr 07:30-17:00; Sa 10:00-17:00", "phone": "+46 23 166 99", "shop": "bakery", "website": "https://www.falubrod.se"}}, {"type": "node", "id": 9115150146, "lat": 60.4756377, "lon": 15.7204297}, {"type": "node", "id": 9115150147, "lat": 60.4756044, "lon": 15.7204473}, {"type": "node", "id": 9115150148, "lat": 60.475411, "lon": 15.7205521}, {"type": "node", "id": 9115150149, "lat": 60.4754354, "lon": 15.7205392}, {"type": "node", "id": 9115150150, "lat": 60.4754752, "lon": 15.7204498}, {"type": "node", "id": 9115150151, "lat": 60.4755453, "lon": 15.7204128}, {"type": "node", "id": 9115150152, "lat": 60.4754812, "lon": 15.7204967}, {"type": "node", "id": 9115150153, "lat": 60.4755513, "lon": 15.7204597}, {"type": "node", "id": 9288716548, "lat": 60.6063448, "lon": 15.6327221, "tags": {"amenity": "restaurant", "indoor_seating": "yes", "name": "R\u00f6kbacken", "opening_hours": "Tu-Sa 11:00-22:00", "outdoor_seating": "yes"}}, {"type": "node", "id": 9288721317, "lat": 60.602574, "lon": 15.6468589, "tags": {"amenity": "cafe", "name": "Caf\u00e9 Lokstallet", "opening_hours": "Sa 12:00-16:00; Su 12:00-17:00"}}, {"type": "node", "id": 9360675066, "lat": 60.4867736, "lon": 15.4324028, "tags": {"addr:city": "Borl\u00e4nge", "addr:country": "SE", "addr:housenumber": "7", "addr:postcode": "784 33", "addr:street": "Sveagatan", "amenity": "cafe", "cuisine": "coffee_shop;sandwich;frozen_yogurt;lunch", "indoor_seating": "yes", "name": "Herman's Bistro", "opening_hours": "Mo-We 10:00-18:00; Th,Fr 10:00-21:00; Sa 10:00-16:00", "outdoor_seating": "yes", "shop": "florist", "website": "https://hermansbistro.se"}}, {"type": "node", "id": 9835741452, "lat": 60.484097, "lon": 15.4179001, "tags": {"amenity": "restaurant", "check_date": "2022-06-21", "level": "2", "name": "Matpalatset"}}, {"type": "node", "id": 9880941736, "lat": 60.607242, "lon": 15.6282622, "tags": {"alt_name": "Caf\u00e9 EkoReko", "amenity": "cafe", "check_date": "2023-03-01", "contact:facebook": "caferekommenderasifalun", "cuisine": "fair_trade", "email": "falun@rekommenderas.coop", "fair_trade": "only", "indoor_seating": "yes", "name": "Caf\u00e9 REKOmmenderas", "opening_hours": "Mo-Fr 10:00-17:00; Sa 10:00-14:00", "outdoor_seating": "no", "phone": "+46 70 5 26 66 40", "website": "https://rekommenderas.coop/falun/"}}, {"type": "node", "id": 9882885351, "lat": 60.6035839, "lon": 15.6563457, "tags": {"amenity": "restaurant", "contact:facebook": "https://www.facebook.com/Jacks-Corner-106280302090001/", "cuisine": "kebab;pizza", "indoor_seating": "yes", "name": "Jacks Corner", "opening_date": "2022-07-12", "opening_hours": "Mo-Th 11:00-21:00; Fr 11:00-22:00; Sa 12:00-22:00; Su 12:00-21:00", "outdoor_seating": "yes", "phone": "+46 233-88 52 88", "takeaway": "yes"}}, {"type": "node", "id": 10054804556, "lat": 60.4815943, "lon": 15.5214223, "tags": {"addr:city": "Borl\u00e4nge", "addr:country": "SE", "addr:housenumber": "3", "addr:postcode": "784 78", "addr:street": "Dalsj\u00f6", "amenity": "restaurant", "name": "Dalsj\u00f6 Golfkrog"}}, {"type": "node", "id": 10230603571, "lat": 60.6068497, "lon": 15.6296707, "tags": {"amenity": "bar", "indoor_seating": "yes", "level": "0", "name": "Dog Bar", "opening_hours": "Su-Fr 11:00-23:00+, Sa 11:00-02:00", "outdoor_seating": "yes"}}, {"type": "node", "id": 10236421967, "lat": 60.5162064, "lon": 15.414046, "tags": {"amenity": "cafe", "name": "Boulancerie Gauffin P\u00e2tisserie", "short_name": "Gauffin", "website": "https://gauffinboulangerie.se"}}, {"type": "node", "id": 10236421969, "lat": 60.5157268, "lon": 15.414426, "tags": {"amenity": "restaurant", "cuisine": "sushi", "name": "Dala Sushi"}}, {"type": "node", "id": 10694312484, "lat": 60.4817537, "lon": 15.4211366, "tags": {"amenity": "restaurant", "name": "IKEA"}}, {"type": "node", "id": 10852437486, "lat": 60.4962079, "lon": 15.4210208, "tags": {"amenity": "restaurant", "cuisine": "pizza;kebab", "name": "G-son pizzeria & gatuk\u00f6k", "opening_hours": "Mo-Su 11:00-22:00", "phone": "+46 243 140 55"}}, {"type": "node", "id": 10852437487, "lat": 60.4954417, "lon": 15.4218765, "tags": {"amenity": "restaurant", "cuisine": "pizza", "name": "Il Castello"}}, {"type": "node", "id": 11114291824, "lat": 60.4756445, "lon": 15.4337388, "tags": {"amenity": "restaurant", "name": "D\u00f6ner Kebab & Pizzeria"}}, {"type": "node", "id": 11119937662, "lat": 60.4899036, "lon": 15.4270123, "tags": {"amenity": "restaurant", "name": "Salt & Citron"}}, {"type": "node", "id": 11365644786, "lat": 60.4810453, "lon": 15.4329553, "tags": {"amenity": "restaurant", "bar": "yes", "check_date": "2024-02-12", "contact:website": "https://www.casadella.se/", "cuisine": "italian", "name": "Casa Della Pasta", "opening_hours": "Mo 16:00-21:00; Tu-Fr 16:00-22:00; Sa 14:00-22:00; Su 14:00-21:00"}}, {"type": "way", "id": 43836009, "nodes": [556146031, 556146047, 556146062, 556146071, 556146083, 556146095, 556146031], "tags": {"amenity": "restaurant", "building": "yes", "indoor_seating": "yes", "name": "Gamla Staberg Tr\u00e4dg\u00e5rdscaf\u00e9 & K\u00f6k", "outdoor_seating": "yes", "source": "http://gavle.to/~openstreetmap/tiles/13f/!/!/!.png", "wheelchair": "no"}}, {"type": "way", "id": 55259561, "nodes": [694345247, 694345248, 1617126447, 694345249, 694345250, 1617126446, 1617126439, 1617126444, 1617126445, 694345251, 1617126443, 1617126434, 694345252, 694345253, 694345254, 694345247], "tags": {"addr:city": "Falun", "addr:country": "SE", "addr:housenumber": "18", "addr:postcode": "791 40", "addr:street": "Bataljonsv\u00e4gen", "alt_name": "Matsalen", "amenity": "restaurant", "building": "yes", "name": "Dalasalen", "opening_hours": "Mo-Fr 11:00-14:00; Sa,Su 12:00-15:00; week 25-32 Sa,Su off", "phone": "+46 23-18382", "source": "Ekonomiska kartan;Bing", "website": "https://dalasalen.se/", "wikimedia_commons": "Category:Dalasalen"}}, {"type": "way", "id": 57715100, "nodes": [715555101, 715555102, 715555104, 715555107, 3872402297, 3872402298, 715555101], "tags": {"addr:city": "Borl\u00e4nge", "addr:country": "SE", "addr:housenumber": "6", "addr:postcode": "784 78", "addr:street": "Tomn\u00e4s", "amenity": "restaurant", "building": "yes", "description": "Endast f\u00f6rbest\u00e4llning", "name": "Hagan\u00e4s", "phone": "+46-243-22 30 33", "source": "Ekonomiska kartan", "wheelchair": "no"}}, {"type": "way", "id": 73587281, "nodes": [872112822, 872112827, 872112835, 872112840, 872112822], "tags": {"addr:city": "Falun", "addr:country": "SE", "addr:housenumber": "54", "addr:street": "Berghauptmansgatan", "amenity": "cafe", "building": "yes", "building:colour": "#801818", "building:levels": "1", "building:material": "wood", "ele": "132", "name": "Caf\u00e9 Bagarstugan", "opening_hours": "Mo-Fr 10:00-17:00; Sa-Su 11:00-16:00", "roof:colour": "#222222", "roof:levels": "1", "roof:material": "metal", "roof:shape": "gabled", "source": "Bing"}}, {"type": "way", "id": 87819710, "nodes": [1020942063, 1020942072, 1020942652, 1020942144, 1020942063], "tags": {"addr:country": "SE", "addr:housenumber": "55", "addr:street": "Gruvgatan", "amenity": "restaurant", "building": "yes", "building:colour": "#DAAD34", "building:levels": "2", "building:material": "plaster", "check_date": "2023-12-16", "cuisine": "regional", "email": "hej@kokkonsten.com", "name": "Geschwornerg\u00e5rden", "opening_hours": "Mo-Fr 11:00-14:00; Sa-Su 11:30-14:00", "payment:cash": "yes", "payment:credit_cards": "yes", "payment:debit_cards": "yes", "phone": "+46 23 721 09 01", "roof:shape": "hipped", "source": "Bing", "website": "https://geschwornergarden.se/"}}, {"type": "way", "id": 89036135, "nodes": [1033178876, 1033178870, 1033178869, 7028930216, 1124356995, 1124357023, 1033178899, 1033178911, 1033178920, 1033178873, 1033178931, 1033178867, 1033178886, 1033178936, 1033178876], "tags": {"amenity": "restaurant", "building": "yes", "name": "Restaurang Loket", "opening_hours": "Mo-Fr 11:00-12:30", "source": "Bing"}}, {"type": "way", "id": 89210146, "nodes": [1035404582, 1035404387, 1035404185, 1035404286, 1035404327, 1035404180, 1035403988, 1035404177, 1035404582], "tags": {"addr:city": "Falun", "addr:country": "SE", "addr:housenumber": "9", "addr:postcode": "791 77", "addr:street": "Ingarvsv\u00e4gen", "amenity": "restaurant", "building": "yes", "name": "Restaurang G\u00e4stabudet", "source": "Bing"}}, {"type": "way", "id": 95018074, "nodes": [1102511134, 1102511373, 1102511507, 1102511460, 1102511208, 1102511313, 1102511134], "tags": {"addr:city": "Falun", "addr:country": "SE", "addr:housenumber": "19", "addr:postcode": "791 35", "addr:street": "Norra J\u00e4rnv\u00e4gsgatan", "amenity": "restaurant", "bar": "yes", "building": "restaurant", "check_date": "2023-06-11", "cuisine": "pizza", "highchair": "yes", "name": "Pizzeria Venezia", "opening_hours": "Mo-Th 11:00-20:00; Fr 11:00-21:00; Sa,Su 12:00-21:00", "phone": "+46 23 643 35", "wheelchair": "yes"}}, {"type": "way", "id": 120494371, "nodes": [1351015243, 1351015248, 1351015246, 1351015259, 1351015257, 1351015244, 1351015242, 1351015241, 1351015243], "tags": {"amenity": "cafe", "building": "yes", "name": "Caf\u00e9 Sundets Stj\u00e4rna"}}, {"type": "way", "id": 131652820, "nodes": [1448711352, 1448711348, 1448711353, 1448711350, 1448711345, 1448711354, 1448711344, 1448711347, 1448711351, 1448711346, 1448711343, 1448711352], "tags": {"amenity": "restaurant", "building": "yes", "name": "Domnarvsg\u00e5rden", "source": "local_knowledge"}}, {"type": "way", "id": 142804311, "nodes": [1562780427, 1562780361, 1562780435, 1562780422, 1562780427], "tags": {"addr:city": "Falun", "addr:country": "SE", "addr:housenumber": "33", "addr:street": "Norra J\u00e4rnv\u00e4gsgatan", "amenity": "restaurant", "building": "yes", "cuisine": "pizza", "name": "Pizzeria Varpan", "phone": "+46 23 199 60", "website": "https://varpanpizzeria.se"}}, {"type": "way", "id": 151317818, "nodes": [1641473325, 9115150149, 9115150148, 1641473328, 1641473330, 9115150146, 9115150147, 1641473332, 9115150153, 9115150151, 9115150150, 9115150152, 1641473325], "tags": {"amenity": "restaurant", "building": "yes", "historic": "manor", "name": "Rankhyttans herrg\u00e5rd", "source": "Ekonomiska kartan;survey"}}, {"type": "way", "id": 158588119, "nodes": [1707563535, 1707563539, 1707563536, 1707563533, 1707563535], "tags": {"alt_name": "Edskens Strandcaf\u00e9", "amenity": "cafe", "building": "yes", "name": "Restaurang Edsken Caf\u00e9et", "source": "Bing"}}, {"type": "way", "id": 167037491, "nodes": [1784418780, 7041347271, 7041347273, 1784418782, 7041347272, 1784418781, 1784418777, 7041347270, 1784418780], "tags": {"addr:city": "Falun", "addr:country": "SE", "addr:housenumber": "2", "addr:postcode": "791 56", "addr:street": "Glimmerstigen", "amenity": "restaurant", "bar": "yes", "building": "yes", "check_date": "2022-05-28", "cuisine": "pizza;kebab", "delivery": "yes", "diet:vegetarian": "yes", "indoor_seating": "yes", "name": "Galgbergets Restaurang och Pizzeria", "opening_hours": "May-Aug Mo-Fr 11:00-22:00; May-Aug Sa,Su 12:00-22:00; Sep-Apr Mo-Th 11:00-21:00; Sep-Apr Fr 11:00-22:00; Sep-Apr Sa,Su 12:00-22:00", "outdoor_seating": "yes", "payment:cash": "yes", "payment:mastercard": "yes", "payment:swish": "yes", "payment:visa": "yes", "phone": "+46 23 66 30 242", "source": "Bing", "takeaway": "yes", "toilets": "yes", "website": "https://www.galgbergetspizzeria.se"}}, {"type": "way", "id": 234708950, "nodes": [2428564000, 2428564001, 2428563998, 2428564006, 2428563994, 2428563993, 2428563997, 2428563992, 2428564000], "tags": {"addr:city": "Borl\u00e4nge", "addr:country": "SE", "addr:housenumber": "3", "addr:postcode": "784 68", "addr:street": "Mellstav\u00e4gen", "alt_name": "Servering & Butik", "amenity": "cafe", "building": "yes", "name": "Mellsta Camping", "source": "Bing;survey"}}, {"type": "way", "id": 364188384, "nodes": [3682517662, 3682517663, 3682517664, 3682517665, 3682517662], "tags": {"amenity": "restaurant", "building": "yes", "building:colour": "#D7D9D8", "building:levels": "1", "cuisine": "pizza", "name": "BBQ k\u00f6ket", "old_name": "Pizzeria Viking;Lilla Thai;Gulans;Nordan\u00e5kers Kiosk & Grill", "source": "Bing"}}, {"type": "way", "id": 428051905, "nodes": [4272022183, 4272022179, 4272022182, 4272022184, 4272022181, 4272022180, 4272022183], "tags": {"addr:city": "Falun", "addr:country": "SE", "addr:housenumber": "62", "addr:postcode": "791 38", "addr:street": "Gamla Grycksbov\u00e4gen", "amenity": "cafe", "building": "yes", "description": "Gulln\u00e4sg\u00e5rden \u00e4r Nybrokyrkans sommarg\u00e5rd", "name": "Gulln\u00e4sg\u00e5rden", "operator": "Nybrokyrkan", "phone": "+46 23-10406", "tourism": "hostel", "website": "https://gullnasgarden.se/"}}, {"type": "way", "id": 438745165, "nodes": [4364263351, 4364263352, 4364263350, 4364263349, 4364263351], "tags": {"amenity": "restaurant", "building": "yes", "name": "B\u00e4verhyddans V\u00e4rdshus"}}, {"type": "way", "id": 608444306, "nodes": [5764498334, 5764498335, 5764498336, 5764498337, 5764498334], "tags": {"addr:country": "SE", "addr:housenumber": "10", "addr:street": "Carl Larssons v\u00e4g", "amenity": "restaurant", "building": "yes", "delivery": "no", "indoor_seating": "yes", "name": "Hyttstugan Restaurant & Caf\u00e9", "outdoor_seating": "yes", "smoking": "no", "takeaway": "no", "website": "https://hyttstugan.nu/"}}, {"type": "way", "id": 785844438, "nodes": [7346075613, 7346075614, 7346075615, 7346075616, 7346075613], "tags": {"amenity": "restaurant", "building": "yes", "name": "Grycksbokrogen"}}]}