{"version": 0.6, "generator": "Overpass API 0.7.61.5 4133829e", "osm3s": {"timestamp_osm_base": "2024-03-08T21:11:44Z", "copyright": "The data included in this document is from www.openstreetmap.org. The data is made available under ODbL."}, "elements": [{"type": "node", "id": 340460141, "lat": 56.8728888, "lon": 14.8058846, "tags": {"amenity": "cafe", "name": "Caf\u00e8 Strandbj\u00f6rket", "opening_hours": "\"Sorry, we are closed\""}}, {"type": "node", "id": 1000789572, "lat": 56.8793052, "lon": 14.7989502, "tags": {"amenity": "restaurant", "cuisine": "italian", "name": "La Castellina", "wheelchair": "yes"}}, {"type": "node", "id": 1000789575, "lat": 56.8790372, "lon": 14.8001773, "tags": {"amenity": "restaurant", "name": "Hong Kong"}}, {"type": "node", "id": 1000792666, "lat": 56.8820591, "lon": 14.8014431, "tags": {"amenity": "restaurant", "cuisine": "pizza", "name": "Classico Resturang & Pizzeria", "opening_hours": "Mo-Su 10:00-22:00"}}, {"type": "node", "id": 1194692246, "lat": 56.8745396, "lon": 14.7872484}, {"type": "node", "id": 1194692479, "lat": 56.8745151, "lon": 14.7870713}, {"type": "node", "id": 1194692808, "lat": 56.874318, "lon": 14.7871629}, {"type": "node", "id": 1194692968, "lat": 56.8743426, "lon": 14.78734}, {"type": "node", "id": 1310256873, "lat": 56.8690524, "lon": 14.7210876, "tags": {"amenity": "cafe", "name": "Svenska Tantens Tr\u00e4dg\u00e5rdscaf\u00e9"}}, {"type": "node", "id": 1335757914, "lat": 56.8719183, "lon": 14.6538956, "tags": {"amenity": "cafe"}}, {"type": "node", "id": 1380742859, "lat": 56.8593955, "lon": 14.6529112, "tags": {"amenity": "restaurant", "cuisine": "steak_house", "name": "Gemla viltrestaurang - wild food"}}, {"type": "node", "id": 1863018992, "lat": 56.877463, "lon": 14.80479, "tags": {"addr:city": "V\u00e4xj\u00f6", "addr:street": "B\u00e4ckgatan", "amenity": "restaurant", "cuisine": "diner", "delivery": "no", "internet_access": "no", "name": "Bar & Restaurang B\u00e5tsmannen", "outdoor_seating": "yes", "smoking": "outside", "wheelchair": "yes"}}, {"type": "node", "id": 2159448010, "lat": 56.7767985, "lon": 14.5913602}, {"type": "node", "id": 2159448013, "lat": 56.7768382, "lon": 14.5911172}, {"type": "node", "id": 2159448020, "lat": 56.7769778, "lon": 14.5914578}, {"type": "node", "id": 2159448021, "lat": 56.7770175, "lon": 14.5912148}, {"type": "node", "id": 2159448067, "lat": 56.7781693, "lon": 14.5907416}, {"type": "node", "id": 2159448073, "lat": 56.7782047, "lon": 14.5905014}, {"type": "node", "id": 2159448107, "lat": 56.7784141, "lon": 14.590862}, {"type": "node", "id": 2159448111, "lat": 56.7784495, "lon": 14.5906218}, {"type": "node", "id": 2286925387, "lat": 56.88782, "lon": 14.77621, "tags": {"addr:city": "V\u00e4xj\u00f6", "addr:country": "SE", "addr:housenumber": "2", "addr:street": "Sl\u00f6jdgatan", "amenity": "restaurant", "cuisine": "pizza", "name": "Pizza Lovers", "outdoor_seating": "yes", "smoking": "outside", "website": "https://www.pizzalover.se/", "wheelchair": "yes"}}, {"type": "node", "id": 2450576074, "lat": 56.8758345, "lon": 14.8107521, "tags": {"amenity": "cafe", "indoor_seating": "yes", "name": "Caf\u00e9 Fontaine", "outdoor_seating": "yes"}}, {"type": "node", "id": 2451252466, "lat": 56.8772227, "lon": 14.8067886, "tags": {"amenity": "restaurant", "cuisine": "pizza", "name": "Pizzeria Excelle", "opening_hours": "Mo-Fr 10:30-22:00;Sa-Su 12:00-22:00", "phone": "+46-470-449 66", "wheelchair": "limited"}}, {"type": "node", "id": 2452732406, "lat": 56.8779585, "lon": 14.8086513, "tags": {"amenity": "restaurant", "name": "Lagerlunden Bistro & Bar"}}, {"type": "node", "id": 2452732407, "lat": 56.8774655, "lon": 14.8081277, "tags": {"amenity": "restaurant", "cuisine": "sushi", "name": "Moshi Moshi"}}, {"type": "node", "id": 2452732408, "lat": 56.8773404, "lon": 14.8080945, "tags": {"amenity": "restaurant", "name": "Pastabaren"}}, {"type": "node", "id": 2452732409, "lat": 56.8777702, "lon": 14.8082114, "tags": {"amenity": "restaurant", "cuisine": "pizza", "name": "Pizzeria Napoli"}}, {"type": "node", "id": 2452732425, "lat": 56.8773848, "lon": 14.8084621, "tags": {"amenity": "restaurant", "cuisine": "burger;regional;kebab", "name": "The Grill House"}}, {"type": "node", "id": 2921710467, "lat": 56.7423822, "lon": 14.5742948, "tags": {"amenity": "cafe", "internet_access": "no", "name": "V\u00e5ffelcaf\u00e9 Rosenlund", "opening_hours": "Jun-Aug: We 15:00-20:00, Su 14:00-19:00", "operator": "Skatel\u00f6vs Hembygdsf\u00f6reningen", "website": "https://www.hembygd.se/skatelov/"}}, {"type": "node", "id": 3328501918, "lat": 56.8789106, "lon": 14.8024767, "tags": {"addr:city": "V\u00e4xj\u00f6", "addr:country": "SE", "addr:housenumber": "25", "addr:postcode": "35230", "addr:street": "Storgatan", "amenity": "cafe", "cuisine": "cake", "name": "Askelyckan"}}, {"type": "node", "id": 3328511715, "lat": 56.8789832, "lon": 14.7994454, "tags": {"amenity": "restaurant", "cuisine": "japanese", "name": "Rose Garden"}}, {"type": "node", "id": 3871530542, "lat": 56.8788107, "lon": 14.8071066, "tags": {"amenity": "cafe", "brand": "Espresso House", "brand:wikidata": "Q10489162", "brand:wikipedia": "sv:Espresso House", "cuisine": "coffee_shop", "name": "Espresso House", "opening_hours": "Mo-Fr 07:00-22:00, Sa 09:00-23:00, Su,PH 09:00-21:00", "takeaway": "yes", "wheelchair": "limited"}}, {"type": "node", "id": 3871530544, "lat": 56.8793559, "lon": 14.8050734, "tags": {"amenity": "restaurant", "cuisine": "indian", "name": "King of India", "opening_hours": "Mo-Sa 11:00-15:00", "wheelchair": "limited"}}, {"type": "node", "id": 3922140130, "lat": 56.8794868, "lon": 14.8019104, "tags": {"addr:city": "V\u00e4xj\u00f6", "addr:country": "SE", "addr:housenumber": "6", "addr:postcode": "352 31", "addr:street": "V\u00e4stra Esplanaden", "amenity": "restaurant", "cuisine": "sushi", "name": "Miso", "opening_hours": "Mo-Th 11:00-20:00, Fr 11:00-21:00, Sa 12:00-21:00, Su 13:00-20:00", "phone": "+46 470 777666", "smoking": "no", "takeaway": "yes", "website": "https://www.misomiso.se/", "wheelchair": "no"}}, {"type": "node", "id": 4385635810, "lat": 56.8757507, "lon": 14.8124623}, {"type": "node", "id": 4385635811, "lat": 56.8757558, "lon": 14.8124266}, {"type": "node", "id": 4385635812, "lat": 56.8757617, "lon": 14.812385}, {"type": "node", "id": 4385635813, "lat": 56.875766, "lon": 14.8123324}, {"type": "node", "id": 4385635814, "lat": 56.875771, "lon": 14.8122833}, {"type": "node", "id": 4385635815, "lat": 56.8757738, "lon": 14.8122387}, {"type": "node", "id": 4385635816, "lat": 56.8757763, "lon": 14.8118046}, {"type": "node", "id": 4385635817, "lat": 56.875778, "lon": 14.8118504}, {"type": "node", "id": 4385635818, "lat": 56.8757785, "lon": 14.8121765}, {"type": "node", "id": 4385635819, "lat": 56.8757802, "lon": 14.811909}, {"type": "node", "id": 4385635820, "lat": 56.8757808, "lon": 14.8121195}, {"type": "node", "id": 4385635821, "lat": 56.8757815, "lon": 14.8119636}, {"type": "node", "id": 4385635822, "lat": 56.8757823, "lon": 14.8120525}, {"type": "node", "id": 4385635824, "lat": 56.8758656, "lon": 14.8125185}, {"type": "node", "id": 4385635825, "lat": 56.8759543, "lon": 14.8118985}, {"type": "node", "id": 4723591720, "lat": 56.8823991, "lon": 14.7638303}, {"type": "node", "id": 4723591721, "lat": 56.8825412, "lon": 14.7642176}, {"type": "node", "id": 4723591722, "lat": 56.8826475, "lon": 14.764087}, {"type": "node", "id": 4723591723, "lat": 56.8825054, "lon": 14.7636997}, {"type": "node", "id": 4929474521, "lat": 56.8777658, "lon": 14.8062466, "tags": {"addr:country": "SE", "addr:housenumber": "19", "addr:street": "Sandg\u00e4rdsgatan", "amenity": "restaurant", "name": "Kafe de Luxe"}}, {"type": "node", "id": 6473760885, "lat": 56.8785579, "lon": 14.8070671, "tags": {"addr:country": "SE", "addr:housenumber": "7", "addr:postcode": "352 30", "addr:street": "Klostergatan", "amenity": "bar", "name": "Chapter House"}}, {"type": "node", "id": 7134083566, "lat": 56.7381448, "lon": 14.5403325, "tags": {"amenity": "restaurant", "cuisine": "pizza"}}, {"type": "node", "id": 8049749368, "lat": 56.8841191, "lon": 14.7661553, "tags": {"addr:city": "V\u00e4xj\u00f6", "addr:country": "SE", "addr:housenumber": "32", "addr:postcode": "35246", "addr:street": "Hejaregatan", "amenity": "restaurant", "cuisine": "sushi", "name": "Sushi Yama", "opening_hours": "Mo-Fr 10:00-18:00; Sa-Su 10:00-18:00", "phone": "+46 47 078 9000", "website": "https://www.sushiyama.se/"}}, {"type": "node", "id": 8396852658, "lat": 56.8556458, "lon": 14.827949, "tags": {"addr:city": "V\u00e4xj\u00f6", "addr:country": "SE", "addr:housenumber": "5", "addr:postcode": "352 52", "addr:street": "Vejdes plats", "amenity": "restaurant", "name": "Restaurang Rasken", "opening_hours": "Mo-Fr 11:30-14:00", "opening_hours:covid19": "closed", "phone": "+46 470 72 84 80", "website": "https://www.hors.se/vaxjo/17/5/restaurang-rasken/"}}, {"type": "node", "id": 8396852659, "lat": 56.8552769, "lon": 14.8300025, "tags": {"addr:city": "V\u00e4xj\u00f6", "addr:country": "SE", "addr:housenumber": "7", "addr:postcode": "351 95", "addr:street": "Pelarplatsen", "amenity": "cafe", "name": "Prego Astrakan", "website": "https://www.hors.se/vaxjo/17/6/prego-astrakan/"}}, {"type": "node", "id": 8402511218, "lat": 56.8547257, "lon": 14.8311069, "tags": {"addr:city": "V\u00e4xj\u00f6", "addr:country": "SE", "addr:housenumber": "1", "addr:postcode": "351 95", "addr:street": "Universitetsplatsen", "amenity": "restaurant", "name": "Restaurang Kristina", "opening_hours": "Mo-Fr 11:00-14:00", "phone": "+46 470 809 20", "website": "https://www.hors.se/vaxjo/17/3/restaurang-kristina/"}}, {"type": "node", "id": 8402511219, "lat": 56.8547315, "lon": 14.831005, "tags": {"addr:city": "V\u00e4xj\u00f6", "addr:country": "SE", "addr:housenumber": "1", "addr:postcode": "351 95", "addr:street": "Universitetsplatsen", "amenity": "cafe", "name": "Kristinas Bakficka", "opening_hours": "8:00-15:30", "phone": "+46 470 809 20", "website": "https://www.hors.se/vaxjo/17/4/kristinas-bakficka/"}}, {"type": "node", "id": 8402511220, "lat": 56.8540661, "lon": 14.832835, "tags": {"addr:city": "V\u00e4xj\u00f6", "addr:country": "SE", "addr:housenumber": "1", "addr:postcode": "352 52", "addr:street": "Gerorg L\u00fcckligs v\u00e4g", "amenity": "cafe", "name": "Kaffebaren M-Huset", "opening_hours:covid19": "closed", "phone": "+46 70 551 30 58", "website": "https://www.hors.se/vaxjo/17/8/kaffebaren-m-huset/"}}, {"type": "node", "id": 8402511221, "lat": 56.8558682, "lon": 14.8297584, "tags": {"addr:city": "V\u00e4xj\u00f6", "addr:country": "SE", "addr:housenumber": "5", "addr:postcode": "352 52", "addr:street": "Pelarplatsen", "amenity": "restaurant", "name": "Maestro Pizzeria", "opening_hours": "Mo-Fr 11:00-21:00 Sa-Su 12:00-21:00", "phone": "+46 470 72 33 44", "website": "https://www.maestrovaxjo.se/"}}, {"type": "node", "id": 8571079606, "lat": 56.7094514, "lon": 14.639451, "tags": {"amenity": "cafe", "name": "Vrankunge Tr\u00e4dg\u00e5rd", "opening_hours": "Mo-Su 11:00-17:00", "website": "https://www.facebook.com/Vrankunge-Tr%C3%A4dg%C3%A5rd-569618366390271/"}}, {"type": "node", "id": 8576149049, "lat": 56.8541662, "lon": 14.8305858, "tags": {"amenity": "cafe", "brand": "Starbucks", "brand:wikidata": "Q37158", "brand:wikipedia": "en:Starbucks", "cuisine": "coffee_shop", "name": "Starbucks", "official_name": "Starbucks Coffee", "takeaway": "yes"}}, {"type": "node", "id": 8600472812, "lat": 56.8595448, "lon": 14.8219254, "tags": {"addr:city": "V\u00e4xj\u00f6", "addr:country": "SE", "addr:housenumber": "3G", "addr:postcode": "35222", "addr:street": "Anna Koskulls gata", "amenity": "restaurant", "cuisine": "pizza", "name": "Restaurang & Pizzeria Trummen", "phone": "0470-835 50", "takeaway": "yes", "website": "https://www.trummensbellavista.se/"}}, {"type": "node", "id": 8643142985, "lat": 56.8768556, "lon": 14.7723191, "tags": {"addr:city": "V\u00e4xj\u00f6", "addr:country": "SE", "addr:housenumber": "11", "addr:postcode": "352 36", "addr:street": "Marketenteriv\u00e4gen", "amenity": "restaurant", "cuisine": "pizza", "name": "Elvan"}}, {"type": "node", "id": 8794953928, "lat": 56.8781896, "lon": 14.8123132, "tags": {"amenity": "cafe", "check_date": "2023-07-18", "name": "Domkyrkocentrum"}}, {"type": "node", "id": 8794954077, "lat": 56.8782046, "lon": 14.8130425, "tags": {"amenity": "restaurant", "name": "Tam Nak Thai"}}, {"type": "node", "id": 8795172208, "lat": 56.8756766, "lon": 14.8068494, "tags": {"amenity": "restaurant", "name": "Izakaya Moshi"}}, {"type": "node", "id": 9007571661, "lat": 56.8771027, "lon": 14.7723748, "tags": {"addr:country": "SE", "addr:housenumber": "15", "addr:street": "Marketenteriv\u00e4gen", "amenity": "restaurant", "cuisine": "sandwich", "name": "Ingers Sm\u00f6rg\u00e5sar", "opening_hours": "Mo-Fr 08:00-16:30; Sa 10:00-15:00", "phone": "0470-268 50"}}, {"type": "node", "id": 9056454820, "lat": 56.8660684, "lon": 14.8271377, "tags": {"amenity": "restaurant", "name": "Mer \u00e4n Mat", "website": "https://facebook.com/restaurangmam/"}}, {"type": "node", "id": 9135019575, "lat": 56.8769764, "lon": 14.8063362, "tags": {"amenity": "cafe", "brand": "Espresso House", "brand:wikidata": "Q10489162", "brand:wikipedia": "sv:Espresso House", "cuisine": "coffee_shop", "name": "Espresso House", "takeaway": "yes"}}, {"type": "node", "id": 9196215417, "lat": 56.8789463, "lon": 14.8053708, "tags": {"amenity": "restaurant", "name:en": "Umami monkey"}}, {"type": "node", "id": 9477178962, "lat": 56.8531207, "lon": 14.8204383, "tags": {"addr:city": "V\u00e4xj\u00f6", "addr:country": "SE", "addr:housenumber": "70", "addr:street": "Smedsv\u00e4ngen", "amenity": "restaurant", "name": "Kungsgrillen", "phone": "047081300", "takeaway": "yes", "website": "https://xn--kungsgrillenvxj-dlb22a.se/"}}, {"type": "node", "id": 9547796815, "lat": 56.8781476, "lon": 14.8061261, "tags": {"amenity": "restaurant", "cuisine": "steak_house", "name": "Black Stone"}}, {"type": "node", "id": 9547866817, "lat": 56.876772, "lon": 14.8075796, "tags": {"amenity": "restaurant", "cuisine": "sushi"}}, {"type": "node", "id": 9547866818, "lat": 56.8782793, "lon": 14.8063222, "tags": {"amenity": "cafe", "name": "Oas"}}, {"type": "node", "id": 9547866819, "lat": 56.877904, "lon": 14.8063208, "tags": {"amenity": "restaurant", "name": "Signatur"}}, {"type": "node", "id": 9547866820, "lat": 56.8778828, "lon": 14.8064839, "tags": {"amenity": "restaurant", "name": "di Massimo"}}, {"type": "node", "id": 9937236199, "lat": 56.6912766, "lon": 14.6049339, "tags": {"addr:city": "Torne", "addr:country": "SE", "addr:housenumber": "8", "addr:postcode": "355 97", "addr:street": "Brov\u00e4gen", "amenity": "cafe", "cuisine": "coffee_shop;cake;snackbar;getr\u00e4nke", "description": "streetfood and cafe", "name": "Annorlunda", "outdoor_seating": "yes"}}, {"type": "node", "id": 9955447234, "lat": 56.6226615, "lon": 14.5480428, "tags": {"amenity": "cafe", "self_service": "only"}}, {"type": "node", "id": 10114783132, "lat": 56.8555428, "lon": 14.8305843, "tags": {"addr:city": "V\u00e4xj\u00f6", "addr:postcode": "352 52", "amenity": "restaurant", "opening_hours": "Mo-Fr 08:00-15:00", "phone": "+46 470 72 84 80", "website": "https://Caf\u00e9 och Salladsbar by Nordrest"}}, {"type": "node", "id": 10114783133, "lat": 56.8507843, "lon": 14.8269061, "tags": {"addr:city": "V\u00e4xj\u00f6", "amenity": "restaurant", "name": "Slow Mo Steakhouse", "website": "https://www.slowmosmokehouse.se/"}}, {"type": "node", "id": 11053580122, "lat": 56.8787729, "lon": 14.807406, "tags": {"amenity": "bar", "check_date": "2023-07-18", "name": "O'Learys"}}, {"type": "node", "id": 11053583739, "lat": 56.8789989, "lon": 14.8040981, "tags": {"amenity": "restaurant", "check_date": "2023-07-18", "name": "Un Restaurant Total"}}, {"type": "node", "id": 11053586040, "lat": 56.8792102, "lon": 14.8031243, "tags": {"amenity": "restaurant", "check_date": "2023-07-18", "cuisine": "pizza", "name": "Via Venetto"}}, {"type": "node", "id": 11053586042, "lat": 56.8787036, "lon": 14.8029532, "tags": {"amenity": "restaurant", "check_date": "2023-07-18", "name": "Cyrano"}}, {"type": "node", "id": 11066794651, "lat": 56.8756765, "lon": 14.8088238, "tags": {"amenity": "cafe", "name": "Mammornas Cafe"}}, {"type": "way", "id": 103473627, "nodes": [1194692808, 1194692479, 1194692246, 1194692968, 1194692808], "tags": {"amenity": "restaurant", "building": "commercial", "cuisine": "kebab", "name": "Jalla Jalla", "outdoor_seating": "yes", "smoking": "outside", "takeaway": "yes"}}, {"type": "way", "id": 205945212, "nodes": [2159448067, 2159448073, 2159448111, 2159448107, 2159448067], "tags": {"amenity": "restaurant", "building": "yes", "name": "Restaurang V\u00e4rdshuset Stallet"}}, {"type": "way", "id": 205945216, "nodes": [2159448010, 2159448013, 2159448021, 2159448020, 2159448010], "tags": {"amenity": "cafe", "building": "yes", "name": "Fr\u00f6kens Tr\u00e4dg\u00e5rdscaf\u00e9", "source": "bing"}}, {"type": "way", "id": 440793928, "nodes": [4385635825, 4385635824, 4385635810, 4385635811, 4385635812, 4385635813, 4385635814, 4385635815, 4385635818, 4385635820, 4385635822, 4385635821, 4385635819, 4385635817, 4385635816, 4385635825], "tags": {"amenity": "restaurant", "building": "yes", "name": "4 Krogar", "wheelchair": "yes"}}, {"type": "way", "id": 479216334, "nodes": [4723591723, 4723591722, 4723591721, 4723591720, 4723591723], "tags": {"amenity": "restaurant", "brand": "Pizza Hut", "brand:wikidata": "Q191615", "brand:wikipedia": "en:Pizza Hut", "building": "yes", "cuisine": "pizza", "name": "Pizza Hut", "wheelchair": "yes"}}]}