{"version": 0.6, "generator": "Overpass API 0.7.61.5 4133829e", "osm3s": {"timestamp_osm_base": "2024-03-08T21:17:56Z", "copyright": "The data included in this document is from www.openstreetmap.org. The data is made available under ODbL."}, "elements": [{"type": "node", "id": 247823643, "lat": 57.7521294, "lon": 12.0317404, "tags": {"amenity": "atm", "brand": "Bankomat", "brand:wikipedia": "sv:Bankomat", "operator": "Bankomat AB"}}, {"type": "node", "id": 247823644, "lat": 57.7517058, "lon": 12.0320537, "tags": {"amenity": "atm"}}, {"type": "node", "id": 495988347, "lat": 57.7547831, "lon": 11.927146, "tags": {"amenity": "atm", "source": "local_knowledge"}}, {"type": "node", "id": 763246069, "lat": 57.7802926, "lon": 12.0347929, "tags": {"amenity": "atm"}}, {"type": "node", "id": 801948608, "lat": 58.0615838, "lon": 11.7522663, "tags": {"amenity": "bank", "atm": "yes", "name": "Tj\u00f6rns sparbank", "operator": "Swedbank"}}, {"type": "node", "id": 1987057112, "lat": 58.1426808, "lon": 11.8196694, "tags": {"amenity": "bank", "atm": "yes", "name": "Orust Sparbank", "opening_hours": "Mo-We,Fr 10:00-15:00; Th 10:00-18:00"}}, {"type": "node", "id": 2466637612, "lat": 57.8740953, "lon": 11.9742621, "tags": {"amenity": "bank", "atm": "yes", "brand": "SEB", "brand:wikidata": "Q975655", "brand:wikipedia": "sv:Skandinaviska Enskilda Banken", "check_date": "2023-06-05", "name": "SEB"}}, {"type": "node", "id": 2765658168, "lat": 57.8696973, "lon": 11.966844, "tags": {"amenity": "atm", "check_date": "2022-08-27"}}, {"type": "node", "id": 2892247326, "lat": 57.7696991, "lon": 12.0007454, "tags": {"amenity": "atm"}}, {"type": "node", "id": 3173338054, "lat": 57.747631, "lon": 11.9932334, "tags": {"amenity": "atm"}}, {"type": "node", "id": 3253676975, "lat": 58.074917, "lon": 11.825241, "tags": {"amenity": "atm", "cash_in": "no", "check_date": "2022-07-12", "covered": "yes", "indoor": "no", "operator": "ICA Banken"}}, {"type": "node", "id": 3294433761, "lat": 57.9429201, "lon": 11.8510528, "tags": {"amenity": "atm"}}, {"type": "node", "id": 3294561561, "lat": 58.0152797, "lon": 11.8326877, "tags": {"amenity": "atm", "check_date": "2022-07-23"}}, {"type": "node", "id": 5074170119, "lat": 57.7502985, "lon": 11.9899091, "tags": {"amenity": "atm"}}, {"type": "node", "id": 5518351416, "lat": 57.8736904, "lon": 11.9735779, "tags": {"amenity": "atm", "check_date": "2022-12-04", "operator": "Bankomat"}}, {"type": "node", "id": 5586658464, "lat": 57.8718604, "lon": 11.96811, "tags": {"amenity": "atm", "brand": "Bankomat", "brand:wikipedia": "sv:Bankomat", "check_date": "2023-05-31", "operator": "Bankomat AB"}}, {"type": "node", "id": 8267083752, "lat": 57.7494869, "lon": 11.9810522, "tags": {"amenity": "atm", "brand": "Bankomat", "brand:wikipedia": "sv:Bankomat", "operator": "Bankomat AB"}}, {"type": "node", "id": 8772259356, "lat": 57.8744325, "lon": 11.9668814, "tags": {"amenity": "bank", "branch": "Kung\u00e4lv", "brand": "Handelsbanken", "brand:wikidata": "Q1421630", "brand:wikipedia": "sv:Handelsbanken", "level": "3", "name": "Handelsbanken", "opening_hours": "Mo-Fr 10:00-15:00"}}, {"type": "node", "id": 10837906008, "lat": 57.8741759, "lon": 11.9670309, "tags": {"amenity": "bank", "brand": "Swedbank", "brand:wikidata": "Q1145493", "level": "3", "name": "Swedbank"}}, {"type": "node", "id": 10957476547, "lat": 57.8737288, "lon": 11.9777622, "tags": {"amenity": "bank", "check_date": "2023-06-05", "name": "Nordea"}}, {"type": "node", "id": 11247609478, "lat": 57.7942445, "lon": 11.9897579, "tags": {"amenity": "atm", "cash_in": "no", "drive_through": "no", "operator": "Bankomat"}}]}