{"version": 0.6, "generator": "Overpass API 0.7.61.5 4133829e", "osm3s": {"timestamp_osm_base": "2024-03-08T21:11:44Z", "copyright": "The data included in this document is from www.openstreetmap.org. The data is made available under ODbL."}, "elements": [{"type": "node", "id": 447805591, "lat": 57.931251, "lon": 12.5281003, "tags": {"amenity": "restaurant", "name": "Momenti Liberi"}}, {"type": "node", "id": 447805594, "lat": 57.9296925, "lon": 12.533499, "tags": {"amenity": "restaurant"}}, {"type": "node", "id": 447805600, "lat": 57.9306986, "lon": 12.5339804, "tags": {"amenity": "restaurant"}}, {"type": "node", "id": 447805605, "lat": 57.9296754, "lon": 12.5394441, "tags": {"amenity": "restaurant"}}, {"type": "node", "id": 447805607, "lat": 57.9304535, "lon": 12.5368464, "tags": {"amenity": "restaurant"}}, {"type": "node", "id": 447805609, "lat": 57.93049, "lon": 12.5358165, "tags": {"amenity": "restaurant", "wheelchair": "yes"}}, {"type": "node", "id": 447805611, "lat": 57.9305629, "lon": 12.5357564, "tags": {"amenity": "cafe", "contact:website": "https://www.nygrenscafe.se/", "name": "Nygrens Caf\u00e9"}}, {"type": "node", "id": 447805612, "lat": 57.9303077, "lon": 12.5345633, "tags": {"amenity": "cafe"}}, {"type": "node", "id": 447805613, "lat": 57.9301209, "lon": 12.5354646, "tags": {"amenity": "cafe"}}, {"type": "node", "id": 447805614, "lat": 57.9286985, "lon": 12.548975, "tags": {"amenity": "cafe"}}, {"type": "node", "id": 447805615, "lat": 57.9293735, "lon": 12.5352843, "tags": {"amenity": "cafe"}}, {"type": "node", "id": 447805616, "lat": 57.9295375, "lon": 12.5337909, "tags": {"amenity": "restaurant"}}, {"type": "node", "id": 447805617, "lat": 57.9295011, "lon": 12.5340312, "tags": {"amenity": "restaurant"}}, {"type": "node", "id": 447805618, "lat": 57.929836, "lon": 12.536829, "tags": {"amenity": "cafe", "name": "Caf\u00e9 Viola"}}, {"type": "node", "id": 447805620, "lat": 57.9310981, "lon": 12.5348191, "tags": {"amenity": "cafe", "name": "Ekstedts Bageri & Cafe"}}, {"type": "node", "id": 447805621, "lat": 57.9311508, "lon": 12.5339196, "tags": {"amenity": "cafe"}}, {"type": "node", "id": 504612106, "lat": 57.8619801, "lon": 12.438742, "tags": {"amenity": "restaurant", "name": "Stationen i Norsesund"}}, {"type": "node", "id": 615791375, "lat": 57.9137195, "lon": 12.5563644, "tags": {"amenity": "restaurant", "name": "Fifis Taverna"}}, {"type": "node", "id": 725492786, "lat": 57.81414, "lon": 12.3942125, "tags": {"amenity": "cafe", "name": "N\u00e4\u00e4s konsthantverk", "shop": "art", "tourism": "gallery", "website": "https://www.naaskonsthantverk.se/"}}, {"type": "node", "id": 725492807, "lat": 57.8169205, "lon": 12.4006594, "tags": {"amenity": "restaurant", "name": "N\u00e4\u00e4s Slottskaf\u00e9 & Restaurang", "website": "http://www.naas.se/maten/naeaes-slottskaf%C3%A9-restaurang/"}}, {"type": "node", "id": 761626964, "lat": 57.9257997, "lon": 12.5273924, "tags": {"amenity": "restaurant", "leisure": "bowling", "name": "Stures"}}, {"type": "node", "id": 885709941, "lat": 57.751609, "lon": 12.2588606, "tags": {"amenity": "restaurant", "cuisine": "pizza", "name": "Aspendos pizzeria", "old_name": "Pizzeria Bl\u00e5 Huset", "wheelchair": "no"}}, {"type": "node", "id": 928623511, "lat": 57.9347273, "lon": 12.5087253, "tags": {"amenity": "cafe", "name": "Tallhyddan"}}, {"type": "node", "id": 1011525397, "lat": 58.1895716, "lon": 12.7222316, "tags": {"amenity": "restaurant", "check_date": "2023-07-31", "cuisine": "pizza", "email": "info@casabar.com", "internet_access": "no", "name": "Casa Bar", "opening_hours": "Mo-Su 11:30-22:00", "operator": "Casa Bar", "phone": "+4651251440", "smoking": "isolated", "stars": "4", "website": "www.casabar.com", "wheelchair": "yes"}}, {"type": "node", "id": 1011525405, "lat": 58.1889197, "lon": 12.7201561, "tags": {"amenity": "cafe", "internet_access": "yes", "internet_access:fee": "yes", "name": "Crossroad Caf\u00e9", "opening_hours": "Tu-Fr 09:30-18:00", "operator": "Svenska kyrkan", "phone": "+4651251410", "smoking": "no", "website": "www.crossroadcafe.se", "wheelchair": "yes"}}, {"type": "node", "id": 1011525430, "lat": 58.1887251, "lon": 12.7188618, "tags": {"amenity": "restaurant", "cuisine": "asian"}}, {"type": "node", "id": 1048897278, "lat": 57.9793778, "lon": 12.4340691, "tags": {"amenity": "cafe", "name": "Brobacka Kaffestuga", "website": "https://brobackakaffestuga.se/", "wheelchair": "no"}}, {"type": "node", "id": 1304207281, "lat": 57.8084449, "lon": 12.3614734, "tags": {"amenity": "restaurant", "cuisine": "chinese"}}, {"type": "node", "id": 1304207282, "lat": 57.8084621, "lon": 12.3612374, "tags": {"amenity": "cafe", "cuisine": "coffee_shop"}}, {"type": "node", "id": 1304207293, "lat": 57.8030488, "lon": 12.3648423, "tags": {"amenity": "restaurant", "cuisine": "pizza"}}, {"type": "node", "id": 1313055876, "lat": 57.8199636, "lon": 12.4166093, "tags": {"addr:country": "SE", "addr:housenumber": "1", "addr:postcode": "44850", "addr:street": "Spinneriv\u00e4gen", "amenity": "restaurant", "cuisine": "international", "name": "N\u00e4\u00e4s Fabriker Hotell och Restaurang", "website": "http://www.naasfabrikerhotell.se/"}}, {"type": "node", "id": 1313082787, "lat": 57.8176699, "lon": 12.4187666, "tags": {"addr:country": "SE", "addr:housenumber": "3", "addr:postcode": "44850", "addr:street": "Volrath Bergs v\u00e4g", "amenity": "restaurant", "cuisine": "pizza", "name": "Pizzeria Tuppen"}}, {"type": "node", "id": 1478230231, "lat": 57.9573685, "lon": 12.1186535, "tags": {"amenity": "cafe"}}, {"type": "node", "id": 1480562372, "lat": 57.9584744, "lon": 12.1187483, "tags": {"amenity": "restaurant", "cuisine": "chinese", "name": "Rosa Huset"}}, {"type": "node", "id": 1480562515, "lat": 57.9597193, "lon": 12.123671, "tags": {"addr:city": "\u00c4lv\u00e4ngen", "addr:country": "SE", "addr:housenumber": "2", "addr:postcode": "446 37", "addr:street": "\u00c4ngsgatan", "amenity": "restaurant", "cuisine": "italian", "name": "Pizzeria DaMille"}}, {"type": "node", "id": 1741119031, "lat": 57.9571236, "lon": 12.1191338, "tags": {"amenity": "restaurant", "name": "\u00c4lv\u00e4ngen Pizzeria"}}, {"type": "node", "id": 1773738709, "lat": 57.9303498, "lon": 12.5630701, "tags": {"amenity": "restaurant"}}, {"type": "node", "id": 1799615791, "lat": 57.7969364, "lon": 12.0503968, "tags": {"amenity": "restaurant", "name": "Bordet", "smoking": "no"}}, {"type": "node", "id": 1799615792, "lat": 57.7972297, "lon": 12.0505771, "tags": {"amenity": "restaurant", "name": "Chung HWA", "smoking": "no"}}, {"type": "node", "id": 1853429584, "lat": 57.9300477, "lon": 12.5360605, "tags": {"amenity": "restaurant", "cuisine": "international", "name": "Ohana"}}, {"type": "node", "id": 1932421207, "lat": 57.813275, "lon": 12.0523255}, {"type": "node", "id": 1932421211, "lat": 57.8131618, "lon": 12.0526856}, {"type": "node", "id": 1932421212, "lat": 57.8132941, "lon": 12.0526589}, {"type": "node", "id": 1932421216, "lat": 57.8131957, "lon": 12.0523415}, {"type": "node", "id": 2760106271, "lat": 58.0354911, "lon": 12.8090616}, {"type": "node", "id": 2760106272, "lat": 58.0357034, "lon": 12.8090888}, {"type": "node", "id": 2760106274, "lat": 58.0356885, "lon": 12.8095061}, {"type": "node", "id": 2760106275, "lat": 58.0355886, "lon": 12.8094933}, {"type": "node", "id": 2760106276, "lat": 58.0355951, "lon": 12.8093106}, {"type": "node", "id": 2760106277, "lat": 58.0354827, "lon": 12.8092963}, {"type": "node", "id": 2843036390, "lat": 57.8912498, "lon": 12.5474006, "tags": {"amenity": "restaurant"}}, {"type": "node", "id": 2864474083, "lat": 57.8366998, "lon": 12.2996648, "tags": {"amenity": "cafe", "name": "Lailas bageri"}}, {"type": "node", "id": 2886238221, "lat": 57.80947, "lon": 12.3620844, "tags": {"amenity": "restaurant", "cuisine": "thai", "name": "Namfon Thaik\u00f6k", "opening_hours": "Mo-Fr 11:00-20:30; Sa,Su 12:00-20:30"}}, {"type": "node", "id": 2886239328, "lat": 57.8095355, "lon": 12.3620143, "tags": {"amenity": "restaurant", "cuisine": "pizza", "name": "Ancona Pizzeria", "opening_hours": "Mo-Fr 11:00-22:00; Sa,Su 12:00-22:00"}}, {"type": "node", "id": 2904611411, "lat": 58.0354966, "lon": 12.8092981}, {"type": "node", "id": 2911855806, "lat": 57.9206542, "lon": 12.540396}, {"type": "node", "id": 2911855813, "lat": 57.9206634, "lon": 12.5403016}, {"type": "node", "id": 2911855833, "lat": 57.9207714, "lon": 12.5404363}, {"type": "node", "id": 2911855835, "lat": 57.9207806, "lon": 12.5403419}, {"type": "node", "id": 2920174054, "lat": 58.050804, "lon": 12.8157204}, {"type": "node", "id": 2920174060, "lat": 58.0511842, "lon": 12.8156346}, {"type": "node", "id": 2920174061, "lat": 58.050896, "lon": 12.8154817}, {"type": "node", "id": 2920174062, "lat": 58.0508873, "lon": 12.8155396}, {"type": "node", "id": 2920174063, "lat": 58.0508355, "lon": 12.8155116}, {"type": "node", "id": 2920174064, "lat": 58.0507982, "lon": 12.8157587}, {"type": "node", "id": 2920174065, "lat": 58.0508504, "lon": 12.8157869}, {"type": "node", "id": 2920174066, "lat": 58.0508162, "lon": 12.816013}, {"type": "node", "id": 2920174067, "lat": 58.0509946, "lon": 12.8161093}, {"type": "node", "id": 2920174068, "lat": 58.0510271, "lon": 12.8158941}, {"type": "node", "id": 2920174069, "lat": 58.0509701, "lon": 12.8158633}, {"type": "node", "id": 2920174070, "lat": 58.0509779, "lon": 12.815812}, {"type": "node", "id": 2920174071, "lat": 58.0511437, "lon": 12.8159016}, {"type": "node", "id": 2920174074, "lat": 58.0509063, "lon": 12.8154873}, {"type": "node", "id": 2920174077, "lat": 58.0511381, "lon": 12.8156095}, {"type": "node", "id": 2920174081, "lat": 58.0510978, "lon": 12.8158768}, {"type": "node", "id": 2992447527, "lat": 57.8403663, "lon": 12.2975591}, {"type": "node", "id": 2992447528, "lat": 57.8402322, "lon": 12.2974295}, {"type": "node", "id": 2992447529, "lat": 57.8401922, "lon": 12.2975754}, {"type": "node", "id": 2992447530, "lat": 57.8403263, "lon": 12.297705}, {"type": "node", "id": 3110765642, "lat": 58.0355265, "lon": 12.8087969, "tags": {"addr:city": "V\u00e5rg\u00e5rda", "addr:country": "SE", "addr:housenumber": "23", "addr:postcode": "44730", "addr:street": "Kungsgatan", "amenity": "cafe", "contact:phone": "+46 322620102", "contact:website": "http://stjernegerdetgourmet.se", "internet_access": "no", "name": "Stj\u00e4rng\u00e4rdet K\u00f6k & Fik", "name:sv": "Stj\u00e4rng\u00e4rdet K\u00f6k & Fik", "opening_hours": "Mo-Fr 10:00-18:00"}}, {"type": "node", "id": 3110765648, "lat": 58.0319477, "lon": 12.8094216, "tags": {"addr:city": "V\u00e5rg\u00e5rda", "addr:country": "SE", "addr:housenumber": "2", "addr:postcode": "44730", "addr:street": "Parkgatan", "amenity": "restaurant", "cuisine": "pizza", "name": "Pizzeria Italia"}}, {"type": "node", "id": 3110765652, "lat": 58.0326771, "lon": 12.8087858, "tags": {"addr:city": "V\u00e5rg\u00e5rda", "addr:country": "SE", "addr:housenumber": "46", "addr:postcode": "44730", "addr:street": "Kungsgatan", "amenity": "cafe", "name": "Centrum konditoriet"}}, {"type": "node", "id": 3110765654, "lat": 58.0330775, "lon": 12.8085296, "tags": {"addr:city": "V\u00e5rg\u00e5rda", "addr:country": "SE", "addr:housenumber": "39", "addr:postcode": "44730", "addr:street": "Kungsgatan", "amenity": "restaurant", "cuisine": "chinese", "name": "Restaurang Shanghai"}}, {"type": "node", "id": 3110765655, "lat": 58.0327718, "lon": 12.8088041, "tags": {"addr:city": "V\u00e5rg\u00e5rda", "addr:country": "SE", "addr:housenumber": "44", "addr:street": "Kungsgatan", "amenity": "restaurant", "cuisine": "thai", "name": "Bangkok thai restaurang"}}, {"type": "node", "id": 3110765656, "lat": 58.0333659, "lon": 12.8085142, "tags": {"addr:city": "V\u00e5rg\u00e5rda", "addr:country": "SE", "addr:housenumber": "37", "addr:street": "Kungsgatan", "amenity": "restaurant", "cuisine": "pizza", "name": "Valtentino"}}, {"type": "node", "id": 3110765708, "lat": 58.0304156, "lon": 12.8151509, "tags": {"amenity": "restaurant", "cuisine": "regional", "name": "Restaurang \u00c5kej"}}, {"type": "node", "id": 3110765724, "lat": 58.030795, "lon": 12.8088986, "tags": {"addr:city": "V\u00e5rg\u00e5rda", "addr:country": "SE", "addr:housenumber": "3", "addr:postcode": "44734", "addr:street": "J\u00e4rnv\u00e4gsgatan", "amenity": "restaurant", "cuisine": "pizza", "name": "Pizzeria Barri"}}, {"type": "node", "id": 3110765729, "lat": 58.0322061, "lon": 12.8080333, "tags": {"amenity": "restaurant", "cuisine": "regional", "name": "Mathias K\u00f6k & Rum"}}, {"type": "node", "id": 3121665346, "lat": 57.759828, "lon": 12.0609135, "tags": {"amenity": "restaurant", "payment:cryptocurrencies": "no", "smoking": "no"}}, {"type": "node", "id": 3123154755, "lat": 58.030179, "lon": 12.8076841}, {"type": "node", "id": 3123154756, "lat": 58.0301799, "lon": 12.8077645}, {"type": "node", "id": 3123154757, "lat": 58.0301893, "lon": 12.8077641}, {"type": "node", "id": 3123154758, "lat": 58.0301903, "lon": 12.807841}, {"type": "node", "id": 3123154759, "lat": 58.0301813, "lon": 12.8078414}, {"type": "node", "id": 3123154760, "lat": 58.0301837, "lon": 12.8080345}, {"type": "node", "id": 3123154761, "lat": 58.0301935, "lon": 12.8080341}, {"type": "node", "id": 3123154762, "lat": 58.0301929, "lon": 12.8079829}, {"type": "node", "id": 3123154763, "lat": 58.0302395, "lon": 12.8079809}, {"type": "node", "id": 3123154764, "lat": 58.0302416, "lon": 12.8081521}, {"type": "node", "id": 3123154765, "lat": 58.030087, "lon": 12.8081589}, {"type": "node", "id": 3123154766, "lat": 58.0300855, "lon": 12.8080321}, {"type": "node", "id": 3123154767, "lat": 58.0300436, "lon": 12.8080339}, {"type": "node", "id": 3123154768, "lat": 58.0300417, "lon": 12.8078764}, {"type": "node", "id": 3123154769, "lat": 58.0300837, "lon": 12.8078746}, {"type": "node", "id": 3123154770, "lat": 58.0300817, "lon": 12.8077072}, {"type": "node", "id": 3123154771, "lat": 58.030108, "lon": 12.8077061}, {"type": "node", "id": 3123154772, "lat": 58.0301078, "lon": 12.8076873}, {"type": "node", "id": 3172312799, "lat": 57.9284416, "lon": 12.5315626, "tags": {"addr:country": "SE", "addr:housenumber": "3", "addr:postcode": "44130", "addr:street": "Magasinsgatan", "amenity": "restaurant", "check_date": "2022-10-23", "cuisine": "pizza", "name": "Pizzeria Franco Milano"}}, {"type": "node", "id": 3172312802, "lat": 57.9293645, "lon": 12.5325013, "tags": {"amenity": "restaurant", "cuisine": "regional", "name": "Wallins Grill"}}, {"type": "node", "id": 3172312805, "lat": 57.9302075, "lon": 12.5345184, "tags": {"amenity": "restaurant", "cuisine": "regional", "name": "Alings\u00e5s city kebab", "wheelchair": "yes"}}, {"type": "node", "id": 3265997713, "lat": 57.7695415, "lon": 12.2681124, "tags": {"amenity": "restaurant", "cuisine": "asian", "name": "Viet Thai Laos TakeAway", "opening_hours": "11:00-20:00"}}, {"type": "node", "id": 3842199087, "lat": 57.8075964, "lon": 12.3575958}, {"type": "node", "id": 3842199091, "lat": 57.8076338, "lon": 12.3576547}, {"type": "node", "id": 3842199095, "lat": 57.8076458, "lon": 12.3574853}, {"type": "node", "id": 3842199104, "lat": 57.8076832, "lon": 12.3575443}, {"type": "node", "id": 4295787140, "lat": 57.8935497, "lon": 12.0464002, "tags": {"addr:city": "N\u00f6dinge", "addr:country": "SE", "addr:housenumber": "7", "addr:postcode": "44931", "addr:street": "Ale Torg", "amenity": "cafe", "name": "Cederle\u00fcfs & Svenheimers", "phone": "+46 0303 96677", "shop": "bakery", "website": "https://www.cederleufssvenheimers.se/"}}, {"type": "node", "id": 4343016309, "lat": 57.927505, "lon": 12.5337741, "tags": {"amenity": "bar", "name": "Harrys", "operator": "Harrys", "outdoor_seating": "yes"}}, {"type": "node", "id": 4344993582, "lat": 57.9403658, "lon": 12.5327687, "tags": {"amenity": "restaurant", "cuisine": "pizza"}}, {"type": "node", "id": 4395094392, "lat": 57.7913604, "lon": 12.3124632, "tags": {"amenity": "restaurant", "cuisine": "italian", "name": "La Ciotola"}}, {"type": "node", "id": 4395175290, "lat": 57.792299, "lon": 12.308891, "tags": {"amenity": "restaurant", "cuisine": "pizza", "name": "El Dorado House"}}, {"type": "node", "id": 4395240090, "lat": 57.7921496, "lon": 12.3136832, "tags": {"amenity": "restaurant", "cuisine": "thai", "name": "Tullis Thai", "takeaway": "yes"}}, {"type": "node", "id": 4510701406, "lat": 58.1367911, "lon": 12.1271126, "tags": {"amenity": "restaurant", "name": "Rafael's", "name:sv": "Rafael's"}}, {"type": "node", "id": 4585263995, "lat": 58.1365684, "lon": 12.1272139, "tags": {"amenity": "cafe", "name": "Bostr\u00f6ms caf\u00e9", "opening_hours": "Mo-Fr 08:00-18:00; Sa 08:00-14:00", "website": "https://www.icabostrom.se/cafe"}}, {"type": "node", "id": 4717373748, "lat": 57.7961137, "lon": 12.0516845, "tags": {"amenity": "restaurant", "name": "Kultur p\u00e5 burk", "outdoor_seating": "no", "smoking": "no"}}, {"type": "node", "id": 4755034466, "lat": 58.0653416, "lon": 12.1334083, "tags": {"amenity": "cafe", "contact:phone": "+46 702 898025", "contact:website": "https://skorsbogard.wordpress.com/", "description": "G\u00e5rdsbutik", "description:da": "G\u00e5rdbutik", "description:de": "Hofladen", "description:en": "Farm Shop", "description:no": "G\u00e5rdsbutikk", "name": "Sk\u00f6rsbo G\u00e5rd", "opening_hours": "Sa,Su 11:00-15:00", "shop": "farm"}}, {"type": "node", "id": 4958269434, "lat": 57.9304002, "lon": 12.5369621, "tags": {"amenity": "cafe", "name": "Caf\u00e9 Reval"}}, {"type": "node", "id": 4979834875, "lat": 57.9270638, "lon": 12.532718, "tags": {"addr:city": "Alings\u00e5s", "addr:country": "SE", "addr:postcode": "441 30", "addr:street": "Stationsgatan", "amenity": "restaurant", "cuisine": "burger;fries", "name": "J\u00e4rnv\u00e4gsgrillen"}}, {"type": "node", "id": 4990930944, "lat": 58.1201379, "lon": 12.5329088, "tags": {"amenity": "restaurant", "cuisine": "pizza", "name": "Sollebrunns Pizzeria"}}, {"type": "node", "id": 4990930945, "lat": 58.1177552, "lon": 12.5327264, "tags": {"amenity": "restaurant", "cuisine": "pizza", "name": "Pizzeria Fontana"}}, {"type": "node", "id": 5096645590, "lat": 57.922707, "lon": 12.0722729, "tags": {"addr:city": "Nol", "addr:country": "SE", "addr:housenumber": "61", "addr:postcode": "449 44", "addr:street": "Alev\u00e4gen", "amenity": "restaurant", "capacity": "70", "cuisine": "pizza;\u00c1_la_carte", "delivery": "no", "email": "info@restaurangnolyork.se", "name": "Nol York", "opening_hours": "Su-Th 11:00-21:00; Fr-Sa 11:00-01:00", "outdoor_seating": "yes", "smoking": "outside", "takeaway": "yes"}}, {"type": "node", "id": 5329134715, "lat": 57.7649751, "lon": 12.2554563, "tags": {"addr:country": "SE", "addr:housenumber": "12", "addr:street": "Aspen\u00e4sv\u00e4gen", "amenity": "restaurant", "contact:phone": "+46 302-178 50", "contact:website": "www.aludden.se", "name": "Aludden! Pr\u00f4vidore"}}, {"type": "node", "id": 5352182660, "lat": 58.1382846, "lon": 12.1164031, "tags": {"addr:city": "Lilla Edet", "addr:country": "SE", "addr:postcode": "46332", "addr:street": "Ljungskilev\u00e4gen", "amenity": "cafe", "contact:facebook": "https://www.facebook.com/Slottscaf%C3%A9t-i-Str%C3%B6ms-Slottspark-104675546252409/", "internet_access": "no", "name": "Slottcafet"}}, {"type": "node", "id": 5474358747, "lat": 57.9367003, "lon": 12.5328813, "tags": {"amenity": "restaurant", "cuisine": "burger;pizza", "name": "Shit pommes frites"}}, {"type": "node", "id": 5683491854, "lat": 57.9226789, "lon": 12.5517545, "tags": {"amenity": "restaurant", "cuisine": "pizza", "delivery": "no", "name": "Pizzeria kvarnen", "outdoor_seating": "yes", "takeaway": "yes"}}, {"type": "node", "id": 5747504043, "lat": 58.00397, "lon": 12.2277599}, {"type": "node", "id": 5747504044, "lat": 58.0039527, "lon": 12.2278613}, {"type": "node", "id": 5747504045, "lat": 58.0038791, "lon": 12.2278164}, {"type": "node", "id": 5747504046, "lat": 58.0038965, "lon": 12.227715}, {"type": "node", "id": 5771687330, "lat": 57.960301, "lon": 12.1253941, "tags": {"amenity": "restaurant", "name": "Mr Johansson"}}, {"type": "node", "id": 5771687332, "lat": 57.9606989, "lon": 12.1255214, "tags": {"amenity": "cafe"}}, {"type": "node", "id": 5807803249, "lat": 58.1478695, "lon": 12.1337686}, {"type": "node", "id": 5807803250, "lat": 58.1478684, "lon": 12.1336733}, {"type": "node", "id": 5807803251, "lat": 58.1476587, "lon": 12.1337774}, {"type": "node", "id": 5807803252, "lat": 58.1476623, "lon": 12.1340833}, {"type": "node", "id": 5807803453, "lat": 58.148034, "lon": 12.1340678}, {"type": "node", "id": 5807803454, "lat": 58.1480294, "lon": 12.1336666}, {"type": "node", "id": 5885280111, "lat": 57.7906178, "lon": 12.046519, "tags": {"amenity": "restaurant", "cuisine": "pizza", "name": "Angereds v\u00e4rdshus", "smoking": "no"}}, {"type": "node", "id": 5885280181, "lat": 57.7927916, "lon": 12.0430808, "tags": {"addr:city": "Angered", "addr:country": "SE", "addr:housenumber": "11", "addr:postcode": "424 65", "addr:street": "Spadegatan", "amenity": "restaurant", "cuisine": "middle_eastern", "name": "Chwar CHRA KB", "smoking": "no"}}, {"type": "node", "id": 6105411591, "lat": 57.7955928, "lon": 12.049907, "tags": {"amenity": "cafe", "name": "Hawler Bakeshop", "outdoor_seating": "no", "smoking": "no"}}, {"type": "node", "id": 6105411595, "lat": 57.7958793, "lon": 12.0499677, "tags": {"amenity": "restaurant", "delivery": "no", "name": "D\u00f6ner King", "outdoor_seating": "no", "smoking": "no"}}, {"type": "node", "id": 6105411597, "lat": 57.7963188, "lon": 12.0502827, "tags": {"amenity": "cafe", "name": "Caf\u00e9 Bueno", "outdoor_seating": "no", "smoking": "no"}}, {"type": "node", "id": 6105411605, "lat": 57.7972788, "lon": 12.051525, "tags": {"amenity": "cafe", "name": "Guled Capital Caf\u00e9", "outdoor_seating": "no", "smoking": "no"}}, {"type": "node", "id": 6302316120, "lat": 57.756445, "lon": 12.0721003, "tags": {"amenity": "cafe", "smoking": "no"}}, {"type": "node", "id": 6946091403, "lat": 58.0776459, "lon": 12.4944653}, {"type": "node", "id": 6946091404, "lat": 58.0775755, "lon": 12.4943858}, {"type": "node", "id": 6946091405, "lat": 58.0775262, "lon": 12.494542}, {"type": "node", "id": 6946091406, "lat": 58.0774238, "lon": 12.4944264}, {"type": "node", "id": 6946091407, "lat": 58.0775262, "lon": 12.494102}, {"type": "node", "id": 6946091408, "lat": 58.0775531, "lon": 12.4941324}, {"type": "node", "id": 6946091409, "lat": 58.0775714, "lon": 12.4940966}, {"type": "node", "id": 6946091410, "lat": 58.0776219, "lon": 12.4941537}, {"type": "node", "id": 6946091411, "lat": 58.0776336, "lon": 12.4941169}, {"type": "node", "id": 6946091412, "lat": 58.0777238, "lon": 12.4942188}, {"type": "node", "id": 7526442203, "lat": 57.9416683, "lon": 12.5562143, "tags": {"amenity": "cafe", "contact:website": "https://www.nolbygards.se/kafe-bageri/", "name": "Nolbyg\u00e5rds Ekobageri & Kaf\u00e9", "shop": "bakery"}}, {"type": "node", "id": 7714222125, "lat": 57.8132071, "lon": 12.0525404}, {"type": "node", "id": 7714222126, "lat": 57.8131541, "lon": 12.0525511}, {"type": "node", "id": 9779639254, "lat": 57.836722, "lon": 12.3004938, "tags": {"addr:city": "Gr\u00e5bo", "addr:country": "SE", "addr:housenumber": "14", "addr:postcode": "44342", "addr:street": "Mj\u00f6rnbo All\u00e9", "amenity": "restaurant", "cuisine": "sushi;asian", "name": "Ichi Sushi & Wok", "website": "https://www.ichisushi.se/"}}, {"type": "node", "id": 9788145074, "lat": 57.8028923, "lon": 12.1676784}, {"type": "node", "id": 9788145075, "lat": 57.80294, "lon": 12.167805}, {"type": "node", "id": 9788145076, "lat": 57.8029923, "lon": 12.1677381}, {"type": "node", "id": 9788145077, "lat": 57.8029438, "lon": 12.1676087}, {"type": "node", "id": 9918914017, "lat": 58.1365211, "lon": 12.1262181, "tags": {"addr:country": "SE", "addr:housenumber": "5", "addr:street": "Lars Svensgatan", "amenity": "restaurant", "cuisine": "thai", "name": "Edet thaik\u00f6k"}}, {"type": "node", "id": 9988757974, "lat": 57.8362352, "lon": 12.2968255, "tags": {"addr:city": "Gr\u00e5bo", "addr:country": "SE", "addr:housenumber": "21", "addr:postcode": "443 42", "addr:street": "Lundbyv\u00e4gen", "amenity": "restaurant", "cuisine": "indian", "diet:dairy_free": "yes", "diet:gluten_free": "yes", "diet:healthy": "yes", "diet:meat": "yes", "diet:non-vegetarian": "yes", "diet:organic": "yes", "diet:vegan": "yes", "diet:vegetarian": "yes", "name": "Curry King", "opening_hours": "Tu-Fr 11:00-21:00; Sa 13:00-22:00; Su 13:00-21:00", "phone": "+46 302 101 19", "website": "https://www.curryking.se/"}}, {"type": "node", "id": 10197969635, "lat": 57.9405898, "lon": 12.5573138}, {"type": "node", "id": 10197969636, "lat": 57.9405524, "lon": 12.5572009}, {"type": "node", "id": 10197969637, "lat": 57.940529, "lon": 12.5571569}, {"type": "node", "id": 10197969638, "lat": 57.940505, "lon": 12.5571517}, {"type": "node", "id": 10197969639, "lat": 57.9404777, "lon": 12.5571954}, {"type": "node", "id": 10197969640, "lat": 57.9404816, "lon": 12.5572664}, {"type": "node", "id": 10197969641, "lat": 57.9405233, "lon": 12.557392}, {"type": "node", "id": 10671743859, "lat": 57.9244534, "lon": 12.3578523, "tags": {"amenity": "restaurant", "name": "Nellie's Diner", "opening_hours": "Th 11:00-15:00, Fr-Sa 11:00-20:00"}}, {"type": "node", "id": 10778740950, "lat": 57.7494849, "lon": 12.1762845, "tags": {"addr:city": "Jonsered", "addr:country": "SE", "addr:housenumber": "5", "addr:postcode": "433 76", "addr:street": "Kanalstr\u00e5ket", "amenity": "restaurant", "name": "Poppels \u00d6l & Mat", "phone": "+46 763-247737", "website": "https://poppelsolochmat.se/"}}, {"type": "node", "id": 10893695393, "lat": 58.1359043, "lon": 12.1248142, "tags": {"amenity": "restaurant", "cuisine": "pizza", "name": "Roma Pizzeria"}}, {"type": "node", "id": 11076007404, "lat": 57.9871855, "lon": 12.4410187}, {"type": "node", "id": 11076019805, "lat": 57.9870994, "lon": 12.4409416}, {"type": "node", "id": 11076019806, "lat": 57.9870723, "lon": 12.4410492}, {"type": "node", "id": 11076019807, "lat": 57.9871585, "lon": 12.4411263}, {"type": "way", "id": 182884561, "nodes": [1932421207, 1932421212, 1932421211, 7714222126, 7714222125, 1932421216, 1932421207], "tags": {"amenity": "cafe", "building": "yes", "name": "V\u00e4ttlestugan", "smoking": "no"}}, {"type": "way", "id": 271053084, "nodes": [2760106271, 2760106272, 2760106274, 2760106275, 2760106276, 2904611411, 2760106277, 2760106271], "tags": {"addr:city": "V\u00e5rg\u00e5rda", "addr:country": "SE", "addr:housenumber": "22", "addr:postcode": "44730", "addr:street": "Kungsgatan", "amenity": "restaurant", "building": "yes", "cuisine": "pizza", "name": "Pizza House"}}, {"type": "way", "id": 287589308, "nodes": [2911855833, 2911855806, 2911855813, 2911855835, 2911855833], "tags": {"amenity": "restaurant", "building": "yes", "cuisine": "pasta;pizza", "email": "info@dariccardo.se", "name": "Da Riccardo", "phone": "+46 725782890", "takeaway": "yes", "website": "https://www.dariccardo.se/"}}, {"type": "way", "id": 288456452, "nodes": [2920174060, 2920174077, 2920174074, 2920174061, 2920174062, 2920174063, 2920174054, 2920174064, 2920174065, 2920174066, 2920174067, 2920174068, 2920174069, 2920174070, 2920174081, 2920174071, 2920174060], "tags": {"amenity": "restaurant", "building": "yes", "name": "Rasta V\u00e5rg\u00e5rda", "smoking": "outside"}}, {"type": "way", "id": 295515807, "nodes": [2992447527, 2992447528, 2992447529, 2992447530, 2992447527], "tags": {"addr:city": "Gr\u00e5bo", "addr:country": "SE", "addr:housenumber": "2", "addr:postcode": "44343", "addr:street": "Lundbyv\u00e4gen", "amenity": "restaurant", "building": "detached", "cuisine": "pizza", "name": "Campino Pizzeria"}}, {"type": "way", "id": 307222645, "nodes": [3123154755, 3123154756, 3123154757, 3123154758, 3123154759, 3123154760, 3123154761, 3123154762, 3123154763, 3123154764, 3123154765, 3123154766, 3123154767, 3123154768, 3123154769, 3123154770, 3123154771, 3123154772, 3123154755], "tags": {"addr:city": "V\u00e5rg\u00e5rda", "addr:country": "SE", "addr:housenumber": "6", "addr:postcode": "44735", "addr:street": "Drottninggatan", "amenity": "restaurant", "building": "yes", "cuisine": "regional", "name": "Mikaelsg\u00e5rden"}}, {"type": "way", "id": 380925730, "nodes": [3842199095, 3842199104, 3842199091, 3842199087, 3842199095], "tags": {"amenity": "restaurant", "building": "yes", "cuisine": "pizza"}}, {"type": "way", "id": 606113378, "nodes": [5747504043, 5747504044, 5747504045, 5747504046, 5747504043], "tags": {"amenity": "cafe", "building": "yes", "name": "Cafe Torpet", "outdoor_seating": "yes"}}, {"type": "way", "id": 613907310, "nodes": [5807803454, 5807803453, 5807803252, 5807803251, 5807803249, 5807803250, 5807803454], "tags": {"amenity": "restaurant", "building": "yes", "name": "Rasta Lilla Edet", "roof:material": "thatch", "tourism": "hotel"}}, {"type": "way", "id": 742001101, "nodes": [6946091412, 6946091411, 6946091410, 6946091409, 6946091408, 6946091407, 6946091406, 6946091405, 6946091404, 6946091403, 6946091412], "tags": {"amenity": "restaurant", "building": "yes", "name": "Gr\u00e4fsn\u00e4s slottscaf\u00e9", "website": "https://lindelov.eu/slottscafe-grafsnas"}}, {"type": "way", "id": 1065852339, "nodes": [9788145074, 9788145075, 9788145076, 9788145077, 9788145074], "tags": {"amenity": "restaurant", "building": "yes", "cuisine": "thai", "name": "Krua Thai", "opening_hours": "Mo-Fr 11:00-20:00; Sa-Su 13:00-20:00", "phone": "031-702 52 05", "website": "https://xn--ppettider-z7a.nu/krua-thai-olofstorp/wJCeL4OS"}}, {"type": "way", "id": 1115013060, "nodes": [10197969635, 10197969636, 10197969637, 10197969638, 10197969639, 10197969640, 10197969641, 10197969635], "tags": {"addr:city": "Alings\u00e5s", "addr:country": "SE", "addr:housenumber": "1", "addr:street": "Pumpgatan", "amenity": "restaurant", "building": "yes", "cuisine": "turkish", "diet:meat": "yes", "diet:vegetarian": "yes", "name": "Marmara"}}, {"type": "way", "id": 1193220693, "nodes": [11076007404, 11076019805, 11076019806, 11076019807, 11076007404], "tags": {"amenity": "cafe", "building": "yes"}}]}