{"version": 0.6, "generator": "Overpass API 0.7.61.5 4133829e", "osm3s": {"timestamp_osm_base": "2024-03-08T21:11:44Z", "copyright": "The data included in this document is from www.openstreetmap.org. The data is made available under ODbL."}, "elements": [{"type": "node", "id": 275813583, "lat": 60.3913532, "lon": 15.9964055, "tags": {"amenity": "restaurant", "name": "G\u00e4stis"}}, {"type": "node", "id": 330883037, "lat": 60.4042132, "lon": 15.5960661, "tags": {"addr:city": "Gustafs", "addr:country": "SE", "addr:housenumber": "2", "addr:postcode": "783 50", "addr:street": "Soldatv\u00e4gen", "alt_name": "Gamla Konsum", "amenity": "cafe", "disused:name": "Konsum", "disused:shop": "bakery;convenience", "indoor_seating": "yes", "name": "Gustafs Br\u00f6d", "old_name": "Gustafs caf\u00e9", "opening_hours": "Tu-Fr 06:00-17:00; Sa 06:00-14:00", "outdoor_seating": "yes", "payment:cash": "yes", "phone": "+46-243-244280"}}, {"type": "node", "id": 600423044, "lat": 60.3837144, "lon": 15.4041289, "tags": {"amenity": "restaurant", "name": "Toppstugan"}}, {"type": "node", "id": 760169876, "lat": 60.4347552, "lon": 15.5002512}, {"type": "node", "id": 760169877, "lat": 60.4347748, "lon": 15.5005882}, {"type": "node", "id": 760169878, "lat": 60.4348806, "lon": 15.500563}, {"type": "node", "id": 760169879, "lat": 60.4348671, "lon": 15.5002245}, {"type": "node", "id": 791082652, "lat": 60.1455071, "lon": 16.1665582, "tags": {"amenity": "restaurant", "name": "One Na thai take away"}}, {"type": "node", "id": 791082655, "lat": 60.146383, "lon": 16.1649274, "tags": {"amenity": "restaurant", "name": "Pizza huset"}}, {"type": "node", "id": 793876897, "lat": 60.35015, "lon": 15.7591713, "tags": {"amenity": "cafe", "name": "S\u00e4terdalens Folkpark Dalstugan", "opening_hours": "Mo 10:00-17:00; We-fr 10:00-21:00; Sa-Su 11:00-17:00", "phone": "+46-225-50091", "shop": "kiosk", "short_name": "Dalstugan"}}, {"type": "node", "id": 823724357, "lat": 60.3951196, "lon": 15.8907124, "tags": {"amenity": "restaurant", "cuisine": "pizza", "name": "F\u00e4ggeby restaurang pizzeria", "source": "survey"}}, {"type": "node", "id": 924590212, "lat": 60.3919622, "lon": 15.3831039, "tags": {"amenity": "restaurant", "name": "W\u00e4rdshuset"}}, {"type": "node", "id": 1255039221, "lat": 60.4111207, "lon": 15.6111484, "tags": {"addr:city": "Gustafs", "addr:country": "SE", "addr:housenumber": "1", "addr:postcode": "783 50", "addr:street": "Morbyv\u00e4gen", "amenity": "restaurant", "cuisine": "pizza", "indoor_seating": "yes", "name": "Gustafs Pizzeria", "opening_hours": "Mo,Tu 16:00-21:00; We,Fr 11:00-22:00; Th 11:00-21:00; Sa 13:00-22:00; Su 13:00-21:00", "outdoor_seating": "yes", "payment:cash": "yes", "phone": "+46-243-240091"}}, {"type": "node", "id": 1579405216, "lat": 60.0644089, "lon": 15.9230576}, {"type": "node", "id": 1579405229, "lat": 60.0644492, "lon": 15.9231932}, {"type": "node", "id": 1579405233, "lat": 60.064604, "lon": 15.923028}, {"type": "node", "id": 1579405281, "lat": 60.0646529, "lon": 15.9231929}, {"type": "node", "id": 1579405301, "lat": 60.0643723, "lon": 15.9232849}, {"type": "node", "id": 1579405314, "lat": 60.0644253, "lon": 15.923464}, {"type": "node", "id": 1579405317, "lat": 60.0645428, "lon": 15.9231008}, {"type": "node", "id": 1579405324, "lat": 60.0644984, "lon": 15.922951}, {"type": "node", "id": 1580119778, "lat": 60.0646803, "lon": 15.9242348}, {"type": "node", "id": 1580119780, "lat": 60.0645867, "lon": 15.9243032}, {"type": "node", "id": 1580119794, "lat": 60.0646217, "lon": 15.9239127}, {"type": "node", "id": 1580119799, "lat": 60.0645281, "lon": 15.9239812}, {"type": "node", "id": 1709248823, "lat": 60.3468975, "lon": 15.7528773, "tags": {"amenity": "restaurant", "cuisine": "pizza", "name": "Pizzeria Milano", "opening_hours": "Mo-Su 11:00-22:00", "phone": "+46-225-51400"}}, {"type": "node", "id": 1826927119, "lat": 60.3476338, "lon": 15.7684972, "tags": {"amenity": "cafe", "name": "F\u00e4bodscaf\u00e9et S\u00e4terdalen"}}, {"type": "node", "id": 1833032613, "lat": 60.346678, "lon": 15.7512796, "tags": {"addr:city": "S\u00e4ter", "addr:country": "SE", "addr:housenumber": "2", "addr:postcode": "783 30", "addr:street": "Vasagatan", "amenity": "restaurant", "cuisine": "greek;pizza", "name": "Resaurang Dalarasten", "phone": "+46-225-50157", "website": "http://www.dalarasten.se/"}}, {"type": "node", "id": 2229493502, "lat": 60.4348463, "lon": 15.5001364}, {"type": "node", "id": 2229493503, "lat": 60.434772, "lon": 15.5002472}, {"type": "node", "id": 2229493504, "lat": 60.4348037, "lon": 15.5006569}, {"type": "node", "id": 2229493506, "lat": 60.4348756, "lon": 15.5004765}, {"type": "node", "id": 2229493507, "lat": 60.4347918, "lon": 15.500106}, {"type": "node", "id": 2229493508, "lat": 60.4348162, "lon": 15.5001003}, {"type": "node", "id": 2229493509, "lat": 60.4347674, "lon": 15.500148}, {"type": "node", "id": 2229493510, "lat": 60.434796, "lon": 15.5005832}, {"type": "node", "id": 2229493512, "lat": 60.4348676, "lon": 15.5005661}, {"type": "node", "id": 2229493513, "lat": 60.4348751, "lon": 15.5006375}, {"type": "node", "id": 2229493514, "lat": 60.43486, "lon": 15.5006797}, {"type": "node", "id": 2229493515, "lat": 60.4348714, "lon": 15.5002988}, {"type": "node", "id": 2229493516, "lat": 60.43483, "lon": 15.5006831}, {"type": "node", "id": 2229493517, "lat": 60.4349177, "lon": 15.5004665}, {"type": "node", "id": 2229493518, "lat": 60.4348476, "lon": 15.5002291}, {"type": "node", "id": 2229493519, "lat": 60.4349075, "lon": 15.5002902}, {"type": "node", "id": 2383276232, "lat": 60.1517555, "lon": 16.2011059, "tags": {"addr:city": "Avesta", "addr:postcode": "774 61", "amenity": "restaurant", "name": "Restaurang Dalah\u00e4sten", "phone": "+46 226 520 35"}}, {"type": "node", "id": 2398726852, "lat": 60.3467719, "lon": 15.7509872, "tags": {"addr:city": "S\u00e4ter", "addr:country": "SE", "addr:housenumber": "2", "addr:postcode": "783 30", "addr:street": "Vasagatan", "amenity": "cafe", "name": "Gustafs Br\u00f6d", "old_name": "Annas hembageri", "phone": "+46225-60000"}}, {"type": "node", "id": 2515539033, "lat": 60.0646107, "lon": 15.9242857}, {"type": "node", "id": 2515539038, "lat": 60.0646754, "lon": 15.9242075}, {"type": "node", "id": 2670806278, "lat": 60.3473407, "lon": 15.7481075, "tags": {"amenity": "restaurant", "cuisine": "greek;pizza", "name": "Pizzeria Athena", "website": "http://www.pizzeriaathena.se"}}, {"type": "node", "id": 2670806283, "lat": 60.3472247, "lon": 15.7478366, "tags": {"addr:city": "S\u00e4ter", "addr:country": "SE", "addr:housenumber": "10", "addr:postcode": "783 30", "addr:street": "V\u00e4stra L\u00e5nggatan", "amenity": "restaurant", "name": "Restaurang Stadshotellet", "website": "http://www.Tommykock.se"}}, {"type": "node", "id": 2709030170, "lat": 60.1301155, "lon": 16.217068, "tags": {"amenity": "restaurant", "name": "Restaurang Krylbi"}}, {"type": "node", "id": 2709031399, "lat": 60.12904, "lon": 16.217662, "tags": {"amenity": "cafe", "cuisine": "cake", "name": "Konditori Stinsen"}}, {"type": "node", "id": 2822873264, "lat": 60.1294134, "lon": 16.2174735}, {"type": "node", "id": 2822873265, "lat": 60.1294406, "lon": 16.2176783}, {"type": "node", "id": 2822873266, "lat": 60.129504, "lon": 16.2176427}, {"type": "node", "id": 2822873267, "lat": 60.1294978, "lon": 16.2175989}, {"type": "node", "id": 2822873268, "lat": 60.1295179, "lon": 16.217564}, {"type": "node", "id": 2822873269, "lat": 60.1295058, "lon": 16.2174969}, {"type": "node", "id": 2822873270, "lat": 60.1294912, "lon": 16.2174969}, {"type": "node", "id": 2822873271, "lat": 60.1294689, "lon": 16.2174438}, {"type": "node", "id": 2822873274, "lat": 60.1294173, "lon": 16.217473}, {"type": "node", "id": 2822873295, "lat": 60.1291988, "lon": 16.2176225}, {"type": "node", "id": 2822873296, "lat": 60.1291375, "lon": 16.2176569}, {"type": "node", "id": 2822873297, "lat": 60.1291555, "lon": 16.2177859}, {"type": "node", "id": 2822873298, "lat": 60.1292168, "lon": 16.2177514}, {"type": "node", "id": 3021477152, "lat": 60.3410888, "lon": 15.7160778, "tags": {"amenity": "restaurant", "name": "Caf\u00e9 & Restaurang Ljusternsstrand", "old_name": "Restaurang Sk\u00f6nvik", "source": "survey"}}, {"type": "node", "id": 3318231782, "lat": 60.1864509, "lon": 16.1208338, "tags": {"amenity": "cafe", "ele": "102.84", "name": "Rembostugan"}}, {"type": "node", "id": 3460264092, "lat": 60.3819821, "lon": 15.4211195, "tags": {"amenity": "cafe", "cuisine": "waffle", "ele": "403.25", "name": "V\u00e5ffelstugan", "source": "survey"}}, {"type": "node", "id": 3609546007, "lat": 60.0462344, "lon": 15.5234583}, {"type": "node", "id": 3609546008, "lat": 60.0463435, "lon": 15.5234058}, {"type": "node", "id": 3609546009, "lat": 60.0463524, "lon": 15.5244414}, {"type": "node", "id": 3609546012, "lat": 60.0464615, "lon": 15.5243889}, {"type": "node", "id": 3633639897, "lat": 60.3431542, "lon": 15.7541219, "tags": {"amenity": "cafe", "name": "\u00c5sg\u00e5rdarnas caf\u00e9"}}, {"type": "node", "id": 3658797425, "lat": 60.1376881, "lon": 15.4175569, "tags": {"addr:city": "Smedjebacken", "addr:country": "SE", "addr:housenumber": "18", "addr:postcode": "77730", "addr:street": "Kyrkogatan", "amenity": "restaurant", "bar": "yes", "contact:phone": "+46 73 628 9949", "contact:website": "http://bryggansmb.se/", "cuisine": "barbecue;fish_and_chips;burger;seafood;pasta", "name": "Bryggan", "outdoor_seating": "yes", "smoking": "outside", "wheelchair": "yes"}}, {"type": "node", "id": 3818423721, "lat": 60.0049002, "lon": 15.784607}, {"type": "node", "id": 3818423722, "lat": 60.0047368, "lon": 15.7848125}, {"type": "node", "id": 3818423723, "lat": 60.0048255, "lon": 15.7851954}, {"type": "node", "id": 3818423724, "lat": 60.0048955, "lon": 15.7850553}, {"type": "node", "id": 3818423725, "lat": 60.0049282, "lon": 15.7847938}, {"type": "node", "id": 3818505776, "lat": 60.0034645, "lon": 15.7941764}, {"type": "node", "id": 3818505777, "lat": 60.0033835, "lon": 15.7942935}, {"type": "node", "id": 3818505778, "lat": 60.003451, "lon": 15.7944858}, {"type": "node", "id": 3818505779, "lat": 60.0035341, "lon": 15.7943713}, {"type": "node", "id": 3868531551, "lat": 60.1591803, "lon": 15.443274, "tags": {"amenity": "restaurant", "name": "Catering Vikersvik", "old_name": "Norrb\u00e4rke V\u00e4rdshus", "phone": "+46-240-70239", "website": "https://www.cateringvikersvik.se/"}}, {"type": "node", "id": 3925063942, "lat": 60.0079061, "lon": 15.7869301}, {"type": "node", "id": 3925063943, "lat": 60.0080745, "lon": 15.7867203}, {"type": "node", "id": 3925063945, "lat": 60.008117, "lon": 15.7868568}, {"type": "node", "id": 3925063946, "lat": 60.0079486, "lon": 15.7870665}, {"type": "node", "id": 4829302261, "lat": 60.2797977, "lon": 15.9867361, "tags": {"amenity": "cafe", "name": "Caf\u00e9 Wahlman", "website": "www.cafewahlman.se"}}, {"type": "node", "id": 4930590480, "lat": 60.1413245, "lon": 15.411796, "tags": {"amenity": "cafe", "shop": "pastry"}}, {"type": "node", "id": 5071211853, "lat": 60.2967601, "lon": 15.8247509, "tags": {"amenity": "restaurant", "contact:phone": "+46 225 30101", "contact:website": "http://www.brukskrogen.se", "name": "Brukskrogen"}}, {"type": "node", "id": 5071906842, "lat": 60.2783862, "lon": 15.9853837, "tags": {"addr:city": "Hedemora", "addr:country": "SE", "addr:housenumber": "3", "addr:postcode": "776 31", "addr:street": "H\u00f6kartorget", "amenity": "restaurant", "ele": "108.36", "name": "En & en halv", "phone": "+46-225-14414", "source": "survey", "website": "https://www.enochenhalv.se/"}}, {"type": "node", "id": 5611314591, "lat": 60.3899819, "lon": 15.6615074, "tags": {"alt_name": "Caf\u00e9 p\u00e5 Br\u00e4nda", "amenity": "cafe", "name": "Br\u00e4nda Br\u00f6d"}}, {"type": "node", "id": 5646179093, "lat": 60.4036822, "lon": 15.8114324, "tags": {"amenity": "restaurant", "cuisine": "pizza", "indoor_seating": "yes", "name": "Stora skedvi restaurang och pizzeria", "outdoor_seating": "yes", "phone": "+46 225 40222", "website": "www.storaskedvipizzeria.se"}}, {"type": "node", "id": 5735163487, "lat": 60.1378135, "lon": 15.4176242}, {"type": "node", "id": 5735163488, "lat": 60.1375909, "lon": 15.4177163}, {"type": "node", "id": 5735163489, "lat": 60.1376679, "lon": 15.4178879}, {"type": "node", "id": 5735163490, "lat": 60.1377365, "lon": 15.4174526}, {"type": "node", "id": 5739848265, "lat": 60.1174385, "lon": 15.4843456, "tags": {"amenity": "restaurant", "name": "Wanbo herrg\u00e5rd", "tourism": "hotel", "website": "https://www.wanbo.se/"}}, {"type": "node", "id": 5771495864, "lat": 60.4295203, "lon": 15.5078047, "tags": {"amenity": "restaurant", "name": "Flygrestaurangen"}}, {"type": "node", "id": 6551669789, "lat": 60.295788, "lon": 15.3738304, "tags": {"amenity": "cafe", "ele": "198.39842200000001", "name": "Tidl\u00f6sa Smide & Keramik", "opening_hours": "weekends summetime", "source": "survey", "website": "http://lottalacis.blogspot.com"}}, {"type": "node", "id": 7740446297, "lat": 60.402871, "lon": 15.811875, "tags": {"amenity": "restaurant", "name": "Restaurang Kulinariet", "opening_hours": "Mo-Su 11:00-15:00; Fr, Sa 18:00-21:00", "website": "https://www.kulinariet.se/"}}, {"type": "node", "id": 7778362847, "lat": 60.0651588, "lon": 15.9242178, "tags": {"addr:city": "Norberg", "addr:housenumber": "1", "addr:postcode": "738 31", "addr:street": "Torget", "amenity": "cafe", "name": "Caf\u00e9 Orkid\u00e9", "short_name": "Orkid\u00e9"}}, {"type": "node", "id": 8441677861, "lat": 60.2761907, "lon": 15.9865773, "tags": {"amenity": "cafe", "name": "Wienerkonditoriet"}}, {"type": "node", "id": 8441686476, "lat": 60.2771295, "lon": 15.9858102, "tags": {"amenity": "restaurant", "name": "St\u00e4llet", "phone": "+46 225 10101", "website": "http://stallethedemora.se"}}, {"type": "node", "id": 8813561890, "lat": 60.4343689, "lon": 15.4993897, "tags": {"amenity": "cafe", "name": "Rommeheds sommarcaf\u00e9"}}, {"type": "node", "id": 8822509794, "lat": 60.2763184, "lon": 15.9836841, "tags": {"amenity": "cafe"}}, {"type": "node", "id": 8913724313, "lat": 60.1403372, "lon": 15.4108811, "tags": {"amenity": "restaurant", "name": "Hong Kong city"}}, {"type": "node", "id": 8913741326, "lat": 60.1396537, "lon": 15.4126616, "tags": {"amenity": "restaurant", "name": "KG9"}}, {"type": "node", "id": 9106758902, "lat": 60.3490159, "lon": 15.741672, "tags": {"alt_name": "Annas Bageri & Br\u00f6dbod", "amenity": "cafe", "indoor_seating": "yes", "name": "Annas Hembageri", "outdoor_seating": "yes", "phone": "+46225-52095"}}, {"type": "node", "id": 9121698106, "lat": 60.1283989, "lon": 16.2149827, "tags": {"amenity": "restaurant", "name": "Shan Dong Restaurang"}}, {"type": "node", "id": 9692758758, "lat": 60.3236405, "lon": 16.2288875, "tags": {"amenity": "restaurant", "cuisine": "thai", "name": "Silverorten"}}, {"type": "node", "id": 10555423891, "lat": 60.2715965, "lon": 15.9853391, "tags": {"amenity": "restaurant", "cuisine": "pizza", "name": "Tondo", "phone": "0225-45085", "website": "https://www.tondo.se/hedemora"}}, {"type": "node", "id": 10891464136, "lat": 60.3462212, "lon": 15.7497725, "tags": {"amenity": "cafe", "name": "Barbros"}}, {"type": "way", "id": 60724046, "nodes": [760169876, 760169877, 2229493510, 2229493504, 2229493516, 2229493514, 2229493513, 2229493512, 760169878, 2229493506, 2229493517, 2229493519, 2229493515, 760169879, 2229493518, 2229493502, 2229493508, 2229493507, 2229493509, 2229493503, 760169876], "tags": {"alt_name": "Restaurang Officerssalongen", "amenity": "restaurant", "building": "yes", "building:colour": "#F1AE5D", "building:levels": "2", "name": "Officerssalongen", "roof:material": "metal", "roof:shape": "gabled", "source": "Bing;survey"}}, {"type": "way", "id": 144391282, "nodes": [1579405317, 1579405324, 1579405216, 1579405229, 1579405301, 1579405314, 1579405281, 1579405233, 1579405317], "tags": {"addr:city": "Norberg", "addr:country": "SE", "addr:housenumber": "1", "addr:postcode": "738 31", "addr:street": "Fagerstav\u00e4gen", "alt_name": "Elsas Konditori", "amenity": "cafe", "building": "yes", "dog": "yes", "loc_name": "Elsas", "name": "Elsa Andersons konditori", "wifi": "free", "wikidata": "Q10481949"}}, {"type": "way", "id": 144460734, "nodes": [1580119780, 2515539033, 1580119778, 2515539038, 1580119794, 1580119799, 1580119780], "tags": {"addr:city": "Norberg", "addr:country": "SE", "addr:housenumber": "96", "addr:postcode": "738 31", "addr:street": "Engelbrektsgatan", "amenity": "restaurant", "building": "yes", "name": "V\u00e4rdshuset Engelbrekt", "phone": "+46223-20943"}}, {"type": "way", "id": 277834573, "nodes": [2822873264, 2822873265, 2822873266, 2822873267, 2822873268, 2822873269, 2822873270, 2822873271, 2822873274, 2822873264], "tags": {"amenity": "cafe", "building": "yes", "building:levels": "1"}}, {"type": "way", "id": 277834583, "nodes": [2822873295, 2822873296, 2822873297, 2822873298, 2822873295], "tags": {"amenity": "cafe", "building": "yes", "building:levels": "1"}}, {"type": "way", "id": 355341280, "nodes": [3609546007, 3609546008, 3609546012, 3609546009, 3609546007], "tags": {"addr:city": "S\u00f6derb\u00e4rke", "addr:country": "SE", "addr:housenumber": "13", "addr:postcode": "77793", "addr:street": "V\u00e4rdshusv\u00e4gen", "amenity": "restaurant", "building": "yes", "email": "info@tolvsbo.se", "name": "Tolvsbo V\u00e4rdshus", "phone": "+46 240 650200", "roof:shape": "gabled", "website": "https://www.tolvsbo.se/"}}, {"type": "way", "id": 378432778, "nodes": [3818423721, 3818423722, 3818423723, 3818423724, 3818423725, 3818423721], "tags": {"amenity": "restaurant", "building": "yes", "capacity": "100", "delivery": "no", "name": "Bergsmannen", "opening_hours": "08:00-16:00", "smoking": "no"}}, {"type": "way", "id": 378442932, "nodes": [3818505776, 3818505777, 3818505778, 3818505779, 3818505776], "tags": {"amenity": "restaurant", "building": "yes", "capacity": "12", "cuisine": "vietnamese", "delivery": "no", "name": "T&T Take Away", "opening_hours": "09:00-20:00", "smoking": "no", "takeaway": "yes"}}, {"type": "way", "id": 389349266, "nodes": [3925063943, 3925063945, 3925063946, 3925063942, 3925063943], "tags": {"amenity": "restaurant", "building": "yes", "name": "American Pizza"}}, {"type": "way", "id": 604408268, "nodes": [5735163488, 5735163489, 5735163487, 5735163490, 5735163488], "tags": {"amenity": "restaurant", "building": "yes", "name": "Hamnkrogen", "roof:shape": "gabled"}}]}