{"version": 0.6, "generator": "Overpass API 0.7.61.5 4133829e", "osm3s": {"timestamp_osm_base": "2024-03-08T20:57:30Z", "copyright": "The data included in this document is from www.openstreetmap.org. The data is made available under ODbL."}, "elements": [{"type": "node", "id": 290332088, "lat": 58.6288976, "lon": 13.4324791, "tags": {"amenity": "pharmacy", "dispensing": "no"}}, {"type": "node", "id": 365895317, "lat": 58.5079166, "lon": 13.145588, "tags": {"amenity": "pharmacy", "brand": "Apoteket", "contact:phone": "+46771450450", "dispensing": "yes", "name": "Apoteket N\u00e4ckrosen", "operator": "Apoteket AB (publ)", "wheelchair": "yes"}}, {"type": "node", "id": 365970201, "lat": 58.5015497, "lon": 13.1244784}, {"type": "node", "id": 452532781, "lat": 58.3892623, "lon": 13.4382786, "tags": {"amenity": "veterinary", "name": "Bl\u00e5 stj\u00e4rnan"}}, {"type": "node", "id": 515699915, "lat": 58.5016851, "lon": 13.1563765, "tags": {"addr:city": "Lidk\u00f6ping", "addr:country": "SE", "addr:housenumber": "12", "addr:postcode": "531 31", "addr:street": "Magasinsgatan", "amenity": "dentist", "name": "Folktandv\u00e5rden Magasinsgatan"}}, {"type": "node", "id": 515699922, "lat": 58.5017463, "lon": 13.1571128, "tags": {"amenity": "dentist", "name": "\u00d6rnen"}}, {"type": "node", "id": 519672468, "lat": 58.4928167, "lon": 13.1365124, "tags": {"addr:city": "Lidk\u00f6ping", "addr:country": "SE", "addr:housenumber": "2", "addr:postcode": "531 51", "addr:street": "Tallskogsv\u00e4gen", "amenity": "clinic", "contact:phone": "+46 510 854 12", "healthcare": "clinic", "name": "N\u00e4rh\u00e4lsan \u00c5g\u00e5rdsskogen v\u00e5rdcentral", "network": "V\u00e4stra G\u00f6talandsregionen", "operator": "V\u00e4stra G\u00f6talandsregionen", "phone": "+46 510 854 12", "website": "https://www.narhalsan.se/hitta-mottagning/lidkoping/narhalsan-agardsskogen-vardcentral/"}}, {"type": "node", "id": 519916533, "lat": 58.4966643, "lon": 13.1510786}, {"type": "node", "id": 519916536, "lat": 58.4966512, "lon": 13.1511112}, {"type": "node", "id": 519916538, "lat": 58.4966158, "lon": 13.151066}, {"type": "node", "id": 519916541, "lat": 58.4966249, "lon": 13.1510284}, {"type": "node", "id": 519916544, "lat": 58.4964005, "lon": 13.1507897}, {"type": "node", "id": 519916547, "lat": 58.4964373, "lon": 13.1506667}, {"type": "node", "id": 519916550, "lat": 58.4964727, "lon": 13.1507094}, {"type": "node", "id": 519916553, "lat": 58.4964937, "lon": 13.1506516}, {"type": "node", "id": 519916647, "lat": 58.4968074, "lon": 13.1511364}, {"type": "node", "id": 519916650, "lat": 58.4967719, "lon": 13.1510886}, {"type": "node", "id": 519916654, "lat": 58.4967483, "lon": 13.1511615}, {"type": "node", "id": 519916656, "lat": 58.4968402, "lon": 13.1510233}, {"type": "node", "id": 519916659, "lat": 58.4969006, "lon": 13.1508224}, {"type": "node", "id": 519916680, "lat": 58.4971946, "lon": 13.1511339}, {"type": "node", "id": 519916683, "lat": 58.497377, "lon": 13.1509907}, {"type": "node", "id": 519916695, "lat": 58.4970292, "lon": 13.151709}, {"type": "node", "id": 519916696, "lat": 58.4967339, "lon": 13.15139}, {"type": "node", "id": 519916698, "lat": 58.4972641, "lon": 13.1516035}, {"type": "node", "id": 519916699, "lat": 58.4971092, "lon": 13.1514302}, {"type": "node", "id": 519916700, "lat": 58.4971329, "lon": 13.1513599}, {"type": "node", "id": 519916701, "lat": 58.4972405, "lon": 13.1514729}, {"type": "node", "id": 519916702, "lat": 58.4973025, "lon": 13.1519282}, {"type": "node", "id": 519916703, "lat": 58.4973524, "lon": 13.15176}, {"type": "node", "id": 519916704, "lat": 58.497434, "lon": 13.1518486}, {"type": "node", "id": 519916707, "lat": 58.4974539, "lon": 13.1517813}, {"type": "node", "id": 519916709, "lat": 58.4975235, "lon": 13.1518568}, {"type": "node", "id": 519916711, "lat": 58.4974996, "lon": 13.1519375}, {"type": "node", "id": 519916713, "lat": 58.4975385, "lon": 13.1514836}, {"type": "node", "id": 519916714, "lat": 58.4979099, "lon": 13.1518729}, {"type": "node", "id": 519916716, "lat": 58.4979099, "lon": 13.1519207}, {"type": "node", "id": 519916718, "lat": 58.4977445, "lon": 13.1519759}, {"type": "node", "id": 519916720, "lat": 58.4977524, "lon": 13.1519332}, {"type": "node", "id": 519916722, "lat": 58.4976015, "lon": 13.1517875}, {"type": "node", "id": 519916725, "lat": 58.497587, "lon": 13.1518302}, {"type": "node", "id": 519916727, "lat": 58.4974755, "lon": 13.1517122}, {"type": "node", "id": 519916729, "lat": 58.4969754, "lon": 13.152558}, {"type": "node", "id": 519916737, "lat": 58.4972234, "lon": 13.1526911}, {"type": "node", "id": 519916739, "lat": 58.4970738, "lon": 13.1526685}, {"type": "node", "id": 519916741, "lat": 58.4972051, "lon": 13.152234}, {"type": "node", "id": 519916743, "lat": 58.4971106, "lon": 13.152126}, {"type": "node", "id": 519916745, "lat": 58.4973416, "lon": 13.1522974}, {"type": "node", "id": 519916747, "lat": 58.497381, "lon": 13.1523426}, {"type": "node", "id": 519916750, "lat": 58.497356, "lon": 13.152428}, {"type": "node", "id": 519916752, "lat": 58.4973206, "lon": 13.1526943}, {"type": "node", "id": 519916754, "lat": 58.4972891, "lon": 13.1526214}, {"type": "node", "id": 519916756, "lat": 58.4972537, "lon": 13.1525963}, {"type": "node", "id": 519916763, "lat": 58.4969255, "lon": 13.1527263}, {"type": "node", "id": 519916765, "lat": 58.4972917, "lon": 13.1531709}, {"type": "node", "id": 519916767, "lat": 58.4973074, "lon": 13.1531156}, {"type": "node", "id": 519916769, "lat": 58.4972733, "lon": 13.1530804}, {"type": "node", "id": 519916771, "lat": 58.4972589, "lon": 13.1531156}, {"type": "node", "id": 519916773, "lat": 58.497209, "lon": 13.1530478}, {"type": "node", "id": 519916775, "lat": 58.4972812, "lon": 13.1528167}, {"type": "node", "id": 519916777, "lat": 58.4971407, "lon": 13.1529523}, {"type": "node", "id": 519916779, "lat": 58.497314, "lon": 13.1527872}, {"type": "node", "id": 519916781, "lat": 58.497293, "lon": 13.1527319}, {"type": "node", "id": 519916792, "lat": 58.4976031, "lon": 13.15205}, {"type": "node", "id": 519916795, "lat": 58.4975307, "lon": 13.152294}, {"type": "node", "id": 519916798, "lat": 58.4973988, "lon": 13.1521507}, {"type": "node", "id": 519916800, "lat": 58.4974252, "lon": 13.1520615}, {"type": "node", "id": 519916802, "lat": 58.4976566, "lon": 13.152428}, {"type": "node", "id": 519916803, "lat": 58.4980306, "lon": 13.1520462}, {"type": "node", "id": 519916805, "lat": 58.4979755, "lon": 13.1522346}, {"type": "node", "id": 519916807, "lat": 58.4979611, "lon": 13.1522195}, {"type": "node", "id": 519916809, "lat": 58.4979178, "lon": 13.1523803}, {"type": "node", "id": 519916811, "lat": 58.497902, "lon": 13.1523602}, {"type": "node", "id": 519916813, "lat": 58.4977721, "lon": 13.1520186}, {"type": "node", "id": 519916815, "lat": 58.4978469, "lon": 13.1526264}, {"type": "node", "id": 519916817, "lat": 58.4977511, "lon": 13.1520839}, {"type": "node", "id": 519916819, "lat": 58.4978981, "lon": 13.1524531}, {"type": "node", "id": 519916821, "lat": 58.4973993, "lon": 13.1533341}, {"type": "node", "id": 519916824, "lat": 58.4974833, "lon": 13.1532789}, {"type": "node", "id": 519916826, "lat": 58.4974347, "lon": 13.1532311}, {"type": "node", "id": 519916829, "lat": 58.4974111, "lon": 13.1532964}, {"type": "node", "id": 519916832, "lat": 58.4977091, "lon": 13.1531891}, {"type": "node", "id": 519916835, "lat": 58.4977143, "lon": 13.1533247}, {"type": "node", "id": 519916838, "lat": 58.4976736, "lon": 13.153287}, {"type": "node", "id": 519916840, "lat": 58.4976894, "lon": 13.1532217}, {"type": "node", "id": 519916843, "lat": 58.497524, "lon": 13.1530384}, {"type": "node", "id": 519916845, "lat": 58.4979387, "lon": 13.1528443}, {"type": "node", "id": 519916848, "lat": 58.4979965, "lon": 13.1528895}, {"type": "node", "id": 519916850, "lat": 58.4979256, "lon": 13.1529172}, {"type": "node", "id": 519916853, "lat": 58.497814, "lon": 13.1533065}, {"type": "node", "id": 519916855, "lat": 58.4977747, "lon": 13.1532814}, {"type": "node", "id": 519916857, "lat": 58.4977458, "lon": 13.1528299}, {"type": "node", "id": 519916859, "lat": 58.4977681, "lon": 13.1527445}, {"type": "node", "id": 519916861, "lat": 58.4978154, "lon": 13.1527947}, {"type": "node", "id": 519916863, "lat": 58.4977393, "lon": 13.1532393}, {"type": "node", "id": 519916865, "lat": 58.4982038, "lon": 13.1518999}, {"type": "node", "id": 519916879, "lat": 58.4980792, "lon": 13.1525906}, {"type": "node", "id": 519916881, "lat": 58.4984806, "lon": 13.1522888}, {"type": "node", "id": 519916882, "lat": 58.4985831, "lon": 13.1523947}, {"type": "node", "id": 519916887, "lat": 58.4983233, "lon": 13.1533266}, {"type": "node", "id": 519916889, "lat": 58.4983521, "lon": 13.1533617}, {"type": "node", "id": 519916891, "lat": 58.4982156, "lon": 13.1527338}, {"type": "node", "id": 519916894, "lat": 58.4981106, "lon": 13.1531081}, {"type": "node", "id": 519916896, "lat": 58.498259, "lon": 13.1530503}, {"type": "node", "id": 519916908, "lat": 58.4983259, "lon": 13.1531256}, {"type": "node", "id": 519916910, "lat": 58.4983968, "lon": 13.152882}, {"type": "node", "id": 519916912, "lat": 58.4983272, "lon": 13.1528142}, {"type": "node", "id": 519916924, "lat": 58.4973455, "lon": 13.1535476}, {"type": "node", "id": 519916931, "lat": 58.4975424, "lon": 13.1538189}, {"type": "node", "id": 519916933, "lat": 58.4975555, "lon": 13.1537686}, {"type": "node", "id": 519916936, "lat": 58.4974518, "lon": 13.1533869}, {"type": "node", "id": 519916938, "lat": 58.4977195, "lon": 13.1534572}, {"type": "node", "id": 519916944, "lat": 58.498049, "lon": 13.1539043}, {"type": "node", "id": 519916948, "lat": 58.4980004, "lon": 13.154055}, {"type": "node", "id": 519916950, "lat": 58.497814, "lon": 13.153849}, {"type": "node", "id": 519916952, "lat": 58.4977878, "lon": 13.1539394}, {"type": "node", "id": 519916955, "lat": 58.4978678, "lon": 13.1540248}, {"type": "node", "id": 519916958, "lat": 58.4977589, "lon": 13.1540223}, {"type": "node", "id": 519916960, "lat": 58.4977497, "lon": 13.1540525}, {"type": "node", "id": 519916964, "lat": 58.4980765, "lon": 13.1538264}, {"type": "node", "id": 519916970, "lat": 58.4980542, "lon": 13.1541077}, {"type": "node", "id": 519916972, "lat": 58.4978416, "lon": 13.1541153}, {"type": "node", "id": 519916995, "lat": 58.4983469, "lon": 13.1534446}, {"type": "node", "id": 519916999, "lat": 58.4983206, "lon": 13.1535627}, {"type": "node", "id": 519917002, "lat": 58.4982839, "lon": 13.1535978}, {"type": "node", "id": 519917005, "lat": 58.4982511, "lon": 13.1535752}, {"type": "node", "id": 519917007, "lat": 58.4981697, "lon": 13.1538465}, {"type": "node", "id": 519917010, "lat": 58.4981776, "lon": 13.1539369}, {"type": "node", "id": 519917013, "lat": 58.4980975, "lon": 13.153947}, {"type": "node", "id": 519917016, "lat": 58.4981211, "lon": 13.1536581}, {"type": "node", "id": 519917020, "lat": 58.4980949, "lon": 13.153628}, {"type": "node", "id": 519917022, "lat": 58.4983469, "lon": 13.1541228}, {"type": "node", "id": 519917024, "lat": 58.4983915, "lon": 13.1540952}, {"type": "node", "id": 519917027, "lat": 58.4984178, "lon": 13.1541906}, {"type": "node", "id": 519917030, "lat": 58.4981343, "lon": 13.1541906}, {"type": "node", "id": 519917032, "lat": 58.4981448, "lon": 13.1541429}, {"type": "node", "id": 519917035, "lat": 58.4981015, "lon": 13.1541002}, {"type": "node", "id": 519917038, "lat": 58.4980831, "lon": 13.1541504}, {"type": "node", "id": 519917042, "lat": 58.4984348, "lon": 13.1541504}, {"type": "node", "id": 519917045, "lat": 58.4985713, "lon": 13.1543438}, {"type": "node", "id": 519917048, "lat": 58.4985661, "lon": 13.1543865}, {"type": "node", "id": 519917051, "lat": 58.4986343, "lon": 13.1545196}, {"type": "node", "id": 519917054, "lat": 58.4986671, "lon": 13.154605}, {"type": "node", "id": 519917056, "lat": 58.4985109, "lon": 13.1547055}, {"type": "node", "id": 519917064, "lat": 58.4985359, "lon": 13.15459}, {"type": "node", "id": 519917113, "lat": 58.4986159, "lon": 13.154806}, {"type": "node", "id": 687222331, "lat": 58.527363, "lon": 13.4944505, "tags": {"amenity": "pharmacy", "dispensing": "yes"}}, {"type": "node", "id": 687222334, "lat": 58.5276756, "lon": 13.4942209, "tags": {"addr:city": "G\u00f6tene", "addr:country": "SE", "addr:housenumber": "4", "addr:postcode": "533 30", "addr:street": "Torggatan", "amenity": "clinic", "name": "N\u00e4rh\u00e4lsan G\u00f6tene v\u00e5rdcentral", "operator": "V\u00e4stra G\u00f6talandsregionen", "phone": "+46 511 308 10", "website": "https://www.narhalsan.se/hitta-mottagning/gotene/narhalsan-gotene-vardcentral/"}}, {"type": "node", "id": 691644144, "lat": 58.3844669, "lon": 13.4388847, "tags": {"amenity": "pharmacy"}}, {"type": "node", "id": 809927474, "lat": 58.3003312, "lon": 13.1835123, "tags": {"addr:city": "Kv\u00e4num", "addr:country": "SE", "addr:housenumber": "11", "addr:street": "Storgatan", "amenity": "dentist", "atm": "yes", "healthcare": "dentist", "name": "Kv\u00e4nums Familjetandv\u00e5rd", "opening_hours": "Mo 08:00-18:00, Tu 07:00-16:00, We-Th 08:00-16:00, Fr 08:00-12:00", "website": "https://kvanumsfamiljetandvard.se/"}}, {"type": "node", "id": 1591210757, "lat": 58.2569704, "lon": 12.9616422, "tags": {"amenity": "pharmacy", "brand": "Apoteket", "contact:phone": "+46771450450", "dispensing": "yes", "name": "Apoteket", "operator": "Apoteket AB (publ)"}}, {"type": "node", "id": 2465412497, "lat": 58.5015302, "lon": 13.1250919}, {"type": "node", "id": 2465412500, "lat": 58.5017238, "lon": 13.1251145}, {"type": "node", "id": 2465412502, "lat": 58.5017433, "lon": 13.124501}, {"type": "node", "id": 3192224371, "lat": 58.5054993, "lon": 13.1597466}, {"type": "node", "id": 3192224372, "lat": 58.5055232, "lon": 13.1596546}, {"type": "node", "id": 3192224373, "lat": 58.5053328, "lon": 13.1594731}, {"type": "node", "id": 3192224374, "lat": 58.5053822, "lon": 13.1592833}, {"type": "node", "id": 3192224375, "lat": 58.5056658, "lon": 13.1595536}, {"type": "node", "id": 3192224376, "lat": 58.5055925, "lon": 13.1598355}, {"type": "node", "id": 4913813993, "lat": 58.3856652, "lon": 13.437428, "tags": {"amenity": "pharmacy", "brand": "Apoteket", "contact:phone": "+46771450450", "name": "Apoteket", "operator": "Apoteket AB (publ)"}}, {"type": "node", "id": 5752637659, "lat": 58.4931837, "lon": 13.1846668, "tags": {"amenity": "pharmacy", "dispensing": "yes", "healthcare": "pharmacy", "name": "LloydsApotek", "operator": "LloydsApotek AB"}}, {"type": "node", "id": 6442462942, "lat": 58.2642098, "lon": 12.9661363, "tags": {"addr:city": "Vara", "addr:country": "SE", "addr:housenumber": "46", "addr:postcode": "534 32", "addr:street": "All\u00e9gatan", "amenity": "clinic", "contact:phone": "+46 512 78 60 32", "healthcare": "clinic", "name": "N\u00e4rh\u00e4lsan Vara v\u00e5rdcentral", "network": "V\u00e4stra G\u00f6talandsregionen", "operator": "V\u00e4stra G\u00f6talandsregionen", "website": "https://www.narhalsan.se/hitta-mottagning/vara/narhalsan-vara-vardcentral/"}}, {"type": "node", "id": 6447232293, "lat": 58.3922848, "lon": 13.4290716, "tags": {"addr:city": "Skara", "addr:country": "SE", "addr:housenumber": "36", "addr:postcode": "532 32", "addr:street": "Malmgatan", "amenity": "clinic", "contact:phone": "+46 511 71 37 00", "healthcare": "clinic", "name": "Br\u00e4cke diakoni V\u00e5rdcentralen Malmen", "network": "V\u00e4stra G\u00f6talandsregionen", "operator": "Stiftelsen Br\u00e4cke diakoni", "ownership": "private"}}, {"type": "node", "id": 7671668504, "lat": 58.5282525, "lon": 13.4951371, "tags": {"amenity": "dentist", "healthcare": "dentist", "name": "Tandl\u00e4kare Kajsa Holmberg och Nikolaos \u00c5lander"}}, {"type": "node", "id": 7778223302, "lat": 58.5108192, "lon": 13.3035105}, {"type": "node", "id": 7778223303, "lat": 58.5107221, "lon": 13.3033978}, {"type": "node", "id": 7778223304, "lat": 58.5106586, "lon": 13.3035981}, {"type": "node", "id": 7778223305, "lat": 58.5105763, "lon": 13.3035026}, {"type": "node", "id": 7778223306, "lat": 58.5106934, "lon": 13.3031331}, {"type": "node", "id": 7778223307, "lat": 58.5108728, "lon": 13.3033414}, {"type": "node", "id": 9012093770, "lat": 58.4928829, "lon": 13.1366296, "tags": {"addr:city": "Lidk\u00f6ping", "addr:country": "SE", "addr:housenumber": "2", "addr:postcode": "531 51", "addr:street": "Tallskogsv\u00e4gen", "amenity": "clinic", "name": "N\u00e4rh\u00e4lsan \u00c5g\u00e5rdsskogen barnav\u00e5rdscentral", "operator": "V\u00e4stra G\u00f6talandsregionen", "phone": "+46 510 850 46; +46 510 85 091;+46 510 85 093;+46 510 85 515; +46 510 85 439", "website": "https://www.narhalsan.se/hitta-mottagning/lidkoping/narhalsan-agardsskogen-barnavardscentral/"}}, {"type": "node", "id": 9025117983, "lat": 58.2641808, "lon": 12.9661256, "tags": {"addr:city": "Vara", "addr:country": "SE", "addr:housenumber": "46", "addr:postcode": "534 32", "addr:street": "All\u00e9gatan", "amenity": "clinic", "name": "N\u00e4rh\u00e4lsan Vara barnav\u00e5rdscentral", "operator": "V\u00e4stra G\u00f6talandsregionen", "phone": "+46 512 78 60 32", "website": "https://www.narhalsan.se/hitta-mottagning/vara/narhalsan-vara-barnavardscentral/"}}, {"type": "node", "id": 9030278397, "lat": 58.4943396, "lon": 13.1674308, "tags": {"addr:city": "Lidk\u00f6ping", "addr:country": "SE", "addr:housenumber": "21", "addr:postcode": "531 37", "addr:street": "\u00d6stbygatan", "amenity": "clinic", "name": "N\u00e4rh\u00e4lsan Guldvingen barnav\u00e5rdscentral", "operator": "V\u00e4stra G\u00f6talandsregionen", "phone": "+46 510 869 85;+46 510 869 78:+46 510 869 10;+46 510 869 23;+46 510 869 40", "website": "https://www.narhalsan.se/hitta-mottagning/lidkoping/narhalsan-guldvingen-barnavardscentral/"}}, {"type": "node", "id": 9030278398, "lat": 58.4949417, "lon": 13.1685459, "tags": {"addr:city": "Lidk\u00f6ping", "addr:country": "SE", "addr:housenumber": "21", "addr:postcode": "531 37", "addr:street": "\u00d6stbygatan", "amenity": "clinic", "name": "N\u00e4rh\u00e4lsan Guldvingen v\u00e5rdcentral", "operator": "V\u00e4stra G\u00f6talandsregionen", "phone": "+46 510 869 00", "website": "https://www.narhalsan.se/hitta-mottagning/lidkoping/narhalsan-guldvingen-vardcentral/"}}, {"type": "node", "id": 9030283333, "lat": 58.527634, "lon": 13.4942224, "tags": {"addr:city": "G\u00f6tene", "addr:country": "SE", "addr:housenumber": "4", "addr:postcode": "533 30", "addr:street": "Torggatan", "amenity": "clinic", "name": "N\u00e4rh\u00e4lsan G\u00f6tene barnav\u00e5rdscentral", "operator": "V\u00e4stra G\u00f6talandsregionen", "phone": "+46 511 308 30", "website": "https://www.narhalsan.se/hitta-mottagning/gotene/narhalsan-gotene-barnavardscentral/"}}, {"type": "node", "id": 9030300088, "lat": 58.4978861, "lon": 13.1527805, "tags": {"addr:city": "Lidk\u00f6ping", "addr:country": "SE", "addr:housenumber": "11-15", "addr:postcode": "531 85", "addr:street": "Mellbygatan", "amenity": "clinic", "name": "N\u00e4rakuten Lidk\u00f6ping", "operator": "V\u00e4stra G\u00f6talandsregionen", "phone": "+46 510 855 09", "website": "https://www.narhalsan.se/hitta-mottagning/lidkoping/narhalsan-lidkoping-jourcentral/"}}, {"type": "node", "id": 9038991700, "lat": 58.4927666, "lon": 13.1364834, "tags": {"addr:city": "Lidk\u00f6ping", "addr:country": "SE", "addr:housenumber": "2", "addr:postcode": "531 51", "addr:street": "Tallskogsv\u00e4gen", "amenity": "clinic", "contact:phone": "+46 510 854 12", "healthcare": "clinic", "name": "N\u00e4rh\u00e4lsan Lidk\u00f6ping rehabmottagning", "network": "V\u00e4stra G\u00f6talandsregionen", "operator": "V\u00e4stra G\u00f6talandsregionen", "phone": "+46 510 48 89 80", "website": "https://www.narhalsan.se/hitta-mottagning/lidkoping/narhalsan-lidkoping-rehabmottagning/"}}, {"type": "node", "id": 9039019185, "lat": 58.3921595, "lon": 13.4290588, "tags": {"addr:city": "Skara", "addr:country": "SE", "addr:housenumber": "36", "addr:postcode": "532 32", "addr:street": "Malmgatan", "amenity": "clinic", "name": "N\u00e4rh\u00e4lsan Skara rehabmottagning", "operator": "V\u00e4stra G\u00f6talandsregionen", "ownership": "private", "phone": "+46 511 306 50", "website": "https://www.narhalsan.se/hitta-mottagning/skara/narhalsan-skara-rehabmottagning/"}}, {"type": "node", "id": 9039124193, "lat": 58.2641579, "lon": 12.9661256, "tags": {"addr:city": "Vara", "addr:country": "SE", "addr:housenumber": "46", "addr:postcode": "534 32", "addr:street": "All\u00e9gatan", "amenity": "clinic", "contact:phone": "+46 512 78 60 32", "name": "N\u00e4rh\u00e4lsan Vara rehabmottagning", "operator": "V\u00e4stra G\u00f6talandsregionen", "phone": "+46 512 78 60 50", "website": "https://www.narhalsan.se/hitta-mottagning/vara/narhalsan-vara-rehabmottagning/"}}, {"type": "node", "id": 9703827651, "lat": 58.4980728, "lon": 13.1517558}, {"type": "node", "id": 9703827652, "lat": 58.4979798, "lon": 13.1516536}, {"type": "node", "id": 9703827653, "lat": 58.4981277, "lon": 13.1515614}, {"type": "node", "id": 9703827654, "lat": 58.4980312, "lon": 13.1514611}, {"type": "node", "id": 10763967068, "lat": 58.5017287, "lon": 13.1249604}, {"type": "node", "id": 10763967069, "lat": 58.5015491, "lon": 13.1244981}, {"type": "node", "id": 11505850102, "lat": 58.5067408, "lon": 13.1577326, "tags": {"amenity": "clinic", "healthcare": "clinic", "name": "Hamnstadens V\u00e5rdcentral", "network": "V\u00e4stra G\u00f6talandsregionen", "operator": "Praktiertj\u00e4nst", "website": "https://www.ptj.se/hamnstadens-vardcentral/"}}, {"type": "node", "id": 11505906051, "lat": 58.3859723, "lon": 13.4543997, "tags": {"amenity": "clinic", "healthcare": "clinic", "name": "Br\u00e4cke v\u00e5rdcentral Vilan"}}, {"type": "way", "id": 41958044, "nodes": [519916881, 519916882, 519916887, 519916889, 519916995, 519916999, 519917002, 519917005, 519917007, 519917010, 519917022, 519917024, 519917042, 519917027, 519917045, 519917048, 519917051, 519917054, 519917113, 519917056, 519917064, 519917030, 519917032, 519917035, 519917038, 519916970, 519917013, 519916944, 519916948, 519916950, 519916952, 519916955, 519916972, 519916958, 519916960, 519916931, 519916933, 519916924, 519916821, 519916936, 519916824, 519916826, 519916829, 519916765, 519916767, 519916769, 519916771, 519916773, 519916775, 519916737, 519916777, 519916763, 519916729, 519916739, 519916741, 519916743, 519916698, 519916699, 519916695, 519916696, 519916647, 519916650, 519916654, 519916533, 519916536, 519916538, 519916541, 519916544, 519916547, 519916550, 519916553, 519916656, 519916659, 519916680, 519916700, 519916701, 519916683, 9703827652, 9703827654, 9703827653, 9703827651, 519916865, 519916845, 519916848, 519916879, 519916891, 519916894, 519916850, 519916853, 519916855, 519916938, 519916964, 519917016, 519917020, 519916896, 519916908, 519916910, 519916912, 519916881]}, {"type": "way", "id": 41958049, "nodes": [519916702, 519916703, 519916704, 519916707, 519916709, 519916711, 519916792, 519916795, 519916798, 519916800, 519916702]}, {"type": "way", "id": 41958050, "nodes": [519916745, 519916747, 519916750, 519916857, 519916859, 519916861, 519916832, 519916863, 519916835, 519916838, 519916840, 519916843, 519916779, 519916781, 519916752, 519916754, 519916756, 519916745]}, {"type": "way", "id": 41958051, "nodes": [519916713, 519916714, 519916716, 519916803, 519916805, 519916807, 519916809, 519916811, 519916813, 519916718, 519916720, 519916722, 519916725, 519916727, 519916713]}, {"type": "way", "id": 41958052, "nodes": [519916815, 519916802, 519916817, 519916819, 519916815]}, {"type": "way", "id": 238740585, "nodes": [365970201, 2465412502, 10763967068, 2465412500, 2465412497, 10763967069, 365970201], "tags": {"amenity": "veterinary", "building": "yes", "name": "Bl\u00e5 stj\u00e4rnan"}}, {"type": "way", "id": 313312014, "nodes": [3192224371, 3192224372, 3192224373, 3192224374, 3192224375, 3192224376, 3192224371], "tags": {"addr:city": "Lidk\u00f6ping", "addr:country": "SE", "addr:housenumber": "4", "addr:postcode": "531 30", "addr:street": "K\u00e5llandsgatan", "amenity": "clinic", "building": "yes", "healthcare": "clinic", "name": "Avonova", "operator": "Avonova H\u00e4lsa AB", "ownership": "private"}}, {"type": "way", "id": 833217641, "nodes": [7778223307, 7778223306, 7778223305, 7778223304, 7778223303, 7778223302, 7778223307], "tags": {"addr:country": "SE", "addr:housenumber": "1", "addr:street": "Bj\u00f6rsg\u00e5rdsv\u00e4gen", "amenity": "dentist", "building": "yes", "healthcare": "dentist", "operator": "Folktandv\u00e5rden"}}, {"type": "relation", "id": 280131, "members": [{"type": "way", "ref": 41958044, "role": "outer"}, {"type": "way", "ref": 41958049, "role": "inner"}, {"type": "way", "ref": 41958052, "role": "inner"}, {"type": "way", "ref": 41958051, "role": "inner"}, {"type": "way", "ref": 41958050, "role": "inner"}], "tags": {"amenity": "hospital", "brand": "V\u00e4stra G\u00f6talandsregionen", "building": "hospital", "emergency": "yes", "health_specialty:emergency_medicine": "yes", "health_specialty:family_medicine": "yes", "health_specialty:intensive_care_medicine": "yes", "health_specialty:orthopaedics": "yes", "health_specialty:paediatrics": "yes", "health_specialty:surgery": "yes", "healthcare": "hospital", "name": "Skaraborgs Sjukhus Lidk\u00f6ping", "opening_hours": "24/7", "opening_hours:surgery": "Mo-Fr 07:30-16:00", "operator": "V\u00e4stra G\u00f6talandsregionen", "type": "multipolygon", "website": "https://www.vgregion.se/sv/Skaraborgs-sjukhus/Skaraborgs-sjukhus/Om-sjukhuset1/Sjukhuset-i-Lidkoping/"}}]}