{"version": 0.6, "generator": "Overpass API 0.7.61.5 4133829e", "osm3s": {"timestamp_osm_base": "2024-03-08T21:12:42Z", "copyright": "The data included in this document is from www.openstreetmap.org. The data is made available under ODbL."}, "elements": [{"type": "node", "id": 1061974497, "lat": 60.2276749, "lon": 17.4585483}, {"type": "node", "id": 1961199052, "lat": 60.3360637, "lon": 17.5162475, "tags": {"addr:housenumber": "10", "addr:street": "Sk\u00e4mstav\u00e4gen", "amenity": "restaurant", "bar": "no", "brewery": "no", "check_date": "2023-10-08", "contact:facebook": "https://www.facebook.com/Svanby-Pizzeria-506615059509646/", "cuisine": "pizza;kebab;burger", "internet_access": "no", "level": "0", "name": "Svanby pizzeria", "opening_hours": "Mo-Th 11:00-21:00; Fr 11:00-22:00; Sa 12:00-22:00; Su 12:00-21:00", "payment:mastercard": "yes", "payment:swish": "yes", "payment:visa": "yes", "phone": "+46 293 14 49 9", "takeaway": "yes", "website": "http://www.svanbypizzeriatierp.se/", "wheelchair": "yes"}}, {"type": "node", "id": 3808360285, "lat": 60.3450505, "lon": 17.5125968, "tags": {"amenity": "cafe", "name": "TP Bageri & Caf\u00e9", "opening_hours": "Mo-Fr 08:00-17:00; Sa 09:00-13:00"}}, {"type": "node", "id": 4183983269, "lat": 60.2600464, "lon": 17.6585249, "tags": {"amenity": "restaurant", "cuisine": "pizza", "source": "gps survey"}}, {"type": "node", "id": 4259783362, "lat": 60.3406444, "lon": 17.5196664}, {"type": "node", "id": 4259783363, "lat": 60.3406565, "lon": 17.5194471}, {"type": "node", "id": 4259783364, "lat": 60.340874, "lon": 17.5197625}, {"type": "node", "id": 4259783365, "lat": 60.3408764, "lon": 17.5197189}, {"type": "node", "id": 4259783366, "lat": 60.3409567, "lon": 17.5197812}, {"type": "node", "id": 4259783367, "lat": 60.3409713, "lon": 17.5195183}, {"type": "node", "id": 4267094968, "lat": 60.3405319, "lon": 17.4877556, "tags": {"amenity": "restaurant", "cuisine": "sandwich", "delivery": "no", "drive_through": "yes", "name": "Subway Tierp", "operator": "Subway", "reservation": "no", "takeaway": "yes"}}, {"type": "node", "id": 5055487625, "lat": 60.1058051, "lon": 17.2015152, "tags": {"amenity": "restaurant", "name": "Harbo restaurang"}}, {"type": "node", "id": 6551663585, "lat": 60.3418693, "lon": 17.5182303, "tags": {"addr:city": "Tierp", "addr:country": "SE", "addr:housenumber": "3", "addr:street": "Centralgatan", "amenity": "restaurant", "bar": "yes", "check_date": "2023-07-05", "cuisine": "burger;pizza;kebab", "internet_access": "no", "name": "Brorsans K\u00f6k & Bar", "opening_hours": "Mo-Th 11:00-22:00; Fr 11:00-23:00; Sa 12:00-23:00; Su 12:00-21:00", "outdoor_seating": "yes", "payment:mastercard": "yes", "payment:visa": "yes", "phone": "+46 293 10084", "smoking": "no", "takeaway": "yes", "website": "https://brorsanstierp.se/"}}, {"type": "node", "id": 7237164872, "lat": 60.3826632, "lon": 17.2466925, "tags": {"amenity": "restaurant", "cuisine": "pizza", "name": "S\u00f6derfors pizzeria"}}, {"type": "node", "id": 7638779710, "lat": 60.2300368, "lon": 17.728873, "tags": {"addr:country": "SE", "addr:housenumber": "1", "addr:street": "M\u00e4nstav\u00e4gen", "amenity": "restaurant", "name": "Upplandsp\u00e4rlan", "opening_hours": "Mo-Th 11:00-20:00; Fr 11:00-21:00; Sa 11:00-21:00; Su 11:00-20:00", "phone": "+46 295 100 96"}}, {"type": "node", "id": 8640888768, "lat": 60.0452815, "lon": 17.73977, "tags": {"amenity": "cafe", "name": "Salsta Slottskaf\u00e9"}}, {"type": "node", "id": 9105309746, "lat": 60.1938826, "lon": 17.9001888, "tags": {"amenity": "restaurant", "name": "Gammeltammen"}}, {"type": "node", "id": 10716154166, "lat": 60.2173663, "lon": 17.7017397}, {"type": "node", "id": 10716154167, "lat": 60.2173309, "lon": 17.7019647}, {"type": "node", "id": 10716154168, "lat": 60.2170161, "lon": 17.7017443}, {"type": "node", "id": 10716154169, "lat": 60.2170571, "lon": 17.7014939}, {"type": "node", "id": 10941293146, "lat": 60.2693758, "lon": 17.4538655}, {"type": "node", "id": 10941293147, "lat": 60.2696689, "lon": 17.4537681}, {"type": "node", "id": 10941293148, "lat": 60.2696537, "lon": 17.4535826}, {"type": "node", "id": 10941293149, "lat": 60.2693606, "lon": 17.4536801}, {"type": "node", "id": 10971388790, "lat": 60.261782, "lon": 17.4568767}, {"type": "node", "id": 10971388791, "lat": 60.261994, "lon": 17.4569764}, {"type": "node", "id": 10971388792, "lat": 60.2620183, "lon": 17.4567666}, {"type": "node", "id": 10971388793, "lat": 60.2620517, "lon": 17.4567823}, {"type": "node", "id": 10971388794, "lat": 60.2620685, "lon": 17.456637}, {"type": "node", "id": 10971388795, "lat": 60.2619097, "lon": 17.4565625}, {"type": "node", "id": 10971388796, "lat": 60.2618933, "lon": 17.4567048}, {"type": "node", "id": 10971388797, "lat": 60.2619095, "lon": 17.4567124}, {"type": "node", "id": 10971388798, "lat": 60.2618992, "lon": 17.4568015}, {"type": "node", "id": 10971388799, "lat": 60.2617963, "lon": 17.4567531}, {"type": "node", "id": 10995074192, "lat": 60.3450332, "lon": 17.5178676, "tags": {"amenity": "restaurant", "check_date": "2023-06-21", "cuisine": "sushi", "name": "Billy Sushi", "wheelchair": "yes"}}, {"type": "node", "id": 10996882382, "lat": 60.2820222, "lon": 17.4511804}, {"type": "node", "id": 10996882383, "lat": 60.2818763, "lon": 17.4511618}, {"type": "node", "id": 10996882384, "lat": 60.2818784, "lon": 17.4510923}, {"type": "node", "id": 10996882385, "lat": 60.2817869, "lon": 17.4510805}, {"type": "node", "id": 10996882386, "lat": 60.2817783, "lon": 17.4513532}, {"type": "node", "id": 10996882387, "lat": 60.2819152, "lon": 17.4513708}, {"type": "node", "id": 10996882388, "lat": 60.2819126, "lon": 17.4514525}, {"type": "node", "id": 10996882389, "lat": 60.2820133, "lon": 17.4514654}, {"type": "node", "id": 10996882390, "lat": 60.2820172, "lon": 17.4513393}, {"type": "node", "id": 10996882391, "lat": 60.282015, "lon": 17.4514093}, {"type": "node", "id": 10996882392, "lat": 60.2820578, "lon": 17.4512823}, {"type": "node", "id": 10996882393, "lat": 60.2820544, "lon": 17.4514785}, {"type": "node", "id": 10996882394, "lat": 60.2821, "lon": 17.45143}, {"type": "node", "id": 10996882395, "lat": 60.2821017, "lon": 17.4513349}, {"type": "node", "id": 11010154115, "lat": 60.2276787, "lon": 17.45898}, {"type": "node", "id": 11010154116, "lat": 60.2277864, "lon": 17.4589761}, {"type": "node", "id": 11010154117, "lat": 60.2277843, "lon": 17.4587406}, {"type": "node", "id": 11010154118, "lat": 60.227829, "lon": 17.458739}, {"type": "node", "id": 11010154119, "lat": 60.2278273, "lon": 17.4585428}, {"type": "node", "id": 11672228313, "lat": 60.1057377, "lon": 17.2013798}, {"type": "node", "id": 11672228314, "lat": 60.1058299, "lon": 17.2016348}, {"type": "node", "id": 11672228315, "lat": 60.1058884, "lon": 17.2015459}, {"type": "node", "id": 11672228316, "lat": 60.1057924, "lon": 17.201297}, {"type": "way", "id": 426708753, "nodes": [4259783367, 4259783363, 4259783362, 4259783365, 4259783364, 4259783366, 4259783367], "tags": {"amenity": "restaurant", "building": "retail", "cuisine": "pizza", "name": "Torino Pizzeria"}}, {"type": "way", "id": 1151941668, "nodes": [10716154166, 10716154167, 10716154168, 10716154169, 10716154166], "tags": {"amenity": "restaurant", "building": "yes", "cuisine": "pizza", "name": "Upplands p\u00e4rlan"}}, {"type": "way", "id": 1177768510, "nodes": [10941293146, 10941293147, 10941293148, 10941293149, 10941293146], "tags": {"amenity": "restaurant", "building": "yes", "cuisine": "pizza;regional"}}, {"type": "way", "id": 1181401430, "nodes": [10971388790, 10971388791, 10971388792, 10971388793, 10971388794, 10971388795, 10971388796, 10971388797, 10971388798, 10971388799, 10971388790], "tags": {"amenity": "cafe", "building": "yes", "name": "Caf\u00e9 Strutsen"}}, {"type": "way", "id": 1184170905, "nodes": [10996882382, 10996882383, 10996882384, 10996882385, 10996882386, 10996882387, 10996882388, 10996882389, 10996882391, 10996882393, 10996882394, 10996882395, 10996882392, 10996882390, 10996882382], "tags": {"addr:city": "Tierp", "addr:country": "SE", "addr:housenumber": "217", "addr:postcode": "815 91", "addr:street": "Gryttjom", "amenity": "restaurant", "building": "yes", "capacity": "150", "contact:facebook": "https://www.facebook.com/profile.php?id=100063594999436", "craft": "caterer", "email": "karolamedk@hotmail.com", "lunch": "buffet", "lunch:buffet": "Mo-Fr 11-14", "name": "Karolas K\u00f6k", "phone": "+46 293 664 00", "takeaway": "yes", "website": "https://karolamedk.se/"}}, {"type": "way", "id": 1185266972, "nodes": [1061974497, 11010154115, 11010154116, 11010154117, 11010154118, 11010154119, 1061974497], "tags": {"amenity": "restaurant", "building": "restaurant", "cuisine": "thai;regional", "email": "monica@syltkrukan.se", "name": "Syltkrukan", "opening_hours": "10:00-17:00", "outdoor_seating": "yes", "phone": "+46 293-511 61", "smoking": "no", "takeaway": "yes", "website": "https://www.syltkrukan.se", "wheelchair": "no"}}, {"type": "way", "id": 1255578906, "nodes": [11672228313, 11672228314, 11672228315, 11672228316, 11672228313], "tags": {"addr:city": "Harbo", "addr:housenumber": "34", "addr:street": "Uppsalav\u00e4gen", "amenity": "restaurant", "building": "yes", "name": "Harbo Restaurang"}}]}