{"version": 0.6, "generator": "Overpass API 0.7.61.5 4133829e", "osm3s": {"timestamp_osm_base": "2024-03-08T21:12:42Z", "copyright": "The data included in this document is from www.openstreetmap.org. The data is made available under ODbL."}, "elements": [{"type": "node", "id": 450979913, "lat": 59.8757938, "lon": 18.0444193, "tags": {"amenity": "cafe", "name": "J\u00e4rnv\u00e4gscaf\u00e9et"}}, {"type": "node", "id": 517236881, "lat": 59.5544285, "lon": 18.0314206, "tags": {"amenity": "restaurant", "name": "Restaurang Lind\u00f6 Park"}}, {"type": "node", "id": 517238860, "lat": 59.5345235, "lon": 18.0784723, "tags": {"amenity": "cafe", "name": "V\u00e5ning Ett", "phone": "+46-8-51174022"}}, {"type": "node", "id": 517238864, "lat": 59.5354831, "lon": 18.0782588, "tags": {"addr:city": "Vallentuna", "addr:postcode": "186 31", "addr:street": "Centrumpassagen", "amenity": "restaurant", "cuisine": "sushi", "name": "Liu's Sushi"}}, {"type": "node", "id": 517238865, "lat": 59.5340703, "lon": 18.0777693, "tags": {"addr:city": "Vallentuna", "addr:country": "SE", "addr:housenumber": "5", "addr:postcode": "186 31", "addr:street": "Tuna torg", "alt_name": "Vallentuna G\u00e4stgiveri", "amenity": "restaurant", "name": "G\u00e4stis K\u00f6k och Bar", "old_name": "Tre Kronor", "website": "https://www.gastiskokochbar.se/"}}, {"type": "node", "id": 517238866, "lat": 59.5333048, "lon": 18.0776019, "tags": {"amenity": "restaurant", "cuisine": "asian", "name": "China Thai", "wheelchair": "no"}}, {"type": "node", "id": 517238868, "lat": 59.5331156, "lon": 18.0782774, "tags": {"addr:city": "Vallentuna", "addr:country": "SE", "addr:housenumber": "1", "addr:postcode": "186 31", "addr:street": "Centralv\u00e4gen", "amenity": "cafe", "cuisine": "coffee_shop", "name": "Vallentuna konditori", "website": "https://www.facebook.com/VallentunaKonditori/", "wheelchair": "yes"}}, {"type": "node", "id": 590615641, "lat": 59.7447108, "lon": 18.3667192, "tags": {"amenity": "restaurant", "cuisine": "chinese", "name": "Fortune House", "source": "survey"}}, {"type": "node", "id": 795589635, "lat": 59.5814731, "lon": 18.3030011, "tags": {"amenity": "cafe", "cuisine": "swedish", "name": "Brollsta Krog", "opening_hours": "Su-We 08:00-18:00;Th-Sa 08:00-20:00", "source": "survey", "website": "http://brollstakrog.se/"}}, {"type": "node", "id": 912285643, "lat": 59.9097291, "lon": 18.2667313, "tags": {"amenity": "restaurant", "name": "Knutby Krog", "website": "https://knutbykrog.se/"}}, {"type": "node", "id": 1338437244, "lat": 59.5337535, "lon": 18.0786803, "tags": {"amenity": "cafe", "brand": "Espresso House", "brand:wikidata": "Q10489162", "cuisine": "coffee_shop", "fixme": "Closed?", "name": "Espresso House", "opening_hours": "Mo-Fr 07:00-20:00; Sa 08:00-20:00; Su 08:00-20:00", "takeaway": "yes"}}, {"type": "node", "id": 1446825680, "lat": 59.52949, "lon": 18.1102235, "tags": {"amenity": "cafe", "cuisine": "pizza;kebab", "name": "Okvista Grillen", "source": "survey"}}, {"type": "node", "id": 1984370815, "lat": 59.5612933, "lon": 18.2390451, "tags": {"addr:city": "Brottby", "addr:postcode": "186 70", "addr:street": "Brottby Torg", "amenity": "cafe", "diet:gluten_free": "yes", "name": "Brottby Caf\u00e9", "opening_hours": "Mo-Fr 10:00-20:00;12:00-20:00", "opening_hours:url": "brottbycafe.se"}}, {"type": "node", "id": 2103033496, "lat": 59.745277, "lon": 18.3747824}, {"type": "node", "id": 2103033497, "lat": 59.745312, "lon": 18.3751214}, {"type": "node", "id": 2103033499, "lat": 59.7453762, "lon": 18.3747421}, {"type": "node", "id": 2103033501, "lat": 59.7454112, "lon": 18.3750811}, {"type": "node", "id": 2680492484, "lat": 59.7480096, "lon": 18.015868}, {"type": "node", "id": 2680492486, "lat": 59.7479834, "lon": 18.0161361}, {"type": "node", "id": 2680492488, "lat": 59.7479209, "lon": 18.016112}, {"type": "node", "id": 2680492489, "lat": 59.7479471, "lon": 18.0158439}, {"type": "node", "id": 2801766966, "lat": 59.6553471, "lon": 18.2630171, "tags": {"addr:country": "SE", "addr:housenumber": "320", "amenity": "cafe", "name": "KD8 (st\u00e4ngt)", "source": "Bing"}}, {"type": "node", "id": 2997911272, "lat": 59.743287, "lon": 18.3678221, "tags": {"amenity": "cafe", "cuisine": "regional", "fixme": "this is in the middle of the street. There is no Swedish food cafe here"}}, {"type": "node", "id": 3123485746, "lat": 59.6591698, "lon": 17.9725418, "tags": {"amenity": "restaurant", "fixme": "which building?", "name": "Lunchrestaurang", "source": "survey"}}, {"type": "node", "id": 4171743148, "lat": 59.7444195, "lon": 18.3658441, "tags": {"amenity": "restaurant", "cuisine": "pizza;salad;kebab", "name": "Topkapi"}}, {"type": "node", "id": 4171743177, "lat": 59.7433582, "lon": 18.3680456, "tags": {"amenity": "cafe", "cuisine": "coffee_shop", "name": "Caf\u00e9 Chocolate", "source": "survey"}}, {"type": "node", "id": 4171743186, "lat": 59.7441664, "lon": 18.3677908, "tags": {"amenity": "restaurant", "name": "Punkten", "source": "survey"}}, {"type": "node", "id": 4171768490, "lat": 59.7435149, "lon": 18.3656933, "tags": {"al_fresco": "yes", "amenity": "restaurant", "cuisine": "swedish", "name": "Prins Henry's", "operator": "Restaurang Prins Henry's Handelsbolag", "source": "survey"}}, {"type": "node", "id": 4187432042, "lat": 59.5938794, "lon": 18.0982952, "tags": {"addr:postcode": "186 94", "amenity": "cafe", "cuisine": "national", "name": "H\u00f6keriet", "opening_hours": "Mo-Fr 10:00-13:00;Sa 10:00-16:00", "website": "https://hokeriet.se"}}, {"type": "node", "id": 4338621198, "lat": 59.7346332, "lon": 18.1880693, "tags": {"amenity": "restaurant", "name": "Johannesberg Golf & Country Club", "source": "survey"}}, {"type": "node", "id": 5277263572, "lat": 59.6102569, "lon": 18.3313959, "tags": {"amenity": "cafe", "description:en": "Open to the public", "name": "L\u00f6vs\u00e4ttra GK", "source": "survey"}}, {"type": "node", "id": 5971606215, "lat": 59.53356, "lon": 18.0780719, "tags": {"addr:city": "Vallentuna", "addr:country": "SE", "addr:housenumber": "1A", "addr:postcode": "186 31", "addr:street": "Tuna torg", "amenity": "restaurant", "cuisine": "pizza;burger", "name": "Br\u00f6dernas", "phone": "08-58006050", "toilets:wheelchair": "yes", "website": "https://brodernas.nu/", "wheelchair": "yes"}}, {"type": "node", "id": 6605176501, "lat": 59.9210294, "lon": 18.1167438, "tags": {"amenity": "cafe", "contact:phone": "+46 174 24136", "name": "Caf\u00e9 Go'Biten", "opening_hours": "Mo, Fr 09:00-20:00; Tu-Th 09:00-16:00; Sa 09:00-14:00"}}, {"type": "node", "id": 8254087409, "lat": 59.5455726, "lon": 18.1288778, "tags": {"amenity": "cafe", "name": "Lingsbergs Caf\u00e9", "source": "survey"}}, {"type": "node", "id": 9061839507, "lat": 59.53354, "lon": 18.0786455, "tags": {"addr:city": "Vallentuna", "addr:country": "SE", "addr:housename": "Tunahuset", "addr:housenumber": "2C", "addr:postcode": "186 31", "addr:street": "Tuna torg", "amenity": "cafe", "name": "Balls Bowling & Bar", "operator": "Vallentuna Bowling", "sport": "10pin", "website": "https://vallentunabowling.se"}}, {"type": "node", "id": 9061980764, "lat": 59.5339127, "lon": 18.0783933, "tags": {"addr:city": "Vallentuna", "addr:country": "SE", "addr:housename": "Kommunalhuset", "addr:housenumber": "1E", "addr:postcode": "186 31", "addr:street": "Tuna torg", "al_fresco": "yes", "amenity": "cafe", "cuisine": "light", "name": "Caf\u00e9 Biscotti", "wheelchair": "unknown"}}, {"type": "node", "id": 9062043343, "lat": 59.5341957, "lon": 18.0770707, "tags": {"addr:city": "Vallentuna", "addr:country": "SE", "addr:housenumber": "1", "addr:postcode": "186 39", "addr:street": "All\u00e9v\u00e4gen", "amenity": "cafe", "name": "Caf\u00e9 Form", "website": "https://mialii.se/", "wheelchair": "unknown"}}, {"type": "way", "id": 200306292, "nodes": [2103033499, 2103033501, 2103033497, 2103033496, 2103033499], "tags": {"addr:country": "SE", "addr:housenumber": "16", "addr:street": "Roslagsv\u00e4gen", "amenity": "restaurant", "building": "yes", "cuisine": "pizza", "name": "Angelo's Grill", "opening_hours": "11:00-21:00", "source": "Survey"}}, {"type": "way", "id": 262383785, "nodes": [2680492484, 2680492486, 2680492488, 2680492489, 2680492484], "tags": {"addr:city": "Knivsta", "addr:country": "SE", "addr:housenumber": "147", "addr:place": "Husby By", "addr:postcode": "74195", "amenity": "cafe", "building": "yes", "name": "Karlh\u00e4llsstugan"}}]}