{"version": 0.6, "generator": "Overpass API 0.7.61.5 4133829e", "osm3s": {"timestamp_osm_base": "2024-03-08T20:58:30Z", "copyright": "The data included in this document is from www.openstreetmap.org. The data is made available under ODbL."}, "elements": [{"type": "node", "id": 346298420, "lat": 58.4280948, "lon": 13.8502373}, {"type": "node", "id": 346298448, "lat": 58.4280941, "lon": 13.8505245}, {"type": "node", "id": 346298450, "lat": 58.4259133, "lon": 13.8506749}, {"type": "node", "id": 346298452, "lat": 58.4275545, "lon": 13.8521341}, {"type": "node", "id": 346298454, "lat": 58.4275577, "lon": 13.8506856}, {"type": "node", "id": 346298456, "lat": 58.426364, "lon": 13.8521142}, {"type": "node", "id": 346298459, "lat": 58.4258554, "lon": 13.8508385}, {"type": "node", "id": 346298462, "lat": 58.4274122, "lon": 13.8521328}, {"type": "node", "id": 346298464, "lat": 58.4265047, "lon": 13.8521155}, {"type": "node", "id": 346298466, "lat": 58.4274126, "lon": 13.851971}, {"type": "node", "id": 346298469, "lat": 58.426505, "lon": 13.8519627}, {"type": "node", "id": 346298471, "lat": 58.4275696, "lon": 13.8493554}, {"type": "node", "id": 346298474, "lat": 58.4280128, "lon": 13.8502367}, {"type": "node", "id": 346298475, "lat": 58.4270493, "lon": 13.849351}, {"type": "node", "id": 346298479, "lat": 58.4270529, "lon": 13.8479103}, {"type": "node", "id": 346298481, "lat": 58.4259461, "lon": 13.8477623}, {"type": "node", "id": 449212641, "lat": 58.4003994, "lon": 13.8385295, "tags": {"amenity": "pharmacy", "name": "Tranan"}}, {"type": "node", "id": 449212642, "lat": 58.4001092, "lon": 13.8384978, "tags": {"addr:city": "Sk\u00f6vde", "addr:country": "SE", "addr:housenumber": "15", "addr:postcode": "541 41", "addr:street": "Ek\u00e4ngsv\u00e4gen", "amenity": "clinic", "name": "N\u00e4rh\u00e4lsan Norrmalm v\u00e5rdcentral", "operator": "V\u00e4stra G\u00f6talandsregionen", "phone": "+46 500 44 71 50", "website": "https://www.narhalsan.se/hitta-mottagning/skovde/narhalsan-norrmalm-vardcentral/"}}, {"type": "node", "id": 449212643, "lat": 58.4001896, "lon": 13.8384975, "tags": {"addr:city": "Sk\u00f6vde", "addr:country": "SE", "addr:housenumber": "15", "addr:postcode": "541 41", "addr:street": "Ek\u00e4ngsv\u00e4gen", "amenity": "clinic", "name": "N\u00e4rh\u00e4lsan Billingen v\u00e5rdcentral", "operator": "V\u00e4stra G\u00f6talandsregionen", "phone": "+46 500 44 71 20", "website": "https://www.narhalsan.se/hitta-mottagning/skovde/narhalsan-billingen-vardcentral/"}}, {"type": "node", "id": 514797336, "lat": 58.3089382, "lon": 14.2998331, "tags": {"addr:city": "Hjo", "addr:country": "SE", "addr:housenumber": "4A", "addr:postcode": "544 33", "addr:street": "Karlsborgsv\u00e4gen", "amenity": "clinic", "contact:phone": "+46 503 227 00", "healthcare": "clinic", "name": "N\u00e4rh\u00e4lsan Hjo v\u00e5rdcentral", "network": "V\u00e4stra G\u00f6talandsregionen", "operator": "V\u00e4stra G\u00f6talandsregionen", "website": "https://www.narhalsan.se/hitta-mottagning/hjo/narhalsan-hjo-vardcentral/"}}, {"type": "node", "id": 597194296, "lat": 58.3908503, "lon": 13.8480583, "tags": {"amenity": "clinic", "healthcare": "clinic", "name": "doctor24"}}, {"type": "node", "id": 918339567, "lat": 58.3876027, "lon": 13.8419595, "tags": {"addr:city": "Sk\u00f6vde", "addr:country": "SE", "addr:housenumber": "29", "addr:postcode": "541 31", "addr:street": "Badhusgatan", "amenity": "clinic", "contact:phone": "+46 10 435 84 53", "contact:website": "http://www.narhalsan.se/skovdebarnmorskemottagning", "emergency": "no", "healthcare": "clinic", "name": "N\u00e4rh\u00e4lsan Sk\u00f6vde barnmorskemottagning", "network": "V\u00e4stra G\u00f6talandsregionen"}}, {"type": "node", "id": 1120376725, "lat": 58.4265231, "lon": 13.8500806}, {"type": "node", "id": 1120376737, "lat": 58.4268925, "lon": 13.8497388}, {"type": "node", "id": 1120376761, "lat": 58.4261795, "lon": 13.8512507}, {"type": "node", "id": 1120376775, "lat": 58.426893, "lon": 13.8500828}, {"type": "node", "id": 1151465483, "lat": 58.4265238, "lon": 13.8497361}, {"type": "node", "id": 1151465490, "lat": 58.4261788, "lon": 13.8514922}, {"type": "node", "id": 1394249757, "lat": 58.3840579, "lon": 13.8767219}, {"type": "node", "id": 1394249759, "lat": 58.384128, "lon": 13.8769587}, {"type": "node", "id": 1394249760, "lat": 58.3842685, "lon": 13.8764954}, {"type": "node", "id": 1394249763, "lat": 58.3843385, "lon": 13.8767322}, {"type": "node", "id": 1800872718, "lat": 58.3429818, "lon": 13.8286894, "tags": {"amenity": "dentist", "branch": "Skultorp", "brand": "Folktandv\u00e5rden", "brand:wikidata": "Q10497476", "contact:email": "ftv.skultorp.skovde@vgregion.se", "contact:phone": "+46500493270", "contact:website": "http://www.vgregion.se/folktandvarden/skultorp", "healthcare": "dentist", "name": "Folktandv\u00e5rden"}}, {"type": "node", "id": 1800872719, "lat": 58.3433399, "lon": 13.828759, "tags": {"amenity": "veterinary", "contact:phone": "+46500434390", "contact:website": "http://www.minvet.se/", "name": "Min Veterin\u00e4r"}}, {"type": "node", "id": 1811914729, "lat": 58.4258309, "lon": 13.8505048}, {"type": "node", "id": 1811914731, "lat": 58.4258317, "lon": 13.8502196}, {"type": "node", "id": 1811914733, "lat": 58.4259138, "lon": 13.8505055}, {"type": "node", "id": 1811914735, "lat": 58.4259252, "lon": 13.8497473}, {"type": "node", "id": 1811914737, "lat": 58.4259265, "lon": 13.8502204}, {"type": "node", "id": 1811914739, "lat": 58.4259269, "lon": 13.8500764}, {"type": "node", "id": 1811914747, "lat": 58.4263791, "lon": 13.8500805}, {"type": "node", "id": 1811914749, "lat": 58.42638, "lon": 13.8497514}, {"type": "node", "id": 1811914751, "lat": 58.4263877, "lon": 13.8477663}, {"type": "node", "id": 1811914752, "lat": 58.4263876, "lon": 13.8477922}, {"type": "node", "id": 1811914768, "lat": 58.4266772, "lon": 13.8480716}, {"type": "node", "id": 1811914770, "lat": 58.4266776, "lon": 13.8478986}, {"type": "node", "id": 1811914772, "lat": 58.4267463, "lon": 13.8478992}, {"type": "node", "id": 1811914773, "lat": 58.4267468, "lon": 13.8477366}, {"type": "node", "id": 1811914779, "lat": 58.4269115, "lon": 13.8475899}, {"type": "node", "id": 1811914780, "lat": 58.4269103, "lon": 13.8480737}, {"type": "node", "id": 1811914796, "lat": 58.4274267, "lon": 13.8493544}, {"type": "node", "id": 1811914797, "lat": 58.4274271, "lon": 13.8491854}, {"type": "node", "id": 1811914799, "lat": 58.42757, "lon": 13.8491866}, {"type": "node", "id": 1811914800, "lat": 58.4275712, "lon": 13.8500902}, {"type": "node", "id": 1811914801, "lat": 58.427572, "lon": 13.8497617}, {"type": "node", "id": 1811914807, "lat": 58.427834, "lon": 13.849764}, {"type": "node", "id": 1811914808, "lat": 58.427835, "lon": 13.8493578}, {"type": "node", "id": 1811914812, "lat": 58.4280131, "lon": 13.8500935}, {"type": "node", "id": 1811914813, "lat": 58.4280165, "lon": 13.8506904}, {"type": "node", "id": 1811914814, "lat": 58.428017, "lon": 13.8505238}, {"type": "node", "id": 2063353853, "lat": 58.3888392, "lon": 13.8659342, "tags": {"amenity": "veterinary", "name": "Ekens Djurklinik"}}, {"type": "node", "id": 2289151584, "lat": 58.4072214, "lon": 13.8674131, "tags": {"amenity": "clinic", "name": "Allemansh\u00e4lsans v\u00e5rdcentral Lunden", "opening_hours": "Mo-Fr 08:00-17:00"}}, {"type": "node", "id": 2289151587, "lat": 58.4072198, "lon": 13.8673894, "tags": {"amenity": "clinic", "name": "Barnav\u00e5rdscentralen Allemansh\u00e4lsans v\u00e5rdcentral Lunden", "opening_hours": "Mo-Fr 08:00-17:00"}}, {"type": "node", "id": 2798652426, "lat": 58.271515, "lon": 13.7120892, "tags": {"addr:city": "Stenstorp", "addr:country": "SE", "addr:housenumber": "14A", "addr:postcode": "521 60", "addr:street": "Storgatan", "amenity": "clinic", "contact:phone": "+46 500 47 29 50", "emergency": "no", "healthcare": "clinic", "name": "N\u00e4rh\u00e4lsan Stenstorp v\u00e5rdcentral", "network": "V\u00e4stra G\u00f6talandsregionen", "operator": "V\u00e4stra G\u00f6talandsregionen", "website": "https://www.narhalsan.se/hitta-mottagning/falkoping/narhalsan-stenstorp-barnavardscentral/"}}, {"type": "node", "id": 3473602445, "lat": 58.4270007, "lon": 13.8710484, "tags": {"addr:city": "Sk\u00f6vde", "addr:country": "SE", "addr:housenumber": "1", "addr:postcode": "54164", "addr:street": "Timmerv\u00e4gen", "amenity": "dentist", "contact:website": "http://www.vgregion.se/folktandvarden/sodraryd", "name": "Folktandv\u00e5rden S\u00f6dra Ryd", "opening_hours": "Mo 07:30-18:00, Tu-Th 07:30-17:00, Fr 07:30-12:30", "operator": "Folktandv\u00e5rden"}}, {"type": "node", "id": 3798033617, "lat": 58.4298269, "lon": 14.159225, "tags": {"addr:city": "Tibro", "addr:country": "SE", "addr:housenumber": "9", "addr:postcode": "54335", "addr:street": "Norra v\u00e4gen", "amenity": "veterinary", "name": "Distriktsveterin\u00e4rerna Tibro", "opening_hours": "Mo-Tu 08:00-16:00; We 08:00-10:00; Th 08:00-20:00", "operator": "Distriktsveterin\u00e4rerna", "phone": "+46101229220", "website": "https://distriktsveterinarerna.se/dv/veterinarmottagningar/kontakt-veterinarmottagningar/lan/vastra-gotalands-lan/tibro.html"}}, {"type": "node", "id": 4381261865, "lat": 58.4264914, "lon": 13.8521154, "tags": {"access": "yes", "amenity": "compressed_air", "fee": "no", "manometer": "no"}}, {"type": "node", "id": 5232719531, "lat": 58.426903, "lon": 13.8519663}, {"type": "node", "id": 5232719546, "lat": 58.42704, "lon": 13.8519676}, {"type": "node", "id": 5232719549, "lat": 58.425926, "lon": 13.8490955}, {"type": "node", "id": 5232719550, "lat": 58.4258097, "lon": 13.849094}, {"type": "node", "id": 5232719551, "lat": 58.4258088, "lon": 13.8485858}, {"type": "node", "id": 5232719552, "lat": 58.4258459, "lon": 13.8485873}, {"type": "node", "id": 5232719553, "lat": 58.4258466, "lon": 13.8483313}, {"type": "node", "id": 5232719554, "lat": 58.4259365, "lon": 13.8483321}, {"type": "node", "id": 5232719565, "lat": 58.4277123, "lon": 13.8485397}, {"type": "node", "id": 5232719566, "lat": 58.4274314, "lon": 13.848537}, {"type": "node", "id": 5232719567, "lat": 58.4274304, "lon": 13.8489318}, {"type": "node", "id": 5232719568, "lat": 58.4277113, "lon": 13.8489345}, {"type": "node", "id": 5232719569, "lat": 58.427419, "lon": 13.8508064}, {"type": "node", "id": 5232719570, "lat": 58.4271129, "lon": 13.8508042}, {"type": "node", "id": 5232719571, "lat": 58.4271132, "lon": 13.8506808}, {"type": "node", "id": 5232719572, "lat": 58.4274193, "lon": 13.8506841}, {"type": "node", "id": 5232719573, "lat": 58.4274022, "lon": 13.850089}, {"type": "node", "id": 5232719574, "lat": 58.4270406, "lon": 13.8500863}, {"type": "node", "id": 5232719575, "lat": 58.4270409, "lon": 13.8499136}, {"type": "node", "id": 5232719576, "lat": 58.4274025, "lon": 13.8499161}, {"type": "node", "id": 5232719577, "lat": 58.4265822, "lon": 13.8493153}, {"type": "node", "id": 5232719578, "lat": 58.4265042, "lon": 13.8493153}, {"type": "node", "id": 5232719579, "lat": 58.4265042, "lon": 13.8491826}, {"type": "node", "id": 5232719580, "lat": 58.4265822, "lon": 13.8491826}, {"type": "node", "id": 5232719581, "lat": 58.4269089, "lon": 13.8493252}, {"type": "node", "id": 5232719582, "lat": 58.4267191, "lon": 13.8493248}, {"type": "node", "id": 5232719583, "lat": 58.4267191, "lon": 13.8491839}, {"type": "node", "id": 5232719584, "lat": 58.4269089, "lon": 13.8491843}, {"type": "node", "id": 5232719585, "lat": 58.4259815, "lon": 13.8481995}, {"type": "node", "id": 5232719586, "lat": 58.425982, "lon": 13.8479769}, {"type": "node", "id": 5232719587, "lat": 58.4259368, "lon": 13.8481991}, {"type": "node", "id": 5232719588, "lat": 58.4259456, "lon": 13.8479766}, {"type": "node", "id": 5232719589, "lat": 58.4263803, "lon": 13.8481896}, {"type": "node", "id": 5232719590, "lat": 58.4260173, "lon": 13.8481839}, {"type": "node", "id": 5232719591, "lat": 58.4260179, "lon": 13.8479867}, {"type": "node", "id": 5232719592, "lat": 58.4263809, "lon": 13.8479924}, {"type": "node", "id": 5232719593, "lat": 58.4263946, "lon": 13.8487617}, {"type": "node", "id": 5232719594, "lat": 58.4260129, "lon": 13.8487534}, {"type": "node", "id": 5232719595, "lat": 58.4260138, "lon": 13.8486099}, {"type": "node", "id": 5232719596, "lat": 58.4263955, "lon": 13.8486182}, {"type": "node", "id": 5232719597, "lat": 58.4263916, "lon": 13.8493238}, {"type": "node", "id": 5232719598, "lat": 58.4260665, "lon": 13.8493303}, {"type": "node", "id": 5232719599, "lat": 58.4260658, "lon": 13.8491948}, {"type": "node", "id": 5232719600, "lat": 58.4263909, "lon": 13.8491882}, {"type": "node", "id": 5232719601, "lat": 58.4268327, "lon": 13.8508172}, {"type": "node", "id": 5232719602, "lat": 58.4265174, "lon": 13.8508149}, {"type": "node", "id": 5232719603, "lat": 58.4265177, "lon": 13.8506796}, {"type": "node", "id": 5232719604, "lat": 58.426833, "lon": 13.8506819}, {"type": "node", "id": 5232719605, "lat": 58.4263689, "lon": 13.8511717}, {"type": "node", "id": 5232719606, "lat": 58.426296, "lon": 13.8511712}, {"type": "node", "id": 5232719607, "lat": 58.4262968, "lon": 13.8508054}, {"type": "node", "id": 5232719608, "lat": 58.4262759, "lon": 13.8508052}, {"type": "node", "id": 5232719609, "lat": 58.4262762, "lon": 13.8506778}, {"type": "node", "id": 5232719610, "lat": 58.4263699, "lon": 13.8506785}, {"type": "node", "id": 5232719611, "lat": 58.4262865, "lon": 13.8513803}, {"type": "node", "id": 5232719612, "lat": 58.4263658, "lon": 13.8513811}, {"type": "node", "id": 5232719613, "lat": 58.4262853, "lon": 13.8518896}, {"type": "node", "id": 5232719614, "lat": 58.4258374, "lon": 13.8518856}, {"type": "node", "id": 5232719615, "lat": 58.4258383, "lon": 13.8514891}, {"type": "node", "id": 5232719616, "lat": 58.4258544, "lon": 13.8512477}, {"type": "node", "id": 5232719617, "lat": 58.4261747, "lon": 13.8508414}, {"type": "node", "id": 5232719618, "lat": 58.4261751, "lon": 13.8506772}, {"type": "node", "id": 6442472757, "lat": 58.5745887, "lon": 14.0056365, "tags": {"addr:city": "Tidan", "addr:country": "SE", "addr:housenumber": "5", "addr:postcode": "549 31", "addr:street": "Tidanv\u00e4gen", "amenity": "clinic", "contact:phone": "+46 500 49 51 00", "healthcare": "clinic", "name": "N\u00e4rh\u00e4lsan Tidan v\u00e5rdcentral", "network": "V\u00e4stra G\u00f6talandsregionen", "operator": "V\u00e4stra G\u00f6talandsregionen"}}, {"type": "node", "id": 6600942445, "lat": 58.271599, "lon": 13.712174, "tags": {"amenity": "pharmacy"}}, {"type": "node", "id": 7841422986, "lat": 58.4050853, "lon": 13.8579294, "tags": {"amenity": "pharmacy", "name": "Apotek Hj\u00e4rtat"}}, {"type": "node", "id": 8026611755, "lat": 58.4263655, "lon": 13.8515068}, {"type": "node", "id": 8073625755, "lat": 58.3890549, "lon": 13.843871, "tags": {"addr:city": "Sk\u00f6vde", "addr:country": "SE", "addr:housenumber": "10", "addr:street": "Petter Hel\u00e9ns Gata", "amenity": "clinic", "email": "info@skaraborgsvaccination.se", "healthcare": "clinic", "healthcare:speciality": "vaccination", "name": "Skaraborgs Vaccinationscentrum", "name:en": "Skaraborgs Vaccination Center", "opening_hours": "Mo 18:30-20:30"}}, {"type": "node", "id": 8960015434, "lat": 58.427998, "lon": 13.8513813}, {"type": "node", "id": 8960015439, "lat": 58.4275561, "lon": 13.8515355}, {"type": "node", "id": 8960015443, "lat": 58.4278256, "lon": 13.8509117}, {"type": "node", "id": 8960015444, "lat": 58.4275559, "lon": 13.8513903}, {"type": "node", "id": 8960015447, "lat": 58.4278192, "lon": 13.8513783}, {"type": "node", "id": 8960015451, "lat": 58.427596, "lon": 13.851344}, {"type": "node", "id": 8960015457, "lat": 58.4275952, "lon": 13.8513914}, {"type": "node", "id": 8960015464, "lat": 58.4278269, "lon": 13.8511336}, {"type": "node", "id": 8960015467, "lat": 58.4276497, "lon": 13.8513479}, {"type": "node", "id": 8960015469, "lat": 58.4280891, "lon": 13.851128}, {"type": "node", "id": 8960015474, "lat": 58.4280938, "lon": 13.8519447}, {"type": "node", "id": 8960015475, "lat": 58.4276506, "lon": 13.851488}, {"type": "node", "id": 8960015477, "lat": 58.4278176, "lon": 13.8517178}, {"type": "node", "id": 8960015480, "lat": 58.4276532, "lon": 13.8519539}, {"type": "node", "id": 8960015482, "lat": 58.4276289, "lon": 13.8514876}, {"type": "node", "id": 8960015484, "lat": 58.4279964, "lon": 13.8517208}, {"type": "node", "id": 8960015488, "lat": 58.4276472, "lon": 13.8509154}, {"type": "node", "id": 8960015490, "lat": 58.4276287, "lon": 13.8515369}, {"type": "node", "id": 9007732874, "lat": 58.3430182, "lon": 13.8288796, "tags": {"addr:city": "Sk\u00f6vde", "addr:country": "SE", "addr:housenumber": "1A", "addr:postcode": "541 57", "addr:street": "Vibogatan", "amenity": "clinic", "healthcare": "clinic", "name": "N\u00e4rh\u00e4lsan Hentorp v\u00e5rdcentral - Skultorp", "operator": "V\u00e4stra G\u00f6talandsregionen", "phone": "+46 500 44 70 70"}}, {"type": "node", "id": 9010791199, "lat": 58.4238368, "lon": 13.8689932, "tags": {"amenity": "clinic", "name": "N\u00e4rh\u00e4lsan S\u00f6dra Ryd v\u00e5rdcentral", "operator": "V\u00e4stra G\u00f6talandsregionen", "phone": "+46 500 46 65 62"}}, {"type": "node", "id": 9010978159, "lat": 58.4252578, "lon": 14.1648772, "tags": {"addr:city": "Tibro", "addr:country": "SE", "addr:housenumber": "17", "addr:postcode": "543 30", "addr:street": "Centrumgatan", "amenity": "clinic", "name": "N\u00e4rh\u00e4lsan Tibro v\u00e5rdcentral", "operator": "V\u00e4stra G\u00f6talandsregionen", "phone": "+46 504 40 300", "website": "https://www.narhalsan.se/hitta-mottagning/tibro/narhalsan-tibro-vardcentral/"}}, {"type": "node", "id": 9025967831, "lat": 58.4257276, "lon": 14.1644374, "tags": {"addr:city": "Tibro", "addr:country": "SE", "addr:housenumber": "11", "addr:postcode": "543 30", "addr:street": "Centrumgatan", "amenity": "clinic", "name": "N\u00e4rh\u00e4lsan Tibro rehabmottagning", "operator": "V\u00e4stra G\u00f6talandsregionen", "phone": "+46 504 40 364", "website": "https://www.narhalsan.se/hitta-mottagning/tibro/narhalsan-tibro-rehabmottagning/"}}, {"type": "node", "id": 9025967832, "lat": 58.4252325, "lon": 14.1648746, "tags": {"addr:city": "Tibro", "addr:country": "SE", "addr:housenumber": "17", "addr:postcode": "543 30", "addr:street": "Centrumgatan", "amenity": "clinic", "name": "N\u00e4rh\u00e4lsan Tibro barnav\u00e5rdscentral", "operator": "V\u00e4stra G\u00f6talandsregionen", "phone": "+46 504 40 300", "website": "https://www.narhalsan.se/hitta-mottagning/tibro/narhalsan-tibro-barnavardscentral/"}}, {"type": "node", "id": 9025989685, "lat": 58.5745668, "lon": 14.0056466, "tags": {"addr:city": "Tidan", "addr:country": "SE", "addr:housenumber": "5A", "addr:postcode": "549 31", "addr:street": "Tidanv\u00e4gen", "amenity": "clinic", "name": "N\u00e4rh\u00e4lsan Tidan barnav\u00e5rdscentral", "operator": "V\u00e4stra G\u00f6talandsregionen", "phone": "+46 500 49 51 00", "website": "https://www.narhalsan.se/hitta-mottagning/skovde/narhalsan-tidan-barnavardscentral/"}}, {"type": "node", "id": 9026083806, "lat": 58.4254587, "lon": 13.8768388, "tags": {"addr:city": "Sk\u00f6vde", "addr:country": "SE", "addr:housenumber": "27A-C", "addr:postcode": "541 64", "addr:street": "Timmerv\u00e4gen", "amenity": "clinic", "name": "N\u00e4rh\u00e4lsan S\u00f6dra Ryd barnav\u00e5rdscentral", "operator": "V\u00e4stra G\u00f6talandsregionen", "phone": "+46 500 47 87 70;+46 500 47 87 71;+46 500 47 87 72", "website": "https://www.narhalsan.se/hitta-mottagning/skovde/narhalsan-sodra-ryd-barnavardscentral/"}}, {"type": "node", "id": 9026635770, "lat": 58.2714915, "lon": 13.7120888, "tags": {"addr:city": "Stenstorp", "addr:country": "SE", "addr:housenumber": "14A", "addr:postcode": "521 60", "addr:street": "Storgatan", "amenity": "clinic", "name": "N\u00e4rh\u00e4lsan Stenstorp barnav\u00e5rdscentral", "operator": "V\u00e4stra G\u00f6talandsregionen", "phone": "+46 500 47 29 50", "website": "https://www.narhalsan.se/hitta-mottagning/falkoping/narhalsan-stenstorp-barnavardscentral/"}}, {"type": "node", "id": 9026978199, "lat": 58.4000744, "lon": 13.8384956, "tags": {"addr:city": "Sk\u00f6vde", "addr:country": "SE", "addr:housenumber": "15", "addr:postcode": "541 41", "addr:street": "Ek\u00e4ngsv\u00e4gen", "amenity": "clinic", "name": "N\u00e4rh\u00e4lsan Norrmalm barnav\u00e5rdscentral", "operator": "V\u00e4stra G\u00f6talandsregionen", "phone": "+46 500 44 71 75;+46 500 44 71 74;+46 500 44 71 14", "website": "https://www.narhalsan.se/hitta-mottagning/skovde/narhalsan-norrmalm-barnavardscentral/"}}, {"type": "node", "id": 9026985054, "lat": 58.4001541, "lon": 13.8385037, "tags": {"addr:city": "Sk\u00f6vde", "addr:country": "SE", "addr:housenumber": "15", "addr:postcode": "541 41", "addr:street": "Ek\u00e4ngsv\u00e4gen", "amenity": "clinic", "name": "N\u00e4rh\u00e4lsan Billingen barnav\u00e5rdscentral", "operator": "V\u00e4stra G\u00f6talandsregionen", "phone": "+46 500 44 71 21;+46 500 44 71 22;+46 500 44 71 09", "website": "https://www.narhalsan.se/hitta-mottagning/skovde/narhalsan-billingen-barnavardscentral/"}}, {"type": "node", "id": 9029809712, "lat": 58.3088431, "lon": 14.2998366, "tags": {"addr:city": "Hjo", "addr:country": "SE", "addr:housenumber": "4A", "addr:postcode": "544 33", "addr:street": "Karlsborgsv\u00e4gen", "amenity": "clinic", "name": "N\u00e4rh\u00e4lsan Hjo rehabmottagning", "operator": "V\u00e4stra G\u00f6talandsregionen", "phone": "+46 503 227 43", "website": "https://www.narhalsan.se/hitta-mottagning/hjo/narhalsan-hjo-rehabmottagning/"}}, {"type": "node", "id": 9029833910, "lat": 58.3088851, "lon": 14.2998312, "tags": {"addr:city": "Hjo", "addr:country": "SE", "addr:housenumber": "4A", "addr:postcode": "544 33", "addr:street": "Karlsborgsv\u00e4gen", "amenity": "clinic", "name": "N\u00e4rh\u00e4lsan Hjo barnav\u00e5rdscentral", "operator": "V\u00e4stra G\u00f6talandsregionen", "phone": "+46 503 227 00", "website": "https://www.narhalsan.se/hitta-mottagning/hjo/narhalsan-hjo-barnavardscentral/"}}, {"type": "node", "id": 9030274754, "lat": 58.3429745, "lon": 13.8288756, "tags": {"addr:city": "Sk\u00f6vde", "addr:country": "SE", "addr:housenumber": "1A", "addr:postcode": "541 57", "addr:street": "Vibogatan", "amenity": "clinic", "healthcare": "clinic", "name": "N\u00e4rh\u00e4lsan Hentorp barnav\u00e5rdscentral - Skultorp", "operator": "V\u00e4stra G\u00f6talandsregionen", "phone": "+46 500 44 70 70", "website": "https://www.narhalsan.se/hitta-mottagning/skovde/narhalsan-hentorp-barnavardscentral---skultorp/"}}, {"type": "node", "id": 9030279445, "lat": 58.3701241, "lon": 13.82826, "tags": {"addr:city": "Sk\u00f6vde", "addr:country": "SE", "addr:housenumber": "40A", "addr:postcode": "541 54", "addr:street": "Gr\u00f6na v\u00e4gen", "amenity": "clinic", "name": "N\u00e4rh\u00e4lsan Hentorp barnav\u00e5rdscentral - Skultorp", "operator": "V\u00e4stra G\u00f6talandsregionen", "phone": "+46 500 44 70 36;+46 500 44 70 37", "website": "https://www.narhalsan.se/hitta-mottagning/skovde/narhalsan-hentorp-barnavardscentral/"}}, {"type": "node", "id": 9030279446, "lat": 58.370167, "lon": 13.8282647, "tags": {"addr:city": "Sk\u00f6vde", "addr:country": "SE", "addr:housenumber": "40A", "addr:postcode": "541 54", "addr:street": "Gr\u00f6na v\u00e4gen", "amenity": "clinic", "name": "N\u00e4rh\u00e4lsan Hentorp v\u00e5rdcentral", "operator": "V\u00e4stra G\u00f6talandsregionen", "phone": "+46 500 44 70 70", "website": "https://www.narhalsan.se/hitta-mottagning/skovde/narhalsan-hentorp-vardcentral/"}}, {"type": "node", "id": 9038984434, "lat": 58.4000245, "lon": 13.8384913, "tags": {"addr:city": "Sk\u00f6vde", "addr:country": "SE", "addr:housenumber": "15", "addr:postcode": "541 41", "addr:street": "Ek\u00e4ngsv\u00e4gen", "amenity": "clinic", "name": "N\u00e4rh\u00e4lsan Sk\u00f6vde jourcentral", "operator": "V\u00e4stra G\u00f6talandsregionen", "phone": "+46 500 47 80 76", "website": "https://www.narhalsan.se/hitta-mottagning/skovde/narhalsan-skovde-jourcentral/"}}, {"type": "node", "id": 9039077219, "lat": 58.3937089, "lon": 13.8408054, "tags": {"addr:city": "Sk\u00f6vde", "addr:country": "SE", "addr:housenumber": "4", "addr:postcode": "541 30", "addr:street": "Badhusgatan", "amenity": "clinic", "name": "N\u00e4rh\u00e4lsan Sk\u00f6vde rehabmottagning", "operator": "V\u00e4stra G\u00f6talandsregionen", "phone": "+46 500 47 83 83", "website": "https://www.narhalsan.se/hitta-mottagning/skovde/narhalsan-skovde-rehabmottagning/"}}, {"type": "node", "id": 9267202262, "lat": 58.4286537, "lon": 13.8475174}, {"type": "node", "id": 9267202263, "lat": 58.428652, "lon": 13.8481794}, {"type": "node", "id": 9267202264, "lat": 58.4282747, "lon": 13.8481759}, {"type": "node", "id": 9267202265, "lat": 58.4282745, "lon": 13.8482494}, {"type": "node", "id": 9267202266, "lat": 58.428075, "lon": 13.8482476}, {"type": "node", "id": 9267202267, "lat": 58.4280752, "lon": 13.8481653}, {"type": "node", "id": 9267202268, "lat": 58.4279263, "lon": 13.848164}, {"type": "node", "id": 9267202269, "lat": 58.4283584, "lon": 13.8475148}, {"type": "node", "id": 9267202270, "lat": 58.4283599, "lon": 13.8469037}, {"type": "node", "id": 9267202271, "lat": 58.4280152, "lon": 13.8469006}, {"type": "node", "id": 9267202272, "lat": 58.4280138, "lon": 13.8474393}, {"type": "node", "id": 9267202273, "lat": 58.4279268, "lon": 13.8474385}, {"type": "node", "id": 9267202274, "lat": 58.4279282, "lon": 13.8468554}, {"type": "node", "id": 9267202275, "lat": 58.4277215, "lon": 13.8468535}, {"type": "node", "id": 9267202276, "lat": 58.4277201, "lon": 13.8474027}, {"type": "node", "id": 9267202277, "lat": 58.427643, "lon": 13.847402}, {"type": "node", "id": 9267202278, "lat": 58.4276444, "lon": 13.8468586}, {"type": "node", "id": 9267202279, "lat": 58.4274588, "lon": 13.8468569}, {"type": "node", "id": 9267202280, "lat": 58.4279261, "lon": 13.8482317}, {"type": "node", "id": 9267202281, "lat": 58.4274314, "lon": 13.8482272}, {"type": "node", "id": 9267202282, "lat": 58.4274328, "lon": 13.8476606}, {"type": "node", "id": 9267202284, "lat": 58.4266224, "lon": 13.8475873}, {"type": "node", "id": 9267202285, "lat": 58.4266265, "lon": 13.8459239}, {"type": "node", "id": 9267202286, "lat": 58.4271511, "lon": 13.8459286}, {"type": "node", "id": 9267202288, "lat": 58.4271468, "lon": 13.8476581}, {"type": "node", "id": 9267202289, "lat": 58.4271462, "lon": 13.8479112}, {"type": "node", "id": 10055928246, "lat": 58.4274418, "lon": 13.8485371}, {"type": "node", "id": 10055928247, "lat": 58.4274741, "lon": 13.8485374}, {"type": "node", "id": 10055928248, "lat": 58.4274423, "lon": 13.8482273}, {"type": "node", "id": 10055928249, "lat": 58.4274746, "lon": 13.8482276}, {"type": "node", "id": 10055928296, "lat": 58.4259286, "lon": 13.8478267}, {"type": "node", "id": 10055928297, "lat": 58.4259276, "lon": 13.8479053}, {"type": "node", "id": 10055928298, "lat": 58.4259459, "lon": 13.8478267}, {"type": "node", "id": 10055928299, "lat": 58.4259458, "lon": 13.8479053}, {"type": "node", "id": 10055928300, "lat": 58.4258767, "lon": 13.8477709}, {"type": "node", "id": 10055928301, "lat": 58.4258745, "lon": 13.8479374}, {"type": "node", "id": 10055928302, "lat": 58.4259271, "lon": 13.8479399}, {"type": "node", "id": 10055928303, "lat": 58.4259293, "lon": 13.8477735}, {"type": "node", "id": 10055928304, "lat": 58.4272169, "lon": 13.8473147}, {"type": "node", "id": 10055928305, "lat": 58.4274123, "lon": 13.8473834}, {"type": "node", "id": 10055928306, "lat": 58.4274575, "lon": 13.8473827}, {"type": "node", "id": 10055928307, "lat": 58.4271458, "lon": 13.8473157}, {"type": "node", "id": 10055928308, "lat": 58.4272183, "lon": 13.8472843}, {"type": "node", "id": 10055928309, "lat": 58.4274121, "lon": 13.8472826}, {"type": "node", "id": 10055928310, "lat": 58.427856, "lon": 13.8471262}, {"type": "node", "id": 10055928311, "lat": 58.4277997, "lon": 13.8471294}, {"type": "node", "id": 10055928312, "lat": 58.4277981, "lon": 13.847026}, {"type": "node", "id": 10055928313, "lat": 58.4278544, "lon": 13.8470228}, {"type": "node", "id": 10055928314, "lat": 58.4283854, "lon": 13.8478629}, {"type": "node", "id": 10055928315, "lat": 58.4284984, "lon": 13.8479675}, {"type": "node", "id": 10055928316, "lat": 58.4285483, "lon": 13.8478535}, {"type": "node", "id": 10055928317, "lat": 58.4285209, "lon": 13.8476913}, {"type": "node", "id": 10055928318, "lat": 58.4283868, "lon": 13.8477798}, {"type": "node", "id": 10055928319, "lat": 58.4281733, "lon": 13.8473453}, {"type": "node", "id": 10055928320, "lat": 58.4282302, "lon": 13.8473506}, {"type": "node", "id": 10055928321, "lat": 58.4282667, "lon": 13.847128}, {"type": "node", "id": 10055928322, "lat": 58.4281796, "lon": 13.8470596}, {"type": "node", "id": 10055928323, "lat": 58.4281298, "lon": 13.8471615}, {"type": "node", "id": 10055928324, "lat": 58.4280803, "lon": 13.8480337}, {"type": "node", "id": 10055928325, "lat": 58.4282615, "lon": 13.8480378}, {"type": "node", "id": 10055928326, "lat": 58.4282639, "lon": 13.8476443}, {"type": "node", "id": 10055928327, "lat": 58.4280827, "lon": 13.8476403}, {"type": "node", "id": 10055928328, "lat": 58.4279051, "lon": 13.8476409}, {"type": "node", "id": 10055928329, "lat": 58.4279079, "lon": 13.8480285}, {"type": "node", "id": 10055928330, "lat": 58.4278285, "lon": 13.8480306}, {"type": "node", "id": 10055928331, "lat": 58.4278257, "lon": 13.847643}, {"type": "node", "id": 10055928332, "lat": 58.4276249, "lon": 13.8476347}, {"type": "node", "id": 10055928333, "lat": 58.4276263, "lon": 13.8480692}, {"type": "node", "id": 10055928334, "lat": 58.4277197, "lon": 13.8480681}, {"type": "node", "id": 10055928335, "lat": 58.4277183, "lon": 13.8476336}, {"type": "node", "id": 10055928336, "lat": 58.4269476, "lon": 13.8462397}, {"type": "node", "id": 10055928337, "lat": 58.4269458, "lon": 13.8465032}, {"type": "node", "id": 10055928338, "lat": 58.4268264, "lon": 13.8465003}, {"type": "node", "id": 10055928339, "lat": 58.4268282, "lon": 13.8462367}, {"type": "node", "id": 10055928340, "lat": 58.4268226, "lon": 13.8469495}, {"type": "node", "id": 10055928341, "lat": 58.4268209, "lon": 13.8471674}, {"type": "node", "id": 10055928342, "lat": 58.426945, "lon": 13.8471711}, {"type": "node", "id": 10055928343, "lat": 58.4269467, "lon": 13.8469532}, {"type": "node", "id": 10055928344, "lat": 58.4267464, "lon": 13.847875}, {"type": "node", "id": 10055928345, "lat": 58.4269108, "lon": 13.847875}, {"type": "node", "id": 10055928346, "lat": 58.4269109, "lon": 13.847816}, {"type": "node", "id": 10055928347, "lat": 58.4267466, "lon": 13.847816}, {"type": "node", "id": 10055928348, "lat": 58.4266226, "lon": 13.8475261}, {"type": "node", "id": 10055928349, "lat": 58.4266246, "lon": 13.846715}, {"type": "node", "id": 10055928350, "lat": 58.4265385, "lon": 13.8477347}, {"type": "node", "id": 10055928351, "lat": 58.4264052, "lon": 13.8477923}, {"type": "node", "id": 10055928352, "lat": 58.4265377, "lon": 13.8475245}, {"type": "node", "id": 10055928353, "lat": 58.4264042, "lon": 13.847522}, {"type": "node", "id": 10055928354, "lat": 58.4262381, "lon": 13.8466037}, {"type": "node", "id": 10055928355, "lat": 58.4264891, "lon": 13.8466101}, {"type": "node", "id": 10055928356, "lat": 58.4262374, "lon": 13.8467077}, {"type": "node", "id": 10055928357, "lat": 58.4264885, "lon": 13.8467124}, {"type": "node", "id": 10055928358, "lat": 58.4260181, "lon": 13.8475146}, {"type": "node", "id": 10055928359, "lat": 58.4260216, "lon": 13.8467036}, {"type": "node", "id": 10055928360, "lat": 58.4265221, "lon": 13.8466101}, {"type": "node", "id": 10055928361, "lat": 58.4262381, "lon": 13.8461691}, {"type": "node", "id": 10055928362, "lat": 58.4265221, "lon": 13.8461691}, {"type": "node", "id": 10083722095, "lat": 58.3955602, "lon": 13.8331294, "tags": {"amenity": "pharmacy"}}, {"type": "node", "id": 11233594360, "lat": 58.4228639, "lon": 14.1640062, "tags": {"addr:city": "Tibro", "addr:country": "SE", "addr:housenumber": "1", "addr:postcode": "543 30", "addr:street": "Fredsgatan", "amenity": "dentist", "contact:email": "fenixdentalinfo@gmail.com", "contact:phone": "+46 504-220 01", "healthcare": "dentist", "name": "Fenix Dental", "opening_hours": "Mo-Th 08:00-16:00, Fr 08:00-15:00", "website": "https://fenixdental.se/"}}, {"type": "node", "id": 11505837898, "lat": 58.3079007, "lon": 14.2858427, "tags": {"amenity": "clinic", "healthcare": "clinic", "name": "H\u00e4lsocentralen"}}, {"type": "node", "id": 11505842845, "lat": 58.4229966, "lon": 14.1665417, "tags": {"amenity": "clinic", "healthcare": "clinic", "name": "H\u00e4lsocentralen i Tibro"}}, {"type": "node", "id": 11505894339, "lat": 58.4062777, "lon": 13.8532066, "tags": {"amenity": "clinic", "healthcare": "clinic", "name": "Allmansh\u00e4lsans v\u00e5rdcentral - City"}}, {"type": "node", "id": 11505894340, "lat": 58.4061934, "lon": 13.8532066, "tags": {"amenity": "clinic", "healthcare": "clinic", "name": "Allmansh\u00e4lsan v\u00e5rdcentral - Lunden"}}, {"type": "node", "id": 11505901955, "lat": 58.388976, "lon": 13.8504994, "tags": {"amenity": "clinic", "healthcare": "clinic", "name": "V\u00e5rdcentralen Centrum", "network": "V\u00e4stra G\u00f6talandsregionen", "official_name": "V\u00e5rdcentralen Centrum Sk\u00f6vde", "operator": "Praktiertj\u00e4nst", "website": "https://www.ptj.se/vardcentralen-centrum-skovde/"}}, {"type": "way", "id": 31139808, "nodes": [10055928248, 9267202281, 9267202282, 9267202288, 9267202289, 346298479, 346298475, 1811914796, 1811914797, 1811914799, 346298471, 1811914808, 1811914807, 1811914801, 1811914800, 1811914812, 346298474, 346298420, 346298448, 1811914814, 1811914813, 346298454, 8960015444, 8960015457, 8960015451, 8960015467, 8960015488, 8960015443, 8960015464, 8960015469, 8960015474, 8960015480, 8960015475, 8960015482, 8960015490, 8960015439, 346298452, 346298462, 346298466, 5232719546, 5232719531, 346298469, 346298464, 4381261865, 346298456, 8026611755, 5232719612, 5232719611, 5232719613, 5232719614, 5232719615, 1151465490, 1120376761, 5232719616, 346298459, 5232719617, 5232719618, 346298450, 1811914733, 1811914729, 1811914731, 1811914737, 1811914739, 1811914747, 1811914749, 1811914735, 5232719549, 5232719550, 5232719551, 5232719552, 5232719553, 5232719554, 5232719587, 5232719585, 5232719586, 5232719588, 10055928299, 10055928297, 10055928302, 10055928301, 10055928300, 10055928303, 10055928296, 10055928298, 346298481, 1811914751, 1811914752, 10055928351, 10055928353, 10055928358, 10055928359, 10055928356, 10055928354, 10055928361, 10055928362, 10055928360, 10055928355, 10055928357, 10055928349, 9267202285, 9267202286, 10055928307, 10055928304, 10055928308, 10055928309, 10055928305, 10055928306, 9267202279, 9267202278, 9267202277, 9267202276, 9267202275, 9267202274, 9267202273, 9267202272, 9267202271, 9267202270, 9267202269, 9267202262, 9267202263, 9267202264, 9267202265, 9267202266, 9267202267, 9267202268, 9267202280, 10055928249, 10055928247, 5232719565, 5232719568, 5232719567, 5232719566, 10055928246, 10055928248]}, {"type": "way", "id": 96752923, "nodes": [1151465483, 1120376737, 1120376775, 1120376725, 1151465483]}, {"type": "way", "id": 125561946, "nodes": [1394249763, 1394249759, 1394249757, 1394249760, 1394249763], "tags": {"addr:city": "Sk\u00f6vde", "addr:country": "SE", "addr:housenumber": "16", "addr:postcode": "54134", "addr:street": "B\u00e4ckaskogsv\u00e4gen", "amenity": "veterinary", "building": "yes", "name": "Sk\u00f6vde Djurklinik", "website": "https://skovdedjurklinik.se/"}}, {"type": "way", "id": 541043090, "nodes": [5232719572, 5232719571, 5232719570, 5232719569, 5232719572]}, {"type": "way", "id": 541043091, "nodes": [5232719576, 5232719575, 5232719574, 5232719573, 5232719576]}, {"type": "way", "id": 541043092, "nodes": [5232719580, 5232719579, 5232719578, 5232719577, 5232719580]}, {"type": "way", "id": 541043093, "nodes": [5232719584, 5232719583, 5232719582, 5232719581, 5232719584]}, {"type": "way", "id": 541043094, "nodes": [5232719592, 5232719591, 5232719590, 5232719589, 5232719592]}, {"type": "way", "id": 541043095, "nodes": [5232719596, 5232719595, 5232719594, 5232719593, 5232719596]}, {"type": "way", "id": 541043096, "nodes": [5232719600, 5232719599, 5232719598, 5232719597, 5232719600]}, {"type": "way", "id": 541043097, "nodes": [5232719604, 5232719603, 5232719602, 5232719601, 5232719604]}, {"type": "way", "id": 541043098, "nodes": [5232719610, 5232719609, 5232719608, 5232719607, 5232719606, 5232719605, 5232719610]}, {"type": "way", "id": 968480888, "nodes": [8960015447, 8960015434, 8960015484, 8960015477, 8960015447]}, {"type": "way", "id": 1098253103, "nodes": [10055928313, 10055928310, 10055928311, 10055928312, 10055928313]}, {"type": "way", "id": 1098253104, "nodes": [10055928318, 10055928317, 10055928316, 10055928315, 10055928314, 10055928318]}, {"type": "way", "id": 1098253105, "nodes": [10055928323, 10055928322, 10055928321, 10055928320, 10055928319, 10055928323]}, {"type": "way", "id": 1098253106, "nodes": [10055928327, 10055928326, 10055928325, 10055928324, 10055928327]}, {"type": "way", "id": 1098253107, "nodes": [10055928331, 10055928328, 10055928329, 10055928330, 10055928331]}, {"type": "way", "id": 1098253108, "nodes": [10055928335, 10055928334, 10055928333, 10055928332, 10055928335]}, {"type": "way", "id": 1098253109, "nodes": [10055928339, 10055928336, 10055928337, 10055928338, 10055928339]}, {"type": "way", "id": 1098253110, "nodes": [10055928343, 10055928342, 10055928341, 10055928340, 10055928343]}, {"type": "way", "id": 1098253111, "nodes": [10055928345, 10055928344, 1811914772, 1811914770, 1811914768, 1811914780, 10055928345]}, {"type": "way", "id": 1098253112, "nodes": [10055928347, 10055928346, 1811914779, 9267202284, 10055928348, 10055928352, 10055928350, 1811914773, 10055928347]}, {"type": "relation", "id": 14629580, "members": [{"type": "way", "ref": 1098253112, "role": "inner"}, {"type": "way", "ref": 1098253111, "role": "inner"}, {"type": "way", "ref": 541043097, "role": "inner"}, {"type": "way", "ref": 541043096, "role": "inner"}, {"type": "way", "ref": 541043095, "role": "inner"}, {"type": "way", "ref": 541043094, "role": "inner"}, {"type": "way", "ref": 541043093, "role": "inner"}, {"type": "way", "ref": 541043092, "role": "inner"}, {"type": "way", "ref": 96752923, "role": "inner"}, {"type": "way", "ref": 541043091, "role": "inner"}, {"type": "way", "ref": 541043090, "role": "inner"}, {"type": "way", "ref": 541043098, "role": "inner"}, {"type": "way", "ref": 968480888, "role": "inner"}, {"type": "way", "ref": 1098253110, "role": "inner"}, {"type": "way", "ref": 1098253109, "role": "inner"}, {"type": "way", "ref": 1098253107, "role": "inner"}, {"type": "way", "ref": 1098253106, "role": "inner"}, {"type": "way", "ref": 1098253105, "role": "inner"}, {"type": "way", "ref": 1098253104, "role": "inner"}, {"type": "way", "ref": 1098253103, "role": "inner"}, {"type": "way", "ref": 1098253108, "role": "inner"}, {"type": "way", "ref": 31139808, "role": "outer"}], "tags": {"alt_name": "KSS", "amenity": "hospital", "brand": "V\u00e4stra G\u00f6talandsregionen", "building": "hospital", "emergency": "yes", "health_specialty:emergency_medicine": "yes", "health_specialty:family_medicine": "yes", "health_specialty:intensive_care_medicine": "yes", "health_specialty:paediatrics": "yes", "health_specialty:surgery": "yes", "health_specialty:vascular_surgery": "yes", "healthcare": "hospital", "name": "Skaraborgs sjukhus Sk\u00f6vde", "old_name": "K\u00e4rnsjukhuset i Sk\u00f6vde", "opening_hours": "24/7", "operator": "V\u00e4stra G\u00f6talandsregionen", "short_name": "SkaS Sk\u00f6vde", "type": "multipolygon", "wikidata": "Q10551871"}}]}