{"version": 0.6, "generator": "Overpass API 0.7.61.5 4133829e", "osm3s": {"timestamp_osm_base": "2024-03-08T21:11:44Z", "copyright": "The data included in this document is from www.openstreetmap.org. The data is made available under ODbL."}, "elements": [{"type": "node", "id": 35208947, "lat": 60.6489151, "lon": 17.1188043, "tags": {"addr:city": "G\u00e4vle", "addr:postcode": "80591", "addr:street": "G\u00e4vle Bro", "amenity": "restaurant", "contact:website": "https://dinners.se/", "diet:vegetarian": "yes", "name": "Dinners", "wheelchair": "yes"}}, {"type": "node", "id": 83376915, "lat": 60.6725716, "lon": 17.1471315, "tags": {"amenity": "restaurant", "name": "Terassen", "wheelchair": "limited"}}, {"type": "node", "id": 83376917, "lat": 60.6742649, "lon": 17.1442276, "tags": {"amenity": "restaurant", "created_by": "Potlatch 0.5d", "name": "Helt Enkelt Bar & K\u00f6k"}}, {"type": "node", "id": 83376919, "lat": 60.6699879, "lon": 17.1469418, "tags": {"addr:city": "G\u00e4vle", "addr:country": "SE", "addr:housenumber": "59 C", "addr:street": "Brunnsgatan", "amenity": "restaurant", "cuisine": "thai", "name": "Bong Mai"}}, {"type": "node", "id": 83421704, "lat": 60.6748033, "lon": 17.1397181, "tags": {"amenity": "restaurant", "name": "Joes Burger"}}, {"type": "node", "id": 83421783, "lat": 60.6738955, "lon": 17.1378649, "tags": {"amenity": "restaurant", "name": "Best Western Hotel City"}}, {"type": "node", "id": 206122324, "lat": 60.6712092, "lon": 17.1233865, "tags": {"amenity": "cafe", "name": "Caf\u00e9 Bog\u00e5rden"}}, {"type": "node", "id": 218194812, "lat": 60.6743831, "lon": 17.1380623, "tags": {"amenity": "restaurant", "cuisine": "pizza", "name": "American Pizza Place"}}, {"type": "node", "id": 219017624, "lat": 60.6716721, "lon": 17.1493032, "tags": {"amenity": "cafe", "created_by": "Potlatch 0.6a", "name": "Majas Kaffe Stuga"}}, {"type": "node", "id": 219113609, "lat": 60.664052, "lon": 17.1515569, "tags": {"amenity": "restaurant", "cuisine": "pizza;italian;burger;kebab", "delivery": "yes", "name": "Marcellos", "outdoor_seating": "yes", "smoking": "outside", "takeaway": "yes"}}, {"type": "node", "id": 220602908, "lat": 60.6752702, "lon": 17.1405816, "tags": {"amenity": "restaurant", "cuisine": "mexican", "name": "Los Sombreros"}}, {"type": "node", "id": 220604828, "lat": 60.6748908, "lon": 17.1419611, "tags": {"amenity": "restaurant", "name": "Br\u00e4nda Bocken", "wheelchair": "yes"}}, {"type": "node", "id": 220610830, "lat": 60.6762383, "lon": 17.1381906, "tags": {"amenity": "restaurant", "created_by": "Potlatch 0.6a", "name": "Vietnam", "phone": "+46 26 181945"}}, {"type": "node", "id": 220611162, "lat": 60.6758621, "lon": 17.1399719, "tags": {"amenity": "restaurant", "cuisine": "asian", "name": "\u00d6sterns P\u00e4rla"}}, {"type": "node", "id": 220618713, "lat": 60.6756302, "lon": 17.1402078, "tags": {"amenity": "restaurant", "created_by": "xybot", "name": "Brasserie Absint"}}, {"type": "node", "id": 220637472, "lat": 60.6762533, "lon": 17.1504906, "tags": {"addr:city": "G\u00e4vle", "addr:postcode": "80311", "addr:street": "Centralstationen", "amenity": "restaurant", "email": "info@jarnvagskrogen.se", "name": "J\u00e4rnv\u00e4gskrogen", "opening_hours": "Mo 10:30-21:00; Tu-Th 10:30-21:30; Fr 10:30-22:30; Sa 11:30-22:30; Su 12:00-21:30", "phone": "+46 26 514495", "website": "https://www.jarnvagskrogen.se/", "wheelchair": "yes"}}, {"type": "node", "id": 220642252, "lat": 60.6735366, "lon": 17.1403041, "tags": {"amenity": "restaurant", "created_by": "Potlatch 0.6a", "name": "Bakg\u00e5rden"}}, {"type": "node", "id": 220642304, "lat": 60.6734286, "lon": 17.1426298, "tags": {"addr:city": "G\u00e4vle", "addr:country": "SE", "addr:housenumber": "11", "addr:street": "Kyrkogatan", "amenity": "restaurant", "name": "Church Street Saloon", "opening_hours": "Mo-Fr 17:00-24:00; Sa 11:45-24:00", "wheelchair": "no"}}, {"type": "node", "id": 220655154, "lat": 60.6757142, "lon": 17.1447329, "tags": {"amenity": "restaurant", "cuisine": "pizza", "name": "Buddy's City"}}, {"type": "node", "id": 220656463, "lat": 60.6774254, "lon": 17.1459648, "tags": {"amenity": "restaurant", "cuisine": "pizza", "name": "Don Peppino"}}, {"type": "node", "id": 220659113, "lat": 60.6761781, "lon": 17.1451776, "tags": {"amenity": "cafe", "name": "Caf\u00e9 Kanel"}}, {"type": "node", "id": 220660623, "lat": 60.6765511, "lon": 17.1447975, "tags": {"amenity": "restaurant", "cuisine": "greek", "name": "Greken"}}, {"type": "node", "id": 220662199, "lat": 60.6766993, "lon": 17.1489199, "tags": {"addr:city": "G\u00e4vle", "addr:country": "SE", "addr:housenumber": "38", "addr:postcode": "80311", "addr:street": "Nygatan", "amenity": "restaurant", "name": "Tennstopet", "opening_hours": "Mo-Th 10:00-22:00; Fr 10:00-23:00; Sa 11:30-23:00; Su 12:00-20:00", "wheelchair": "limited"}}, {"type": "node", "id": 220667222, "lat": 60.67561, "lon": 17.1452773, "tags": {"amenity": "cafe", "created_by": "Potlatch 0.6a", "name": "Kaf\u00e9 Spegeln"}}, {"type": "node", "id": 220668478, "lat": 60.6741459, "lon": 17.1423172, "tags": {"amenity": "cafe", "brand": "Espresso House", "brand:wikidata": "Q10489162", "brand:wikipedia": "en:Espresso House", "cuisine": "coffee_shop", "name": "Espresso House", "opening_hours": "Mo-Fr 07:00-21:00; Sa 08:00-21:00; Su 09:00-21:00", "takeaway": "yes", "wheelchair": "yes"}}, {"type": "node", "id": 220671864, "lat": 60.6738673, "lon": 17.1413893, "tags": {"amenity": "cafe", "created_by": "Potlatch 0.6a", "name": "Mingel och Bar", "wheelchair": "yes"}}, {"type": "node", "id": 220674836, "lat": 60.674106, "lon": 17.1353969, "tags": {"addr:city": "G\u00e4vle", "addr:country": "SE", "addr:housenumber": "1", "addr:street": "Skomakargatan", "amenity": "restaurant", "name": "Kvarnen"}}, {"type": "node", "id": 220676855, "lat": 60.6743525, "lon": 17.1411899, "tags": {"amenity": "cafe", "cuisine": "coffee_shop", "food": "yes", "name": "Coffeehouse by George"}}, {"type": "node", "id": 223810038, "lat": 60.667578, "lon": 17.1491809, "tags": {"amenity": "restaurant", "cuisine": "pizza", "diet:vegetarian": "yes", "name": "Pizzeria Fredrik \u00c5kare", "opening_hours": "Mo-Su,PH 11:00-22:00"}}, {"type": "node", "id": 223810059, "lat": 60.667731, "lon": 17.1459292, "tags": {"amenity": "restaurant", "diet:vegetarian": "yes", "name": "Isak's Corner", "opening_hours": "Mo-Su 11:00-22:00"}}, {"type": "node", "id": 224955711, "lat": 60.6675857, "lon": 17.120116, "tags": {"amenity": "restaurant", "created_by": "JOSM", "name": "Campus Resturangen", "wheelchair": "yes"}}, {"type": "node", "id": 227205725, "lat": 60.6764514, "lon": 17.1244434, "tags": {"amenity": "restaurant", "cuisine": "pizza", "name": "Pizzeria Verona"}}, {"type": "node", "id": 227206109, "lat": 60.6797237, "lon": 17.1384218, "tags": {"addr:city": "G\u00e4vle", "addr:housenumber": "37", "addr:postcode": "80320", "addr:street": "Norra Kungsgatan", "amenity": "restaurant", "contact:phone": "+46 26 18 26 00", "contact:website": "https://libanesenph.se/", "diet:vegetarian": "yes", "name": "Libanesen p\u00e5 h\u00f6rnet", "opening_hours": "Mo-Th 16:00-22:00; Fr-Sa 16:00-24:00; Su 13:00-22:00"}}, {"type": "node", "id": 233798599, "lat": 60.6772586, "lon": 17.1410432, "tags": {"amenity": "restaurant", "created_by": "JOSM", "name": "Kungshallen", "wheelchair": "limited"}}, {"type": "node", "id": 267022106, "lat": 60.6513659, "lon": 17.1384035, "tags": {"amenity": "restaurant", "check_date:opening_hours": "2023-02-14", "name": "Andersbergs Restaurang och Pizzeria", "opening_hours": "Mo-Su 11:00-22:00"}}, {"type": "node", "id": 269129391, "lat": 60.6136779, "lon": 16.8999673, "tags": {"amenity": "restaurant"}}, {"type": "node", "id": 276381330, "lat": 60.6720331, "lon": 17.1189254, "tags": {"amenity": "cafe", "name": "Boulognercaf\u00e9et", "source": "survey"}}, {"type": "node", "id": 281699778, "lat": 60.6359329, "lon": 16.9646589, "tags": {"amenity": "cafe", "name": "Mackmyra Caf\u00e9", "source": "survey"}}, {"type": "node", "id": 281699964, "lat": 60.6335683, "lon": 16.9898362, "tags": {"amenity": "restaurant", "name": "IKEA Resturangen", "wheelchair": "yes"}}, {"type": "node", "id": 281838153, "lat": 60.6517281, "lon": 17.1300522}, {"type": "node", "id": 282118712, "lat": 60.6213426, "lon": 16.7772677, "tags": {"amenity": "restaurant", "name": "Living Room"}}, {"type": "node", "id": 282118813, "lat": 60.6203155, "lon": 16.7887453, "tags": {"amenity": "cafe", "name": "Sm\u00f6rg\u00e5sbaren"}}, {"type": "node", "id": 282118835, "lat": 60.6174816, "lon": 16.7775757, "tags": {"amenity": "restaurant", "name": "Pizzeria Milano"}}, {"type": "node", "id": 282118836, "lat": 60.6175866, "lon": 16.7773722, "tags": {"amenity": "restaurant", "name": "Palaia"}}, {"type": "node", "id": 283664706, "lat": 60.6157885, "lon": 16.7704931, "tags": {"amenity": "cafe", "name": "Squash & Caf\u00e9"}}, {"type": "node", "id": 288846992, "lat": 60.6702723, "lon": 17.1133326, "tags": {"amenity": "restaurant", "name": "Stora Vall"}}, {"type": "node", "id": 289404277, "lat": 60.668384, "lon": 17.1187414, "tags": {"amenity": "cafe", "name": "Caf\u00e9 Prego", "wheelchair": "yes"}}, {"type": "node", "id": 316125034, "lat": 60.6679564, "lon": 17.1507259, "tags": {"addr:country": "SE", "addr:housenumber": "42", "addr:street": "S\u00f6dra Kungsgatan", "amenity": "restaurant", "cuisine": "pizza", "diet:vegan": "yes", "diet:vegetarian": "yes", "name": "La Famiglia", "opening_hours": "Mo-Su 11:00-22:00"}}, {"type": "node", "id": 329012967, "lat": 60.5905537, "lon": 16.7686812, "tags": {"addr:city": "Sandviken", "addr:country": "SE", "addr:housenumber": "101", "addr:street": "\u00c5rsundav\u00e4gen", "amenity": "restaurant", "name": "Trebo Bygga", "website": "http://www.trebobrygga.se"}}, {"type": "node", "id": 344026686, "lat": 60.5699855, "lon": 16.9430396, "tags": {"amenity": "cafe", "name": "Kybacka \u00e4lgpark", "tourism": "attraction"}}, {"type": "node", "id": 360360011, "lat": 60.6507673, "lon": 17.0370789, "tags": {"amenity": "restaurant", "cuisine": "pizza", "name": "\u00c5by Pizzeria", "wheelchair": "no"}}, {"type": "node", "id": 377518772, "lat": 60.6699171, "lon": 17.1474371, "tags": {"addr:city": "G\u00e4vle", "addr:country": "SE", "addr:housenumber": "22", "addr:postcode": "80252", "addr:street": "S\u00f6dra Kansligatan", "amenity": "restaurant", "name": "S\u00f6ders K\u00e4lla", "note": "v\u00e4ntar p\u00e5 uthyrning", "opening_hours": "Tu-Fr 11:00-14:00, We-Sa 17:00-22:00"}}, {"type": "node", "id": 386039645, "lat": 60.6733803, "lon": 17.143305, "tags": {"addr:city": "G\u00e4vle", "addr:country": "SE", "addr:housenumber": "14", "addr:street": "Kyrkogatan", "amenity": "restaurant", "name": "Berggrenska G\u00e5rden", "wheelchair": "limited"}}, {"type": "node", "id": 431620182, "lat": 60.6641671, "lon": 17.1396483, "tags": {"amenity": "restaurant", "cuisine": "pizza", "name": "Kristinaplans Pizzeria"}}, {"type": "node", "id": 448980537, "lat": 60.6618822, "lon": 17.137537, "tags": {"FIXME": "namn och om det \u00e4r \u00f6ppet f\u00f6r allm\u00e4nheten?", "amenity": "cafe", "name": "Arbetsmarknadsenheten"}}, {"type": "node", "id": 454578380, "lat": 60.6700697, "lon": 17.1491623, "tags": {"addr:city": "G\u00e4vle", "addr:country": "SE", "addr:housenumber": "31", "addr:street": "S\u00f6dra Kungsgatan", "amenity": "restaurant", "cuisine": "turkish;middle_eastern", "name": "Anatoliens kolgrill", "opening_hours": "Mo-Th 16:00-22:00; Fr 16:00-23:00; Sa 13:00-23:00; Su 14:00-22:00", "phone": "+4626270708", "website": "https://anatoliens.com/"}}, {"type": "node", "id": 470545722, "lat": 60.6709491, "lon": 17.1487006, "tags": {"amenity": "restaurant", "name": "S\u00f6derhielmska G\u00e5rden", "wheelchair": "no"}}, {"type": "node", "id": 534797305, "lat": 60.6757062, "lon": 17.1482736, "tags": {"addr:city": "G\u00e4vle", "addr:country": "SE", "addr:housenumber": "32", "addr:postcode": "80311", "addr:street": "Drottninggatan", "amenity": "restaurant", "cuisine": "sushi", "name": "Sakura Sushi"}}, {"type": "node", "id": 534809333, "lat": 60.6733805, "lon": 17.1395125, "tags": {"addr:city": "G\u00e4vle", "addr:country": "SE", "addr:housenumber": "4", "addr:postcode": "80138", "addr:street": "Drottninggatan", "amenity": "cafe", "brand": "Wayne's Coffee", "brand:wikidata": "Q2637272", "brand:wikipedia": "en:Wayne's Coffee", "cuisine": "coffee_shop", "food": "yes", "name": "Wayne's Coffee", "takeaway": "yes"}}, {"type": "node", "id": 534814779, "lat": 60.6710915, "lon": 17.1471401, "tags": {"addr:city": "G\u00e4vle", "addr:country": "SE", "addr:housenumber": "23", "addr:postcode": "80252", "addr:street": "Timmermansgatan", "amenity": "restaurant", "name": "Matildas"}}, {"type": "node", "id": 534815912, "lat": 60.67175, "lon": 17.1467582, "tags": {"addr:city": "G\u00e4vle", "addr:country": "SE", "addr:housenumber": "10", "addr:postcode": "802 52", "addr:street": "S\u00f6dra Kungsgatan", "amenity": "cafe", "check_date": "2022-07-31", "email": "info@konditorilido.se", "internet_access": "yes", "internet_access:fee": "customers", "level": "0", "name": "Konditori Lido", "opening_hours": "Mo-Fr 07:00-18:00; Sa 09:00-16:00; Su 10:00-16:00", "outdoor_seating": "yes", "payment:credit_cards": "yes", "payment:debit_cards": "yes", "phone": "+46 26 61 19 42", "website": "https://www.konditorilido.se"}}, {"type": "node", "id": 534827437, "lat": 60.6755885, "lon": 17.1512691, "tags": {"addr:city": "G\u00e4vle", "addr:postcode": "80311", "addr:street": "Centralstationen", "amenity": "restaurant", "name": "Bistro Nord"}}, {"type": "node", "id": 534850134, "lat": 60.6748618, "lon": 17.1401928, "tags": {"amenity": "cafe", "cuisine": "coffee_shop", "food": "yes", "name": "Java Coffee"}}, {"type": "node", "id": 549572390, "lat": 60.6707034, "lon": 17.1495267, "tags": {"amenity": "restaurant", "cuisine": "pizza", "name": "Pizzeria Napoletana"}}, {"type": "node", "id": 560672611, "lat": 60.6753691, "lon": 17.1514699, "tags": {"addr:city": "G\u00e4vle", "addr:postcode": "80311", "amenity": "cafe", "brand": "Espresso House", "brand:wikidata": "Q10489162", "brand:wikipedia": "en:Espresso House", "cuisine": "coffee_shop", "name": "Espresso House", "opening_hours": "Mo-Fr 05:45-19:00; Sa,Su 09:00-18:00", "phone": "+46 765219406", "takeaway": "yes", "website": "https://espressohouse.com/"}}, {"type": "node", "id": 629061994, "lat": 60.6479418, "lon": 17.0209613, "tags": {"amenity": "cafe", "name": "Nyberg"}}, {"type": "node", "id": 647517936, "lat": 60.6710073, "lon": 17.1468201, "tags": {"amenity": "restaurant", "name": "Calles", "opening_hours": "Tu-Sa 17:00-23:00+"}}, {"type": "node", "id": 702372668, "lat": 60.6707397, "lon": 17.1478295, "tags": {"amenity": "restaurant", "name": "Interpool", "opening_hours": "Mo-Su 15:00-02:00", "smoking": "no"}}, {"type": "node", "id": 707141522, "lat": 60.6602105, "lon": 17.1587172, "tags": {"addr:city": "G\u00e4vle", "addr:country": "SE", "addr:housenumber": "20", "addr:postcode": "802 57", "addr:street": "Skolg\u00e5ngen", "amenity": "restaurant", "name": "Gluggen Hemsta", "opening_hours": "Mo-Fr 08:00-17:00; Sa 11:00-14:00", "phone": "+46 26 61 55 55", "website": "https://gluggen.se/"}}, {"type": "node", "id": 724263952, "lat": 60.6675146, "lon": 17.1511173, "tags": {"amenity": "restaurant", "cuisine": "pizza", "name": "American Take Away S\u00f6der", "opening_hours": "Mo-Su 11:00-22:00"}}, {"type": "node", "id": 724263953, "lat": 60.6697239, "lon": 17.1489868, "tags": {"amenity": "restaurant", "name": "Mezopotamya", "opening_hours": "Mo-Fr 16:00-22:00+; Sa 13:00-22:00+; Su 14:00-22:00+"}}, {"type": "node", "id": 724263954, "lat": 60.6674187, "lon": 17.1509028, "tags": {"amenity": "restaurant", "cuisine": "indian", "diet:vegetarian": "yes", "name": "Om Shanti"}}, {"type": "node", "id": 724263955, "lat": 60.6693438, "lon": 17.1493395, "tags": {"amenity": "restaurant", "name": "Pigalle"}}, {"type": "node", "id": 724295845, "lat": 60.6692332, "lon": 17.1543386, "tags": {"amenity": "restaurant", "name": "Tv\u00e5 kockar en spis"}}, {"type": "node", "id": 724295847, "lat": 60.6699076, "lon": 17.1484312, "tags": {"alt_name": "Restaurang China", "amenity": "restaurant", "cuisine": "asian", "name": "Restaurant China", "note": "Skylten ovanf\u00f6r d\u00f6rren stavar restaurant med \"t\".", "opening_hours": "Mo-Th 11:00-21:00; Fr 11:00-23:00; Sa 12:00-23:00; Su 12:00-21:00", "wheelchair": "limited"}}, {"type": "node", "id": 724295849, "lat": 60.6697993, "lon": 17.1480294, "tags": {"amenity": "restaurant", "name": "P.U.B."}}, {"type": "node", "id": 1123043564, "lat": 60.6518302, "lon": 17.1296561}, {"type": "node", "id": 1123043609, "lat": 60.6518783, "lon": 17.1296668}, {"type": "node", "id": 1123043625, "lat": 60.651748, "lon": 17.1296826}, {"type": "node", "id": 1123043656, "lat": 60.651828, "lon": 17.1296952}, {"type": "node", "id": 1123043688, "lat": 60.6518589, "lon": 17.1300722}, {"type": "node", "id": 1307531671, "lat": 60.6737349, "lon": 17.1398724, "tags": {"amenity": "restaurant", "name": "Husman"}}, {"type": "node", "id": 1312921885, "lat": 60.6724026, "lon": 17.1249302, "tags": {"amenity": "cafe", "name": "Bistro Silvanum"}}, {"type": "node", "id": 1360361081, "lat": 60.6720576, "lon": 17.1461991, "tags": {"addr:city": "G\u00e4vle", "addr:country": "SE", "addr:housenumber": "38", "addr:postcode": "80266", "addr:street": "Hamiltongatan", "amenity": "restaurant", "cuisine": "pizza", "name": "Bakfickan", "opening_hours:signed": "no"}}, {"type": "node", "id": 1446170107, "lat": 60.690888, "lon": 17.1331345, "tags": {"addr:city": "G\u00e4vle", "addr:country": "SE", "addr:housename": "Monitor ERP Arena", "addr:housenumber": "13", "addr:postcode": "806 33", "addr:street": "Gavlehovsv\u00e4gen", "amenity": "restaurant", "cuisine": "international", "int_name": "Monitor ERP Arena Resturant", "name": "Monitor ERP Arena Restaurang & Konferens", "old_name": "Gavlerinken Arena Restaurang", "phone": "+46 26 544675", "website": "http://ww2.brynas.se/monitor/mat--hockey/restaurang-arena/"}}, {"type": "node", "id": 1446179109, "lat": 60.6755402, "lon": 17.1483319, "tags": {"addr:postcode": "80311", "addr:street": "Hattmakargatan", "amenity": "bar", "name": "Lion Bar"}}, {"type": "node", "id": 1449095069, "lat": 60.6699043, "lon": 16.8173435}, {"type": "node", "id": 1449095070, "lat": 60.6699952, "lon": 16.8172828}, {"type": "node", "id": 1449095071, "lat": 60.669947, "lon": 16.8176103}, {"type": "node", "id": 1449095073, "lat": 60.6700379, "lon": 16.8175496}, {"type": "node", "id": 1449095664, "lat": 60.6708988, "lon": 16.8174048}, {"type": "node", "id": 1449095665, "lat": 60.6710383, "lon": 16.8176679}, {"type": "node", "id": 1449095666, "lat": 60.6709149, "lon": 16.817665}, {"type": "node", "id": 1449095667, "lat": 60.6708991, "lon": 16.8172656}, {"type": "node", "id": 1449095668, "lat": 60.670918, "lon": 16.8174058}, {"type": "node", "id": 1449095669, "lat": 60.671041, "lon": 16.8172656}, {"type": "node", "id": 1684755064, "lat": 60.5414575, "lon": 16.2894355}, {"type": "node", "id": 1684755065, "lat": 60.5414653, "lon": 16.2889468}, {"type": "node", "id": 1684755074, "lat": 60.5415506, "lon": 16.2894416}, {"type": "node", "id": 1684755077, "lat": 60.5415584, "lon": 16.2889529}, {"type": "node", "id": 1814655221, "lat": 60.6614449, "lon": 16.7086459, "tags": {"amenity": "restaurant", "cuisine": "pizza", "name": "J\u00e4derfors Pizzeria", "phone": "+46 26-21 60 10", "website": "https://www.jaderfors.se/albinopia.html"}}, {"type": "node", "id": 1834482685, "lat": 60.672252, "lon": 17.1470121, "tags": {"amenity": "restaurant", "check_date": "2023-08-14", "name": "The LoCo"}}, {"type": "node", "id": 2093867630, "lat": 60.6070781, "lon": 16.6029375}, {"type": "node", "id": 2093867632, "lat": 60.6070852, "lon": 16.6030534}, {"type": "node", "id": 2093867634, "lat": 60.6071042, "lon": 16.6029593}, {"type": "node", "id": 2093867643, "lat": 60.6071209, "lon": 16.6027255}, {"type": "node", "id": 2093867650, "lat": 60.6071554, "lon": 16.603112}, {"type": "node", "id": 2093867651, "lat": 60.6072172, "lon": 16.6028058}, {"type": "node", "id": 2248611329, "lat": 60.541258, "lon": 16.2830321, "tags": {"amenity": "restaurant", "cuisine": "asian", "facebook": "https://www.facebook.com/RestaurangMekong/", "indoor_seating": "yes", "name": "Mekong", "outdoor_seating": "yes", "phone": "+46 290 200 27"}}, {"type": "node", "id": 2248611339, "lat": 60.5459076, "lon": 16.2849714, "tags": {"amenity": "cafe", "name": "Hanssons"}}, {"type": "node", "id": 2415330230, "lat": 60.6679235, "lon": 16.8133368, "tags": {"addr:city": "Sandviken", "addr:country": "SE", "addr:housenumber": "9", "addr:postcode": "811 92", "addr:street": "Daniel Tilas v\u00e4g", "amenity": "cafe", "name": "H\u00f6gbo Qvarn", "source": "survey", "wheelchair": "yes"}}, {"type": "node", "id": 2798565531, "lat": 60.672034, "lon": 17.1195364}, {"type": "node", "id": 2798565532, "lat": 60.6720245, "lon": 17.1193693}, {"type": "node", "id": 2798565534, "lat": 60.6719894, "lon": 17.119474}, {"type": "node", "id": 2798565535, "lat": 60.6720691, "lon": 17.1194317}, {"type": "node", "id": 3012123023, "lat": 60.6183451, "lon": 16.7707544}, {"type": "node", "id": 3012123024, "lat": 60.6187023, "lon": 16.7704214}, {"type": "node", "id": 3012123025, "lat": 60.618738, "lon": 16.7705291}, {"type": "node", "id": 3012123026, "lat": 60.6184894, "lon": 16.7708377}, {"type": "node", "id": 3012123027, "lat": 60.6185181, "lon": 16.7709716}, {"type": "node", "id": 3012123028, "lat": 60.6183911, "lon": 16.7711115}, {"type": "node", "id": 3028690772, "lat": 60.7586739, "lon": 16.4978312}, {"type": "node", "id": 3028690795, "lat": 60.7589052, "lon": 16.4982384}, {"type": "node", "id": 3028690802, "lat": 60.7589421, "lon": 16.4980355}, {"type": "node", "id": 3028690804, "lat": 60.758637, "lon": 16.498034}, {"type": "node", "id": 3396514484, "lat": 60.6684572, "lon": 17.1502541, "tags": {"amenity": "cafe", "internet_access": "yes", "name": "Internet Cafe", "website": "http://www.escapegaming.se/", "wheelchair": "yes"}}, {"type": "node", "id": 3423104367, "lat": 60.6622764, "lon": 17.1592085, "tags": {"amenity": "restaurant", "cuisine": "thai", "name": "Baan Thai", "opening_hours": "Mo-Fr 08:00-22:00; Sa 10:00-23:00;Su 12:00-21:00"}}, {"type": "node", "id": 3579152948, "lat": 60.6764278, "lon": 17.1461699, "tags": {"amenity": "restaurant", "cuisine": "indian", "name": "New India"}}, {"type": "node", "id": 3579152949, "lat": 60.6763518, "lon": 17.1458345, "tags": {"amenity": "restaurant", "cuisine": "pizza;kebab;pasta", "name": "Roma"}}, {"type": "node", "id": 3724821112, "lat": 60.5235132, "lon": 16.7332586, "tags": {"amenity": "restaurant", "name": "Strandbaden", "source": "Survey"}}, {"type": "node", "id": 3762565553, "lat": 60.6927767, "lon": 17.1499414}, {"type": "node", "id": 3762565554, "lat": 60.6928165, "lon": 17.1504618}, {"type": "node", "id": 3762565555, "lat": 60.6926612, "lon": 17.1505268}, {"type": "node", "id": 3762565556, "lat": 60.6926135, "lon": 17.1499495}, {"type": "node", "id": 3762567957, "lat": 60.6927687, "lon": 17.1498763}, {"type": "node", "id": 3987610479, "lat": 60.5134527, "lon": 16.7343145, "tags": {"addr:city": "\u00c5rsunda", "addr:country": "SE", "addr:housenumber": "958", "addr:postcode": "81022", "addr:street": "\u00c5rsundav\u00e4gen", "amenity": "restaurant", "cuisine": "pizza_kebab", "name": "Wallis Bar & Grill"}}, {"type": "node", "id": 4011672441, "lat": 60.6892902, "lon": 17.135938, "tags": {"addr:city": "G\u00e4vle", "addr:postcode": "806 33", "addr:street": "Idrottsv\u00e4gen", "amenity": "restaurant", "capacity": "500", "cuisine": "regional", "name": "Travrestaurangen", "phone": "+46 26-66 22 22", "website": "https://travgavleborg.se/Gavletravet/OmGavletravet/Restaurang/MatochDryck"}}, {"type": "node", "id": 4035202446, "lat": 60.6745027, "lon": 17.1437578, "tags": {"amenity": "cafe", "cuisine": "coffee_shop", "internet_access": "yes", "level": "1", "name": "Waynes", "smoking": "no"}}, {"type": "node", "id": 4210411944, "lat": 60.5455738, "lon": 16.2873191, "tags": {"addr:city": "Hofors", "addr:country": "SE", "addr:housenumber": "11", "addr:postcode": "81330", "addr:street": "Skolgatan", "amenity": "restaurant", "cuisine": "a_la_carte", "name": "Sodon"}}, {"type": "node", "id": 4308078169, "lat": 60.6723131, "lon": 16.812794, "tags": {"amenity": "restaurant", "name": "H\u00f6gbo Brukshotell"}}, {"type": "node", "id": 4329377133, "lat": 60.6753889, "lon": 17.1503173, "tags": {"amenity": "restaurant", "cuisine": "sushi", "name": "NOMAD's Sushi"}}, {"type": "node", "id": 4345925590, "lat": 60.6813166, "lon": 17.138278, "tags": {"addr:city": "G\u00e4vle", "addr:country": "SE", "addr:housenumber": "1", "addr:postcode": "80321", "addr:street": "Norra Kungsgatan", "amenity": "restaurant", "cuisine": "burger;grill;american;pizza;diner;kebab;turkish;barbecue", "diet:vegetarian": "yes", "name": "GDG kebab & Pizzeria", "opening_hours": "Mo-Su 11:00-21:00", "phone": "+4626512500", "website": "http://www.gdgkebab.se"}}, {"type": "node", "id": 4345942589, "lat": 60.6696253, "lon": 17.1417306, "tags": {"addr:city": "G\u00e4vle", "addr:country": "SE", "addr:housenumber": "106", "addr:postcode": "80266", "addr:street": "Bergsgatan", "amenity": "restaurant", "cuisine": "burger;grill;italian;pizza;diner;kebab;turkish;barbecue", "diet:vegan": "yes", "diet:vegetarian": "yes", "name": "Brothers Pizzeria", "opening_hours": "Mo-Su 11:00-22:00", "phone": "+4626614703", "website": "https://www.basilikapizzeria.se/"}}, {"type": "node", "id": 5258561279, "lat": 60.6409474, "lon": 17.003114}, {"type": "node", "id": 5258561280, "lat": 60.6409356, "lon": 17.0028263}, {"type": "node", "id": 5381781786, "lat": 60.6479961, "lon": 17.0183812}, {"type": "node", "id": 5381781787, "lat": 60.6480972, "lon": 17.0183051}, {"type": "node", "id": 5381781788, "lat": 60.6480546, "lon": 17.0180697}, {"type": "node", "id": 5381781789, "lat": 60.6479535, "lon": 17.0181457}, {"type": "node", "id": 5441034019, "lat": 60.6925156, "lon": 17.1158986}, {"type": "node", "id": 5441034020, "lat": 60.6925139, "lon": 17.1159991}, {"type": "node", "id": 5441038721, "lat": 60.6925028, "lon": 17.1160642}, {"type": "node", "id": 5441038722, "lat": 60.6924831, "lon": 17.116083}, {"type": "node", "id": 5441038723, "lat": 60.6924483, "lon": 17.1160803}, {"type": "node", "id": 5441038724, "lat": 60.6924201, "lon": 17.1160837}, {"type": "node", "id": 5441038725, "lat": 60.692405, "lon": 17.1160756}, {"type": "node", "id": 5441038726, "lat": 60.6923997, "lon": 17.1160461}, {"type": "node", "id": 5441038727, "lat": 60.6924001, "lon": 17.115912}, {"type": "node", "id": 5441038728, "lat": 60.6924053, "lon": 17.1158959}, {"type": "node", "id": 5441038729, "lat": 60.6924263, "lon": 17.1158852}, {"type": "node", "id": 5441038730, "lat": 60.6925133, "lon": 17.1158785}, {"type": "node", "id": 5441038731, "lat": 60.6925161, "lon": 17.115887}, {"type": "node", "id": 5581329167, "lat": 60.5822289, "lon": 16.5340899, "tags": {"amenity": "cafe", "fixme": "Flytta till r\u00e4tt position inom byggnaden"}}, {"type": "node", "id": 5652743364, "lat": 60.6615207, "lon": 16.7084589}, {"type": "node", "id": 5652743365, "lat": 60.6615127, "lon": 16.7085756}, {"type": "node", "id": 5652743366, "lat": 60.6615287, "lon": 16.7085873}, {"type": "node", "id": 5652743367, "lat": 60.6615218, "lon": 16.7087461}, {"type": "node", "id": 5652743368, "lat": 60.6615046, "lon": 16.7087367}, {"type": "node", "id": 5652743369, "lat": 60.6615001, "lon": 16.7088231}, {"type": "node", "id": 5652743370, "lat": 60.6613811, "lon": 16.7088021}, {"type": "node", "id": 5652743371, "lat": 60.6613971, "lon": 16.7084332}, {"type": "node", "id": 5827933789, "lat": 60.6782294, "lon": 17.1400291, "tags": {"amenity": "restaurant", "cuisine": "pizza", "name": "Pizzeria Benedig"}}, {"type": "node", "id": 5827933795, "lat": 60.6737802, "lon": 17.1421775, "tags": {"amenity": "restaurant", "cuisine": "mexican", "name": "Taco Bar"}}, {"type": "node", "id": 5827933796, "lat": 60.6739011, "lon": 17.1420836, "tags": {"amenity": "restaurant", "cuisine": "sushi"}}, {"type": "node", "id": 6553023885, "lat": 60.6735193, "lon": 17.1363954, "tags": {"addr:country": "SE", "addr:housenumber": "2", "addr:postcode": "80320", "addr:street": "Nygatan", "amenity": "restaurant", "contact:phone": "+46 26 12 18 30", "contact:website": "https://facebook.com/Sushikultur", "cuisine": "sushi", "name": "Sushi Kultur", "opening_hours": "Mo-Fr 11:00-21:00; Sa-Su 11:00-21:00"}}, {"type": "node", "id": 6700778986, "lat": 60.6436209, "lon": 17.0082677, "tags": {"addr:city": "Valbo", "addr:country": "SE", "addr:housenumber": "1", "addr:postcode": "81831", "addr:street": "B\u00e4ckv\u00e4gen", "amenity": "restaurant", "name": "Natti Valbo", "opening_hours": "Mo-Su 11:00-22:00", "phone": "+46 26 133433", "website": "https://www.nattivalbo.se/"}}, {"type": "node", "id": 6883193191, "lat": 60.6201498, "lon": 16.7625729}, {"type": "node", "id": 6883193192, "lat": 60.6201055, "lon": 16.7631327}, {"type": "node", "id": 6883193193, "lat": 60.619809, "lon": 16.7630353}, {"type": "node", "id": 6883193194, "lat": 60.6198533, "lon": 16.7624755}, {"type": "node", "id": 7211923224, "lat": 60.6138415, "lon": 16.8904708}, {"type": "node", "id": 7211923225, "lat": 60.6138174, "lon": 16.8909686}, {"type": "node", "id": 7211923226, "lat": 60.6135114, "lon": 16.8909071}, {"type": "node", "id": 7211923227, "lat": 60.6135305, "lon": 16.8905134}, {"type": "node", "id": 7211923228, "lat": 60.6136954, "lon": 16.8905466}, {"type": "node", "id": 7211923229, "lat": 60.6137004, "lon": 16.8904424}, {"type": "node", "id": 7450121892, "lat": 60.6204658, "lon": 16.7757422, "tags": {"addr:city": "Sandviken", "addr:country": "SE", "addr:housenumber": "25", "addr:postcode": "811 39", "addr:street": "Hyttgatan", "amenity": "cafe", "brand": "Espresso House", "brand:wikidata": "Q10489162", "brand:wikipedia": "en:Espresso House", "cuisine": "coffee_shop", "name": "Espresso House", "opening_hours": "Mo-Su 11:00-16:00", "phone": "+46 765219409", "takeaway": "yes", "website": "https://espressohouse.com/"}}, {"type": "node", "id": 7490658737, "lat": 60.7695412, "lon": 16.9266312, "tags": {"amenity": "cafe", "name": "Sommarcaf\u00e9et Sm\u00f6rn\u00e4s", "opening_hours": "May 04-Sep 12:Mo-Su 09:00-19:00", "outdoor_seating": "yes"}}, {"type": "node", "id": 7647540194, "lat": 60.6619835, "lon": 17.1426588, "tags": {"addr:city": "G\u00e4vle", "addr:country": "SE", "addr:housenumber": "1", "addr:postcode": "802 64", "addr:street": "Granitv\u00e4gen", "amenity": "restaurant", "check_date:opening_hours": "2022-11-08", "name": "Pastaria", "opening_hours": "Mo-Su 11:00-21:00", "phone": "+4626133333"}}, {"type": "node", "id": 7779331347, "lat": 60.6360637, "lon": 16.9887979}, {"type": "node", "id": 7779331348, "lat": 60.6359586, "lon": 16.9886814}, {"type": "node", "id": 7779331349, "lat": 60.6358824, "lon": 16.9889594}, {"type": "node", "id": 7779331350, "lat": 60.635986, "lon": 16.9890744}, {"type": "node", "id": 7783602218, "lat": 60.6410134, "lon": 17.0027306}, {"type": "node", "id": 7783602219, "lat": 60.641079, "lon": 17.0029522}, {"type": "node", "id": 7783602220, "lat": 60.6409718, "lon": 17.0029486}, {"type": "node", "id": 7783602221, "lat": 60.6409181, "lon": 17.0030147}, {"type": "node", "id": 7785723108, "lat": 60.646901, "lon": 17.0159529}, {"type": "node", "id": 7785723109, "lat": 60.6468195, "lon": 17.0160525}, {"type": "node", "id": 7785723110, "lat": 60.646893, "lon": 17.0163025}, {"type": "node", "id": 7785723111, "lat": 60.6469744, "lon": 17.0162029}, {"type": "node", "id": 7966105767, "lat": 60.5126537, "lon": 16.4741386}, {"type": "node", "id": 7966105768, "lat": 60.5127972, "lon": 16.4745885}, {"type": "node", "id": 7966105769, "lat": 60.5126513, "lon": 16.4746084}, {"type": "node", "id": 7966105781, "lat": 60.5127717, "lon": 16.4745597}, {"type": "node", "id": 7966105782, "lat": 60.5126667, "lon": 16.474557}, {"type": "node", "id": 7966110890, "lat": 60.5128596, "lon": 16.4743736}, {"type": "node", "id": 7966110891, "lat": 60.5127296, "lon": 16.4747032}, {"type": "node", "id": 7966110892, "lat": 60.5125734, "lon": 16.4744431}, {"type": "node", "id": 7971056347, "lat": 60.5837707, "lon": 16.529352, "tags": {"addr:city": "Storvik", "addr:country": "SE", "addr:housenumber": "42", "addr:postcode": "812 30", "addr:street": "Landsv\u00e4gen", "amenity": "restaurant", "cuisine": "pizza", "name": "Pizzeria Torino", "opening_hours": "Mo-Fr 11:00-22:00; Sa 12:00-22:00; Su 12:00-21:00", "phone": "+4629032255", "takeaway": "yes"}}, {"type": "node", "id": 8124755311, "lat": 60.633696, "lon": 16.992188, "tags": {"addr:city": "Valbo", "addr:country": "SE", "addr:housenumber": "307", "addr:postcode": "81832", "addr:street": "valbov\u00e4gen", "amenity": "restaurant", "cuisine": "sushi", "name": "sushi yama", "opening_hours": "Mo-Sa 10:00-20:00, Su 11:00-19:00", "phone": "+46 26 200 5093", "website": "https://www.sushiyama.se"}}, {"type": "node", "id": 8957638075, "lat": 60.604986, "lon": 16.7496148}, {"type": "node", "id": 8957638076, "lat": 60.6048947, "lon": 16.7497135}, {"type": "node", "id": 8957638077, "lat": 60.6049932, "lon": 16.750092}, {"type": "node", "id": 8957638078, "lat": 60.6050846, "lon": 16.7499932}, {"type": "node", "id": 8983343035, "lat": 60.6184659, "lon": 16.7706875}, {"type": "node", "id": 8983343036, "lat": 60.6184523, "lon": 16.7706173}, {"type": "node", "id": 8989983423, "lat": 60.6050763, "lon": 16.7699894}, {"type": "node", "id": 8989983424, "lat": 60.6049884, "lon": 16.7701967}, {"type": "node", "id": 8989983425, "lat": 60.6048987, "lon": 16.7700389}, {"type": "node", "id": 8989983426, "lat": 60.6048805, "lon": 16.7700819}, {"type": "node", "id": 8989983427, "lat": 60.6047996, "lon": 16.7699397}, {"type": "node", "id": 8989983428, "lat": 60.6049058, "lon": 16.7696893}, {"type": "node", "id": 9007228331, "lat": 60.6021784, "lon": 16.7394988}, {"type": "node", "id": 9007228332, "lat": 60.6020603, "lon": 16.7395611}, {"type": "node", "id": 9007228333, "lat": 60.6021, "lon": 16.7398736}, {"type": "node", "id": 9007228334, "lat": 60.6021905, "lon": 16.7398259}, {"type": "node", "id": 9007228335, "lat": 60.602177, "lon": 16.7397194}, {"type": "node", "id": 9007228336, "lat": 60.6022045, "lon": 16.7397049}, {"type": "node", "id": 9083034646, "lat": 60.6204558, "lon": 16.7888099, "tags": {"addr:city": "Sandviken", "addr:country": "SE", "addr:housenumber": "17A", "addr:postcode": "811 34", "addr:street": "Mossv\u00e4gen", "amenity": "restaurant", "cuisine": "pizza", "name": "Fredrik p\u00e5 h\u00f6rnet", "opening_hours": "11:00-21:00"}}, {"type": "node", "id": 9098000064, "lat": 60.6735751, "lon": 17.141346, "tags": {"amenity": "restaurant", "name": "the crust", "website": "https://thecrust.se/"}}, {"type": "node", "id": 9100787351, "lat": 60.6214464, "lon": 16.7709401, "tags": {"amenity": "restaurant", "name": "Restaurang Kanalen"}}, {"type": "node", "id": 9101796075, "lat": 60.623415, "lon": 16.7816926}, {"type": "node", "id": 9101796076, "lat": 60.6233501, "lon": 16.7817199}, {"type": "node", "id": 9101796077, "lat": 60.6233627, "lon": 16.7818447}, {"type": "node", "id": 9101796078, "lat": 60.6233383, "lon": 16.7818549}, {"type": "node", "id": 9101796079, "lat": 60.6233497, "lon": 16.7819763}, {"type": "node", "id": 9101796080, "lat": 60.6234352, "lon": 16.7819398}, {"type": "node", "id": 9101796081, "lat": 60.6233335, "lon": 16.781674, "tags": {"amenity": "restaurant", "name": "Taco bar"}}, {"type": "node", "id": 9108978975, "lat": 60.6204794, "lon": 16.7779068, "tags": {"amenity": "cafe", "brand": "Wayne's Coffee", "brand:wikidata": "Q2637272", "brand:wikipedia": "en:Wayne's Coffee", "cuisine": "coffee_shop", "name": "Wayne's Coffee", "takeaway": "yes"}}, {"type": "node", "id": 9111423041, "lat": 60.6203028, "lon": 16.7739693, "tags": {"amenity": "restaurant", "name": "Royal Thai restaurang"}}, {"type": "node", "id": 9111423042, "lat": 60.6203476, "lon": 16.7743799, "tags": {"amenity": "cafe", "name": "Hansens Caf\u00e9 och Bageri"}}, {"type": "node", "id": 9111423045, "lat": 60.6204743, "lon": 16.7755406, "tags": {"amenity": "cafe", "brand": "Espresso House", "brand:wikidata": "Q10489162", "brand:wikipedia": "en:Espresso House", "cuisine": "coffee_shop", "name": "Espresso House", "takeaway": "yes"}}, {"type": "node", "id": 9140202668, "lat": 60.6266722, "lon": 16.7845949, "tags": {"amenity": "restaurant", "cuisine": "asian", "name": "ESA Asian house restaurant"}}, {"type": "node", "id": 9183452883, "lat": 60.6723296, "lon": 17.1472165, "tags": {"addr:city": "G\u00e4vle", "addr:country": "SE", "addr:housenumber": "5A", "addr:postcode": "80250", "addr:street": "Slottstorget", "amenity": "restaurant", "cuisine": "sushi", "name": "Sushi House", "opening_hours": "Mo-Th 11:00-21:00, Fr-Sa 11:00-21:00, Su 12:00-20:00", "phone": "+46 76-020 10 11", "website": "https://sushihousegavle.business.site"}}, {"type": "node", "id": 9508229147, "lat": 60.6740735, "lon": 17.1443929, "tags": {"amenity": "restaurant", "name": "Pitcher's"}}, {"type": "node", "id": 9763851781, "lat": 60.6738019, "lon": 17.1400498, "tags": {"addr:city": "G\u00e4vle", "addr:country": "SE", "addr:housenumber": "9", "addr:postcode": "80320", "addr:street": "Drottninggatan", "amenity": "restaurant", "cuisine": "sushi", "name": "Sushi Yama", "opening_hours": "Mo-Sa 10:00-20:00, Su 11:20", "phone": "+4626121499", "website": "https://www.sushiyama.se"}}, {"type": "node", "id": 9836134594, "lat": 60.6190365, "lon": 16.7762223, "tags": {"amenity": "restaurant", "cuisine": "kebab;pasta;pizza", "name": "Kebab House", "outdoor_seating": "yes", "phone": "+46 26 250909"}}, {"type": "node", "id": 9836160752, "lat": 60.6222973, "lon": 16.7754694, "tags": {"amenity": "restaurant", "cuisine": "indian", "name": "Maharane"}}, {"type": "node", "id": 9836200907, "lat": 60.6223257, "lon": 16.7746244, "tags": {"amenity": "restaurant", "name": "Oden", "opening_hours": "Mo-Fr 11:00-16:00", "phone": "026-255100"}}, {"type": "node", "id": 9836206542, "lat": 60.6225179, "lon": 16.7745875, "tags": {"amenity": "cafe", "name": "Konditori Marangoni", "opening_hours": "Mo-Fr 07:00-17:00; Sa 10:00-15:00"}}, {"type": "node", "id": 9836207811, "lat": 60.6196547, "lon": 16.7758544, "tags": {"amenity": "cafe", "name": "Aldo's"}}, {"type": "node", "id": 9836226895, "lat": 60.6175564, "lon": 16.7773763, "tags": {"amenity": "cafe", "name": "Dr Cake", "opening_hours": "Mo-Fr 08:00-19:00; Sa 10:00-20:00", "phone": "073-7316376"}}, {"type": "node", "id": 9836228676, "lat": 60.6216295, "lon": 16.7781611, "tags": {"amenity": "restaurant", "cuisine": "pizza;pasta;salad;kebab;sushi", "name": "Matk\u00e4llan", "outdoor_seating": "yes"}}, {"type": "node", "id": 9836229243, "lat": 60.6177895, "lon": 16.7772868, "tags": {"amenity": "restaurant", "name": "Nala's Burger"}}, {"type": "node", "id": 9836242531, "lat": 60.6194866, "lon": 16.7764438, "tags": {"amenity": "restaurant", "cuisine": "sushi", "name": "Sushi Corner", "outdoor_seating": "yes", "website": "https://www.sushicorner.nu/"}}, {"type": "node", "id": 9836258576, "lat": 60.6211711, "lon": 16.7772762, "tags": {"amenity": "restaurant", "name": "O'Learys"}}, {"type": "node", "id": 9838703238, "lat": 60.6211652, "lon": 16.7748431, "tags": {"amenity": "restaurant", "name": "Malaysia Butterfly", "opening_hours": "Tu-Fr 11:00-21:00; Mo 11:00-14:00; Sa, Su 12:00-21:00"}}, {"type": "node", "id": 9862601312, "lat": 60.6749786, "lon": 17.1569141, "tags": {"amenity": "restaurant", "name": "Hua Hin", "opening_hours": "Tu-Th 16:00-21:00; Fr 16:00-22:00; Sa 14:00-22:00; Su 15:00-21:00"}}, {"type": "node", "id": 9862637783, "lat": 60.6763502, "lon": 17.1554308, "tags": {"amenity": "cafe", "diet:gluten_free": "yes", "diet:vegan": "yes", "diet:vegetarian": "yes", "name": "Little Art Cakery", "opening_hours": "Tu-Fr 11:00-16:00; Sa, Su 12:00-17:00"}}, {"type": "node", "id": 9862639380, "lat": 60.6755638, "lon": 17.1553523, "tags": {"amenity": "restaurant", "name": "Bryggan"}}, {"type": "node", "id": 9862665156, "lat": 60.6784137, "lon": 17.1602619, "tags": {"amenity": "cafe", "name": "Tullhuset Bistro"}}, {"type": "node", "id": 10092106546, "lat": 60.6743366, "lon": 17.1430512, "tags": {"amenity": "restaurant", "cuisine": "sushi", "diet:fish": "yes", "diet:vegan": "yes", "diet:vegetarian": "yes", "name": "Sushi City Stortorget", "website": "https://sushicity.se/"}}, {"type": "node", "id": 10308946615, "lat": 60.7594651, "lon": 16.4969023, "tags": {"amenity": "restaurant", "name": "Lodgebaren"}}, {"type": "node", "id": 10309187856, "lat": 60.759071, "lon": 16.4975893, "tags": {"addr:country": "SE", "addr:housenumber": "51", "addr:street": "Kungsbergsv\u00e4gen", "amenity": "restaurant", "level": "1", "name": "Fr\u00f6ken Filipsson"}}, {"type": "node", "id": 10311653708, "lat": 60.7591625, "lon": 16.4976525, "tags": {"amenity": "restaurant", "cuisine": "pizza"}}, {"type": "node", "id": 10681595172, "lat": 60.6290609, "lon": 16.7815849, "tags": {"amenity": "restaurant", "cuisine": "seafood;fish", "name": "Aqua Restaurang & Bar", "phone": "+46 763058398", "website": "https://aquasandviken.business.site/"}}, {"type": "node", "id": 10681595179, "lat": 60.6293231, "lon": 16.7809214, "tags": {"addr:city": "Sandviken", "addr:housenumber": "10", "addr:postcode": "81132", "addr:street": "Sp\u00e5ngv\u00e4gen", "amenity": "restaurant", "name": "Restaurang Sandbacka Park", "phone": "+46 763058398"}}, {"type": "node", "id": 11011527953, "lat": 60.6141006, "lon": 16.7693921, "tags": {"addr:city": "Sandviken", "addr:housenumber": "35", "addr:postcode": "81133", "addr:street": "Fredriksgatan", "amenity": "bar", "name": "Sandviken Heavy Metal Army", "website": "https://www.facebook.com/shmarockclub"}}, {"type": "node", "id": 11013659150, "lat": 60.6604712, "lon": 17.1567453, "tags": {"amenity": "restaurant", "name": "Heat"}}, {"type": "node", "id": 11037225913, "lat": 60.4550417, "lon": 17.1285083, "tags": {"amenity": "cafe", "bar": "no", "check_date": "2023-07-10", "cuisine": "ice_cream", "delivery": "no", "drive_through": "no", "name": "Glasscaf\u00e9 Giller\u00e5sen", "outdoor_seating": "yes", "payment:cards": "no", "payment:cash": "yes", "payment:credit_cards": "no", "payment:debit_cards": "no", "payment:swish": "yes", "toilets": "yes"}}, {"type": "node", "id": 11048984735, "lat": 60.4495816, "lon": 16.4664535, "tags": {"addr:city": "Tors\u00e5ker", "addr:housenumber": "3", "addr:postcode": "81395", "addr:street": "Spjut\u00e4ngsv\u00e4gen", "amenity": "cafe", "contact:facebook": "https://www.facebook.com/M%C3%A5rtens-i-H%C3%A4stbo-100332638861693/", "diet:gluten_free": "yes", "diet:vegan": "yes", "diet:vegetarian": "yes", "internet_access": "wlan", "internet_access:fee": "no", "internet_access:ssid": "MartensGuest", "name": "M\u00e5rtens i H\u00e4stbo Caf\u00e9", "outdoor_seating": "yes", "payment:cards": "yes", "payment:credit_cards": "yes", "payment:swish": "yes", "phone": "+46730519529", "start_date": "2021-07-01", "toilets": "yes", "website": "https://martensihastbo.se/", "wheelchair": "limited"}}, {"type": "node", "id": 11049017057, "lat": 60.5156601, "lon": 16.4396553, "tags": {"addr:city": "Tors\u00e5ker", "addr:housenumber": "50", "addr:postcode": "81396", "addr:street": "Bergbyv\u00e4gen", "amenity": "cafe", "contact:facebook": "https://www.facebook.com/bergskvarncafe", "email": "amandaidacafe23@gmail.com", "internet_access": "wlan", "internet_access:fee": "customers", "name": "Bergs Kvarncaf\u00e9", "name:en": "Berg's Mill Caf\u00e9", "note": "Cafe only regularly open during summer months (June - August). Rest of year open for evening cultural events.", "opening_hours": "We-Su 11:00-17:00", "phone": "+46767811978", "website": "https://www.facebook.com/bergskvarncafe"}}, {"type": "node", "id": 11049079012, "lat": 60.4411084, "lon": 16.6358569, "tags": {"addr:city": "Tors\u00e5ker", "addr:housenumber": "103", "addr:postcode": "81394", "addr:street": "Gammelstillav\u00e4gen", "addr:unit": "A", "amenity": "cafe", "contact:facebook": "https://www.facebook.com/Gammelstilla-Caf%C3%A9-318620331526212", "cuisine": "swedish;coffee;lunch;regional", "description": "Gammelstilla caf\u00e9 som drivs av Lena Holmstedt erbjuder mat och fika i genuin bruksmilj\u00f6 under sommaren. Det \u00e4r \u00e4ven h\u00e4r du kan boka in en tur p\u00e5 flotten.", "email": "info@gammelstillacafe.se", "name": "Gammelstilla Caf\u00e9", "payment:cards": "yes", "payment:credit_cards": "yes", "payment:swish": "yes", "phone": "+46704900789", "smoking": "separated", "toilets": "yes", "website": "http://www.gammelstillacafe.se/"}}, {"type": "node", "id": 11114424302, "lat": 60.6721736, "lon": 17.1470675, "tags": {"amenity": "restaurant", "check_date": "2023-08-14", "name": "Noppas"}}, {"type": "node", "id": 11114424304, "lat": 60.6718442, "lon": 17.1474455, "tags": {"amenity": "restaurant", "check_date": "2023-08-14", "cuisine": "sushi", "name": "Toko"}}, {"type": "node", "id": 11602867731, "lat": 60.6609058, "lon": 17.1483953, "tags": {"addr:housenumber": "71", "addr:street": "Urbergsterrassen", "amenity": "cafe", "name": "Caf\u00e9 Limh\u00e4llen", "opening_hours": "Ti-Fr 11:00-17:00; Sa 11:00-15:00; PH off", "outdoor_seating": "yes", "phone": "+46 73 848 05 40", "website": "https://www.limhallen.se"}}, {"type": "node", "id": 11669717309, "lat": 60.664566, "lon": 17.1003351, "tags": {"amenity": "restaurant", "email": "restaurangen@mackmyra.se", "name": "Mackmyra Bar & Bistro", "opening_hours": "We,Th 11:00-15:00; Fr,Sa 11:00-22:00; PH off", "operator": "Mackmyra Svensk Whisky", "outdoor_seating": "yes", "phone": "+46 26 54 18 88", "website": "https://www.mackmyra.se/restaurangen"}}, {"type": "way", "id": 96906565, "nodes": [1123043609, 1123043688, 281838153, 1123043625, 1123043656, 1123043564, 1123043609], "tags": {"addr:country": "SE", "addr:housenumber": "2", "addr:postcode": "80270", "addr:street": "Murm\u00e4stargatan", "amenity": "restaurant", "building": "yes", "building:levels": "1", "check_date:opening_hours": "2023-02-14", "cuisine": "pizza", "diet:vegetarian": "yes", "name": "H\u00f6jersdal", "opening_hours": "Mo-Fr 11:00-21:00; Sa-Su 12:00-21:00", "phone": "+46 26-600981", "source": "Bing"}}, {"type": "way", "id": 131693327, "nodes": [1449095069, 1449095071, 1449095073, 1449095070, 1449095069], "tags": {"amenity": "cafe", "building": "yes", "name": "Gruvstugan", "source": "Bing"}}, {"type": "way", "id": 131693406, "nodes": [1449095666, 1449095665, 1449095669, 1449095667, 1449095664, 1449095668, 1449095666], "tags": {"addr:country": "SE", "addr:housenumber": "17", "addr:street": "Hans Hiertas v\u00e4g", "amenity": "cafe", "building": "yes", "cuisine": "ice_cream", "loc_name": "H\u00f6gbo-kiosken", "name": "Kiosk & Bastu", "source": "Bing", "source:loc_name": "anonymous osm note", "website": "https://www.hogbobruk.se/butikerhantverk/kioskbesoksservice.347.html"}}, {"type": "way", "id": 156194646, "nodes": [1684755077, 1684755074, 1684755064, 1684755065, 1684755077], "tags": {"addr:city": "Hofors", "addr:country": "SE", "addr:housenumber": "6", "addr:postcode": "813 30", "addr:street": "Faluv\u00e4gen", "amenity": "restaurant", "building": "retail", "cuisine": "asian;vietnamese;mongolian;swedish", "indoor_seating": "yes", "name": "Mekong 2", "outdoor_seating": "yes", "roof:shape": "hipped"}}, {"type": "way", "id": 199385501, "nodes": [2093867643, 2093867651, 2093867650, 2093867632, 2093867634, 2093867630, 2093867643], "tags": {"amenity": "restaurant", "building": "yes", "cuisine": "pizza;burger;kebab", "name": "Kungs Pizza & Restaurang", "source": "Bing"}}, {"type": "way", "id": 275207587, "nodes": [2798565534, 2798565531, 2798565535, 2798565532, 2798565534], "tags": {"amenity": "cafe", "building": "yes", "name": "Sommarro", "source": "Bing;survey"}}, {"type": "way", "id": 297338976, "nodes": [3012123028, 3012123023, 8983343036, 8983343035, 3012123024, 3012123025, 3012123026, 3012123027, 3012123028], "tags": {"amenity": "restaurant", "building": "yes", "name": "Kanalkiosken", "website": "https://www.kanalkiosken.com/"}}, {"type": "way", "id": 298902513, "nodes": [3028690802, 3028690795, 3028690804, 3028690772, 3028690802], "tags": {"amenity": "restaurant", "building": "yes", "name": "Karins burgeria"}}, {"type": "way", "id": 372705262, "nodes": [3762565553, 3762565554, 3762565555, 3762565556, 3762567957, 3762565553], "tags": {"amenity": "restaurant", "building": "yes", "cuisine": "regional", "name": "Testebo", "takeaway": "yes"}}, {"type": "way", "id": 543992273, "nodes": [7783602218, 7783602219, 5258561279, 7783602221, 7783602220, 5258561280, 7783602218], "tags": {"addr:city": "Valbo", "addr:country": "SE", "addr:housenumber": "249", "addr:postcode": "81830", "addr:street": "Valbov\u00e4gen", "amenity": "restaurant", "building": "yes", "name": "Gluggen Valbo"}}, {"type": "way", "id": 558097965, "nodes": [5381781786, 5381781787, 5381781788, 5381781789, 5381781786], "tags": {"addr:city": "Valbo", "addr:country": "SE", "addr:housenumber": "200", "addr:postcode": "81831", "addr:street": "Valbov\u00e4gen", "amenity": "restaurant", "building": "yes", "cuisine": "pizza", "name": "Quick in", "opening_hours": "Mo-Su 11:00-22:00", "phone": "+4626130050"}}, {"type": "way", "id": 564815516, "nodes": [5441034019, 5441034020, 5441038721, 5441038722, 5441038723, 5441038724, 5441038725, 5441038726, 5441038727, 5441038728, 5441038729, 5441038730, 5441038731, 5441034019], "tags": {"addr:street": "Rullstensv\u00e4gen", "amenity": "restaurant", "building": "yes", "cuisine": "pizza;burger;fish_and_chips;kebab", "delivery": "yes", "name": "Peggy's", "outdoor_seating": "yes", "takeaway": "yes"}}, {"type": "way", "id": 592216527, "nodes": [5652743364, 5652743365, 5652743366, 5652743367, 5652743368, 5652743369, 5652743370, 5652743371, 5652743364], "tags": {"amenity": "restaurant", "building": "yes", "name": "J\u00e4derfors pizzeria"}}, {"type": "way", "id": 734928344, "nodes": [6883193191, 6883193192, 6883193193, 6883193194, 6883193191], "tags": {"amenity": "cafe", "building": "yes", "name": "Dr\u00f6mfabriken"}}, {"type": "way", "id": 772447348, "nodes": [7211923224, 7211923225, 7211923226, 7211923227, 7211923228, 7211923229, 7211923224], "tags": {"amenity": "restaurant", "building": "yes", "cuisine": "burger;pizza;kebab", "name": "Storsj\u00f6krogen"}}, {"type": "way", "id": 833336871, "nodes": [7779331347, 7779331348, 7779331349, 7779331350, 7779331347], "tags": {"amenity": "restaurant", "building": "yes", "name": "Valbo Restaurang & Pizzeria"}}, {"type": "way", "id": 834032299, "nodes": [7785723108, 7785723109, 7785723110, 7785723111, 7785723108], "tags": {"amenity": "restaurant", "building": "yes", "cuisine": "fast_food", "name": "Bida Lite"}}, {"type": "way", "id": 854187522, "nodes": [7966105767, 7966110890, 7966105768, 7966105781, 7966110891, 7966105769, 7966105782, 7966110892, 7966105767], "tags": {"addr:city": "Tors\u00e5ker", "addr:country": "SE", "addr:housenumber": "7", "addr:postcode": "81340", "addr:street": "Gamla landsv\u00e4gen", "amenity": "restaurant", "building": "yes", "name": "G\u00e4stis", "website": "https://portal.torsakersgastgiveri.se"}}, {"type": "way", "id": 968217283, "nodes": [8957638075, 8957638076, 8957638077, 8957638078, 8957638075], "tags": {"amenity": "restaurant", "building": "yes", "name": "Restaurang Amorinen"}}, {"type": "way", "id": 971353994, "nodes": [8989983423, 8989983424, 8989983425, 8989983426, 8989983427, 8989983428, 8989983423], "tags": {"addr:city": "Sandviken", "addr:country": "SE", "addr:housenumber": "1", "addr:postcode": "811 62", "addr:street": "Seljans\u00f6gatan", "amenity": "restaurant", "building": "yes", "cuisine": "burger", "name": "Monroes", "phone": "+46-26-252620"}}, {"type": "way", "id": 973167992, "nodes": [9007228331, 9007228332, 9007228333, 9007228334, 9007228335, 9007228336, 9007228331], "tags": {"amenity": "restaurant", "building": "yes", "cuisine": "pizza", "name": "Stens\u00e4tra pizzeria"}}, {"type": "way", "id": 984439196, "nodes": [9101796075, 9101796076, 9101796077, 9101796078, 9101796079, 9101796080, 9101796075], "tags": {"amenity": "restaurant", "building": "yes", "cuisine": "chinese", "name": "\u00d6sterns p\u00e4rla"}}]}