{"version": 0.6, "generator": "Overpass API 0.7.61.5 4133829e", "osm3s": {"timestamp_osm_base": "2024-03-08T21:11:44Z", "copyright": "The data included in this document is from www.openstreetmap.org. The data is made available under ODbL."}, "elements": [{"type": "node", "id": 1172083325, "lat": 59.9880576, "lon": 15.0201611, "tags": {"amenity": "restaurant", "name": "Rastg\u00e5rden"}}, {"type": "node", "id": 1306547455, "lat": 59.594365, "lon": 15.2230424, "tags": {"addr:city": "Lindesberg", "addr:country": "SE", "addr:housenumber": "37", "addr:street": "Kungsgatan", "amenity": "cafe", "name": "37:ans Caf\u00e9 & Godisbutik"}}, {"type": "node", "id": 1306549303, "lat": 59.5953293, "lon": 15.2257269, "tags": {"amenity": "restaurant", "name": "Riff Musik Bar"}}, {"type": "node", "id": 1306580652, "lat": 59.5892258, "lon": 15.2334558, "tags": {"amenity": "cafe", "check_date": "2023-07-14"}}, {"type": "node", "id": 1394006275, "lat": 59.8761972, "lon": 14.9974364, "tags": {"amenity": "cafe", "name": "Loftcaf\u00e9et"}}, {"type": "node", "id": 1784845060, "lat": 59.8075059, "lon": 14.8418152, "tags": {"amenity": "cafe", "name": "Nyfiket"}}, {"type": "node", "id": 3336227931, "lat": 59.5910163, "lon": 15.2263367, "tags": {"addr:country": "SE", "addr:housenumber": "2", "addr:street": "Norra Torggatan", "amenity": "restaurant", "email": "info@lindesbergsstadshotell.se", "name": "Restaurang Caf\u00e9 Oscar", "opening_hours": "Mo-Th 11:00-22:00; Fr 23:00-23:00; Sa 12:00-23:00", "phone": "+46 73 328 98 18", "website": "https://lindesbergsstadshotell.se/cafe-oscar/"}}, {"type": "node", "id": 3431550647, "lat": 59.8756095, "lon": 14.9960264, "tags": {"addr:housenumber": "4", "addr:street": "Bergm\u00e4staregatan", "amenity": "cafe", "check_date": "2023-07-15", "cuisine": "cake", "name": "Kopparberg Konditori", "shop": "pastry", "source": "survey"}}, {"type": "node", "id": 3587736399, "lat": 59.705476, "lon": 14.5374794, "tags": {"addr:city": "Grythyttan", "addr:country": "SE", "addr:housenumber": "2", "addr:postcode": "71260", "addr:street": "Torget", "amenity": "cafe", "name": "Guldkringlan", "opening_hours": "Mo-Fr 09:00-18:00; Sa 11:00-18:00; Su off", "wheelchair": "yes"}}, {"type": "node", "id": 3790295229, "lat": 59.5938617, "lon": 15.2240087, "tags": {"addr:street": "Kungsgatan", "amenity": "restaurant", "name": "Lasse Maja bar och k\u00f6k"}}, {"type": "node", "id": 3790295231, "lat": 59.5934677, "lon": 15.2243336, "tags": {"addr:city": "Lindesberg", "addr:country": "SE", "addr:housenumber": "31", "addr:street": "Kungsgatan", "amenity": "cafe", "name": "Caf\u00e9 Kingsg\u00e5rden"}}, {"type": "node", "id": 3790295236, "lat": 59.5924265, "lon": 15.2257069, "tags": {"addr:city": "Lindesberg", "addr:country": "SE", "addr:housenumber": "21", "addr:street": "Kungsgatan", "amenity": "restaurant", "name": "Fenix"}}, {"type": "node", "id": 3790295242, "lat": 59.5914181, "lon": 15.2301258, "tags": {"amenity": "restaurant", "name": "Zamam al Sham"}}, {"type": "node", "id": 3790295243, "lat": 59.5919658, "lon": 15.2299904, "tags": {"amenity": "restaurant", "cuisine": "burger", "name": "Mozzarella", "opening_hours": "Tu-Fr 11:00-21:00; Sa, Su 12:00-21:00"}}, {"type": "node", "id": 4250056090, "lat": 59.699566, "lon": 15.099093, "tags": {"amenity": "cafe", "name": "Caf\u00e9 R50"}}, {"type": "node", "id": 4328060228, "lat": 59.5936068, "lon": 15.22739, "tags": {"addr:street": "Kristinav\u00e4gen", "amenity": "restaurant", "cuisine": "sushi", "name": "Linde Sushi"}}, {"type": "node", "id": 4346388591, "lat": 59.7054521, "lon": 14.5371616, "tags": {"addr:country": "SE", "addr:housenumber": "1", "addr:postcode": "71260", "addr:street": "Torget", "amenity": "bar", "name": "Cornelis"}}, {"type": "node", "id": 4348041443, "lat": 59.5847412, "lon": 15.2422378, "tags": {"amenity": "restaurant", "cuisine": "regional", "name": "Resturang Golfbiten"}}, {"type": "node", "id": 4348051305, "lat": 59.587211, "lon": 15.2436073}, {"type": "node", "id": 4348051306, "lat": 59.587241, "lon": 15.2437905}, {"type": "node", "id": 4348051307, "lat": 59.5870573, "lon": 15.2439077}, {"type": "node", "id": 4348051308, "lat": 59.5870273, "lon": 15.2437244}, {"type": "node", "id": 5146558704, "lat": 59.7740676, "lon": 14.4936609}, {"type": "node", "id": 5146558705, "lat": 59.774026, "lon": 14.4938254}, {"type": "node", "id": 5146558708, "lat": 59.7740875, "lon": 14.4936992}, {"type": "node", "id": 5146558709, "lat": 59.7739761, "lon": 14.4934378}, {"type": "node", "id": 5146558710, "lat": 59.774098, "lon": 14.4935986}, {"type": "node", "id": 5146558711, "lat": 59.7739027, "lon": 14.4935883}, {"type": "node", "id": 5146558713, "lat": 59.7740167, "lon": 14.4934424}, {"type": "node", "id": 5146558715, "lat": 59.7739982, "lon": 14.4934804}, {"type": "node", "id": 5215651491, "lat": 59.7834895, "lon": 14.5174083}, {"type": "node", "id": 5215651492, "lat": 59.7835049, "lon": 14.5177592}, {"type": "node", "id": 5215651493, "lat": 59.7835828, "lon": 14.5177457}, {"type": "node", "id": 5215651494, "lat": 59.7835673, "lon": 14.5173948}, {"type": "node", "id": 5248883071, "lat": 59.7849212, "lon": 14.5282949}, {"type": "node", "id": 5248883072, "lat": 59.7849216, "lon": 14.5280427}, {"type": "node", "id": 5248883073, "lat": 59.7849952, "lon": 14.5280432}, {"type": "node", "id": 5700001025, "lat": 59.7473471, "lon": 14.4996399, "tags": {"amenity": "restaurant", "check_date": "2023-07-10", "name": "Hammarns V\u00e4gkrog", "website": "http://www.hammarnsvagkrog.net"}}, {"type": "node", "id": 5700050276, "lat": 59.7055156, "lon": 14.5432057}, {"type": "node", "id": 5700050277, "lat": 59.7054861, "lon": 14.5434598}, {"type": "node", "id": 5700050278, "lat": 59.7056107, "lon": 14.5432491}, {"type": "node", "id": 5700050279, "lat": 59.7055812, "lon": 14.5435032}, {"type": "node", "id": 5801490212, "lat": 59.6161703, "lon": 15.0345645}, {"type": "node", "id": 5801490213, "lat": 59.6160741, "lon": 15.0345475}, {"type": "node", "id": 5801490214, "lat": 59.6160684, "lon": 15.0346724}, {"type": "node", "id": 5801490215, "lat": 59.6161646, "lon": 15.0346894}, {"type": "node", "id": 6769413978, "lat": 59.6118513, "lon": 14.956271, "tags": {"amenity": "cafe", "name": "Nora-Annas g\u00e5rdscaf\u00e9", "opening_hours": "Sa,Su 11:00-16:00"}}, {"type": "node", "id": 8040150655, "lat": 59.7826015, "lon": 14.5236457, "tags": {"amenity": "restaurant", "name": "L\u2019akkasha restaurang & bar", "website": "https://lakkasharestaurang.se"}}, {"type": "node", "id": 8149931873, "lat": 59.7837826, "lon": 14.5225633, "tags": {"amenity": "cafe", "name": "Caf\u00e9 Xpresso H\u00e4llefors"}}, {"type": "node", "id": 8149931913, "lat": 59.7849947, "lon": 14.5282954}, {"type": "node", "id": 8231812235, "lat": 59.7849949, "lon": 14.5281843, "tags": {"entrance": "yes"}}, {"type": "node", "id": 8554790356, "lat": 59.7055492, "lon": 14.5433522, "tags": {"amenity": "restaurant", "cuisine": "pizza", "name": "Pizzans Hus"}}, {"type": "node", "id": 8792387549, "lat": 59.78211, "lon": 14.5182393, "tags": {"amenity": "restaurant", "cuisine": "burger;fish;fish_and_chips;grill;vegetarian", "name": "George\u2019s Garage Pub & Caf\u00e9", "opening_hours": "Mo-Tu, Th 09:30-22:00; We, Fr-Sa 11:00-00:00", "phone": "0591771088"}}, {"type": "node", "id": 9006694439, "lat": 59.7862153, "lon": 14.50573, "tags": {"amenity": "restaurant", "name": "Bruksbaren"}}, {"type": "node", "id": 9159426510, "lat": 59.7835753, "lon": 14.5175756, "tags": {"entrance": "yes"}}, {"type": "node", "id": 9727585298, "lat": 59.595676, "lon": 15.2246207, "tags": {"amenity": "restaurant", "name": "China garden"}}, {"type": "node", "id": 9961330717, "lat": 59.832567, "lon": 14.7367971, "tags": {"amenity": "cafe", "cuisine": "cake;coffee_shop;regional;sandwich", "name": "White Dream Mansion", "opening_hours": "We-Su 11:00-18:00"}}, {"type": "node", "id": 10242848116, "lat": 59.5944479, "lon": 15.227224, "tags": {"amenity": "restaurant", "cuisine": "steak", "name": "Restaurang Steak House", "phone": "+46 73 0834600"}}, {"type": "node", "id": 10242859251, "lat": 59.5932743, "lon": 15.228656, "tags": {"amenity": "restaurant", "name": "Wok House", "opening_hours": "Mo-Th 11:00-14:00, 16:00-20:00; Fr 11:00-14:00, 16:00-21:00; Sa 12:00-21:00", "phone": "+49 581 611 550", "website": "http://www.wokhouselinde.se"}}, {"type": "node", "id": 10981542010, "lat": 59.7783912, "lon": 14.7771337, "tags": {"addr:housenumber": "103", "addr:street": "Hjulsj\u00f6", "amenity": "restaurant", "name": "Hjulsj\u00f6 103", "opening_hours": "Th-Su 16:00-21:00", "phone": "+46734294569", "website": "https://www.hjulsjo103.se"}}, {"type": "node", "id": 11035659957, "lat": 59.9927885, "lon": 14.8779688, "tags": {"amenity": "cafe", "check_date": "2023-07-09", "name": "K\u00e4llmans Skogscaf\u00e9", "outdoor_seating": "yes", "payment:cards": "no", "payment:credit_cards": "no", "payment:debit_cards": "no", "payment:swish": "yes", "wheelchair": "limited"}}, {"type": "node", "id": 11048371574, "lat": 59.8756844, "lon": 14.9958432, "tags": {"addr:street": "Bergm\u00e4staregatan", "amenity": "restaurant", "check_date": "2023-07-15", "cuisine": "greek", "name": "Akropolis"}}, {"type": "node", "id": 11501459133, "lat": 59.6123013, "lon": 15.1925061, "tags": {"addr:city": "Lindesberg", "addr:housenumber": "32", "addr:postcode": "711 34", "addr:street": "Stafettgatan", "amenity": "restaurant", "cuisine": "lunch", "name": "Stures Restaurang"}}, {"type": "node", "id": 11516267647, "lat": 59.7064317, "lon": 14.547385, "tags": {"amenity": "restaurant", "name": "Kantin Hyttblecket"}}, {"type": "way", "id": 436971522, "nodes": [4348051305, 4348051306, 4348051307, 4348051308, 4348051305], "tags": {"amenity": "cafe", "building": "yes", "cuisine": "coffee_shop", "name": "Caf\u00e9 Lusthuset"}}, {"type": "way", "id": 529857863, "nodes": [5146558705, 5146558708, 5146558704, 5146558710, 5146558713, 5146558715, 5146558709, 5146558711, 5146558705], "tags": {"amenity": "cafe", "building": "yes", "source": "Bing"}}, {"type": "way", "id": 538921651, "nodes": [5215651494, 9159426510, 5215651493, 5215651492, 5215651491, 5215651494], "tags": {"amenity": "restaurant", "building": "yes", "cuisine": "kebab;pizza", "name": "Pizzeria Espana", "opening_hours": "Mo-Th 11:00-22:00; Fr-Sa 11:00-23:00; Su 12:00-22:00", "phone": "10028"}}, {"type": "way", "id": 542938494, "nodes": [5248883073, 5248883072, 5248883071, 8149931913, 8231812235, 5248883073], "tags": {"amenity": "cafe", "building": "yes", "name": "Renix"}}, {"type": "way", "id": 598989255, "nodes": [5700050279, 5700050278, 5700050276, 5700050277, 5700050279], "tags": {"amenity": "restaurant", "building": "yes", "cuisine": "pizza", "name": "Pizzans Hus"}}, {"type": "way", "id": 613022013, "nodes": [5801490212, 5801490213, 5801490214, 5801490215, 5801490212], "tags": {"amenity": "cafe", "building": "yes"}}]}