{"version": 0.6, "generator": "Overpass API 0.7.61.5 4133829e", "osm3s": {"timestamp_osm_base": "2024-03-08T21:12:42Z", "copyright": "The data included in this document is from www.openstreetmap.org. The data is made available under ODbL."}, "elements": [{"type": "node", "id": 293646246, "lat": 57.8646818, "lon": 11.9959794, "tags": {"amenity": "restaurant"}}, {"type": "node", "id": 310942501, "lat": 57.7841384, "lon": 11.9934957}, {"type": "node", "id": 310942502, "lat": 57.784177, "lon": 11.9938639}, {"type": "node", "id": 310942503, "lat": 57.7843009, "lon": 11.9934357}, {"type": "node", "id": 310942504, "lat": 57.7843396, "lon": 11.9938039}, {"type": "node", "id": 313087576, "lat": 57.7685343, "lon": 11.9998138}, {"type": "node", "id": 340472636, "lat": 57.8852198, "lon": 11.5850129, "tags": {"amenity": "restaurant", "name": "Maritime"}}, {"type": "node", "id": 340472804, "lat": 57.8710467, "lon": 11.9494335, "tags": {"addr:country": "SE", "addr:housenumber": "1", "addr:street": "Christian IV:s v\u00e4g", "amenity": "restaurant", "check_date": "2022-10-22", "contact:phone": "+46 303 155 57", "cuisine": "pizza;kebab", "name": "Kung\u00e4lvsgrillen", "website": "https://kungalvsgrillen.se"}}, {"type": "node", "id": 608444087, "lat": 58.0380662, "lon": 11.7342882, "tags": {"amenity": "restaurant", "check_date:opening_hours": "2023-06-05", "cuisine": "pizza", "name": "Rondellen Pizzarestaurang", "opening_hours": "Mo-Fr 11:00-21:00; Sa,Su 12:00-21:00"}}, {"type": "node", "id": 717965747, "lat": 57.933249, "lon": 11.8745503, "tags": {"amenity": "cafe"}}, {"type": "node", "id": 756635658, "lat": 57.7519978, "lon": 12.0316706, "tags": {"addr:city": "G\u00f6teborg", "addr:country": "SE", "addr:housenumber": "9", "addr:place": "Kortedala Torg", "addr:postcode": "41510", "amenity": "restaurant", "contact:phone": "+46 31 46 66 65", "contact:website": "http://www.mittkok.nu/", "cuisine": "kebab;pizza", "name": "Mitt K\u00f6k", "opening_hours": "11:00-22:00", "payment:cryptocurrencies": "no", "smoking": "no"}}, {"type": "node", "id": 799454668, "lat": 57.7511636, "lon": 12.032034, "tags": {"amenity": "restaurant", "cuisine": "sushi", "payment:cryptocurrencies": "no", "smoking": "no"}}, {"type": "node", "id": 799454670, "lat": 57.7522399, "lon": 12.0326026, "tags": {"addr:city": "G\u00f6teborg", "addr:country": "SE", "addr:housenumber": "1", "addr:place": "Kortedala Torg", "addr:postcode": "41510", "amenity": "restaurant", "contact:phone": "+46 31 48 54 30", "contact:website": "http://www.torgkrogen.se/", "cuisine": "chinese;thai;indonesian", "name": "Torgkrogen", "opening_hours": "Mo-Th 11:00-22:00; Fr 11:00-24:00; Sa 12:00-24:00; Su 12:00-24:00", "payment:cryptocurrencies": "no", "smoking": "no", "takeaway": "yes"}}, {"type": "node", "id": 1006109811, "lat": 57.7597873, "lon": 11.9519286, "tags": {"amenity": "cafe", "cuisine": "sandwich;coffee", "smoking": "no"}}, {"type": "node", "id": 1006110385, "lat": 57.7607374, "lon": 11.950448, "tags": {"amenity": "restaurant", "name": "Aschebergska eken", "payment:cryptocurrencies": "no", "smoking": "no"}}, {"type": "node", "id": 1116004024, "lat": 57.9242596, "lon": 12.0305862, "tags": {"amenity": "restaurant", "name": "Romelanda Pizzeria", "toilets:wheelchair": "no", "wheelchair": "yes"}}, {"type": "node", "id": 1306015032, "lat": 57.7433733, "lon": 11.8639285, "tags": {"amenity": "restaurant", "contact:phone": "+4631929110", "name": "Resturang Dragong\u00e5rden", "smoking": "no"}}, {"type": "node", "id": 1595591412, "lat": 57.8692943, "lon": 11.9839708, "tags": {"addr:city": "Kung\u00e4lv", "addr:country": "SE", "addr:housenumber": "62", "addr:postcode": "44231", "addr:street": "V\u00e4stra gatan", "amenity": "restaurant", "check_date": "2022-12-14", "name": "August Bistro"}}, {"type": "node", "id": 1604642820, "lat": 58.0673318, "lon": 11.8159757, "tags": {"amenity": "restaurant", "name": "Harrys", "opening_hours": "Mo-We 16:00-21:00; Th 16:00-23:00; Fr 16:00-02:00; Sa 12:00-02:00; Su 12:00-20:00", "payment:cash": "yes", "website": "https://www.harrys.se/restauranger/stenungsund/"}}, {"type": "node", "id": 1734961245, "lat": 58.1422741, "lon": 11.8257156}, {"type": "node", "id": 1734961257, "lat": 58.1423168, "lon": 11.8258614}, {"type": "node", "id": 1734961272, "lat": 58.1423832, "lon": 11.8256008}, {"type": "node", "id": 1734961286, "lat": 58.1424259, "lon": 11.8257465}, {"type": "node", "id": 1758891252, "lat": 58.0587162, "lon": 11.7751971}, {"type": "node", "id": 1758891254, "lat": 58.0588596, "lon": 11.7747484}, {"type": "node", "id": 1758891255, "lat": 58.0588827, "lon": 11.7751872}, {"type": "node", "id": 1758891256, "lat": 58.0589083, "lon": 11.7749128}, {"type": "node", "id": 1758891257, "lat": 58.0589167, "lon": 11.7750779}, {"type": "node", "id": 1758891258, "lat": 58.0589272, "lon": 11.7748492}, {"type": "node", "id": 1758891259, "lat": 58.0589327, "lon": 11.7754119}, {"type": "node", "id": 1758891262, "lat": 58.0589729, "lon": 11.7752783}, {"type": "node", "id": 2186333931, "lat": 58.1129568, "lon": 11.8805086}, {"type": "node", "id": 2186333932, "lat": 58.1130212, "lon": 11.8802694}, {"type": "node", "id": 2186333933, "lat": 58.1130818, "lon": 11.8806292}, {"type": "node", "id": 2186333935, "lat": 58.1131462, "lon": 11.88039}, {"type": "node", "id": 2271479015, "lat": 58.0151672, "lon": 11.8329432, "tags": {"amenity": "cafe", "name": "Fr\u00f6ken Andersson", "opening_hours": "Mo,Tu 10:00-18:00; We 10:00-20:00; Th,Fr 10:00-16:00; Sa 10:00-15:00; Su 11:00-15:00"}}, {"type": "node", "id": 2361263826, "lat": 57.8883997, "lon": 11.5836142, "tags": {"addr:city": "Marstrand", "addr:country": "SE", "amenity": "cafe", "name": "Bergs Konditori", "shop": "confectionery"}}, {"type": "node", "id": 2425427397, "lat": 57.8857923, "lon": 11.5847664, "tags": {"amenity": "restaurant", "name": "Lasse-Majas krog"}}, {"type": "node", "id": 2447311209, "lat": 57.8700177, "lon": 11.9745773}, {"type": "node", "id": 2466637558, "lat": 57.8705951, "lon": 11.9779194, "tags": {"amenity": "cafe", "check_date": "2023-02-22", "name": "Farbror Knut"}}, {"type": "node", "id": 2727788825, "lat": 57.8706121, "lon": 11.982015, "tags": {"addr:city": "Kung\u00e4lv", "addr:country": "SE", "addr:housenumber": "80", "addr:postcode": "44231", "addr:street": "V\u00e4stra gatan", "amenity": "restaurant", "check_date": "2023-05-02", "cuisine": "indian", "diet:halal": "yes", "name": "Mantram", "opening_hours": "Mo-Th 11:00-21:00; Fr 11:00-22:00; Sa 12:30-21:00; Su 12:30-21:00", "payment:cash": "yes", "phone": "+46 303 444420", "takeaway": "yes", "wheelchair": "no"}}, {"type": "node", "id": 2813304598, "lat": 57.8869452, "lon": 11.5824803, "tags": {"amenity": "restaurant", "name": "Johans krog"}}, {"type": "node", "id": 2813304599, "lat": 57.8872375, "lon": 11.5833071, "tags": {"amenity": "restaurant", "name": "Tenan"}}, {"type": "node", "id": 2813304600, "lat": 57.8868721, "lon": 11.5847705, "tags": {"addr:city": "Marstrand", "addr:country": "SE", "amenity": "restaurant", "name": "W\u00e4rdshuset"}}, {"type": "node", "id": 2813306401, "lat": 57.8844405, "lon": 11.5841909, "tags": {"amenity": "restaurant", "name": "Mama's"}}, {"type": "node", "id": 2813306402, "lat": 57.8883586, "lon": 11.5797453, "tags": {"amenity": "restaurant", "name": "Societetshuset"}}, {"type": "node", "id": 2813306403, "lat": 57.8888448, "lon": 11.5784243, "tags": {"addr:city": "Marstrand", "addr:country": "SE", "amenity": "restaurant", "name": "Drott"}}, {"type": "node", "id": 2813306404, "lat": 57.8884823, "lon": 11.5835152, "tags": {"amenity": "restaurant", "name": "Arnell p\u00e5 kajen"}}, {"type": "node", "id": 2813306405, "lat": 57.886509, "lon": 11.5901482, "tags": {"addr:city": "Marstrand", "addr:country": "SE", "amenity": "restaurant", "name": "Ottos Vardagsrum & K\u00f6k"}}, {"type": "node", "id": 2813306406, "lat": 57.8874684, "lon": 11.5877222, "tags": {"amenity": "restaurant", "name": "Hamnkrogen"}}, {"type": "node", "id": 2823461944, "lat": 57.8861092, "lon": 11.5847546, "tags": {"amenity": "cafe"}}, {"type": "node", "id": 2823461945, "lat": 57.8830305, "lon": 11.5852977, "tags": {"addr:city": "Marstrand", "addr:country": "SE", "addr:housenumber": "56", "addr:postcode": "44267", "addr:street": "Hamngatan", "amenity": "restaurant", "cuisine": "italian", "name": "Da Roberto", "opening_hours": "Tu-Sa 12:00-20:00; Su 12:00-16:00", "phone": "+46 709 486000", "website": "https://www.strandverketmarstrand.se/"}}, {"type": "node", "id": 2892247324, "lat": 57.7693497, "lon": 12.0006347, "tags": {"amenity": "cafe", "cuisine": "regional;sandwich;cake;salad", "name": "Coop K\u00f6k & Kaf\u00e9", "opening_hours": "Mo-Fr 08:00-18:00; Sa-Su 08:00-17:00", "outdoor_seating": "no", "smoking": "no", "website": "https://coopforum-goteborg.gastrogate.com/"}}, {"type": "node", "id": 2956191489, "lat": 57.8279231, "lon": 12.0147468, "tags": {"addr:city": "Surte", "addr:country": "SE", "addr:housenumber": "76", "addr:postcode": "44557", "addr:street": "G\u00f6teborgsv\u00e4gen", "amenity": "restaurant", "cuisine": "pizza", "name": "Pizzeria Napoli"}}, {"type": "node", "id": 2956191490, "lat": 57.8283119, "lon": 12.015071, "tags": {"addr:city": "Surte", "addr:country": "SE", "addr:housenumber": "99", "addr:postcode": "44557", "addr:street": "G\u00f6teborgsv\u00e4gen", "amenity": "restaurant", "cuisine": "regional", "name": "K\u00f6pmans Hytta", "phone": "+46 31 98 1517", "website": "https://www.facebook.com/KopmansHytta"}}, {"type": "node", "id": 2956191491, "lat": 57.8281978, "lon": 12.015116, "tags": {"addr:city": "Surte", "addr:country": "SE", "addr:housenumber": "49", "addr:postcode": "44557", "addr:street": "G\u00f6teborgsv\u00e4gen", "amenity": "restaurant", "cuisine": "thai", "name": "Koh lanta Thaik\u00f6k", "phone": "+46 31 98 03 00"}}, {"type": "node", "id": 2956191492, "lat": 57.8288082, "lon": 12.0139373, "tags": {"addr:city": "Surte", "addr:country": "SE", "addr:housenumber": "109", "addr:postcode": "44557", "addr:street": "G\u00f6teborgsv\u00e4gen", "amenity": "restaurant", "cuisine": "burger", "name": "Kalles Gatuk\u00f6k"}}, {"type": "node", "id": 3167841606, "lat": 57.748181, "lon": 11.9965499, "tags": {"addr:city": "Hisings Backa", "addr:country": "SE", "addr:housenumber": "2 A", "addr:postcode": "42246", "addr:street": "Backa Berg\u00f6gata", "amenity": "restaurant", "cuisine": "thai", "name": "Thai Nisa", "payment:cryptocurrencies": "no", "smoking": "no"}}, {"type": "node", "id": 3167841607, "lat": 57.7478214, "lon": 11.993354, "tags": {"addr:city": "Hisings Backa", "addr:country": "SE", "addr:housenumber": "2", "addr:postcode": "42246", "addr:street": "Importgatan", "amenity": "restaurant", "cuisine": "regional", "level": "1", "name": "Mr Johanssons Restaurang", "payment:cryptocurrencies": "no", "smoking": "no"}}, {"type": "node", "id": 3167841608, "lat": 57.7529343, "lon": 11.9936848, "tags": {"amenity": "restaurant", "cuisine": "regional", "name": "Papa Bruno", "payment:cryptocurrencies": "no", "smoking": "no"}}, {"type": "node", "id": 3167879610, "lat": 57.748175, "lon": 11.9954387, "tags": {"addr:city": "Hisings Backa", "addr:country": "SE", "addr:housenumber": "10", "addr:postcode": "42246", "addr:street": "Importgatan", "amenity": "restaurant", "cuisine": "chinese", "name": "Hsin Hsin", "payment:cryptocurrencies": "no", "smoking": "no"}}, {"type": "node", "id": 3253357488, "lat": 58.0735814, "lon": 11.823307, "tags": {"amenity": "restaurant", "cuisine": "chinese", "name": "Dai Loon", "opening_hours": "Mo-Th 11:00-22:00; Fr 11:00-23:00; Sa 12:00-23:00; Su 12:00-22:00"}}, {"type": "node", "id": 3253357493, "lat": 58.0732987, "lon": 11.8230355, "tags": {"amenity": "restaurant", "cuisine": "mongolian", "name": "Singha Thai"}}, {"type": "node", "id": 3253731666, "lat": 58.0741616, "lon": 11.8234887, "tags": {"amenity": "restaurant", "cuisine": "mexican", "name": "Dos Amigos", "outdoor_seating": "sidewalk", "website": "http://dosamigos.se/"}}, {"type": "node", "id": 3253731672, "lat": 58.0741037, "lon": 11.82348, "tags": {"amenity": "restaurant", "cuisine": "sushi", "name": "Lucky Sushi", "opening_hours": "Mo-Fr 11:00-19:30; Sa-Su 12:00-19:30"}}, {"type": "node", "id": 3253731673, "lat": 58.0732837, "lon": 11.8187794, "tags": {"amenity": "restaurant", "name": "L\u00e4tt R\u00e4tt"}}, {"type": "node", "id": 3253804670, "lat": 58.074315, "lon": 11.823347, "tags": {"amenity": "restaurant", "cuisine": "pizza", "name": "Picasso", "opening_hours": "Su-Th 11:00-22:00; Fr-Sa 11:00-23:00", "takeaway": "yes"}}, {"type": "node", "id": 3294541461, "lat": 57.986072, "lon": 11.82896, "tags": {"amenity": "restaurant", "cuisine": "tapas", "name": "Tapasbar", "opening_hours": "Fr-Sa 16:00-02:00, Su 16:00-24:00"}}, {"type": "node", "id": 3494099793, "lat": 57.7508465, "lon": 11.6528539}, {"type": "node", "id": 3494099798, "lat": 57.7508721, "lon": 11.6530131}, {"type": "node", "id": 3494099810, "lat": 57.7509324, "lon": 11.6528054}, {"type": "node", "id": 3494099815, "lat": 57.750958, "lon": 11.6529645}, {"type": "node", "id": 3536008895, "lat": 57.929059, "lon": 11.6023846}, {"type": "node", "id": 3536008898, "lat": 57.9290778, "lon": 11.6027148}, {"type": "node", "id": 3536008913, "lat": 57.9291732, "lon": 11.6023616}, {"type": "node", "id": 3536008916, "lat": 57.929192, "lon": 11.6026918}, {"type": "node", "id": 3687784149, "lat": 58.0589194, "lon": 11.77493}, {"type": "node", "id": 3687784150, "lat": 58.0589327, "lon": 11.774832}, {"type": "node", "id": 4224024826, "lat": 57.9248471, "lon": 11.5891531, "tags": {"amenity": "restaurant", "cuisine": "fish", "name": "\u00c5stols r\u00f6keri"}}, {"type": "node", "id": 4340817353, "lat": 57.9356313, "lon": 11.5755062, "tags": {"amenity": "restaurant", "name": "Sk\u00e4rgar'n"}}, {"type": "node", "id": 4407747916, "lat": 57.7503988, "lon": 11.9846673, "tags": {"addr:city": "Hisings Backa", "addr:country": "SE", "addr:housenumber": "15", "addr:postcode": "42248", "addr:street": "Selma Lagerl\u00f6fs Torg", "amenity": "restaurant", "cuisine": "pizza", "name": "Pizzeria P\u00e4rla", "payment:cryptocurrencies": "no", "smoking": "no"}}, {"type": "node", "id": 4573679496, "lat": 57.7456179, "lon": 12.034586, "tags": {"addr:city": "G\u00f6teborg", "addr:country": "SE", "addr:housenumber": "1", "addr:postcode": "41511", "addr:street": "Almanacksv\u00e4gen", "amenity": "restaurant", "contact:phone": "+4631140600", "name": "Restaurang Kanonen", "opening_hours": "Tu-Fr 11:00-17:00; Mo 11:00-15:00", "payment:cryptocurrencies": "no", "smoking": "no"}}, {"type": "node", "id": 4644258081, "lat": 57.8757746, "lon": 11.9751497, "tags": {"addr:city": "Kung\u00e4lv", "addr:country": "SE", "addr:housenumber": "5", "addr:postcode": "442 34", "addr:street": "Triogatan", "amenity": "restaurant", "cuisine": "pizza", "name": "Sanneg\u00e5rdens Pizzeria", "outdoor_seating": "no", "takeaway": "yes", "website": "https://sannegarden.com/"}}, {"type": "node", "id": 4754920830, "lat": 58.1246824, "lon": 11.9508329}, {"type": "node", "id": 4754920831, "lat": 58.1246463, "lon": 11.9508257}, {"type": "node", "id": 4754920836, "lat": 58.1247619, "lon": 11.9507451}, {"type": "node", "id": 4754920837, "lat": 58.1247435, "lon": 11.9510737}, {"type": "node", "id": 4754920838, "lat": 58.1246698, "lon": 11.951059}, {"type": "node", "id": 4754920839, "lat": 58.1246521, "lon": 11.9507231}, {"type": "node", "id": 4922632498, "lat": 57.8734343, "lon": 11.9784158, "tags": {"addr:city": "Kung\u00e4lv", "addr:country": "SE", "addr:housenumber": "1", "addr:postcode": "442 32", "addr:street": "Nytorget", "amenity": "restaurant", "check_date": "2023-05-09", "cuisine": "asian", "name": "Tai Lee", "phone": "+46 303 18 17 7", "source": "GPS", "website": "https://tailee.webnode.se/"}}, {"type": "node", "id": 5056792697, "lat": 57.8609237, "lon": 11.9179163, "tags": {"amenity": "restaurant", "cuisine": "pizza", "name": "Viking Restaurang & Pizzeria"}}, {"type": "node", "id": 5167403731, "lat": 57.7866287, "lon": 11.8674928, "tags": {"amenity": "cafe", "craft": "handicraft", "name": "\u00c5seby V\u00e4sterg\u00e5rd Caf\u00e9", "opening_hours": "Sa,Su 12:00-17:00", "shop": "craft"}}, {"type": "node", "id": 5260461538, "lat": 57.8730872, "lon": 11.978623}, {"type": "node", "id": 5260461539, "lat": 57.8731124, "lon": 11.9785885}, {"type": "node", "id": 5260461540, "lat": 57.8730838, "lon": 11.9785148}, {"type": "node", "id": 5262442365, "lat": 57.8847429, "lon": 11.9630939}, {"type": "node", "id": 5262442366, "lat": 57.8846975, "lon": 11.9633148}, {"type": "node", "id": 5262442367, "lat": 57.8845662, "lon": 11.9632193}, {"type": "node", "id": 5262442368, "lat": 57.8846116, "lon": 11.9629983}, {"type": "node", "id": 5368787111, "lat": 57.7935726, "lon": 11.7450902, "tags": {"amenity": "cafe", "contact:website": "http://www.oascafe.se/", "name": "\u00d6as Pub & Caf\u00e9"}}, {"type": "node", "id": 5371419373, "lat": 58.0791321, "lon": 11.9490127}, {"type": "node", "id": 5371419374, "lat": 58.079057, "lon": 11.9489698}, {"type": "node", "id": 5371419375, "lat": 58.0790675, "lon": 11.9489041}, {"type": "node", "id": 5371419376, "lat": 58.0791426, "lon": 11.948947}, {"type": "node", "id": 5423027340, "lat": 57.8700464, "lon": 11.9744983}, {"type": "node", "id": 5423027341, "lat": 57.86999, "lon": 11.9744259}, {"type": "node", "id": 5423027342, "lat": 57.8699613, "lon": 11.9745049}, {"type": "node", "id": 5532206723, "lat": 57.8735179, "lon": 12.0004618}, {"type": "node", "id": 5532206724, "lat": 57.8734304, "lon": 12.0005543}, {"type": "node", "id": 5532206725, "lat": 57.8733693, "lon": 12.0004523}, {"type": "node", "id": 5532206726, "lat": 57.8734556, "lon": 12.0005521}, {"type": "node", "id": 5536560623, "lat": 57.8690411, "lon": 11.9842548, "tags": {"amenity": "cafe", "check_date": "2022-12-03", "name": "Tant Rut"}}, {"type": "node", "id": 5574437027, "lat": 57.8747185, "lon": 11.9775759, "tags": {"amenity": "cafe", "check_date": "2023-03-25", "name": "Mimers Caf\u00e9"}}, {"type": "node", "id": 5612191394, "lat": 57.8736551, "lon": 11.9734099, "tags": {"amenity": "cafe", "check_date": "2022-12-04", "cuisine": "sushi;ice_cream;coffee", "name": "Kung\u00e4lvs Sushi & Glass HJ", "opening_hours": "Mo,We-Fr 11:00-20:00; Tu off; Sa-Su 12:00-20:00", "payment:mastercard": "yes", "payment:visa": "yes", "phone": "+46 303 19 36 6"}}, {"type": "node", "id": 5713146812, "lat": 58.0589534, "lon": 11.775343, "tags": {"access": "yes", "amenity": "toilets", "capacity": "4", "capacity:disabled": "1", "capacity:women": "3", "fee": "no", "indoor": "no", "male": "yes", "unisex": "yes", "wheelchair": "yes"}}, {"type": "node", "id": 5782610808, "lat": 57.9363902, "lon": 11.578614, "tags": {"amenity": "restaurant", "cuisine": "pizza", "name": "R\u00f6nn\u00e4ng Pizzeria"}}, {"type": "node", "id": 5929649950, "lat": 58.0160544, "lon": 11.8316507, "tags": {"amenity": "restaurant", "name": "Sushi"}}, {"type": "node", "id": 6096619388, "lat": 57.8735071, "lon": 12.0004924}, {"type": "node", "id": 6096619389, "lat": 57.8734893, "lon": 12.0005215}, {"type": "node", "id": 6096619390, "lat": 57.8733844, "lon": 12.0005106}, {"type": "node", "id": 6096619391, "lat": 57.8734041, "lon": 12.0005331}, {"type": "node", "id": 6732712835, "lat": 57.7530152, "lon": 12.0318492, "tags": {"amenity": "cafe", "smoking": "no"}}, {"type": "node", "id": 6755616562, "lat": 57.7533032, "lon": 12.0106714, "tags": {"amenity": "cafe", "name": "Caf\u00e9 Liba", "opening_hours": "Mo-Fr 07:00-23:00; Sa-Su 08:00-23:00", "payment:cryptocurrencies": "no", "shop": "bakery", "website": "https://www.cafeliba.se/"}}, {"type": "node", "id": 6809899619, "lat": 57.7416764, "lon": 11.7362477, "tags": {"amenity": "cafe"}}, {"type": "node", "id": 7106871234, "lat": 57.8655721, "lon": 11.9946438, "tags": {"addr:city": "Kung\u00e4lv", "addr:country": "SE", "addr:housenumber": "4", "addr:postcode": "442 31", "addr:street": "Gamla torget", "amenity": "bar", "check_date": "2022-12-22", "email": "info@restaurangtoken.se", "name": "Token", "opening_hours": "Tu-Sa 12:00-22:00; Su 12:00-20:00", "phone": "+46 303-174 78", "website": "https://www.restaurangtoken.se/"}}, {"type": "node", "id": 7106871235, "lat": 57.8654444, "lon": 11.9946317, "tags": {"addr:city": "Kung\u00e4lv", "addr:country": "SE", "addr:housenumber": "4", "addr:postcode": "442 31", "addr:street": "Gamla torget", "amenity": "restaurant", "check_date": "2022-12-22", "cuisine": "italian", "email": "info@iltrullo.se", "name": "Trattoria Il Trullo", "opening_hours": "Tu-Fr 17:00-22:00; Sa 13:00-22:00", "phone": "+4630318390", "takeaway": "yes", "website": "https://iltrullo.se/"}}, {"type": "node", "id": 7679796985, "lat": 57.9092722, "lon": 11.8006135, "tags": {"addr:city": "Kode", "addr:country": "SE", "addr:housenumber": "111", "addr:postcode": "44298", "addr:street": "Sk\u00e5ra", "amenity": "cafe", "name": "Sk\u00e5ra g\u00e5rdsbageri", "website": "https://xn--skragrdsbageri-mibd.se/"}}, {"type": "node", "id": 8201991575, "lat": 57.7417962, "lon": 11.8059896, "tags": {"amenity": "cafe", "cuisine": "regional", "name": "Mj\u00f6viks Bageri & G\u00e5rdsbutik", "outdoor_seating": "yes"}}, {"type": "node", "id": 8267083751, "lat": 57.7494347, "lon": 11.9810206, "tags": {"amenity": "restaurant", "name": "Sushi", "payment:cryptocurrencies": "no", "smoking": "no"}}, {"type": "node", "id": 8267083753, "lat": 57.7493556, "lon": 11.9810441, "tags": {"amenity": "restaurant", "cuisine": "pizza", "entrance": "yes", "name": "Selma Pizzeria", "payment:cryptocurrencies": "no", "smoking": "no"}}, {"type": "node", "id": 8331698544, "lat": 57.747721, "lon": 12.0015576, "tags": {"amenity": "restaurant", "name": "Mat & Potatis", "opening_hours": "Mo-Fr 08:30-14:00", "payment:cryptocurrencies": "no", "smoking": "no", "website": "https://matopotatis.se/"}}, {"type": "node", "id": 8704609981, "lat": 57.8878077, "lon": 11.5938867, "tags": {"amenity": "restaurant", "cuisine": "pizza", "name": "Marstrand pizzeria"}}, {"type": "node", "id": 8722975276, "lat": 57.8741286, "lon": 11.9685099, "tags": {"addr:city": "Kung\u00e4lv", "addr:country": "SE", "addr:housenumber": "24", "addr:postcode": "442 34", "addr:street": "Fr\u00e4kne gr\u00e4nd", "amenity": "restaurant", "contact:email": "info@umisushibar.se", "contact:phone": "+46 303-525 32", "cuisine": "sushi", "name": "Umi Sushi Bar", "opening_hours": "Mo-Su 11:00-20:00", "website": "https://www.umisushibar.se/"}}, {"type": "node", "id": 9045736121, "lat": 58.0699914, "lon": 11.817756, "tags": {"amenity": "restaurant", "cuisine": "indian", "name": "Kesar", "opening_hours": "Mo-Fr 11:00-22:00; Sa 12:00-22:00; Su 12:00-21:00", "payment:cash": "yes", "phone": "+46 303 81525", "takeaway": "yes"}}, {"type": "node", "id": 9105860878, "lat": 57.9854577, "lon": 11.8328701, "tags": {"amenity": "cafe"}}, {"type": "node", "id": 9176129557, "lat": 57.7598696, "lon": 11.8058299, "tags": {"addr:country": "SE", "addr:housenumber": "88 A", "addr:street": "Bj\u00f6rlanda Kile", "amenity": "restaurant", "description": "Thai food and pizza", "name": "Pad Thai", "payment:cryptocurrencies": "no", "phone": "+4631926400", "website": "https://www.padthai.nu/"}}, {"type": "node", "id": 9372159472, "lat": 58.023676, "lon": 11.847167, "tags": {"addr:city": "Speker\u00f6d", "addr:country": "SE", "addr:housenumber": "304", "addr:postcode": "444 93", "addr:street": "J\u00f6rlanda Berg", "amenity": "cafe", "brand": "Espresso House", "brand:wikidata": "Q10489162", "brand:wikipedia": "sv:Espresso House", "name": "Espresso House", "opening_hours": "Mo-Fr 07:00-19:00; Sa-Su 08:00-20:00", "outdoor_seating": "yes", "start_date": "2018-06-20", "takeaway": "yes", "website": "https://espressohouse.com/coffee-shops/spekerd-dt/"}}, {"type": "node", "id": 9472728342, "lat": 57.7586352, "lon": 12.0094987, "tags": {"amenity": "cafe", "name": "Returhuset", "smoking": "no", "website": "https://goteborg.se/wps/portal/enhetssida/returhuset-ostra-goteborg/eko-kaf%C3%A9"}}, {"type": "node", "id": 9847423307, "lat": 57.7513186, "lon": 11.9286459, "tags": {"addr:country": "SE", "addr:housenumber": "135", "addr:street": "Gunnestorpsv\u00e4gen", "amenity": "restaurant", "cuisine": "sushi", "entrance": "yes", "name": "Sushi Eki", "payment:cryptocurrencies": "no", "smoking": "no", "toilets": "no"}}, {"type": "node", "id": 9870755848, "lat": 57.8739244, "lon": 11.977489, "tags": {"amenity": "restaurant", "check_date": "2022-12-23", "cuisine": "greek;turkish", "name": "Kallisto"}}, {"type": "node", "id": 9872746482, "lat": 57.7612811, "lon": 11.9502725, "tags": {"amenity": "restaurant", "cuisine": "pizza", "entrance": "yes", "name": "Pizzeria Casablanca", "outdoor_seating": "yes", "payment:cryptocurrencies": "no", "smoking": "no"}}, {"type": "node", "id": 9897340686, "lat": 57.9258129, "lon": 11.6176184, "tags": {"amenity": "restaurant", "name": "Linas Brygga"}}, {"type": "node", "id": 9906223944, "lat": 58.0686643, "lon": 11.8164105, "tags": {"amenity": "restaurant", "name": "Slimfood"}}, {"type": "node", "id": 9906237303, "lat": 58.0690388, "lon": 11.8181006, "tags": {"amenity": "cafe", "name": "Farmor Gretas caf\u00e9"}}, {"type": "node", "id": 9906237304, "lat": 58.0692133, "lon": 11.8186237, "tags": {"amenity": "restaurant", "name": "Tonys restaurang"}}, {"type": "node", "id": 9964508921, "lat": 57.8945312, "lon": 11.7955672, "tags": {"amenity": "cafe", "name": "Lillstugans V\u00e5ffelcaf\u00e9", "opening_hours": "Mo-Fr 11:00-18:00; Sa, Su 11:00-16:00", "website": "https://www.butiktjuvkil939.se/vaffelcafe"}}, {"type": "node", "id": 9981213396, "lat": 57.8735216, "lon": 11.9787061, "tags": {"addr:city": "Kung\u00e4lv", "addr:country": "SE", "addr:housenumber": "1", "addr:postcode": "442 32", "addr:street": "Nytorget", "amenity": "restaurant", "check_date": "2023-05-09", "cuisine": "sushi", "name": "Ferdinand Sushi", "payment:credit_cards": "yes", "payment:klarna": "yes", "payment:swish": "yes", "phone": "+46 73-785 1973", "website": "https://ferdinandsushi.se/"}}, {"type": "node", "id": 10114164511, "lat": 57.8704261, "lon": 11.9800867, "tags": {"amenity": "restaurant", "check_date": "2022-10-19", "name": "Jenin Grill"}}, {"type": "node", "id": 10183408806, "lat": 58.0743818, "lon": 11.822538, "tags": {"addr:city": "Stenungsund", "addr:country": "SE", "addr:housenumber": "1", "addr:postcode": "44431", "addr:street": "G\u00e4rdesv\u00e4gen", "amenity": "restaurant", "cuisine": "asian;thai;swedish", "name": "Mr Johanssons", "opening_hours": "Tu-Th 11:00-20:00; Fr 11:00-21:00; Sa 12:00-21:00; Su 12:00-20:00", "phone": "+46 303 67 212", "website": "http://www.mrjohanssons.se/stenungsund/"}}, {"type": "node", "id": 10218613409, "lat": 57.8634951, "lon": 11.9962917, "tags": {"amenity": "restaurant", "check_date": "2023-06-04", "cuisine": "pizza;ice_cream", "name": "Mors m\u00f6ssa", "outdoor_seating": "yes"}}, {"type": "node", "id": 10236084967, "lat": 57.8726902, "lon": 11.9799302, "tags": {"amenity": "restaurant", "check_date": "2022-12-21", "name": "La Dolce Vita"}}, {"type": "node", "id": 10236084970, "lat": 57.8698524, "lon": 11.9830857, "tags": {"addr:city": "Kung\u00e4lv", "addr:country": "SE", "addr:housenumber": "68", "addr:postcode": "442 31", "addr:street": "V\u00e4stra gatan", "amenity": "restaurant", "check_date": "2023-09-09", "cuisine": "sushi", "highchair": "no", "name": "Gott Mi Sushi", "opening_hours": "Mo-Th 11:00-20:00; Fr-Sa 11:00-21:00; Su 12:00-20:00", "outdoor_seating": "yes", "phone": "+46 303 21 22 12", "sport": "no", "takeaway": "yes", "wheelchair": "yes"}}, {"type": "node", "id": 10267862975, "lat": 57.8730586, "lon": 11.9785493}, {"type": "node", "id": 10559369046, "lat": 57.8932082, "lon": 11.9379347, "tags": {"addr:city": "Kung\u00e4lv", "addr:country": "SE", "addr:housenumber": "33", "addr:postcode": "442 45", "addr:street": "Solbr\u00e4ckegatan", "amenity": "restaurant", "cuisine": "swedish", "name": "Club Evergreen", "opening_hours": "Mo-Fr 08:00-16:00", "phone": "+46 303 233092", "website": "https://clubevergreen.se/restaurang/"}}, {"type": "node", "id": 10608844818, "lat": 57.8577053, "lon": 11.9518937, "tags": {"amenity": "cafe"}}, {"type": "node", "id": 10650759496, "lat": 57.873466, "lon": 11.999918}, {"type": "node", "id": 10650759497, "lat": 57.8734447, "lon": 11.9999696}, {"type": "node", "id": 10650759498, "lat": 57.8734246, "lon": 12.0000359}, {"type": "node", "id": 10650759499, "lat": 57.8733967, "lon": 12.0001626}, {"type": "node", "id": 10650759500, "lat": 57.8733754, "lon": 12.0002747}, {"type": "node", "id": 10650759501, "lat": 57.8733704, "lon": 12.0003125}, {"type": "node", "id": 10650759502, "lat": 57.8733669, "lon": 12.000349}, {"type": "node", "id": 10650759503, "lat": 57.8733662, "lon": 12.0003795}, {"type": "node", "id": 10650759504, "lat": 57.8733669, "lon": 12.0004101}, {"type": "node", "id": 10650781505, "lat": 57.8733677, "lon": 12.0004319}, {"type": "node", "id": 10650781506, "lat": 57.8735427, "lon": 12.0003344}, {"type": "node", "id": 10650781507, "lat": 57.8735524, "lon": 12.0002885}, {"type": "node", "id": 10650781508, "lat": 57.8735764, "lon": 12.0001517}, {"type": "node", "id": 10650781509, "lat": 57.8735853, "lon": 12.0000876}, {"type": "node", "id": 10650781510, "lat": 57.8735884, "lon": 12.0000388}, {"type": "node", "id": 10650781511, "lat": 57.8735864, "lon": 11.999998}, {"type": "node", "id": 10650781512, "lat": 57.873581, "lon": 11.9999602}, {"type": "node", "id": 10650781513, "lat": 57.8735729, "lon": 11.9999318}, {"type": "node", "id": 10650781514, "lat": 57.8735621, "lon": 11.9999114}, {"type": "node", "id": 10650781515, "lat": 57.8735439, "lon": 11.9998917}, {"type": "node", "id": 10650781516, "lat": 57.8735303, "lon": 11.999883}, {"type": "node", "id": 10650781517, "lat": 57.873511, "lon": 11.9998801}, {"type": "node", "id": 10650781518, "lat": 57.8734966, "lon": 11.9998859}, {"type": "node", "id": 10650781519, "lat": 57.8734792, "lon": 11.9999041}, {"type": "node", "id": 10650781520, "lat": 57.8733743, "lon": 12.0004815}, {"type": "node", "id": 10695851958, "lat": 57.7505949, "lon": 11.9286701, "tags": {"amenity": "restaurant", "cuisine": "burger;pizza", "name": "Double Zero", "payment:cryptocurrencies": "no", "smoking": "no", "toilets:access": "customers"}}, {"type": "node", "id": 10738529357, "lat": 57.871899, "lon": 11.9679713, "tags": {"amenity": "cafe", "name": "Cafe Roja"}}, {"type": "node", "id": 10831973205, "lat": 57.8709846, "lon": 12.0140418, "tags": {"amenity": "cafe"}}, {"type": "node", "id": 10837861156, "lat": 57.8738504, "lon": 11.967571, "tags": {"amenity": "cafe", "brand": "Espresso House", "brand:wikidata": "Q10489162", "cuisine": "coffee_shop", "level": "2", "name": "Espresso House", "takeaway": "yes"}}, {"type": "node", "id": 10837861159, "lat": 57.8735586, "lon": 11.9680688, "tags": {"amenity": "restaurant", "level": "2", "name": "Yalla Habibi"}}, {"type": "node", "id": 10837861165, "lat": 57.8733942, "lon": 11.9682175, "tags": {"amenity": "restaurant", "level": "2", "name": "Z\u00f3calo"}}, {"type": "node", "id": 10837861166, "lat": 57.8733541, "lon": 11.9682443, "tags": {"amenity": "restaurant", "cuisine": "italian", "level": "2", "name": "La Pasta Veloce"}}, {"type": "node", "id": 10837861167, "lat": 57.8732852, "lon": 11.9682921, "tags": {"amenity": "restaurant", "level": "2", "name": "Zao Street Kitchen"}}, {"type": "node", "id": 10837861169, "lat": 57.873215, "lon": 11.9682837, "tags": {"amenity": "restaurant", "cuisine": "sushi", "level": "2", "name": "Sushi Yama"}}, {"type": "node", "id": 10837861175, "lat": 57.8727617, "lon": 11.9686712, "tags": {"amenity": "restaurant", "level": "2", "name": "O'Learys"}}, {"type": "node", "id": 10837861177, "lat": 57.8743701, "lon": 11.967514, "tags": {"amenity": "restaurant", "cuisine": "pizza", "level": "1", "name": "I Love Pizza"}}, {"type": "node", "id": 10837861201, "lat": 57.8730134, "lon": 11.9684427, "tags": {"amenity": "restaurant", "cuisine": "japanese", "level": "1", "name": "Thehuset"}}, {"type": "node", "id": 10837861204, "lat": 57.8729323, "lon": 11.9684772, "tags": {"amenity": "restaurant", "cuisine": "seafood", "level": "1", "name": "Kung\u00e4lvs havsdelikatess"}}, {"type": "node", "id": 10837906016, "lat": 57.8732333, "lon": 11.9690357, "tags": {"amenity": "cafe", "name": "Tant Rut"}}, {"type": "node", "id": 10855806626, "lat": 58.0338302, "lon": 11.8307103, "tags": {"amenity": "cafe", "name": "Kullens G\u00e5rdscaf\u00e9"}}, {"type": "node", "id": 10858318934, "lat": 57.8693552, "lon": 11.9814362, "tags": {"addr:country": "SE", "addr:housenumber": "2", "addr:street": "S\u00f6dra gr\u00e4nden", "amenity": "restaurant", "check_date": "2023-12-01", "contact:email": "info@sofiathai.se", "cuisine": "thai", "entrance": "yes", "name": "Sofia Thai", "opening_hours": "Mo-Th 11:00-20:00; Fr 11:00-20:30 Sa-Su 12:00-20:30", "payment:credit_cards": "yes", "payment:debit_cards": "yes", "phone": "+46 303 13 11 1", "takeaway": "yes", "toilets": "yes", "website": "https://www.sofiathai.se/", "wheelchair": "yes"}}, {"type": "node", "id": 10876491753, "lat": 57.8778681, "lon": 11.9843819, "tags": {"amenity": "restaurant", "cuisine": "pizza;kebab;grill", "name": "Akropoli"}}, {"type": "node", "id": 10880902905, "lat": 57.8734385, "lon": 11.9788273, "tags": {"amenity": "bar", "check_date": "2023-05-09", "name": "The Champs"}}, {"type": "node", "id": 10934099247, "lat": 57.8745635, "lon": 11.9736536, "tags": {"amenity": "restaurant", "name": "Caf\u00e9 & Restaurang ICA Maxi Kung\u00e4lv", "wheelchair": "yes"}}, {"type": "node", "id": 10957555564, "lat": 57.8745075, "lon": 11.9752449, "tags": {"amenity": "restaurant", "check_date": "2023-06-05", "cuisine": "thai", "name": "Bangkok Kitchen"}}, {"type": "node", "id": 10965551603, "lat": 57.8664024, "lon": 11.9773137, "tags": {"amenity": "restaurant", "name": "\u00c4lvsmagasinet"}}, {"type": "node", "id": 10969262495, "lat": 57.8736631, "lon": 11.9706114, "tags": {"amenity": "restaurant", "name": "Mollys Glass & Bar"}}, {"type": "node", "id": 10978595929, "lat": 57.8823722, "lon": 12.006141, "tags": {"amenity": "restaurant", "name": "Trank\u00e4rrsg\u00e5rden"}}, {"type": "node", "id": 11018108158, "lat": 57.8734589, "lon": 11.969002, "tags": {"amenity": "restaurant", "check_date": "2023-07-01", "name": "Shoku"}}, {"type": "node", "id": 11112913605, "lat": 58.0753207, "lon": 11.834436, "tags": {"addr:country": "SE", "addr:housenumber": "1", "addr:postcode": "44440", "addr:street": "Mariav\u00e4gen", "amenity": "cafe", "cuisine": "breakfast;coffee_shop;diner;ice_cream;pancake;sandwich;tea", "email": "kommun@stenungsund.se", "name": "Mariag\u00e5rdens Tr\u00e4dg\u00e5rdscaf\u00e9", "name:en": "Mariagardens Garden Caf\u00e9", "opening_hours": "Tu-Sa 11:00-15:00", "phone": "0303-73 80 65", "website": "https://www.stenungsund.se/webbsidor/huvudmeny/upplevagora/kultur/mariagarden.4.43f21be11350e1f68ea8000114.html"}}, {"type": "node", "id": 11145766548, "lat": 58.066358, "lon": 11.8169489, "tags": {"amenity": "cafe", "cuisine": "bistro", "diet:vegan": "yes", "diet:vegetarian": "yes", "ice_cream": "yes", "indoor_seating": "yes", "internet_access": "wlan", "internet_access:ssid": "Stenungsund_Guest", "name": "Caf\u00e9 Fregatten", "outdoor_seating": "yes", "wheelchair": "yes"}}, {"type": "node", "id": 11178620311, "lat": 57.8552113, "lon": 11.9871202, "tags": {"amenity": "restaurant", "name": "R\u00f6dbo Grill"}}, {"type": "node", "id": 11232279610, "lat": 57.8706681, "lon": 11.9819332, "tags": {"amenity": "restaurant", "name": "Westra Porten"}}, {"type": "node", "id": 11245263535, "lat": 57.7681724, "lon": 11.9995827}, {"type": "node", "id": 11245263536, "lat": 57.7681637, "lon": 11.9996754}, {"type": "node", "id": 11245267653, "lat": 57.768272, "lon": 11.9996193}, {"type": "node", "id": 11245267654, "lat": 57.7685036, "lon": 11.9997038}, {"type": "node", "id": 11245267655, "lat": 57.7685455, "lon": 11.9997165}, {"type": "node", "id": 11247609488, "lat": 57.7942394, "lon": 11.9907373}, {"type": "node", "id": 11247609489, "lat": 57.7942392, "lon": 11.9905672}, {"type": "node", "id": 11247609490, "lat": 57.7941197, "lon": 11.9905705}, {"type": "node", "id": 11247609491, "lat": 57.794121, "lon": 11.9907396}, {"type": "node", "id": 11247666003, "lat": 57.7942452, "lon": 11.989241, "tags": {"addr:city": "Hisings K\u00e4rra", "addr:housenumber": "10", "addr:postcode": "425 34", "addr:street": "K\u00e4rra Centrum", "amenity": "cafe", "cuisine": "sandwich;cake", "name": "S\u00f6ta Moa"}}, {"type": "node", "id": 11247666005, "lat": 57.7942453, "lon": 11.9891154, "tags": {"addr:city": "Hisings K\u00e4rra", "addr:housenumber": "11", "addr:postcode": "425 34", "addr:street": "K\u00e4rra Centrum", "amenity": "restaurant", "cuisine": "pizza", "name": "K\u00e4rra Pizza & Grill", "opening_hours": "Mo-Fr 11:00-20:30; Sa-Su 12:00-20:30", "website": "https://www.karrapizza.se/"}}, {"type": "node", "id": 11409139997, "lat": 57.7501698, "lon": 11.6537176, "tags": {"amenity": "restaurant", "name": "Matjes"}}, {"type": "way", "id": 28315539, "nodes": [310942501, 310942503, 310942504, 310942502, 310942501], "tags": {"addr:city": "Hisings K\u00e4rra", "addr:country": "SE", "addr:housenumber": "66", "addr:postcode": "425 37", "addr:street": "Tagenev\u00e4gen", "amenity": "restaurant", "building": "yes", "lunch": "menu", "name": "K\u00e4rra V\u00e4rdshus", "opening_hours": "Mo-Fr 10:30-14:30", "phone": "+46733480859", "source": "survey", "takeaway": "yes", "website": "https://www.karravardshus.com/", "website:menu": "https://www.karravardshus.com/lunchmeny"}}, {"type": "way", "id": 161517592, "nodes": [1734961272, 1734961286, 1734961257, 1734961245, 1734961272], "tags": {"amenity": "cafe", "building": "yes", "name": "Bettans Cafe"}}, {"type": "way", "id": 164242215, "nodes": [1758891262, 5713146812, 1758891259, 1758891252, 1758891254, 3687784150, 1758891258, 1758891256, 3687784149, 1758891257, 1758891255, 1758891262], "tags": {"amenity": "restaurant", "building": "yes", "contact:email": "info@tjornbropark.com", "contact:fax": "+46304661942", "contact:phone": "+46304661545", "contact:website": "http://www.restaurangtjornbron.se/", "cuisine": "regional", "internet_access": "wlan", "name": "Restaurang Tj\u00f6rnbron", "toilets": "yes", "toilets:access": "yes"}}, {"type": "way", "id": 208328278, "nodes": [2186333935, 2186333932, 2186333931, 2186333933, 2186333935], "tags": {"amenity": "restaurant", "building": "yes", "contact:phone": "+46 303-891 33", "cuisine": "burger;sandwich", "name": "Utsikten Cafe & Resturang", "viewpoint": "yes"}}, {"type": "way", "id": 342401029, "nodes": [3494099810, 3494099815, 3494099798, 3494099793, 3494099810], "tags": {"amenity": "cafe", "building": "yes", "name": "Vadbinderiet", "outdoor_seating": "yes", "wheelchair": "limited"}}, {"type": "way", "id": 347249383, "nodes": [3536008913, 3536008916, 3536008898, 3536008895, 3536008913], "tags": {"amenity": "restaurant", "building": "yes", "name": "Tr\u00e5lverket"}}, {"type": "way", "id": 482692202, "nodes": [4754920839, 4754920836, 4754920837, 4754920838, 4754920830, 4754920831, 4754920839], "tags": {"amenity": "cafe", "building": "yes", "contact:website": "http://www.hallbarhalsa.nu/", "description": "G\u00e5rdsbutik", "description:da": "G\u00e5rdbutik", "description:de": "Hofladen", "description:en": "Farm Shop", "description:no": "G\u00e5rdsbutikk", "name": "H\u00e5llbar H\u00e4lsa", "shop": "farm"}}, {"type": "way", "id": 544182382, "nodes": [5260461540, 5260461539, 5260461538, 10267862975, 5260461540], "tags": {"addr:city": "Kung\u00e4lv", "addr:country": "SE", "addr:housenumber": "5", "addr:postcode": "442 32", "addr:street": "Nytorget", "amenity": "restaurant", "building": "commercial", "check_date": "2023-05-09", "cuisine": "thai", "name": "CCC Bangkok", "opening_hours": "Mo closed; Tu-Fr 11:00-20:00; Sa-Su 12:00-20:00", "phone": "+46 70 034 56 11", "website": "https://cccbangkok-thaimat.se"}}, {"type": "way", "id": 544382322, "nodes": [5262442365, 5262442366, 5262442367, 5262442368, 5262442365], "tags": {"amenity": "restaurant", "building": "yes"}}, {"type": "way", "id": 556877682, "nodes": [5371419376, 5371419373, 5371419374, 5371419375, 5371419376], "tags": {"amenity": "restaurant", "building": "yes", "check_date": "2023-04-22", "cuisine": "pizza", "name": "Ucklums pizzeria"}}, {"type": "way", "id": 562551174, "nodes": [2447311209, 5423027342, 5423027341, 5423027340, 2447311209], "tags": {"amenity": "restaurant", "building": "yes", "check_date": "2022-10-22", "cuisine": "thai", "name": "Lai-thai", "phone": "10547", "takeaway": "only"}}, {"type": "way", "id": 576916734, "nodes": [10650781519, 10650781518, 10650781517, 10650781516, 10650781515, 10650781514, 10650781513, 10650781512, 10650781511, 10650781510, 10650781509, 10650781508, 10650781507, 10650781506, 5532206723, 6096619388, 6096619389, 5532206726, 5532206724, 6096619391, 6096619390, 10650781520, 5532206725, 10650781505, 10650759504, 10650759503, 10650759502, 10650759501, 10650759500, 10650759499, 10650759498, 10650759497, 10650759496, 10650781519], "tags": {"amenity": "cafe", "building": "yes", "building:levels": "1", "cuisine": "coffee_shop;sandwich", "name": "Motionscentralen Kotten"}}, {"type": "way", "id": 1213778574, "nodes": [11245263535, 11245267653, 11245267654, 11245267655, 313087576, 11245263536, 11245263535], "tags": {"amenity": "restaurant", "building": "yes", "cuisine": "barbecue"}}, {"type": "way", "id": 1214005493, "nodes": [11247609488, 11247609489, 11247609490, 11247609491, 11247609488], "tags": {"amenity": "restaurant", "building": "yes", "cuisine": "sushi", "name": "Kato Sushi"}}]}