{"version": 0.6, "generator": "Overpass API 0.7.61.5 4133829e", "osm3s": {"timestamp_osm_base": "2024-03-08T21:11:44Z", "copyright": "The data included in this document is from www.openstreetmap.org. The data is made available under ODbL."}, "elements": [{"type": "node", "id": 287894649, "lat": 59.3199307, "lon": 14.5240804}, {"type": "node", "id": 305071077, "lat": 59.2725802, "lon": 15.2116392, "tags": {"amenity": "cafe", "name": "Vasa", "opening_hours": "Mo-Fr 06:45-19:00, Sa 07:00-17:00", "wheelchair": "limited"}}, {"type": "node", "id": 305071356, "lat": 59.2734904, "lon": 15.2133937, "tags": {"amenity": "restaurant", "name": "Slottsk\u00e4llaren"}}, {"type": "node", "id": 305071358, "lat": 59.2723295, "lon": 15.2098812, "tags": {"amenity": "restaurant", "name": "Wobbler", "wheelchair": "limited"}}, {"type": "node", "id": 475153508, "lat": 59.2699017, "lon": 15.1732454}, {"type": "node", "id": 528114294, "lat": 59.2725782, "lon": 15.2151402, "tags": {"amenity": "restaurant", "name": "Mingla", "wheelchair": "no"}}, {"type": "node", "id": 528122333, "lat": 59.2723981, "lon": 15.2165319, "tags": {"amenity": "cafe", "name": "Sveas", "wheelchair": "limited"}}, {"type": "node", "id": 543643026, "lat": 59.1733314, "lon": 14.8697779, "tags": {"amenity": "cafe", "name": "Bondkakan"}}, {"type": "node", "id": 554178487, "lat": 59.1827074, "lon": 14.8677996, "tags": {"amenity": "restaurant"}}, {"type": "node", "id": 688828239, "lat": 59.2714743, "lon": 15.2163963, "tags": {"amenity": "cafe", "name": "Sveas", "wheelchair": "yes"}}, {"type": "node", "id": 829519749, "lat": 59.2718907, "lon": 15.2208621, "tags": {"amenity": "cafe", "diet:vegetarian": "yes", "name": "Gr\u00f6na grodan", "opening_hours": "Mo-Fr 09:00-20:00; Sa,Su 11:00-20:00"}}, {"type": "node", "id": 829519758, "lat": 59.2727679, "lon": 15.2201325, "tags": {"amenity": "restaurant", "name": "Hamnmagasinet", "website": "https://www.hamnmagasinetorebro.se/"}}, {"type": "node", "id": 829519763, "lat": 59.2713062, "lon": 15.2182845, "tags": {"amenity": "bar", "name": "Watt", "wheelchair": "no"}}, {"type": "node", "id": 860560450, "lat": 59.279598, "lon": 15.2598051, "tags": {"amenity": "restaurant", "cuisine": "swedish", "name": "Caf\u00e9 Naturens Hus", "wheelchair": "yes"}}, {"type": "node", "id": 989937245, "lat": 59.1272104, "lon": 15.1396005, "tags": {"amenity": "bar", "name": "Hotellet", "wheelchair": "yes"}}, {"type": "node", "id": 1340568847, "lat": 59.2524386, "lon": 14.9583891, "tags": {"amenity": "restaurant", "cuisine": "pizza", "name": "Pizzeria Falken"}}, {"type": "node", "id": 1359898514, "lat": 59.3369565, "lon": 14.943206, "tags": {"addr:city": "Garphyttan", "addr:postcode": "719 41", "amenity": "restaurant", "cuisine": "regional", "name": "\u00c5nnaboda Storstensh\u00f6jden"}}, {"type": "node", "id": 1645060341, "lat": 59.3298405, "lon": 14.5435525}, {"type": "node", "id": 1645060342, "lat": 59.3298869, "lon": 14.5438127}, {"type": "node", "id": 1645060343, "lat": 59.3299969, "lon": 14.5437372}, {"type": "node", "id": 1645060344, "lat": 59.3300387, "lon": 14.5439709}, {"type": "node", "id": 1645060346, "lat": 59.3301089, "lon": 14.5437996}, {"type": "node", "id": 1645060347, "lat": 59.3301135, "lon": 14.5435021}, {"type": "node", "id": 1645060348, "lat": 59.3301285, "lon": 14.5439093}, {"type": "node", "id": 1645060349, "lat": 59.3301586, "lon": 14.5437655}, {"type": "node", "id": 1645060350, "lat": 59.3301773, "lon": 14.5438702}, {"type": "node", "id": 1645060351, "lat": 59.3301947, "lon": 14.5434464}, {"type": "node", "id": 1645060352, "lat": 59.3302602, "lon": 14.5438134}, {"type": "node", "id": 1647057269, "lat": 59.3258923, "lon": 14.5353496}, {"type": "node", "id": 1647057271, "lat": 59.3259058, "lon": 14.5354947}, {"type": "node", "id": 1647057276, "lat": 59.3261758, "lon": 14.5352484}, {"type": "node", "id": 1647057277, "lat": 59.3261893, "lon": 14.5353935}, {"type": "node", "id": 1659405480, "lat": 59.5185479, "lon": 15.039403, "tags": {"amenity": "cafe", "name": "Da Capo", "wheelchair": "yes"}}, {"type": "node", "id": 1659405485, "lat": 59.5185631, "lon": 15.0379387, "tags": {"amenity": "restaurant", "cuisine": "asian;thai", "indoor_seating": "yes", "name": "J&J Asian Restaurant", "outdoor_seating": "yes"}}, {"type": "node", "id": 1661356844, "lat": 59.3219637, "lon": 14.5311471}, {"type": "node", "id": 1661356852, "lat": 59.3221092, "lon": 14.5308557}, {"type": "node", "id": 1661356867, "lat": 59.3221343, "lon": 14.5310707}, {"type": "node", "id": 1661356924, "lat": 59.3219386, "lon": 14.5309321}, {"type": "node", "id": 1661356960, "lat": 59.3219535, "lon": 14.5310594}, {"type": "node", "id": 1673118933, "lat": 59.2466599, "lon": 15.167471, "tags": {"amenity": "restaurant", "cuisine": "pizza", "name": "Restaurang Parken"}}, {"type": "node", "id": 1696590616, "lat": 59.2598301, "lon": 15.2072396}, {"type": "node", "id": 1696590623, "lat": 59.2598659, "lon": 15.2070999}, {"type": "node", "id": 1696590637, "lat": 59.2598792, "lon": 15.2075769}, {"type": "node", "id": 1696590651, "lat": 59.2600081, "lon": 15.2070952}, {"type": "node", "id": 1696590655, "lat": 59.2600185, "lon": 15.2071355}, {"type": "node", "id": 1696590658, "lat": 59.2600319, "lon": 15.2071994}, {"type": "node", "id": 1696590662, "lat": 59.2600461, "lon": 15.2074755}, {"type": "node", "id": 1696590664, "lat": 59.2600555, "lon": 15.2073091}, {"type": "node", "id": 1696590678, "lat": 59.2600668, "lon": 15.2074592}, {"type": "node", "id": 1844513819, "lat": 59.5186509, "lon": 15.0414249, "tags": {"amenity": "restaurant", "name": "Nora Restaurang & Pub", "wheelchair": "yes"}}, {"type": "node", "id": 1861434599, "lat": 59.2701833, "lon": 15.1889096, "tags": {"amenity": "restaurant", "cuisine": "asian", "name": "Saigon", "website": "https://www.saigonexpress.se/", "wheelchair": "yes"}}, {"type": "node", "id": 1863490966, "lat": 59.2679593, "lon": 15.1771305, "tags": {"amenity": "restaurant", "name": "Restaurang Stubbengatan", "wheelchair": "limited", "wheelchair:description": "Tr\u00e5ng hk-toalett. 170x170 cm"}}, {"type": "node", "id": 1882567457, "lat": 59.2721925, "lon": 15.1982155, "tags": {"amenity": "restaurant", "cuisine": "pizza", "delivery": "yes", "name": "Pizzeria Tre Kronor", "website": "www.pizzatrekronor.se", "wheelchair": "no"}}, {"type": "node", "id": 1893517753, "lat": 59.2688781, "lon": 15.196941, "tags": {"amenity": "restaurant", "cuisine": "pizza", "delivery": "yes", "name": "Pizzabud Hawaii", "website": "https://www.pizzabudhawaii.se/", "wheelchair": "no"}}, {"type": "node", "id": 1895120075, "lat": 59.2671768, "lon": 15.1922304, "tags": {"amenity": "restaurant", "name": "Restaurang Montana", "website": "www.restaurang-montana.se", "wheelchair": "limited"}}, {"type": "node", "id": 1910319733, "lat": 59.2752502, "lon": 15.2194113}, {"type": "node", "id": 1910319759, "lat": 59.2752788, "lon": 15.2192925}, {"type": "node", "id": 1910319788, "lat": 59.2753568, "lon": 15.2195096}, {"type": "node", "id": 1910319801, "lat": 59.2753854, "lon": 15.2193908}, {"type": "node", "id": 1916700860, "lat": 59.2725079, "lon": 15.1762728, "tags": {"amenity": "restaurant", "name": "Mona Vera", "wheelchair": "limited", "wheelchair:description": "Tr\u00e5ng hk- toalett."}}, {"type": "node", "id": 1917480139, "lat": 59.270673, "lon": 15.1750144, "tags": {"amenity": "restaurant", "cuisine": "pizza", "name": "Pizzeria Vedugnen", "wheelchair": "no"}}, {"type": "node", "id": 1923573244, "lat": 59.1274439, "lon": 15.1429222, "tags": {"addr:city": "KUMLA", "addr:country": "SE", "addr:housenumber": "12", "addr:postcode": "692 30", "addr:street": "K\u00f6pmangatan", "amenity": "restaurant", "cuisine": "salad", "delivery": "yes", "name": "Fresh deli", "opening_hours": "Mo-Th 10:00-21:00;Fr 10:00-22:00;Sa 11:00-22:00;Su 11:00-21:00", "phone": "+46 19 57 04 60", "smoking": "outside", "takeaway": "yes"}}, {"type": "node", "id": 1923573249, "lat": 59.1273751, "lon": 15.142929, "tags": {"amenity": "restaurant", "cuisine": "sushi", "name": "New Tokyo Sushi & Thai", "opening_hours": "Mo-Fr 11:00-21:30; Sa-Su 12:00-21:30", "phone": "+46 19 56 00 80", "smoking": "outside", "takeaway": "yes"}}, {"type": "node", "id": 1923573253, "lat": 59.1274038, "lon": 15.1439831, "tags": {"addr:city": "Kumla", "addr:country": "SE", "addr:housenumber": "15", "addr:postcode": "692 30", "addr:street": "Tr\u00e4dg\u00e5rdsgatan", "amenity": "restaurant", "cuisine": "pizza", "delivery": "no", "name": "Restaurang Maestro", "phone": "+46 019570304", "smoking": "outside", "takeaway": "yes"}}, {"type": "node", "id": 1923574383, "lat": 59.1269466, "lon": 15.1440623, "tags": {"amenity": "cafe", "cuisine": "coffee_shop", "name": "Sveas Caf\u00e9", "smoking": "outside"}}, {"type": "node", "id": 1923675468, "lat": 59.1268907, "lon": 15.1423954, "tags": {"amenity": "restaurant", "cuisine": "pizza", "name": "Sv\u00e4ngen Pizzeria"}}, {"type": "node", "id": 1923675469, "lat": 59.1270173, "lon": 15.14894, "tags": {"amenity": "cafe", "cuisine": "coffee_shop", "name": "Caf\u00e9 till salu"}}, {"type": "node", "id": 1923675473, "lat": 59.1267227, "lon": 15.1358577, "tags": {"amenity": "restaurant", "cuisine": "pizza", "name": "Pizzeria Aramis"}}, {"type": "node", "id": 1923675475, "lat": 59.125969, "lon": 15.143114, "tags": {"amenity": "cafe", "smoking": "no"}}, {"type": "node", "id": 1924797794, "lat": 59.1256579, "lon": 15.1428564, "tags": {"amenity": "restaurant", "cuisine": "pizza", "delivery": "yes", "name": "Patricias", "smoking": "outside", "takeaway": "yes"}}, {"type": "node", "id": 1924797798, "lat": 59.1226555, "lon": 15.1439903, "tags": {"amenity": "restaurant", "cuisine": "pizza", "delivery": "yes", "name": "Pizzeria Canaria", "smoking": "no", "takeaway": "yes"}}, {"type": "node", "id": 1924797808, "lat": 59.1290429, "lon": 15.1441676, "tags": {"amenity": "restaurant", "cuisine": "pizza", "name": "Pizzeria Mona-Lisa"}}, {"type": "node", "id": 1924797822, "lat": 59.1248072, "lon": 15.1432795, "tags": {"amenity": "restaurant", "cuisine": "international", "delivery": "no", "name": "Restaurang Ceasar", "smoking": "outside", "takeaway": "yes"}}, {"type": "node", "id": 1924797826, "lat": 59.1253331, "lon": 15.1431729, "tags": {"amenity": "restaurant", "cuisine": "international", "delivery": "no", "name": "Restaurang Simone", "smoking": "no", "takeaway": "yes"}}, {"type": "node", "id": 1924801736, "lat": 59.1269044, "lon": 15.1430095, "tags": {"addr:city": "Kumla", "addr:country": "SE", "addr:housenumber": "5", "addr:postcode": "69230", "addr:street": "Hagendalsv\u00e4gen", "amenity": "cafe", "cuisine": "coffee_shop", "name": "Landals Konditori AB", "opening_hours": "Mo-Fr 09:00-17:00; Sa 10:00-14:00; Su off", "phone": "+46 19-56 09 90", "smoking": "no"}}, {"type": "node", "id": 1924801737, "lat": 59.1268456, "lon": 15.1461408, "tags": {"amenity": "restaurant", "cuisine": "italian", "name": "Stikkan\u00b4s Pasta"}}, {"type": "node", "id": 1924801738, "lat": 59.1275553, "lon": 15.1523351, "tags": {"amenity": "restaurant", "cuisine": "international", "name": "Henkas"}}, {"type": "node", "id": 1950505917, "lat": 59.1267807, "lon": 15.1441941, "tags": {"amenity": "restaurant", "cuisine": "pizza"}}, {"type": "node", "id": 1987563020, "lat": 59.269628, "lon": 15.1732886}, {"type": "node", "id": 1987563025, "lat": 59.2696369, "lon": 15.1733779}, {"type": "node", "id": 1987563028, "lat": 59.269649, "lon": 15.1733013}, {"type": "node", "id": 1987563034, "lat": 59.2696522, "lon": 15.1731347}, {"type": "node", "id": 1987563060, "lat": 59.2696732, "lon": 15.1731474}, {"type": "node", "id": 1987563064, "lat": 59.2696789, "lon": 15.1731112}, {"type": "node", "id": 1987563081, "lat": 59.2697223, "lon": 15.173461}, {"type": "node", "id": 1987563097, "lat": 59.2697268, "lon": 15.173432}, {"type": "node", "id": 1987563105, "lat": 59.2697465, "lon": 15.173152}, {"type": "node", "id": 1987563114, "lat": 59.2697538, "lon": 15.1731057}, {"type": "node", "id": 1987563118, "lat": 59.2697688, "lon": 15.1734891}, {"type": "node", "id": 1987563120, "lat": 59.2697767, "lon": 15.1734391}, {"type": "node", "id": 1987563135, "lat": 59.2698372, "lon": 15.1732066}, {"type": "node", "id": 1987563138, "lat": 59.2698445, "lon": 15.1731603}, {"type": "node", "id": 1987563142, "lat": 59.2698631, "lon": 15.1734911}, {"type": "node", "id": 2014208145, "lat": 59.2789071, "lon": 15.2045155, "tags": {"amenity": "restaurant", "cuisine": "pizza", "name": "Pizzeria Express", "wheelchair": "limited"}}, {"type": "node", "id": 2047048416, "lat": 59.518568, "lon": 15.0413243, "tags": {"entrance": "yes"}}, {"type": "node", "id": 2047048420, "lat": 59.5186778, "lon": 15.0415774}, {"type": "node", "id": 2047048422, "lat": 59.518826, "lon": 15.0415375}, {"type": "node", "id": 2049724332, "lat": 59.3300918, "lon": 14.5433801}, {"type": "node", "id": 2052969047, "lat": 59.5210607, "lon": 15.0329683, "tags": {"entrance": "yes"}}, {"type": "node", "id": 2053470488, "lat": 59.5189784, "lon": 15.0383037}, {"type": "node", "id": 2053470521, "lat": 59.5192, "lon": 15.0385204}, {"type": "node", "id": 2053470522, "lat": 59.519206, "lon": 15.0383309}, {"type": "node", "id": 2053502541, "lat": 59.2880486, "lon": 14.6804538}, {"type": "node", "id": 2053502546, "lat": 59.2881241, "lon": 14.6806729}, {"type": "node", "id": 2053502554, "lat": 59.2882226, "lon": 14.6805188}, {"type": "node", "id": 2053502556, "lat": 59.2882235, "lon": 14.680294}, {"type": "node", "id": 2053502557, "lat": 59.2882352, "lon": 14.6805714}, {"type": "node", "id": 2053502561, "lat": 59.2882674, "lon": 14.6804779}, {"type": "node", "id": 2057429648, "lat": 59.5195826, "lon": 15.0393342}, {"type": "node", "id": 2069629581, "lat": 59.5184955, "lon": 15.0395761}, {"type": "node", "id": 2069629583, "lat": 59.5184993, "lon": 15.0394397}, {"type": "node", "id": 2069629584, "lat": 59.51852, "lon": 15.0394272}, {"type": "node", "id": 2069629595, "lat": 59.5185793, "lon": 15.0395853}, {"type": "node", "id": 2069629597, "lat": 59.5185836, "lon": 15.0394341}, {"type": "node", "id": 2269286665, "lat": 59.266706, "lon": 15.2088398, "tags": {"addr:city": "\u00d6rebro", "addr:country": "SE", "addr:housenumber": "26", "addr:postcode": "702 24", "addr:street": "\u00c4nggatan", "amenity": "restaurant", "cuisine": "pizza;kebab;gyro", "delivery": "yes", "name": "Pizza Time", "phone": "+46 19-6111413", "website": "https://www.pizza-time.se/", "wheelchair": "no", "wheelchair:description": "Trappsteg vid entr\u00e9 >7 cm, smal d\u00f6rr, ingen hk-toalett"}}, {"type": "node", "id": 2269702380, "lat": 59.2715339, "lon": 15.2126208, "tags": {"addr:city": "\u00d6rebro", "addr:street": "K\u00f6pmangatan", "amenity": "restaurant", "name": "Lilla \u00d6rebro", "wheelchair": "no", "wheelchair:description": "Om\u00f6jligt att komma in med rullstol!"}}, {"type": "node", "id": 2269707810, "lat": 59.2717393, "lon": 15.2127886, "tags": {"addr:city": "\u00d6rebro", "addr:street": "K\u00f6pmangatan/Stortorget", "amenity": "restaurant", "name": "Stora \u00d6rebro", "toilets:wheelchair": "yes", "wheelchair": "limited", "wheelchair:description": "Rullstolsentr\u00e9 via s\u00e4rskild ing\u00e5ng"}}, {"type": "node", "id": 2270487329, "lat": 59.2686335, "lon": 15.2086737, "tags": {"addr:city": "\u00d6rebro", "addr:country": "SE", "addr:housenumber": "40B", "addr:street": "Drottninggatan", "amenity": "restaurant", "name": "Royal Arms", "wheelchair": "yes"}}, {"type": "node", "id": 2270490008, "lat": 59.2686214, "lon": 15.2105961, "tags": {"addr:city": "\u00d6rebro", "addr:country": "SE", "addr:housenumber": "29", "addr:street": "K\u00f6pmangatan", "amenity": "restaurant", "cuisine": "sushi", "name": "Sushi Bar", "wheelchair": "no"}}, {"type": "node", "id": 2270658213, "lat": 59.2689841, "lon": 15.211637, "tags": {"addr:city": "\u00d6rebro", "addr:country": "SE", "addr:housenumber": "28", "addr:postcode": "702 23", "addr:street": "Rudbecksgatan", "amenity": "restaurant", "name": "Efesos", "phone": "+46 19 6116615", "website": "https://efesos.se/", "wheelchair": "limited", "wheelchair:description": "Ing\u00e5ng f\u00f6r rullstol via bakv\u00e4g."}}, {"type": "node", "id": 2272650827, "lat": 59.2675795, "lon": 15.2069705, "tags": {"amenity": "restaurant", "name": "Shanghai", "wheelchair": "limited", "wheelchair:description": "Tr\u00e5ng entr\u00e9 till hk-toalett."}}, {"type": "node", "id": 2272662318, "lat": 59.2690845, "lon": 15.2131871, "tags": {"amenity": "restaurant", "cuisine": "pizza", "name": "Kungen", "wheelchair": "no"}}, {"type": "node", "id": 2272670173, "lat": 59.2709379, "lon": 15.2146646, "tags": {"amenity": "cafe", "name": "Java", "wheelchair": "limited", "wheelchair:description": "Mycket liten och tr\u00e5ng hk-toalett"}}, {"type": "node", "id": 2273837978, "lat": 59.2685068, "lon": 15.212199, "tags": {"addr:city": "\u00d6rebro", "addr:country": "SE", "addr:housenumber": "26", "addr:postcode": "702 24", "addr:street": "Kungsgatan", "amenity": "restaurant", "name": "Karishma", "phone": "+46 19 101208", "website": "http://www.karishma.se/", "wheelchair": "limited"}}, {"type": "node", "id": 2274386437, "lat": 59.2653111, "lon": 15.1650807, "tags": {"amenity": "restaurant", "name": "Bista restaurang & kolgrill"}}, {"type": "node", "id": 2274386438, "lat": 59.2658157, "lon": 15.1709207, "tags": {"amenity": "restaurant", "name": "Wild West Steakhouse", "opening_hours:covid19": "closed", "website": "https://www.wildwest.se/"}}, {"type": "node", "id": 2275115962, "lat": 59.267398, "lon": 15.2074185, "tags": {"addr:city": "\u00d6rebro", "addr:country": "SE", "addr:housenumber": "41", "addr:postcode": "702 22", "addr:street": "Drottninggatan", "amenity": "restaurant", "name": "al Forno Italiano", "phone": "+46 19 106710", "website": "https://alforno.se/", "wheelchair": "yes", "wheelchair:description": "2013-04-24 Handtag saknas vid toastolen, RWC-symbol saknas. Skall \u00e5tg\u00e4rdas snarast."}}, {"type": "node", "id": 2275895179, "lat": 59.2711388, "lon": 15.2155798, "tags": {"addr:city": "\u00d6rebro", "addr:country": "SE", "addr:housenumber": "14", "addr:postcode": "702 11", "addr:street": "Stortorget", "amenity": "restaurant", "name": "Satin", "phone": "+46 19 185550", "website": "http://www.satin.nu", "wheelchair": "no", "wheelchair:description": "Trappsteg vid entr\u00e9n ca 12 cm.Tr\u00e5ng hk-toalett."}}, {"type": "node", "id": 2275913053, "lat": 59.2710678, "lon": 15.2159263, "tags": {"addr:city": "\u00d6rebro", "addr:country": "SE", "addr:housenumber": "16", "addr:street": "Stortorget", "amenity": "restaurant", "cuisine": "asian", "name": "Mii Soo", "opening_hours": "Mo-Fr 11:00-22:00+; Sa 12:00-22:00+", "wheelchair": "no"}}, {"type": "node", "id": 2275917421, "lat": 59.2709775, "lon": 15.216337, "tags": {"addr:city": "\u00d6rebro", "addr:country": "SE", "addr:housenumber": "16", "addr:street": "Stortorget", "amenity": "restaurant", "name": "1 rum & k\u00f6k", "wheelchair": "no"}}, {"type": "node", "id": 2275925581, "lat": 59.2718183, "lon": 15.2187149, "tags": {"addr:city": "\u00d6rebro", "addr:country": "SE", "addr:housenumber": "3 A", "addr:postcode": "702 12", "addr:street": "Tr\u00e4dg\u00e5rdsgatan", "amenity": "restaurant", "diet:vegetarian": "yes", "name": "Pizzeria Mamma Mia", "opening_hours": "Mo-Th 11:00-21:00; Fr,Sa 11:00-22:00; Su 11:00-21:00", "phone": "+46 19 108810", "website": "https://mammamiapizzeria.se/", "wheelchair": "yes"}}, {"type": "node", "id": 2275947392, "lat": 59.2732265, "lon": 15.2129361, "tags": {"addr:city": "\u00d6rebro", "addr:country": "SE", "addr:housenumber": "1", "addr:street": "Drottninggatan", "amenity": "cafe", "name": "Paolo's", "wheelchair": "limited"}}, {"type": "node", "id": 2275974329, "lat": 59.2726191, "lon": 15.2119568, "tags": {"addr:city": "\u00d6rebro", "addr:country": "SE", "addr:housenumber": "14", "addr:postcode": "702 10", "addr:street": "Drottninggatan", "amenity": "restaurant", "name": "Hellas", "phone": "+46 19 125451", "website": "http://www.rst-hellas.se", "wheelchair": "yes"}}, {"type": "node", "id": 2275979386, "lat": 59.271383, "lon": 15.2115356, "tags": {"addr:city": "\u00d6rebro", "addr:country": "SE", "addr:housenumber": "15", "addr:street": "Drottninggatan", "amenity": "restaurant", "name": "Kina Muren", "wheelchair": "no", "wheelchair:description": "L\u00e5ng trappa till restaurangen. Hiss saknas."}}, {"type": "node", "id": 2276005629, "lat": 59.269955, "lon": 15.2108023, "tags": {"amenity": "restaurant", "name": "Din\u00e9 Burgers", "wheelchair": "limited"}}, {"type": "node", "id": 2276037539, "lat": 59.2723149, "lon": 15.2174131, "tags": {"addr:city": "\u00d6rebro", "addr:country": "SE", "addr:housenumber": "20", "addr:postcode": "702 12", "addr:street": "Engelbrektsgatan", "amenity": "restaurant", "name": "Ingeborgs", "phone": "+46 19 272712", "website": "http://www.ingeborgsiorebro.se", "wheelchair": "no"}}, {"type": "node", "id": 2276049401, "lat": 59.2696153, "lon": 15.2088239, "tags": {"addr:city": "\u00d6rebro", "addr:country": "SE", "addr:housenumber": "18", "addr:postcode": "702 23", "addr:street": "Rudbecksgatan", "amenity": "restaurant", "name": "Saigon", "phone": "+46 10 100875", "website": "https://www.saigonexpress.se/", "wheelchair": "yes"}}, {"type": "node", "id": 2276070028, "lat": 59.2699805, "lon": 15.2113547, "tags": {"addr:city": "\u00d6rebro", "addr:country": "SE", "addr:housenumber": "18-24", "addr:postcode": "702 10", "addr:street": "K\u00f6pmangatan", "amenity": "cafe", "name": "Bara Vara", "phone": "+46 19 107832", "website": "http://www.baravara.net", "wheelchair": "no"}}, {"type": "node", "id": 2277690912, "lat": 59.2695489, "lon": 15.2091415, "tags": {"addr:city": "\u00d6rebro", "addr:country": "SE", "addr:housenumber": "20", "addr:postcode": "702 11", "addr:street": "Rudbecksgatan", "amenity": "restaurant", "name": "Maxim", "phone": "+46 19 6090590", "website": "https://gastrogate.com/restaurang/restaurangmaxim/", "wheelchair": "no"}}, {"type": "node", "id": 2277698892, "lat": 59.2685526, "lon": 15.2100099, "tags": {"addr:city": "\u00d6rebro", "addr:country": "SE", "addr:housenumber": "36", "addr:street": "K\u00f6pmangatan", "amenity": "restaurant", "name": "Barbeque Village", "wheelchair": "no"}}, {"type": "node", "id": 2278401897, "lat": 59.271551, "lon": 15.213648, "tags": {"addr:city": "\u00d6rebro", "addr:country": "SE", "addr:housenumber": "8", "addr:street": "Stortorget", "amenity": "restaurant", "cuisine": "sushi", "name": "Sushi Yama", "opening_hours": "Mo-We 11:00-21:00, Th-Sa 11:00-22:00, Su 12:00-22:00", "wheelchair": "yes"}}, {"type": "node", "id": 2279654276, "lat": 59.268281, "lon": 15.2064574, "tags": {"amenity": "restaurant", "name": "Indigo", "wheelchair": "no"}}, {"type": "node", "id": 2281024860, "lat": 59.2705081, "lon": 15.2147666, "tags": {"addr:city": "\u00d6rebro", "addr:country": "SE", "addr:housenumber": "15", "addr:street": "Kungsgatan (\u00d6rebro Saluhall)", "amenity": "restaurant", "cuisine": "sushi", "name": "Orshi", "wheelchair": "limited"}}, {"type": "node", "id": 2281041739, "lat": 59.2721208, "lon": 15.2134583, "tags": {"addr:city": "\u00d6rebro", "addr:country": "SE", "addr:housenumber": "5\u00d6", "addr:street": "K\u00f6pmangatan", "amenity": "cafe", "brand": "Espresso House", "brand:wikidata": "Q10489162", "brand:wikipedia": "en:Espresso House", "cuisine": "coffee_shop", "name": "Espresso House", "takeaway": "yes", "wheelchair": "limited"}}, {"type": "node", "id": 2283144424, "lat": 59.2717519, "lon": 15.2148852, "tags": {"addr:city": "\u00d6rebro", "addr:country": "SE", "addr:housenumber": "7-9", "addr:street": "Stortorget", "amenity": "restaurant", "cuisine": "italian", "name": "Cucina Italiana", "wheelchair": "yes"}}, {"type": "node", "id": 2283160460, "lat": 59.2734456, "lon": 15.21206, "tags": {"addr:city": "\u00d6rebro", "addr:country": "SE", "addr:housenumber": "3", "addr:street": "\u00c5gatan", "amenity": "restaurant", "name": "Kitchenette", "website": "https://kitchenette.se/"}}, {"type": "node", "id": 2284233692, "lat": 59.2692666, "lon": 15.2090795, "tags": {"addr:city": "\u00d6rebro", "addr:country": "SE", "addr:housenumber": "38", "addr:postcode": "702 22", "addr:street": "Drottninggatan", "amenity": "restaurant", "name": "Pinchos", "wheelchair": "limited"}}, {"type": "node", "id": 2284235816, "lat": 59.2691987, "lon": 15.2088413, "tags": {"addr:city": "\u00d6rebro", "addr:country": "SE", "addr:housenumber": "2", "addr:postcode": "702 23", "addr:street": "N\u00e4bbtorgsgatan", "amenity": "restaurant", "name": "Lokus", "phone": "+46 19 123964", "website": "http://www.lokus.nu/", "wheelchair": "limited", "wheelchair:description": "Hk-toalett saknas"}}, {"type": "node", "id": 2284741856, "lat": 59.2676257, "lon": 15.2079737, "tags": {"addr:city": "\u00d6rebro", "addr:country": "SE", "addr:housenumber": "39", "addr:street": "Drottninggatan", "amenity": "restaurant", "name": "Erbil", "wheelchair": "no"}}, {"type": "node", "id": 2284754933, "lat": 59.2670832, "lon": 15.2065425, "tags": {"addr:city": "\u00d6rebro", "addr:country": "SE", "addr:housenumber": "45", "addr:postcode": "702 22", "addr:street": "Drottninggatan", "amenity": "cafe", "name": "Terazza", "wheelchair": "limited"}}, {"type": "node", "id": 2295722790, "lat": 59.2724603, "lon": 15.2133972, "tags": {"addr:city": "\u00d6rebro", "addr:country": "SE", "addr:housenumber": "6", "addr:postcode": "702 10", "addr:street": "K\u00f6pmangatan", "amenity": "restaurant", "name": "Palette", "phone": "+46 19 6111446", "wheelchair": "no"}}, {"type": "node", "id": 2295905172, "lat": 59.2701049, "lon": 15.208378, "tags": {"addr:city": "\u00d6rebro", "addr:country": "SE", "addr:housenumber": "26", "addr:postcode": "702 10", "addr:street": "Kyrkogatan", "amenity": "cafe", "name": "Cahara Piercing caf\u00e9", "phone": "+46 19 182221", "wheelchair": "limited"}}, {"type": "node", "id": 2295920292, "lat": 59.2751816, "lon": 15.2123201, "tags": {"addr:city": "\u00d6rebro", "addr:street": "J\u00e4rntorget", "amenity": "restaurant", "name": "Dannes", "wheelchair": "limited"}}, {"type": "node", "id": 2295926234, "lat": 59.2749329, "lon": 15.2126432, "tags": {"addr:city": "\u00d6rebro", "addr:country": "SE", "addr:housenumber": "6", "addr:postcode": "703 61", "addr:street": "J\u00e4rntorgsgatan", "amenity": "restaurant", "cuisine": "armenian", "name": "Yerevan Mangal", "phone": "+46 19 127710", "wheelchair": "limited"}}, {"type": "node", "id": 2295932457, "lat": 59.2757439, "lon": 15.2127194, "tags": {"addr:city": "\u00d6rebro", "addr:country": "SE", "addr:housenumber": "11", "addr:postcode": "703 61", "addr:street": "Olaigatan", "amenity": "restaurant", "name": "Art Bar", "website": "https://www.artbar.nu", "wheelchair": "no"}}, {"type": "node", "id": 2295943711, "lat": 59.2755422, "lon": 15.2136609, "tags": {"addr:city": "\u00d6rebro", "addr:country": "SE", "addr:housenumber": "13 A", "addr:postcode": "703 61", "addr:street": "Olaigatan", "amenity": "restaurant", "name": "Paco's", "opening_hours": "Mo-Th 11:00-21:00; Sa 12:00-22:00; Su 14:00-20:00; Fr 11:00-23:00", "phone": "+46 73 7220641", "wheelchair": "no"}}, {"type": "node", "id": 2295947756, "lat": 59.2766478, "lon": 15.2143882, "tags": {"addr:city": "\u00d6rebro", "addr:country": "SE", "addr:housenumber": "12B", "addr:postcode": "703 61", "addr:street": "Gamla gatan", "amenity": "restaurant", "name": "Fattoush", "wheelchair": "limited", "wheelchair:description": "En avdelning upph\u00f6jd."}}, {"type": "node", "id": 2295957379, "lat": 59.2762067, "lon": 15.214936, "tags": {"addr:city": "\u00d6rebro", "addr:country": "SE", "addr:housenumber": "13", "addr:postcode": "703 61", "addr:street": "Storgatan", "amenity": "restaurant", "name": "Coco Thai", "not:brand:wikidata": "Q65084369", "phone": "+46 19 128868", "website": "http://cocothai.homestead.com/", "wheelchair": "no"}}, {"type": "node", "id": 2295965615, "lat": 59.275428, "lon": 15.2143478, "tags": {"addr:city": "\u00d6rebro", "addr:country": "SE", "addr:housenumber": "5", "addr:postcode": "703 61", "addr:street": "Storgatan", "amenity": "restaurant", "cuisine": "italian", "name": "Sapore", "payment:credit_cards": "yes", "payment:debit_cards": "yes", "phone": "+4619-14 14 10", "smoking": "no", "website": "https://www.ilsapore.se/", "wheelchair": "yes"}}, {"type": "node", "id": 2295969761, "lat": 59.2752622, "lon": 15.2150116, "tags": {"addr:city": "\u00d6rebro", "addr:country": "SE", "addr:housenumber": "17A", "addr:postcode": "703 61", "addr:street": "Olaigatan", "amenity": "cafe", "name": "H\u00e4lls", "phone": "+46 19 6110048", "website": "https://www.hallskonditori.se/", "wheelchair": "no"}}, {"type": "node", "id": 2295973786, "lat": 59.2751256, "lon": 15.2157066, "tags": {"addr:city": "\u00d6rebro", "addr:country": "SE", "addr:housenumber": "19", "addr:postcode": "703 61", "addr:street": "Olaigatan", "amenity": "restaurant", "name": "Wongs", "phone": "+46 19 6111840", "website": "https://www.wongs.se/", "wheelchair": "no"}}, {"type": "node", "id": 2295985793, "lat": 59.2762995, "lon": 15.2164453, "tags": {"addr:city": "\u00d6rebro", "addr:country": "SE", "addr:housenumber": "18", "addr:postcode": "703 62", "addr:street": "Fredsgatan", "amenity": "restaurant", "cuisine": "pizza", "name": "Bagdad", "phone": "+46 19 127730", "wheelchair": "limited"}}, {"type": "node", "id": 2295992453, "lat": 59.2766256, "lon": 15.2158127, "tags": {"addr:city": "\u00d6rebro", "addr:country": "SE", "addr:housenumber": "18", "addr:street": "Storgatan", "amenity": "restaurant", "name": "Storgatan 18", "wheelchair": "no"}}, {"type": "node", "id": 2296012755, "lat": 59.2692785, "lon": 15.2102457, "tags": {"addr:city": "\u00d6rebro", "addr:country": "SE", "addr:housenumber": "27", "addr:postcode": "702 22", "addr:street": "Drottninggatan", "addr:unit": "Kr\u00e4maren", "amenity": "restaurant", "name": "Creperiet", "phone": "+4672-222 53 73", "website": "https://www.creperiet.se/", "wheelchair": "yes"}}, {"type": "node", "id": 2319235178, "lat": 59.2706454, "lon": 15.2062944, "tags": {"amenity": "restaurant", "cuisine": "lebanese", "name": "Meza"}}, {"type": "node", "id": 2324418995, "lat": 59.2618331, "lon": 15.196005, "tags": {"amenity": "restaurant", "contact:website": "http://sodravattentornet.se", "name": "S\u00f6dra Vattentornet"}}, {"type": "node", "id": 2324423436, "lat": 59.2666811, "lon": 15.2227861, "tags": {"addr:city": "\u00d6rebro", "addr:country": "SE", "addr:housenumber": "52C", "addr:postcode": "702 23", "addr:street": "Rudbecksgatan", "amenity": "restaurant", "name": "4e v\u00e5ningen", "phone": "+46 19 611 44 70", "website": "https://www.4evaningen.se/", "wheelchair": "limited", "wheelchair:description": "Vissa bord upph\u00f6jda p\u00e5 podium"}}, {"type": "node", "id": 2326182304, "lat": 59.2720588, "lon": 15.2091428, "tags": {"amenity": "bar", "name": "Ritz / Niv\u00e5"}}, {"type": "node", "id": 2329017463, "lat": 59.2727288, "lon": 15.2109245, "tags": {"amenity": "cafe", "name": "Lill-Annas", "website": "http://lill-anna.se", "wheelchair": "no"}}, {"type": "node", "id": 2338535432, "lat": 59.2715279, "lon": 15.2138396, "tags": {"addr:city": "\u00d6rebro", "addr:country": "SE", "addr:housenumber": "8", "addr:postcode": "702 11", "addr:street": "Stortorget", "amenity": "restaurant", "cuisine": "italian", "name": "Fratelli"}}, {"type": "node", "id": 2338535439, "lat": 59.2716332, "lon": 15.213262, "tags": {"amenity": "restaurant", "cuisine": "mexican", "name": "Taco Bar", "wheelchair": "no"}}, {"type": "node", "id": 2360919602, "lat": 59.2758462, "lon": 15.2074711, "tags": {"amenity": "restaurant", "cuisine": "steak_house", "name": "La Pampa"}}, {"type": "node", "id": 2360919604, "lat": 59.2782878, "lon": 15.1963067, "tags": {"amenity": "restaurant", "cuisine": "pizza", "name": "Rulles pizzeria", "opening_hours": "Mo-Su 11:00-21:30"}}, {"type": "node", "id": 2360919635, "lat": 59.2453711, "lon": 15.1695119}, {"type": "node", "id": 2360919637, "lat": 59.2454009, "lon": 15.1690795}, {"type": "node", "id": 2360919642, "lat": 59.2455486, "lon": 15.169064}, {"type": "node", "id": 2360919644, "lat": 59.2455813, "lon": 15.169541}, {"type": "node", "id": 2360919646, "lat": 59.2456021, "lon": 15.1687867}, {"type": "node", "id": 2360919647, "lat": 59.2456339, "lon": 15.1692908}, {"type": "node", "id": 2360919654, "lat": 59.2457816, "lon": 15.1692501}, {"type": "node", "id": 2360919656, "lat": 59.2457984, "lon": 15.1688817}, {"type": "node", "id": 2360919822, "lat": 59.2763701, "lon": 15.209641, "tags": {"amenity": "cafe", "name": "Coffee Central"}}, {"type": "node", "id": 2362309046, "lat": 59.2804208, "lon": 15.2049931, "tags": {"amenity": "restaurant", "cuisine": "pizza", "name": "Nobel"}}, {"type": "node", "id": 2370511523, "lat": 59.125534, "lon": 15.2533966}, {"type": "node", "id": 2370511525, "lat": 59.1255561, "lon": 15.2534491}, {"type": "node", "id": 2370511526, "lat": 59.1255701, "lon": 15.2534268}, {"type": "node", "id": 2370511530, "lat": 59.1255962, "lon": 15.2534889}, {"type": "node", "id": 2370511531, "lat": 59.1255996, "lon": 15.2533796}, {"type": "node", "id": 2370511533, "lat": 59.1256017, "lon": 15.2532885}, {"type": "node", "id": 2370511534, "lat": 59.1256238, "lon": 15.253341}, {"type": "node", "id": 2370511535, "lat": 59.1256257, "lon": 15.2534418}, {"type": "node", "id": 2378746807, "lat": 59.2728227, "lon": 15.2159919, "tags": {"amenity": "bar", "name": "Villa Str\u00f6mpis"}}, {"type": "node", "id": 2385464652, "lat": 59.2722044, "lon": 15.2164358, "tags": {"addr:city": "\u00d6rebro", "amenity": "restaurant", "name": "Gro Stallbacken", "wheelchair": "no", "wheelchair:description": "H\u00f6g tr\u00f6skel!"}}, {"type": "node", "id": 2389966841, "lat": 59.2725216, "lon": 15.231641, "tags": {"amenity": "cafe", "check_date": "2023-04-13", "name": "Wadk\u00f6pings Handelsbod"}}, {"type": "node", "id": 2389966863, "lat": 59.2728117, "lon": 15.2263503, "tags": {"amenity": "cafe"}}, {"type": "node", "id": 2390492776, "lat": 59.27163, "lon": 15.2253938, "tags": {"addr:city": "\u00d6rebro", "addr:country": "SE", "addr:housenumber": "1", "addr:street": "Floragatan", "alt_name": "Stadstr\u00e4dg\u00e5rden Restaurang & Caf\u00e9", "amenity": "restaurant", "name": "Stadstr\u00e4dg\u00e5rden", "phone": "+46 19-139835"}}, {"type": "node", "id": 2390492787, "lat": 59.2717623, "lon": 15.2251048, "tags": {"amenity": "cafe", "name": "Stadstr\u00e4dg\u00e5rden caf\u00e9et", "opening_hours": "Mo-Su 11:00-17:00"}}, {"type": "node", "id": 2392182046, "lat": 59.2741659, "lon": 15.2099714, "tags": {"amenity": "bar", "name": "Frimis"}}, {"type": "node", "id": 2401898197, "lat": 59.2706814, "lon": 15.2109242, "tags": {"amenity": "restaurant", "name": "La Brasserie"}}, {"type": "node", "id": 2414736574, "lat": 59.2720379, "lon": 15.2163721, "tags": {"amenity": "restaurant", "cuisine": "italian", "name": "Amano"}}, {"type": "node", "id": 2419288911, "lat": 59.2716013, "lon": 15.2157505, "tags": {"amenity": "bar", "name": "Sorella"}}, {"type": "node", "id": 2440674903, "lat": 59.5189751, "lon": 15.0434736, "tags": {"amenity": "cafe", "name": "Strandstugan", "outdoor_seating": "yes", "payment:cards": "yes", "payment:contactless": "yes"}}, {"type": "node", "id": 2459030561, "lat": 59.272528, "lon": 15.2154022, "tags": {"amenity": "restaurant", "name": "Buono Bistro"}}, {"type": "node", "id": 2513877782, "lat": 59.2880799, "lon": 14.6805855}, {"type": "node", "id": 2513877783, "lat": 59.2880991, "lon": 14.680568}, {"type": "node", "id": 2535703776, "lat": 59.2770162, "lon": 15.2161347, "tags": {"addr:city": "\u00d6rebro", "addr:country": "SE", "addr:housenumber": "22a", "addr:postcode": "703 61", "addr:street": "Storgatan", "amenity": "cafe", "name": "Suryana"}}, {"type": "node", "id": 2541382345, "lat": 59.2395551, "lon": 15.1619131}, {"type": "node", "id": 2541382347, "lat": 59.2395607, "lon": 15.1616852}, {"type": "node", "id": 2541382349, "lat": 59.2396736, "lon": 15.1619241}, {"type": "node", "id": 2541382351, "lat": 59.2396791, "lon": 15.1616962}, {"type": "node", "id": 2561020469, "lat": 59.4409666, "lon": 15.1423022}, {"type": "node", "id": 2561020470, "lat": 59.4409866, "lon": 15.1420639}, {"type": "node", "id": 2561020473, "lat": 59.4411457, "lon": 15.1423602}, {"type": "node", "id": 2561020474, "lat": 59.4411656, "lon": 15.1421219}, {"type": "node", "id": 2566027062, "lat": 59.2164656, "lon": 15.137566}, {"type": "node", "id": 2566027066, "lat": 59.2165346, "lon": 15.137073}, {"type": "node", "id": 2570745664, "lat": 59.1380689, "lon": 15.3451097}, {"type": "node", "id": 2570745665, "lat": 59.1380704, "lon": 15.3454341}, {"type": "node", "id": 2574069924, "lat": 59.3263386, "lon": 14.5230815, "tags": {"amenity": "restaurant", "name": "Daisuke"}}, {"type": "node", "id": 2582183373, "lat": 59.325186, "lon": 14.5163316}, {"type": "node", "id": 2582183375, "lat": 59.3251964, "lon": 14.5165309}, {"type": "node", "id": 2582183386, "lat": 59.3253799, "lon": 14.5162929}, {"type": "node", "id": 2582183388, "lat": 59.3253903, "lon": 14.5164922}, {"type": "node", "id": 2602136835, "lat": 59.2447527, "lon": 15.2191827}, {"type": "node", "id": 2602136845, "lat": 59.2431823, "lon": 15.2175797}, {"type": "node", "id": 2602136847, "lat": 59.2429712, "lon": 15.2186962}, {"type": "node", "id": 2602136849, "lat": 59.2438099, "lon": 15.2200096}, {"type": "node", "id": 2602136851, "lat": 59.2437661, "lon": 15.2203743}, {"type": "node", "id": 2602136853, "lat": 59.2438209, "lon": 15.2204387}, {"type": "node", "id": 2602136855, "lat": 59.2439765, "lon": 15.2206005}, {"type": "node", "id": 2602136857, "lat": 59.2443443, "lon": 15.2197974}, {"type": "node", "id": 2602136870, "lat": 59.2445297, "lon": 15.2195917}, {"type": "node", "id": 2602136873, "lat": 59.2435514, "lon": 15.217909}, {"type": "node", "id": 2602136875, "lat": 59.2440448, "lon": 15.2184056}, {"type": "node", "id": 2602136878, "lat": 59.2442887, "lon": 15.2187056}, {"type": "node", "id": 2612476382, "lat": 59.3256559, "lon": 14.5158027, "tags": {"amenity": "restaurant", "cuisine": "asian", "name": "Viet Dragon"}}, {"type": "node", "id": 2661143521, "lat": 59.257412, "lon": 15.2186845, "tags": {"amenity": "restaurant", "name": "Mr Gusto"}}, {"type": "node", "id": 2664231403, "lat": 59.3189797, "lon": 14.5002407}, {"type": "node", "id": 2664231405, "lat": 59.3189918, "lon": 14.5001258}, {"type": "node", "id": 2664231407, "lat": 59.3190496, "lon": 14.5002689}, {"type": "node", "id": 2664231409, "lat": 59.3190617, "lon": 14.5001541}, {"type": "node", "id": 2668352736, "lat": 59.2444697, "lon": 15.2189809}, {"type": "node", "id": 2668352738, "lat": 59.2445596, "lon": 15.2194144}, {"type": "node", "id": 2668352741, "lat": 59.2447109, "lon": 15.2193735}, {"type": "node", "id": 2671488821, "lat": 59.2997772, "lon": 14.9554737, "tags": {"amenity": "cafe"}}, {"type": "node", "id": 2671488859, "lat": 59.3078628, "lon": 14.9401208, "tags": {"amenity": "restaurant", "cuisine": "pizza", "name": "Pizzeria Garpen"}}, {"type": "node", "id": 2671488863, "lat": 59.3085747, "lon": 14.9416443, "tags": {"amenity": "restaurant", "cuisine": "regional", "name": "Slottsbacken"}}, {"type": "node", "id": 2672151673, "lat": 59.2685323, "lon": 15.209228, "tags": {"addr:country": "SE", "addr:housenumber": "29", "addr:postcode": "702 22", "addr:street": "Drottninggatan", "amenity": "restaurant", "cuisine": "sushi", "name": "Sushi Yama", "opening_hours": "Mo-Sa 10:00-20:00, Su 11:00-20:00", "phone": "+46 19 202 400", "website": "https://www.sushiyama.se"}}, {"type": "node", "id": 2672553920, "lat": 59.2688889, "lon": 15.2100639, "tags": {"amenity": "cafe", "name": "L'espresso"}}, {"type": "node", "id": 2684202296, "lat": 59.2699321, "lon": 15.2074389, "tags": {"amenity": "restaurant", "name": "La Gondola"}}, {"type": "node", "id": 2686549962, "lat": 59.2752076, "lon": 15.2119763, "tags": {"amenity": "cafe", "cuisine": "coffee_shop", "email": "reidunscafe@hotmail.se", "name": "Reiduns", "opening_hours": "Mo-Fr 10:00-18:00; Sa 11:00-15:00", "phone": "+4619323713", "website": "http://www.reidunscafe.se/"}}, {"type": "node", "id": 2696719123, "lat": 59.2687722, "lon": 15.2083321, "tags": {"amenity": "restaurant", "cuisine": "italian", "name": "Cantina N3"}}, {"type": "node", "id": 2706719624, "lat": 59.2703111, "lon": 15.2136513, "tags": {"amenity": "restaurant", "name": "Kitchen & Table"}}, {"type": "node", "id": 2706925755, "lat": 59.27202, "lon": 15.2156549, "tags": {"addr:city": "\u00d6rebro", "addr:country": "SE", "addr:housenumber": "3", "addr:postcode": "702 11", "addr:street": "Kungsgatan", "amenity": "restaurant", "name": "Makeriet", "phone": "+4619252025", "website": "https://www.makerietorebro.se/"}}, {"type": "node", "id": 2756809193, "lat": 59.2588509, "lon": 15.2400656, "tags": {"addr:city": "\u00d6rebro", "addr:country": "SE", "addr:housenumber": "1C", "addr:postcode": "702 19", "addr:street": "Drakenbergsgatan", "amenity": "restaurant", "cuisine": "pizza", "diet:vegan": "yes", "diet:vegetarian": "yes", "email": "info@restaurangtybble.se", "lunch": "yes", "lunch:menu": "Mo-Fr 11:00-14:00", "name": "Restaurang Tybble", "opening_hours": "Mo-Fr 11:00-22:00; Sa-Su 12:00-22:00", "phone": "+46 19 33 14 22", "website": "http://www.restaurangtybble.se/"}}, {"type": "node", "id": 2769067350, "lat": 59.2526218, "lon": 15.2446621, "tags": {"addr:city": "\u00d6rebro", "addr:country": "SE", "addr:housenumber": "16", "addr:street": "Studentgatan", "amenity": "restaurant", "name": "Pizzeria Campus"}}, {"type": "node", "id": 2772228124, "lat": 59.2678599, "lon": 15.210441, "tags": {"amenity": "cafe", "name": "Kaffe & pralin", "website": "https://www.kaffepralin.com/"}}, {"type": "node", "id": 2802374064, "lat": 59.2749877, "lon": 15.2122605, "tags": {"amenity": "restaurant", "cuisine": "sushi", "name": "Hachi", "opening_hours": "We-Sa 17:30-22:00", "takeaway": "no"}}, {"type": "node", "id": 2804960368, "lat": 59.2754432, "lon": 15.2123708, "tags": {"amenity": "restaurant", "name": "\u00d6rebro \u00d6lhall", "website": "http://www.orebroolhall.se"}}, {"type": "node", "id": 2819361403, "lat": 59.2762157, "lon": 15.2126162, "tags": {"amenity": "restaurant", "cuisine": "greek", "name": "Grekiska kolgrillsbaren", "opening_hours": "Mo-Th 11:00-22:00; Fr 11:00-23:00; Sa 12:00-23:00; Su 11:00-21:00"}}, {"type": "node", "id": 2819361414, "lat": 59.2761911, "lon": 15.2109705, "tags": {"amenity": "restaurant", "name": "Pronto"}}, {"type": "node", "id": 2821881531, "lat": 59.2767784, "lon": 15.2129313, "tags": {"amenity": "restaurant", "name": "NorrTull", "opening_hours": "Mo-Fr 07:30-15:00"}}, {"type": "node", "id": 2850882364, "lat": 59.277994, "lon": 15.2118856, "tags": {"amenity": "restaurant", "name": "Hanoi", "opening_hours": "Mo-Su 11:00-23:00+", "website": "https://www.restauranghanoi.se/"}}, {"type": "node", "id": 2871134998, "lat": 59.2720135, "lon": 15.2150838, "tags": {"amenity": "restaurant", "cuisine": "indian", "name": "Chandani", "wheelchair": "no"}}, {"type": "node", "id": 2871134999, "lat": 59.2709535, "lon": 15.2125447, "tags": {"amenity": "cafe", "name": "Amici"}}, {"type": "node", "id": 2871223642, "lat": 59.2778316, "lon": 15.2149429, "tags": {"amenity": "cafe", "name": "Cafe Deed", "opening_hours": "Tu-Th 16:00-20:00; Fr, Sa 18:00-24:00", "website": "https://www.cafedeed.se/"}}, {"type": "node", "id": 2879420588, "lat": 59.2777027, "lon": 15.2154744, "tags": {"amenity": "restaurant", "name": "China", "website": "https://www.restaurangchina.com/"}}, {"type": "node", "id": 2879422306, "lat": 59.2777312, "lon": 15.2153354, "tags": {"amenity": "restaurant", "description": "fast food", "name": "Sallad Inn", "opening_hours": "Mo-Su 11:00-22:00", "website": "http://www.salladinn.se/"}}, {"type": "node", "id": 2942062853, "lat": 59.1383448, "lon": 15.3451056}, {"type": "node", "id": 2942062854, "lat": 59.1383468, "lon": 15.3454296}, {"type": "node", "id": 2945502433, "lat": 59.2721319, "lon": 15.215155, "tags": {"amenity": "restaurant", "name": "Texas Longhorn", "website": "https://www.texaslonghorn.se/restaurant/orebro/", "wheelchair": "no"}}, {"type": "node", "id": 2949021848, "lat": 59.2943883, "lon": 15.1675241, "tags": {"amenity": "restaurant", "cuisine": "pizza", "name": "Edessa", "phone": "+4619258080"}}, {"type": "node", "id": 2949022365, "lat": 59.287929, "lon": 15.2253815, "tags": {"amenity": "restaurant", "cuisine": "regional", "name": "Svampen", "smoking": "no", "wheelchair": "yes"}}, {"type": "node", "id": 2951539296, "lat": 59.5202816, "lon": 15.0276124, "tags": {"amenity": "restaurant", "name": "Nora Brasserie"}}, {"type": "node", "id": 2951539297, "lat": 59.5167178, "lon": 15.1527967, "tags": {"amenity": "cafe", "name": "Svalbo caf\u00e9"}}, {"type": "node", "id": 2958198635, "lat": 59.1268878, "lon": 15.1394191, "tags": {"amenity": "restaurant", "cuisine": "burger", "name": "Br\u00f6dernas", "outdoor_seating": "yes", "smoking": "outside", "takeaway": "yes"}}, {"type": "node", "id": 2975629392, "lat": 59.3199855, "lon": 14.5242293}, {"type": "node", "id": 2975629393, "lat": 59.3200431, "lon": 14.5239216}, {"type": "node", "id": 2975629394, "lat": 59.3200978, "lon": 14.5240705}, {"type": "node", "id": 2989723434, "lat": 59.4986378, "lon": 15.0793814}, {"type": "node", "id": 2989723435, "lat": 59.4985685, "lon": 15.0793989}, {"type": "node", "id": 2989723436, "lat": 59.4985737, "lon": 15.0794796}, {"type": "node", "id": 2989723437, "lat": 59.4985166, "lon": 15.0794941}, {"type": "node", "id": 2989723438, "lat": 59.4985237, "lon": 15.0796027}, {"type": "node", "id": 2989723439, "lat": 59.4987215, "lon": 15.0795526}, {"type": "node", "id": 2989723440, "lat": 59.498713, "lon": 15.0794228}, {"type": "node", "id": 2989723441, "lat": 59.4986417, "lon": 15.0794409}, {"type": "node", "id": 3141428958, "lat": 59.2824378, "lon": 15.2352817, "tags": {"addr:city": "\u00d6rebro", "addr:housenumber": "12", "addr:postcode": "703 65", "addr:street": "Bev\u00e4ringsgatan", "amenity": "restaurant", "cuisine": "pizza;kebab;gyros", "diet:meat": "yes", "diet:vegan": "yes", "diet:vegetarian": "yes", "name": "Pizzeria Kruthuset", "opening_hours": "Mo 11:00 - 20:00, Tue - Fr 11 - 21:00, Sat - Su 12:00 - 21:00", "payment:account_cards": "yes", "payment:cash": "yes", "payment:swish": "yes", "phone": "019 12 03 22", "website": "https://www.pizzeriakruthuset.se/"}}, {"type": "node", "id": 3152243303, "lat": 59.2828568, "lon": 15.2222449, "tags": {"amenity": "restaurant", "name": "Khana Kazanen"}}, {"type": "node", "id": 3152243304, "lat": 59.2829739, "lon": 15.2212498, "tags": {"amenity": "restaurant", "name": "Pizzeria"}}, {"type": "node", "id": 3261927009, "lat": 59.2756501, "lon": 15.2123327, "tags": {"amenity": "restaurant", "cuisine": "pizza", "name": "Fatcuz"}}, {"type": "node", "id": 3307246489, "lat": 59.1539327, "lon": 14.6930063}, {"type": "node", "id": 3307246490, "lat": 59.1538467, "lon": 14.6930193}, {"type": "node", "id": 3307246491, "lat": 59.1538583, "lon": 14.693313}, {"type": "node", "id": 3307246492, "lat": 59.1539444, "lon": 14.6933}, {"type": "node", "id": 3343776552, "lat": 59.1236831, "lon": 15.1604601, "tags": {"amenity": "restaurant", "name": "Godarum"}}, {"type": "node", "id": 3361621109, "lat": 59.1317815, "lon": 15.1342723}, {"type": "node", "id": 3361621110, "lat": 59.1318322, "lon": 15.1344313}, {"type": "node", "id": 3361621111, "lat": 59.1317375, "lon": 15.1345459}, {"type": "node", "id": 3361621112, "lat": 59.1316869, "lon": 15.1343869}, {"type": "node", "id": 3431865597, "lat": 59.2771135, "lon": 15.1623235}, {"type": "node", "id": 3431865598, "lat": 59.2771292, "lon": 15.162499}, {"type": "node", "id": 3431865599, "lat": 59.2772569, "lon": 15.1622744}, {"type": "node", "id": 3431865600, "lat": 59.2772726, "lon": 15.1624498}, {"type": "node", "id": 3495210070, "lat": 59.3088922, "lon": 15.18557, "tags": {"addr:city": "\u00d6rebro", "addr:country": "SE", "addr:housenumber": "2", "addr:postcode": "703 74", "addr:street": "B\u00e4rnstensv\u00e4gen", "amenity": "restaurant", "cuisine": "lebanese", "name": "Ksara", "phone": "+4619200111", "website": "https://www.restaurangksara.se/"}}, {"type": "node", "id": 3641397207, "lat": 59.2755591, "lon": 15.2144526, "tags": {"amenity": "restaurant", "name": "Lana\u2019s Kolgrillsbar"}}, {"type": "node", "id": 3647148123, "lat": 59.3162438, "lon": 15.2302877}, {"type": "node", "id": 3647148124, "lat": 59.3162248, "lon": 15.2305438}, {"type": "node", "id": 3647148125, "lat": 59.3163242, "lon": 15.2305721}, {"type": "node", "id": 3647148126, "lat": 59.3163938, "lon": 15.230514}, {"type": "node", "id": 3647148187, "lat": 59.3164071, "lon": 15.2303341}, {"type": "node", "id": 3684728102, "lat": 59.257631, "lon": 15.172601, "tags": {"addr:city": "\u00d6rebro", "addr:country": "SE", "addr:housenumber": "6", "addr:postcode": "70227", "addr:street": "Adolfsbergsv\u00e4gen", "amenity": "restaurant", "cuisine": "kebab", "name": "Kebabfabriken", "opening_hours": "Mo-Fr 10:00-21:00; Sa-Su 11:00-21:00", "phone": "+46195003300", "website": "https://www.kebabfabriken.se/"}}, {"type": "node", "id": 3684728230, "lat": 59.315647, "lon": 15.225592, "tags": {"amenity": "cafe", "name": "Lill\u00e5ns konditori"}}, {"type": "node", "id": 3684728231, "lat": 59.519638, "lon": 15.039351, "tags": {"addr:city": "Nora", "addr:country": "SE", "addr:housenumber": "5B", "addr:postcode": "71331", "addr:street": "Pr\u00e4stgatan", "amenity": "restaurant", "cuisine": "international", "name": "Karlssons Choice"}}, {"type": "node", "id": 3684728242, "lat": 59.254982, "lon": 15.171397, "tags": {"amenity": "restaurant", "name": "Nyman's restaurang"}}, {"type": "node", "id": 3684728251, "lat": 59.281726, "lon": 15.219536, "tags": {"amenity": "cafe", "name": "Princess konditori", "website": "www.princesskonditori.se"}}, {"type": "node", "id": 3684728252, "lat": 59.301948, "lon": 15.205098, "tags": {"amenity": "restaurant", "name": "Restaurang Vivalla"}}, {"type": "node", "id": 3684728253, "lat": 59.5199828, "lon": 15.0401292, "tags": {"addr:city": "Nora", "addr:country": "SE", "addr:housenumber": "8", "addr:postcode": "713 31", "addr:street": "Pr\u00e4stgatan", "amenity": "restaurant", "cuisine": "greek", "name": "Restaurang Rhodos i Nora AB", "wheelchair": "limited"}}, {"type": "node", "id": 3684728266, "lat": 59.276251, "lon": 15.20511, "tags": {"amenity": "cafe", "contact:phone": "+46 19-13 46 30", "contact:website": "skanesmorgasar.se", "name": "Sk\u00e5ne Sm\u00f6rg\u00e5sar & Caf\u00e9"}}, {"type": "node", "id": 3684728270, "lat": 59.279417, "lon": 15.21771, "tags": {"amenity": "cafe", "name": "Svenssons sm\u00f6rg\u00e5sverkstad"}}, {"type": "node", "id": 3684728312, "lat": 59.4946118, "lon": 15.0070588, "tags": {"amenity": "restaurant", "name": "Pershyttans T\u00e5gcafe", "website": "https://www.tagcafe.se/"}}, {"type": "node", "id": 3684728313, "lat": 59.5189233, "lon": 15.0414292, "tags": {"amenity": "restaurant", "cuisine": "pizza", "happycow:id": "132725", "name": "Brimos Pizza", "wheelchair": "limited"}}, {"type": "node", "id": 3684728319, "lat": 59.5199439, "lon": 15.0408993, "tags": {"addr:city": "Nora", "addr:country": "SE", "addr:housenumber": "6", "addr:postcode": "713 31", "addr:street": "Pr\u00e4stgatan", "amenity": "restaurant", "cuisine": "sushi", "name": "San Sushi Nora", "website": "https://www.facebook.com/SanSushiNora/"}}, {"type": "node", "id": 3693516313, "lat": 59.2603819, "lon": 14.9477177, "tags": {"addr:city": "Vintrosa", "addr:country": "SE", "addr:housenumber": "320", "addr:postcode": "71931", "addr:street": "F\u00e5rahagen", "amenity": "cafe", "name": "Tant Gr\u00f6n", "opening_hours": "Tu-Fr 11:00-18:00; Sa,Su 11:00-16:00", "outdoor_seating": "yes", "website": "http://www.tant-gron.nu"}}, {"type": "node", "id": 3768761611, "lat": 59.2747908, "lon": 15.2073499, "tags": {"addr:city": "\u00d6rebro", "addr:country": "SE", "addr:housenumber": "11", "addr:postcode": "703 54", "addr:street": "V\u00e4stra Bangatan", "amenity": "restaurant", "cuisine": "asian", "name": "Yuelong Restaurang", "takeaway": "yes"}}, {"type": "node", "id": 3827743289, "lat": 59.5188317, "lon": 15.0413567}, {"type": "node", "id": 3830069099, "lat": 59.5184997, "lon": 15.039425}, {"type": "node", "id": 3830069146, "lat": 59.5195893, "lon": 15.0391573}, {"type": "node", "id": 3830069152, "lat": 59.5196579, "lon": 15.0394356}, {"type": "node", "id": 3830069154, "lat": 59.5196656, "lon": 15.0391688}, {"type": "node", "id": 3830069157, "lat": 59.5196771, "lon": 15.0396135}, {"type": "node", "id": 3830069159, "lat": 59.5196809, "lon": 15.0394381}, {"type": "node", "id": 3830069170, "lat": 59.519938, "lon": 15.0399824}, {"type": "node", "id": 3939363660, "lat": 59.2756739, "lon": 15.2065577, "tags": {"amenity": "restaurant", "cuisine": "burger", "name": "Burger master"}}, {"type": "node", "id": 3939363662, "lat": 59.2778786, "lon": 15.2048208, "tags": {"addr:city": "\u00d6rebro", "addr:country": "SE", "addr:housenumber": "26", "addr:postcode": "703 54", "addr:street": "Jakobsgatan", "amenity": "cafe", "cuisine": "coffee_shop", "name": "Fr\u00f6ken Brogrens veranda", "phone": "+46 19 18 47 07", "shop": "bakery", "smoking": "no", "wheelchair": "no"}}, {"type": "node", "id": 4286768860, "lat": 59.5181483, "lon": 15.0428485, "tags": {"amenity": "cafe", "cuisine": "regional", "name": "Selma G.", "opening_hours": "PH,Mo-Su 10:00-18:00"}}, {"type": "node", "id": 4286768861, "lat": 59.5174486, "lon": 15.0429286, "tags": {"amenity": "restaurant", "capacity": "50", "name": "P\u00e5 Sp\u00e5ret"}}, {"type": "node", "id": 4293263752, "lat": 59.273943, "lon": 15.2056599, "tags": {"amenity": "restaurant", "name": "Jordiano"}}, {"type": "node", "id": 4330514256, "lat": 59.3830252, "lon": 14.5084189, "tags": {"amenity": "cafe", "name": "Pitstop caf\u00e9"}}, {"type": "node", "id": 4468790941, "lat": 59.1244302, "lon": 15.1293183}, {"type": "node", "id": 4468790942, "lat": 59.1244355, "lon": 15.1296667}, {"type": "node", "id": 4468790943, "lat": 59.1245687, "lon": 15.1293103}, {"type": "node", "id": 4468790944, "lat": 59.1245704, "lon": 15.1294251}, {"type": "node", "id": 4468790945, "lat": 59.1246185, "lon": 15.1294224}, {"type": "node", "id": 4468790946, "lat": 59.124622, "lon": 15.1296559}, {"type": "node", "id": 4526410108, "lat": 59.2550642, "lon": 15.2240152}, {"type": "node", "id": 4526410109, "lat": 59.254927, "lon": 15.2239213}, {"type": "node", "id": 4526410110, "lat": 59.2548914, "lon": 15.2240727}, {"type": "node", "id": 4526410111, "lat": 59.2550228, "lon": 15.2241911}, {"type": "node", "id": 4784384103, "lat": 59.2756404, "lon": 15.2180344, "tags": {"amenity": "restaurant", "cuisine": "french", "name": "Boulebar Slottsgatan", "outdoor_seating": "yes", "website": "https://www.boulebar.se/bar-restaurang/orebro-slottsgatan/"}}, {"type": "node", "id": 4801409492, "lat": 59.2779396, "lon": 15.2144398, "tags": {"addr:country": "SE", "addr:housenumber": "8", "addr:street": "J\u00e4rnv\u00e4gsgatan", "amenity": "restaurant", "cuisine": "burger", "name": "Bastard Burgers", "website": "https://bastardburgers.se"}}, {"type": "node", "id": 4807469945, "lat": 59.2783559, "lon": 15.2115057, "tags": {"amenity": "cafe", "brand": "Espresso House", "brand:wikidata": "Q10489162", "brand:wikipedia": "en:Espresso House", "cuisine": "coffee_shop", "indoor_seating": "yes", "name": "Espresso House", "opening_hours": "Mo-Fr 05:30-19:00; Sa 08:00-18:00; Su 08:00-19:00", "outdoor_seating": "no", "takeaway": "yes"}}, {"type": "node", "id": 4839542897, "lat": 59.2754773, "lon": 15.251703, "tags": {"amenity": "restaurant", "name": "\u00d6rebro hamnkrog", "outdoor_seating": "yes"}}, {"type": "node", "id": 4942544776, "lat": 59.2713757, "lon": 15.2109859, "tags": {"amenity": "restaurant", "cuisine": "sushi", "name": "Natu"}}, {"type": "node", "id": 4975498773, "lat": 59.2767892, "lon": 15.2154354, "tags": {"amenity": "cafe", "name": "City Sweet"}}, {"type": "node", "id": 5042803685, "lat": 59.2724346, "lon": 15.2137361, "tags": {"amenity": "restaurant", "name": "Annapurna"}}, {"type": "node", "id": 5117682777, "lat": 59.3260562, "lon": 14.5147599, "tags": {"amenity": "restaurant", "cuisine": "burger", "name": "Bullseye saloon", "opening_hours": "Tu-Th 16:00-22:00; Fr-Sa 16:00-00:00", "phone": "+46 586 55545", "smoking": "no", "website": "https://bullseyesaloon.se/karlskoga/"}}, {"type": "node", "id": 5238551903, "lat": 59.2517676, "lon": 15.2221814, "tags": {"amenity": "restaurant", "cuisine": "sushi", "delivery": "yes", "email": "orebro@sooshi.se", "name": "Sooshi", "opening_hours": "Tu-Th 16:00-21:00; Fr-Su 12:00-21:00", "phone": "+46 19 554 0040", "takeaway": "yes", "website": "https://www.sooshi.se/"}}, {"type": "node", "id": 5316520734, "lat": 59.2894982, "lon": 15.224779, "tags": {"amenity": "restaurant", "brand": "Bella Italia", "cuisine": "italian", "name": "Alessandro's"}}, {"type": "node", "id": 5425568396, "lat": 59.250493, "lon": 15.1952765, "tags": {"amenity": "restaurant", "cuisine": "burger", "name": "BL Burgers"}}, {"type": "node", "id": 5522403164, "lat": 59.1246012, "lon": 15.1018028}, {"type": "node", "id": 5522403165, "lat": 59.124578, "lon": 15.1018171}, {"type": "node", "id": 5522403170, "lat": 59.1243579, "lon": 15.1012904}, {"type": "node", "id": 5522403171, "lat": 59.1244818, "lon": 15.1020495}, {"type": "node", "id": 5522403172, "lat": 59.1246268, "lon": 15.1019597}, {"type": "node", "id": 5522403173, "lat": 59.1244798, "lon": 15.1012149}, {"type": "node", "id": 5527833362, "lat": 59.3353583, "lon": 15.0618901}, {"type": "node", "id": 5527833363, "lat": 59.3353835, "lon": 15.0620256}, {"type": "node", "id": 5527833364, "lat": 59.3353296, "lon": 15.0620642}, {"type": "node", "id": 5527833365, "lat": 59.3353044, "lon": 15.0619287}, {"type": "node", "id": 5562198301, "lat": 59.2700196, "lon": 15.2104615, "tags": {"amenity": "cafe", "brand": "Espresso House", "brand:wikidata": "Q10489162", "brand:wikipedia": "en:Espresso House", "cuisine": "coffee_shop", "name": "Espresso House", "takeaway": "yes"}}, {"type": "node", "id": 5627339521, "lat": 59.2568411, "lon": 15.2094859, "tags": {"amenity": "restaurant", "cuisine": "pizza", "name": "Mingus"}}, {"type": "node", "id": 5627341421, "lat": 59.2566773, "lon": 15.2061747, "tags": {"amenity": "restaurant", "cuisine": "pizza", "name": "Castello"}}, {"type": "node", "id": 5627347642, "lat": 59.2564988, "lon": 15.2036333, "tags": {"amenity": "restaurant", "cuisine": "pizza", "name": "Pizzeria \u00c4ngen"}}, {"type": "node", "id": 5749454627, "lat": 59.2718857, "lon": 15.2142917, "tags": {"amenity": "cafe", "name": "Mocca Deli"}}, {"type": "node", "id": 5805108821, "lat": 59.2804719, "lon": 15.2139938, "tags": {"amenity": "restaurant", "name": "Strike & Co"}}, {"type": "node", "id": 5807362488, "lat": 59.2712558, "lon": 15.2175561, "tags": {"amenity": "restaurant", "name": "Lovisas"}}, {"type": "node", "id": 5810278649, "lat": 59.2755598, "lon": 15.2256068, "tags": {"amenity": "cafe", "name": "Oasen", "opening_hours": "Mo-Th 08:00-18:00; Fr 08:00-16:30; Sa,Su 11:00-16:00"}}, {"type": "node", "id": 5817856341, "lat": 59.2757833, "lon": 15.2278699, "tags": {"amenity": "cafe", "brand": "Pressbyr\u00e5n", "brand:wikidata": "Q2489072", "name": "Pressbyr\u00e5n", "shop": "kiosk"}}, {"type": "node", "id": 5818153672, "lat": 59.2752197, "lon": 15.2310741, "tags": {"amenity": "cafe"}}, {"type": "node", "id": 5852914630, "lat": 59.2888009, "lon": 15.2251627, "tags": {"amenity": "restaurant", "cuisine": "burger", "name": "Hamburgerbruket", "payment:cash": "no"}}, {"type": "node", "id": 5852914672, "lat": 59.1732853, "lon": 14.8698761, "tags": {"amenity": "restaurant", "cuisine": "thai", "name": "Nudaeng\u2019s thaifood"}}, {"type": "node", "id": 5852914678, "lat": 59.2879048, "lon": 15.2276305}, {"type": "node", "id": 5878384885, "lat": 59.3269195, "lon": 14.5252566, "tags": {"amenity": "restaurant", "name:en": "Bamboo Express"}}, {"type": "node", "id": 6365029987, "lat": 59.2878061, "lon": 15.2034818, "tags": {"addr:country": "SE", "addr:housenumber": "1A", "addr:postcode": "70359", "addr:street": "Hjalmar Bergmans v\u00e4g", "amenity": "cafe", "cuisine": "georgian", "name": "Roj", "name:fi": "Roj", "name:ku": "bix\u00ear hatin", "name:sv": "Roj", "opening_hours": "24/7"}}, {"type": "node", "id": 6560925900, "lat": 59.275722, "lon": 15.2128284, "tags": {"addr:country": "SE", "addr:housenumber": "11b", "addr:postcode": "70361", "addr:street": "Olaigatan", "amenity": "restaurant", "contact:phone": "+46 769 470 776", "cuisine": "chicken;turkish;fish_and_chips;kebab;arab", "name": "Falafel King", "opening_hours": "Mo-Fr 11:00-20:00; Sa-Su 12:00-20:00"}}, {"type": "node", "id": 6591680362, "lat": 59.2750286, "lon": 15.2119645, "tags": {"amenity": "restaurant", "name": "AW", "website": "https://www.awbar-orebro.se"}}, {"type": "node", "id": 6591680363, "lat": 59.273719, "lon": 15.2157066, "tags": {"amenity": "cafe", "name": "Lill-Annas", "website": "http://lill-anna.se"}}, {"type": "node", "id": 6591680364, "lat": 59.2750052, "lon": 15.2121169, "tags": {"amenity": "bar", "name": "Vinkiosken", "website": "https://www.vinkiosken.com"}}, {"type": "node", "id": 6597623852, "lat": 59.517874, "lon": 15.0549385}, {"type": "node", "id": 6597623853, "lat": 59.5178727, "lon": 15.0551611}, {"type": "node", "id": 6597623854, "lat": 59.5180145, "lon": 15.0551644}, {"type": "node", "id": 6597623855, "lat": 59.5180159, "lon": 15.0549418}, {"type": "node", "id": 6617873182, "lat": 59.2881315, "lon": 15.2276385}, {"type": "node", "id": 6617873183, "lat": 59.2879064, "lon": 15.2274598}, {"type": "node", "id": 6617873184, "lat": 59.2881331, "lon": 15.2274679}, {"type": "node", "id": 6680610306, "lat": 59.2912166, "lon": 15.2067412, "tags": {"amenity": "restaurant", "name": "K\u00f6ket"}}, {"type": "node", "id": 6680610307, "lat": 59.2909594, "lon": 15.2067555, "tags": {"amenity": "restaurant", "cuisine": "asian", "name": "Saigon", "opening_hours": "Mo-Sa 11:00-21:00"}}, {"type": "node", "id": 6738071371, "lat": 59.3413875, "lon": 14.5350486, "tags": {"amenity": "cafe", "email": "info@cafealfrednobel.se", "name": "Caf\u00e9 Alfred Nobel", "opening_hours": "Tu-Su 10:00-17:00; Mo off", "phone": "+46 73-844 30 30", "website": "https://nobelkarlskoga.se/cafealfrednobel/"}}, {"type": "node", "id": 6765763206, "lat": 59.5210284, "lon": 15.033041, "tags": {"amenity": "cafe", "name": "Slottspigornas Caf\u00e9", "wheelchair": "no"}}, {"type": "node", "id": 6765763210, "lat": 59.5199624, "lon": 15.0283993, "tags": {"amenity": "cafe", "indoor_seating": "yes", "name": "Bj\u00f6rk Kaf\u00e9 & Skafferi AB", "opening_hours": "Tu-Su 09:00-17:00", "outdoor_seating": "yes"}}, {"type": "node", "id": 6830865985, "lat": 59.2703129, "lon": 15.2244625, "tags": {"addr:country": "SE", "addr:housenumber": "25", "addr:street": "Engelbrektsgatan", "amenity": "restaurant", "contact:phone": "+46 19 611 3992", "diet:vegan": "no", "diet:vegetarian": "yes", "name": "Pizzeria Milano", "opening_hours": "Mo-Th 11:00-21:00; Fr 11:00-22:00; Sa 09:00-22:00; Su 12:00-21:00", "wheelchair": "limited"}}, {"type": "node", "id": 7201341222, "lat": 59.2174616, "lon": 15.1372857}, {"type": "node", "id": 7775297887, "lat": 59.2681559, "lon": 15.2081109, "tags": {"amenity": "cafe", "name": "Kamar Alsham"}}, {"type": "node", "id": 7775401430, "lat": 59.275606, "lon": 15.2174523, "tags": {"amenity": "restaurant", "name": "ST\u00c5 - Pintxos & V\u00e4nner"}}, {"type": "node", "id": 7775401431, "lat": 59.2757468, "lon": 15.2170866, "tags": {"amenity": "restaurant", "name": "Fresh Food"}}, {"type": "node", "id": 7775401432, "lat": 59.2770141, "lon": 15.2185949, "tags": {"amenity": "restaurant", "cuisine": "sushi", "name": "Sushi Japanese"}}, {"type": "node", "id": 7775401433, "lat": 59.2773531, "lon": 15.2185037, "tags": {"amenity": "cafe", "name": "\u00c4ngel"}}, {"type": "node", "id": 7794269959, "lat": 59.2711797, "lon": 15.2153862, "tags": {"amenity": "restaurant", "name": "Mojo"}}, {"type": "node", "id": 7794269960, "lat": 59.2713765, "lon": 15.2166682, "tags": {"amenity": "cafe", "name": "Bai Cha"}}, {"type": "node", "id": 7794269961, "lat": 59.2704211, "lon": 15.2145511, "tags": {"amenity": "restaurant", "name": "Sallad&"}}, {"type": "node", "id": 7794269962, "lat": 59.2703024, "lon": 15.2149297, "tags": {"amenity": "restaurant", "name": "Smash Burger"}}, {"type": "node", "id": 7794269963, "lat": 59.270469, "lon": 15.2145914, "tags": {"amenity": "restaurant", "cuisine": "asian", "name": "Zao"}}, {"type": "node", "id": 7794269964, "lat": 59.2703593, "lon": 15.2146451, "tags": {"amenity": "restaurant", "cuisine": "italian", "name": "Bella Italia"}}, {"type": "node", "id": 7794269965, "lat": 59.2705421, "lon": 15.2145002, "tags": {"amenity": "bar", "name": "Saluhallsbaren"}}, {"type": "node", "id": 7794269966, "lat": 59.2704261, "lon": 15.2150315, "tags": {"amenity": "restaurant", "cuisine": "seafood", "name": "Fisk i hallen"}}, {"type": "node", "id": 7794269967, "lat": 59.2704143, "lon": 15.2143887, "tags": {"amenity": "bar", "name": "Chilango"}}, {"type": "node", "id": 7882206356, "lat": 59.255034, "lon": 15.2240176}, {"type": "node", "id": 7882206357, "lat": 59.2550397, "lon": 15.2239931}, {"type": "node", "id": 7899018295, "lat": 59.2598472, "lon": 15.2073976}, {"type": "node", "id": 7899018296, "lat": 59.2597607, "lon": 15.2074192}, {"type": "node", "id": 7899018297, "lat": 59.2597563, "lon": 15.2072918}, {"type": "node", "id": 7899018298, "lat": 59.2598335, "lon": 15.2072832}, {"type": "node", "id": 7899018299, "lat": 59.2598856, "lon": 15.2071665}, {"type": "node", "id": 7899018300, "lat": 59.2599042, "lon": 15.2071433}, {"type": "node", "id": 7899018301, "lat": 59.2599574, "lon": 15.2071397}, {"type": "node", "id": 8109794203, "lat": 59.2727981, "lon": 15.2142184, "tags": {"addr:country": "SE", "addr:housenumber": "6", "addr:street": "Engelbrektsgatan", "amenity": "restaurant", "name": "Hatt", "phone": "+46 19-21 98 80", "website": "https://restauranghatt.se/"}}, {"type": "node", "id": 8113029831, "lat": 59.2695731, "lon": 15.2245345, "tags": {"addr:city": "\u00d6rebro", "addr:country": "SE", "addr:housenumber": "8b", "addr:postcode": "70214", "addr:street": "Oskarstorget", "amenity": "restaurant", "cuisine": "pizza", "diet:vegetarian": "yes", "name": "Pizzeria Viking", "opening_hours": "Mo-Th 10:00-21:00, Fr-Sa 12:00-22:00,Su 11:00-21:00", "phone": "+46 19 10 36 26", "website": "https://www.pizzeriavikings.se/"}}, {"type": "node", "id": 8113038941, "lat": 59.2706006, "lon": 15.2243234, "tags": {"addr:city": "\u00d6rebro", "addr:country": "SE", "addr:housenumber": "2", "addr:postcode": "70214", "addr:street": "Sturegatan", "amenity": "cafe", "cuisine": "breakfast;brunch", "name": "Sture Caf\u00e9", "opening_hours": "Mo-Fr 07:30-15:00", "outdoor_seating": "yes", "phone": "+46 19 12 10 51"}}, {"type": "node", "id": 8235734856, "lat": 59.5190941, "lon": 15.0385071}, {"type": "node", "id": 8235734889, "lat": 59.5189724, "lon": 15.0384925}, {"type": "node", "id": 8423929857, "lat": 59.2175517, "lon": 15.1374669}, {"type": "node", "id": 8423929858, "lat": 59.217653, "lon": 15.137734}, {"type": "node", "id": 8423929859, "lat": 59.2176545, "lon": 15.1375794}, {"type": "node", "id": 8423929860, "lat": 59.2176306, "lon": 15.1375453}, {"type": "node", "id": 8423929861, "lat": 59.2176047, "lon": 15.137644}, {"type": "node", "id": 8423929862, "lat": 59.2175281, "lon": 15.1375652}, {"type": "node", "id": 8423929863, "lat": 59.2175072, "lon": 15.1376517}, {"type": "node", "id": 8423929864, "lat": 59.2175939, "lon": 15.1377344}, {"type": "node", "id": 8423929898, "lat": 59.2171477, "lon": 15.1378481}, {"type": "node", "id": 8423929899, "lat": 59.2169994, "lon": 15.1378472}, {"type": "node", "id": 8423929900, "lat": 59.2170735, "lon": 15.1374493}, {"type": "node", "id": 8423929901, "lat": 59.2170013, "lon": 15.1375207}, {"type": "node", "id": 8423929904, "lat": 59.217001, "lon": 15.1375755}, {"type": "node", "id": 8423929926, "lat": 59.2172675, "lon": 15.1372254}, {"type": "node", "id": 8423929927, "lat": 59.2172779, "lon": 15.1372268}, {"type": "node", "id": 8423929930, "lat": 59.2173973, "lon": 15.1375532}, {"type": "node", "id": 8423929931, "lat": 59.2173894, "lon": 15.1375639}, {"type": "node", "id": 8423929932, "lat": 59.2173662, "lon": 15.1375796}, {"type": "node", "id": 8423929933, "lat": 59.2173288, "lon": 15.1375739}, {"type": "node", "id": 8423929934, "lat": 59.2173246, "lon": 15.1374441}, {"type": "node", "id": 8423929935, "lat": 59.2173452, "lon": 15.1374493}, {"type": "node", "id": 8423929936, "lat": 59.2173704, "lon": 15.137443}, {"type": "node", "id": 8423929937, "lat": 59.2173778, "lon": 15.1374428}, {"type": "node", "id": 8423929938, "lat": 59.2173777, "lon": 15.1374963}, {"type": "node", "id": 8423929939, "lat": 59.2174043, "lon": 15.1375279}, {"type": "node", "id": 8423929940, "lat": 59.2173758, "lon": 15.1373025}, {"type": "node", "id": 8423929941, "lat": 59.2174395, "lon": 15.137373}, {"type": "node", "id": 8423929942, "lat": 59.2174509, "lon": 15.1373695}, {"type": "node", "id": 8423929943, "lat": 59.2174611, "lon": 15.137338}, {"type": "node", "id": 8423929944, "lat": 59.2174577, "lon": 15.1372464}, {"type": "node", "id": 8423929945, "lat": 59.2174441, "lon": 15.1372266}, {"type": "node", "id": 8423929946, "lat": 59.2173775, "lon": 15.1372246}, {"type": "node", "id": 8423929947, "lat": 59.2173088, "lon": 15.1372714}, {"type": "node", "id": 8423929948, "lat": 59.2173594, "lon": 15.1372722}, {"type": "node", "id": 8423929949, "lat": 59.2173596, "lon": 15.1372239}, {"type": "node", "id": 8423929950, "lat": 59.217309, "lon": 15.137223}, {"type": "node", "id": 8423929951, "lat": 59.2172673, "lon": 15.1371988}, {"type": "node", "id": 8423929952, "lat": 59.2172764, "lon": 15.1374057}, {"type": "node", "id": 8423929953, "lat": 59.2172583, "lon": 15.1374183}, {"type": "node", "id": 8423929954, "lat": 59.2172394, "lon": 15.1374389}, {"type": "node", "id": 8423929955, "lat": 59.2172296, "lon": 15.1374596}, {"type": "node", "id": 8423929956, "lat": 59.2172102, "lon": 15.1374623}, {"type": "node", "id": 8423929957, "lat": 59.2172137, "lon": 15.1372297}, {"type": "node", "id": 8423929958, "lat": 59.2172253, "lon": 15.1371968}, {"type": "node", "id": 8423929990, "lat": 59.2171101, "lon": 15.1375875}, {"type": "node", "id": 8423930019, "lat": 59.2165949, "lon": 15.1374013}, {"type": "node", "id": 8423930020, "lat": 59.2165834, "lon": 15.1373692}, {"type": "node", "id": 8423930021, "lat": 59.2165816, "lon": 15.1373097}, {"type": "node", "id": 8423930022, "lat": 59.2166398, "lon": 15.1373082}, {"type": "node", "id": 8423930023, "lat": 59.2166411, "lon": 15.1370738}, {"type": "node", "id": 8427182630, "lat": 59.2173471, "lon": 15.1375786}, {"type": "node", "id": 8427182633, "lat": 59.2164655, "lon": 15.1370731}, {"type": "node", "id": 8430292129, "lat": 59.2171099, "lon": 15.1377196}, {"type": "node", "id": 8430292130, "lat": 59.2171219, "lon": 15.1377197}, {"type": "node", "id": 8430292131, "lat": 59.2171368, "lon": 15.1377199}, {"type": "node", "id": 8430292133, "lat": 59.2171485, "lon": 15.13772}, {"type": "node", "id": 8430292155, "lat": 59.217971, "lon": 15.1376758}, {"type": "node", "id": 8430292158, "lat": 59.217991, "lon": 15.1378196}, {"type": "node", "id": 8430292168, "lat": 59.2179093, "lon": 15.1378714}, {"type": "node", "id": 8430292183, "lat": 59.2165831, "lon": 15.1373737}, {"type": "node", "id": 8430292184, "lat": 59.2177985, "lon": 15.1379163}, {"type": "node", "id": 8430296558, "lat": 59.2169754, "lon": 15.1377943}, {"type": "node", "id": 8430296559, "lat": 59.2170706, "lon": 15.1377955}, {"type": "node", "id": 8430296560, "lat": 59.2169763, "lon": 15.1375748}, {"type": "node", "id": 8430296564, "lat": 59.2170714, "lon": 15.1375768}, {"type": "node", "id": 8430296579, "lat": 59.2171271, "lon": 15.1379551}, {"type": "node", "id": 8430296580, "lat": 59.217148, "lon": 15.1378495}, {"type": "node", "id": 8430296581, "lat": 59.2171794, "lon": 15.1380548}, {"type": "node", "id": 8430296582, "lat": 59.2171808, "lon": 15.13785}, {"type": "node", "id": 8430296583, "lat": 59.217252, "lon": 15.1380572}, {"type": "node", "id": 8430296584, "lat": 59.2172525, "lon": 15.1378508}, {"type": "node", "id": 8430296589, "lat": 59.2173423, "lon": 15.1380581}, {"type": "node", "id": 8430296590, "lat": 59.2173643, "lon": 15.1380583}, {"type": "node", "id": 8430296591, "lat": 59.2173649, "lon": 15.1378519}, {"type": "node", "id": 8430296593, "lat": 59.2179916, "lon": 15.137675}, {"type": "node", "id": 8430296594, "lat": 59.2178743, "lon": 15.1376775}, {"type": "node", "id": 8430296596, "lat": 59.2177965, "lon": 15.1378886}, {"type": "node", "id": 8430296597, "lat": 59.2178077, "lon": 15.1379608}, {"type": "node", "id": 8430296598, "lat": 59.2178273, "lon": 15.1379432}, {"type": "node", "id": 8430296599, "lat": 59.2178242, "lon": 15.1377785}, {"type": "node", "id": 8430296600, "lat": 59.2178523, "lon": 15.1377782}, {"type": "node", "id": 8430296601, "lat": 59.2178198, "lon": 15.1376326}, {"type": "node", "id": 8430296603, "lat": 59.2177968, "lon": 15.1378072}, {"type": "node", "id": 8430296604, "lat": 59.2177968, "lon": 15.1376241}, {"type": "node", "id": 8430296630, "lat": 59.2165346, "lon": 15.1369501}, {"type": "node", "id": 8430296636, "lat": 59.2167101, "lon": 15.13695}, {"type": "node", "id": 8430296637, "lat": 59.2167089, "lon": 15.1372987}, {"type": "node", "id": 8430296638, "lat": 59.2167043, "lon": 15.1373289}, {"type": "node", "id": 8430296639, "lat": 59.2166434, "lon": 15.1373755}, {"type": "node", "id": 8430296640, "lat": 59.2164656, "lon": 15.1373711}, {"type": "node", "id": 8576350559, "lat": 59.5185782, "lon": 15.0413256}, {"type": "node", "id": 8820961017, "lat": 59.2881031, "lon": 15.2152591, "tags": {"addr:street": "T\u00f6rngatan 1", "amenity": "restaurant", "name": "Gamla \u00c5karbaren"}}, {"type": "node", "id": 8823631127, "lat": 59.2721467, "lon": 15.2160121, "tags": {"amenity": "bar", "name": "Makeriet"}}, {"type": "node", "id": 8823631130, "lat": 59.2693737, "lon": 15.2101035, "tags": {"amenity": "cafe", "name": "Le Croissant"}}, {"type": "node", "id": 8823631133, "lat": 59.2712709, "lon": 15.2109073, "tags": {"amenity": "restaurant", "name": "Holy Greens"}}, {"type": "node", "id": 8833738529, "lat": 59.24031, "lon": 15.12851, "tags": {"amenity": "restaurant", "cuisine": "asian", "name": "Tant Norra"}}, {"type": "node", "id": 8945228365, "lat": 59.2556714, "lon": 15.2176673, "tags": {"amenity": "restaurant", "cuisine": "sushi", "delivery": "yes", "name": "SushiFresh", "opening_hours": "Mo-Fr 16:00-21:00; Sa-Su 14:00-21:00", "takeaway": "yes", "website": "https://www.foodora.se/en/restaurant/j2es/sushifresh"}}, {"type": "node", "id": 8952149711, "lat": 59.5174409, "lon": 15.0428868}, {"type": "node", "id": 8952149713, "lat": 59.5174676, "lon": 15.0428627}, {"type": "node", "id": 8952149714, "lat": 59.5174542, "lon": 15.0428943}, {"type": "node", "id": 8952149715, "lat": 59.5176501, "lon": 15.0429317}, {"type": "node", "id": 8952180219, "lat": 59.5176092, "lon": 15.0429232}, {"type": "node", "id": 8952180221, "lat": 59.5174719, "lon": 15.0427809}, {"type": "node", "id": 8952180223, "lat": 59.5172575, "lon": 15.0428487}, {"type": "node", "id": 8952180225, "lat": 59.5176459, "lon": 15.0430102}, {"type": "node", "id": 8952180229, "lat": 59.5174469, "lon": 15.0427757}, {"type": "node", "id": 8952180230, "lat": 59.517456, "lon": 15.0428603}, {"type": "node", "id": 8952180231, "lat": 59.5172532, "lon": 15.0429287}, {"type": "node", "id": 8952180232, "lat": 59.5174661, "lon": 15.0428968}, {"type": "node", "id": 9046328941, "lat": 59.5190502, "lon": 15.0395338, "tags": {"amenity": "bar", "indoor_seating": "yes", "name": "The Golden Horn", "outdoor_seating": "yes"}}, {"type": "node", "id": 9074117055, "lat": 59.3299647, "lon": 14.5434672, "tags": {"access": "customers", "entrance": "yes"}}, {"type": "node", "id": 9091603034, "lat": 59.5199301, "lon": 15.0401876, "tags": {"entrance": "yes"}}, {"type": "node", "id": 9162270218, "lat": 59.2538109, "lon": 15.2439883, "tags": {"amenity": "restaurant", "diet:vegan": "yes", "diet:vegetarian": "yes", "name": "Pasta La Vista", "opening_hours": "Mo-Th 10:00-20:00; Fr 10:00-19:00"}}, {"type": "node", "id": 9162270517, "lat": 59.2540955, "lon": 15.2436937, "tags": {"amenity": "restaurant", "cuisine": "indian", "diet:vegan": "yes", "diet:vegetarian": "yes", "name": "Spicy Kitchen", "opening_hours": "Mo-Fr 11:00-21:00; Sa 15:00-21:00"}}, {"type": "node", "id": 9162270518, "lat": 59.254168, "lon": 15.2437417, "tags": {"amenity": "restaurant", "diet:vegan": "yes", "diet:vegetarian": "yes", "name": "Mr. Pizza", "opening_hours": "Mo-Su 11:00-20:00"}}, {"type": "node", "id": 9252314893, "lat": 59.2618962, "lon": 15.175779, "tags": {"addr:city": "\u00d6rebro", "addr:country": "SE", "addr:housenumber": "1B", "addr:postcode": "702 27", "addr:street": "R\u00f6rv\u00e4gen", "amenity": "restaurant", "cuisine": "pizza;italian", "email": "aspholmen@rosalisdeli.se", "name": "Rosalis Deli Aspholmen", "opening_hours": "Mo-Fr 08:00-21:00; Sa-Su 11:00-20:00", "phone": "+4619106955", "website": "http://www.rosalisdeli.com/"}}, {"type": "node", "id": 9252315459, "lat": 59.2605009, "lon": 15.1858206, "tags": {"addr:city": "\u00d6rebro", "addr:country": "SE", "addr:housenumber": "11", "addr:postcode": "702 27", "addr:street": "Skvadronv\u00e4gen", "amenity": "restaurant", "brand": "https://henkas.se/wp-content/uploads/2021/01/cropped-cropped-cropped-HenkaspAspSvartbak-1.png", "cuisine": "regional", "email": "info@henkas.se", "image": "https://henkas.se/wp-content/uploads/2021/01/cropped-karta2.png", "name": "Henkas p\u00e5 Aspholmen", "opening_hours": "Mo-Fr 11:00-14:30", "outdoor_seating": "yes", "takeaway": "yes", "website": "https://henkas.se/"}}, {"type": "node", "id": 9253212328, "lat": 59.2628953, "lon": 15.1825672, "tags": {"addr:city": "\u00d6rebro", "addr:country": "SE", "addr:housenumber": "2", "addr:postcode": "702 27", "addr:street": "Radiatorv\u00e4gen", "amenity": "restaurant", "cuisine": "regional", "name": "Aspholmens skafferi", "opening_hours": "Mo-Fr 11:00-14:00", "phone": "+4619263090", "website": "https://aspholmensskafferi.se/"}}, {"type": "node", "id": 9253214850, "lat": 59.2619546, "lon": 15.1810683, "tags": {"addr:city": "\u00d6rebro", "addr:country": "SE", "addr:housenumber": "5", "addr:postcode": "702 27", "addr:street": "Elementv\u00e4gen", "amenity": "restaurant", "cuisine": "regional", "name": "Falcken", "opening_hours": "Mo-Fr 11:00-14:30", "phone": "+4619271750", "website": "http://restaurangfalcken.se/"}}, {"type": "node", "id": 9253215606, "lat": 59.2548559, "lon": 15.1729662, "tags": {"addr:city": "\u00d6rebro", "addr:country": "SE", "addr:housenumber": "11", "addr:postcode": "702 28", "addr:street": "Nastagatan", "amenity": "restaurant", "cuisine": "regional", "email": "orebro@restaurangbankomat.se", "name": "BankOmat", "opening_hours": "Mo-Fr 11:00-14:00", "phone": "+46192772930", "website": "https://restaurangbankomat.se/orebro/"}}, {"type": "node", "id": 9412539982, "lat": 59.2540144, "lon": 15.242263, "tags": {"amenity": "restaurant", "cuisine": "pizza", "name": "Massimo", "opening_hours": "Mo-Th 08:30-20:00; Fr-Sa 08:30-21:00", "website": "https://massimopizza.se/"}}, {"type": "node", "id": 9449894580, "lat": 59.2851812, "lon": 15.2324185, "tags": {"addr:city": "\u00d6rebro", "addr:country": "SE", "addr:housenumber": "10", "addr:postcode": "70368", "addr:street": "H\u00f6glundagatan", "amenity": "restaurant", "cuisine": "pizza", "name": "Norrby Pizzeria", "opening_hours": "Mo-Su 11:00-21:00"}}, {"type": "node", "id": 9556782331, "lat": 59.2735286, "lon": 15.20367, "tags": {"amenity": "restaurant", "name": "Wasa k\u00e4llar'n"}}, {"type": "node", "id": 9559005283, "lat": 59.5185262, "lon": 15.0391999}, {"type": "node", "id": 9559005285, "lat": 59.5185898, "lon": 15.0392062}, {"type": "node", "id": 9559005286, "lat": 59.5209987, "lon": 15.0329624}, {"type": "node", "id": 9559005291, "lat": 59.5185605, "lon": 15.0415632}, {"type": "node", "id": 9559005296, "lat": 59.518961, "lon": 15.0413726}, {"type": "node", "id": 9559005302, "lat": 59.5186853, "lon": 15.0413387}, {"type": "node", "id": 9559018229, "lat": 59.5200347, "lon": 15.0399968}, {"type": "node", "id": 9559018246, "lat": 59.5189563, "lon": 15.0415535}, {"type": "node", "id": 9559018260, "lat": 59.5200231, "lon": 15.0402793}, {"type": "node", "id": 9559018263, "lat": 59.5210568, "lon": 15.0331278}, {"type": "node", "id": 9559018279, "lat": 59.5191686, "lon": 15.0385165, "tags": {"entrance": "yes", "name": "Entr\u00e9n till 47:an Restaurang & Pizza"}}, {"type": "node", "id": 9559018281, "lat": 59.5189296, "lon": 15.0413687, "tags": {"entrance": "yes"}}, {"type": "node", "id": 9559018283, "lat": 59.5185802, "lon": 15.0395546, "tags": {"entrance": "yes"}}, {"type": "node", "id": 9559018284, "lat": 59.5199282, "lon": 15.0402657}, {"type": "node", "id": 9559018306, "lat": 59.5209947, "lon": 15.0331227}, {"type": "node", "id": 9828373358, "lat": 59.2441489, "lon": 15.2184771}, {"type": "node", "id": 9969694597, "lat": 59.2684285, "lon": 15.2092733, "tags": {"amenity": "restaurant", "name": "Mangal BBQ"}}, {"type": "node", "id": 10557660874, "lat": 59.3303767, "lon": 14.5419639, "tags": {"entrance": "main"}}, {"type": "node", "id": 10557660903, "lat": 59.3303268, "lon": 14.54197}, {"type": "node", "id": 10557660904, "lat": 59.3303298, "lon": 14.5419563}, {"type": "node", "id": 10557660905, "lat": 59.3303827, "lon": 14.5417005}, {"type": "node", "id": 10557660906, "lat": 59.3303795, "lon": 14.5417152}, {"type": "node", "id": 10557660907, "lat": 59.3304265, "lon": 14.5417375}, {"type": "node", "id": 10557660908, "lat": 59.3303678, "lon": 14.5420046}, {"type": "node", "id": 10557666009, "lat": 59.3301411, "lon": 14.5417969}, {"type": "node", "id": 10557666010, "lat": 59.3301936, "lon": 14.5415582}, {"type": "node", "id": 10586982282, "lat": 59.3269113, "lon": 14.5232927, "tags": {"addr:city": "Karlskoga", "addr:country": "SE", "addr:housenumber": "2", "addr:postcode": "69131", "addr:street": "Torget", "amenity": "restaurant", "cuisine": "asian", "name": "Asian Wok", "opening_hours": "Mo-Th 11:00-20:00; Fr 11:00-21:00; Sa 12:00-21:00", "website": "https://asianwok.online/"}}, {"type": "node", "id": 10586982283, "lat": 59.3266375, "lon": 14.5231931, "tags": {"addr:city": "Karlskoga", "addr:country": "SE", "addr:housenumber": "6A", "addr:postcode": "69131", "addr:street": "Torget", "amenity": "restaurant", "name": "Joan's", "opening_hours": "Mo-Th 11:00-17:00; Fr 11:00-01:00; Sa 12:00-01:00, Su 12:00-20:00", "smoking": "no", "start_date": "2008", "website": "https://joans.se/karlskoga/"}}, {"type": "node", "id": 10586982285, "lat": 59.3267745, "lon": 14.5232245, "tags": {"addr:city": "Karlskoga", "addr:country": "SE", "addr:housenumber": "4", "addr:postcode": "69131", "addr:street": "Torget", "amenity": "restaurant", "cuisine": "indian", "name": "Royal Jaipur", "opening_hours": "Mo-Th 11:00-21:00; Fr 11:00-21:30; Sa 12:00-21:30; Su 12:00-20:00", "website": "https://royaljaipur.se/"}}, {"type": "node", "id": 10646823702, "lat": 59.3195397, "lon": 14.5044878, "tags": {"addr:city": "Karlskoga", "addr:country": "SE", "addr:housenumber": "42", "addr:postcode": "69144", "addr:street": "Skrantabacken", "amenity": "restaurant", "cuisine": "sushi", "delivery": "yes", "name": "Sakura Sushi", "takeaway": "yes"}}, {"type": "node", "id": 10729489855, "lat": 59.2669454, "lon": 15.2290976, "tags": {"addr:city": "\u00d6rebro", "addr:housenumber": "45", "addr:postcode": "702 13", "addr:street": "Engelbrektsgatan", "amenity": "restaurant", "contact:email": "kontakt@papapino.online", "contact:phone": "+46 19-761 72 90", "cuisine": "italian", "name": "Papa pino", "opening_hours": "Tu-Th 11:00-21:00, Fr 11:00-23:00, Sa 13:00-23:00, Su 13:00-20:00", "takeaway": "yes", "website": "https://www.papapino.online/"}}, {"type": "node", "id": 10769125905, "lat": 59.3263386, "lon": 14.5233528, "tags": {"amenity": "restaurant", "cuisine": "japanese;sushi", "name:en": "Daisuke"}}, {"type": "node", "id": 10989076094, "lat": 59.2779781, "lon": 15.2035567, "tags": {"amenity": "restaurant", "cuisine": "asian;vietnamese", "name": "Vina pho"}}, {"type": "node", "id": 10989081751, "lat": 59.2778011, "lon": 15.2031144, "tags": {"amenity": "cafe", "name": "V\u00e4sterport", "opening_hours": "Mo-Fr 08:00-15:30", "payment:cash": "yes", "website": "https://www.konditorivasterport.com/"}}, {"type": "node", "id": 11132971071, "lat": 59.5196714, "lon": 15.0394371, "tags": {"entrance": "yes"}}, {"type": "node", "id": 11132971077, "lat": 59.5195731, "lon": 15.0396005}, {"type": "node", "id": 11154554614, "lat": 59.2598408, "lon": 15.2071055}, {"type": "node", "id": 11154554691, "lat": 59.2598666, "lon": 15.2071988}, {"type": "node", "id": 11154554699, "lat": 59.2598656, "lon": 15.2070931}, {"type": "node", "id": 11217230975, "lat": 59.259854, "lon": 15.2071531, "tags": {"entrance": "yes"}}, {"type": "node", "id": 11217230984, "lat": 59.2600254, "lon": 15.2071686, "tags": {"entrance": "yes"}}, {"type": "node", "id": 11434977109, "lat": 59.2004186, "lon": 15.2655749, "tags": {"amenity": "cafe", "name": "Spretiga ladan"}}, {"type": "node", "id": 11517427950, "lat": 59.5055083, "lon": 14.9650581, "tags": {"amenity": "restaurant", "name": "Trattoria Gyttorp"}}, {"type": "node", "id": 11559375438, "lat": 59.5172552, "lon": 15.0428907}, {"type": "node", "id": 11559375439, "lat": 59.517648, "lon": 15.0429714}, {"type": "node", "id": 11569044323, "lat": 59.1656915, "lon": 15.2646557}, {"type": "node", "id": 11569044324, "lat": 59.1656938, "lon": 15.2647264}, {"type": "node", "id": 11569044325, "lat": 59.1657865, "lon": 15.2647147}, {"type": "node", "id": 11569044326, "lat": 59.1657841, "lon": 15.2646441}, {"type": "way", "id": 151667264, "nodes": [1645060352, 1645060351, 1645060347, 2049724332, 9074117055, 1645060341, 1645060342, 1645060343, 1645060344, 1645060348, 1645060346, 1645060349, 1645060350, 1645060352], "tags": {"amenity": "restaurant", "building": "yes", "name": "Boforsm\u00e4ssen", "short_name": "M\u00e4ssen"}}, {"type": "way", "id": 151867252, "nodes": [1647057277, 1647057276, 1647057269, 1647057271, 1647057277], "tags": {"amenity": "restaurant", "building": "yes", "name": "W\u00e4rdshuset"}}, {"type": "way", "id": 153466230, "nodes": [1661356844, 1661356867, 1661356852, 1661356924, 1661356960, 1661356844], "tags": {"amenity": "restaurant", "building": "yes", "name": "Strandkanten", "phone": "+4658656780", "website": "https://www.strandkanten.nu/", "wheelchair": "yes"}}, {"type": "way", "id": 180604467, "nodes": [1910319801, 1910319788, 1910319733, 1910319759, 1910319801], "tags": {"addr:city": "\u00d6rebro", "addr:country": "SE", "addr:housenumber": "10", "addr:street": "Skolgatan", "amenity": "cafe", "building": "yes", "name": "M\u00e4rtas"}}, {"type": "way", "id": 188129034, "nodes": [475153508, 1987563135, 1987563138, 1987563114, 1987563105, 1987563064, 1987563060, 1987563034, 1987563020, 1987563028, 1987563025, 1987563097, 1987563081, 1987563118, 1987563120, 1987563142, 475153508], "tags": {"addr:city": "\u00d6rebro", "addr:country": "SE", "addr:housenumber": "49", "addr:postcode": "703 46", "addr:street": "Hagagatan", "amenity": "restaurant", "brand": "Pizza Hut", "brand:wikidata": "Q191615", "brand:wikipedia": "en:Pizza Hut", "building": "yes", "cuisine": "pizza", "name": "Pizza Hut", "wheelchair": "yes"}}, {"type": "way", "id": 194191696, "nodes": [9559005296, 9559018246, 2047048422, 3827743289, 9559018281, 9559005296], "tags": {"addr:city": "Nora", "addr:country": "SE", "addr:postcode": "713 31", "addr:street": "Kungsgatan", "amenity": "restaurant", "building": "yes", "cuisine": "pizza"}}, {"type": "way", "id": 194792559, "nodes": [9559018306, 9559005286, 2052969047, 9559018263, 9559018306], "tags": {"addr:country": "SE", "amenity": "cafe", "building": "yes"}}, {"type": "way", "id": 194838274, "nodes": [2053502556, 2053502561, 2053502554, 2053502557, 2053502546, 2513877783, 2513877782, 2053502541, 2053502556], "tags": {"amenity": "restaurant", "building": "yes", "email": "info@lannalodge.se", "name": "Lakelodge", "opening_hours": "Mo-Su 09:00-17:00", "operator": "Lanna Lodge", "website": "http://www.lannalodge.se/lakelodge/"}}, {"type": "way", "id": 196658840, "nodes": [9559005285, 2069629597, 9559018283, 2069629595, 2069629581, 2069629583, 3830069099, 2069629584, 9559005283, 9559005285], "tags": {"amenity": "cafe", "building": "yes"}}, {"type": "way", "id": 227404155, "nodes": [2360919637, 2360919635, 2360919644, 2360919647, 2360919654, 2360919656, 2360919646, 2360919642, 2360919637], "tags": {"amenity": "restaurant", "building": "yes", "name": "Restaurang Svalan", "wheelchair": "limited"}}, {"type": "way", "id": 228367247, "nodes": [2370511534, 2370511531, 2370511535, 2370511530, 2370511526, 2370511525, 2370511523, 2370511533, 2370511534], "tags": {"amenity": "cafe", "building": "yes", "name": "Kaffestugan", "opening_hours": "Jun 1-Aug 31: 10:00-17:00"}}, {"type": "way", "id": 247208008, "nodes": [2541382351, 2541382349, 2541382345, 2541382347, 2541382351], "tags": {"addr:city": "\u00d6rebro", "addr:postcode": "70230", "addr:street": "Lindhultsv\u00e4gen 1A", "amenity": "restaurant", "building": "yes", "building:levels": "1", "cuisine": "pizza;kebab;salad", "name": "Adolfsbergs Restaurang & Pizzeria", "takeaway": "yes"}}, {"type": "way", "id": 249509449, "nodes": [2561020474, 2561020473, 2561020469, 2561020470, 2561020474], "tags": {"addr:city": "Ervalla", "addr:country": "SE", "addr:housenumber": "123", "addr:postcode": "71894", "addr:street": "Mogetorp", "amenity": "restaurant", "building": "yes", "cuisine": "regional", "name": "Mogetorps v\u00e4rdshus"}}, {"type": "way", "id": 252108062, "nodes": [2582183386, 2582183388, 2582183375, 2582183373, 2582183386], "tags": {"amenity": "cafe", "building": "yes", "name": "Caf\u00e9 Ekeliden"}}, {"type": "way", "id": 260851835, "nodes": [2664231409, 2664231407, 2664231403, 2664231405, 2664231409], "tags": {"amenity": "restaurant", "building": "yes", "cuisine": "pizza"}}, {"type": "way", "id": 261208970, "nodes": [2602136835, 2668352736, 2602136878, 9828373358, 2602136875, 2602136873, 2602136845, 2602136847, 2602136849, 2602136851, 2602136853, 2602136855, 2602136857, 2602136870, 2668352738, 2668352741, 2602136835], "tags": {"amenity": "cafe", "name": "Caf\u00e9 Skogen", "operator": "IOGT"}}, {"type": "way", "id": 290698198, "nodes": [2942062854, 2570745665, 2570745664, 2942062853]}, {"type": "way", "id": 290698200, "nodes": [2942062853, 2942062854]}, {"type": "way", "id": 293990235, "nodes": [2975629393, 2975629394, 2975629392, 287894649, 2975629393], "tags": {"addr:city": "Karlskoga", "addr:country": "SE", "addr:housenumber": "7", "addr:postcode": "691 41", "addr:street": "Strandparksv\u00e4gen", "amenity": "cafe", "building": "yes", "email": "gamlapumphuset@hotmail.se", "name": "Gamla Pumphuset", "opening_hours": "Mo-Fr 10:00-19:00, Sa 11:00-19:00; Su 11:00-16:00", "phone": "+4658634500"}}, {"type": "way", "id": 295269319, "nodes": [2989723434, 2989723435, 2989723436, 2989723437, 2989723438, 2989723439, 2989723440, 2989723441, 2989723434], "tags": {"amenity": "restaurant", "building": "yes", "name": "Nora golfrestaurant"}}, {"type": "way", "id": 323956686, "nodes": [3307246489, 3307246490, 3307246491, 3307246492, 3307246489], "tags": {"amenity": "cafe", "building": "yes", "name": "Fyra systrar"}}, {"type": "way", "id": 329294437, "nodes": [3361621109, 3361621110, 3361621111, 3361621112, 3361621109], "tags": {"amenity": "restaurant", "building": "yes", "cuisine": "pizza", "name": "Grillcenter"}}, {"type": "way", "id": 336108688, "nodes": [3431865600, 3431865598, 3431865597, 3431865599, 3431865600], "tags": {"addr:city": "\u00d6rebro", "addr:country": "SE", "addr:housenumber": "6", "addr:street": "Vaktelv\u00e4gen", "amenity": "restaurant", "building": "yes", "contact:website": "http://www.hagagrillen.net/", "name": "Hagagrillen", "source:addr": "\u00d6rebro \u00f6ppen data", "source:geometry": "Bing 2012"}}, {"type": "way", "id": 360115186, "nodes": [3647148123, 3647148124, 3647148125, 3647148126, 3647148187, 3647148123], "tags": {"amenity": "restaurant", "building": "yes", "cuisine": "burger;kebab;pizza", "name": "Lill\u00e5ns Gatuk\u00f6k", "opening_hours": "10:00-22:00"}}, {"type": "way", "id": 379478638, "nodes": [9559005291, 2047048416, 8576350559, 9559005302, 2047048420, 9559005291], "tags": {"addr:city": "Nora", "addr:country": "SE", "addr:postcode": "713 31", "addr:street": "Kungsgatan", "amenity": "restaurant", "building": "yes"}}, {"type": "way", "id": 379679475, "nodes": [3830069154, 3830069146, 2057429648, 11132971077, 3830069157, 3830069159, 11132971071, 3830069152, 3830069154], "tags": {"amenity": "restaurant", "building": "yes", "source": "Bing"}}, {"type": "way", "id": 449960216, "nodes": [4468790941, 4468790943, 4468790944, 4468790945, 4468790946, 4468790942, 4468790941], "tags": {"amenity": "restaurant", "building": "yes", "cuisine": "pizza", "name": "Restaurang Valentiona"}}, {"type": "way", "id": 456380244, "nodes": [4526410108, 7882206357, 7882206356, 4526410109, 4526410110, 4526410111, 4526410108], "tags": {"amenity": "restaurant", "building": "commercial", "building:levels": "1", "name": "S\u00f6rby Grill & Pizzeria", "roof:levels": "0", "roof:material": "roof_tiles", "roof:orientation": "along", "roof:shape": "gabled"}}, {"type": "way", "id": 575529420, "nodes": [5522403172, 5522403171]}, {"type": "way", "id": 575529426, "nodes": [5522403171, 5522403170, 5522403173, 5522403165, 5522403164, 5522403172]}, {"type": "way", "id": 576319872, "nodes": [5527833362, 5527833363, 5527833364, 5527833365, 5527833362], "tags": {"amenity": "cafe", "building": "yes", "name": "Svanen"}}, {"type": "way", "id": 702560166, "nodes": [6597623855, 6597623854, 6597623853, 6597623852, 6597623855], "tags": {"amenity": "cafe", "building": "yes", "building:levels": "2", "cuisine": "regional", "indoor_seating": "yes", "outdoor_seating": "yes"}}, {"type": "way", "id": 704707612, "nodes": [6617873184, 6617873182, 5852914678, 6617873183, 6617873184], "tags": {"addr:country": "SE", "addr:housenumber": "8", "addr:street": "Dalbygatan", "amenity": "restaurant", "building": "commercial", "cuisine": "kebab;pizza", "name": "Svampens gatuk\u00f6k", "opening_hours": "Mo-Fr 11:00-21:00; Sa,Su 12:00-21:00"}}, {"type": "way", "id": 885682423, "nodes": [8235734889, 2053470488, 2053470522, 2053470521, 9559018279, 8235734856, 8235734889], "tags": {"addr:city": "Nora", "addr:country": "SE", "addr:housenumber": "24", "addr:postcode": "713 31", "addr:street": "R\u00e5dmansgatan", "amenity": "restaurant", "building": "yes", "cuisine": "pizza"}}, {"type": "way", "id": 907179378, "nodes": [8423929860, 8423929857, 8423929862, 8423929861, 8423929860]}, {"type": "way", "id": 907179379, "nodes": [8423929862, 8423929861, 8423929860, 8423929859, 8423929858, 8423929864, 8423929863, 8423929862]}, {"type": "way", "id": 907179392, "nodes": [8423929904, 8423929899, 8423929898, 8430292133, 8430292131, 8430292130, 8430292129, 8423929990, 8423929900, 8423929901, 8423929904], "tags": {"amenity": "restaurant", "check_date": "2023-07-17", "cuisine": "pizza;mexican", "indoor": "room", "level": "1", "name": "Paco's", "phone": "+46 19-26 20 20", "room": "shop"}}, {"type": "way", "id": 907179402, "nodes": [8423929939, 8423929938, 8423929935, 8423929934, 8423929933, 8427182630, 8423929932, 8423929931, 8423929930, 8423929939]}, {"type": "way", "id": 907179403, "nodes": [8423929941, 8423929939, 8423929938, 8423929937, 8423929936, 8423929940, 8423929941]}, {"type": "way", "id": 907179404, "nodes": [8423929946, 8423929945, 8423929944, 7201341222, 8423929943, 8423929942, 8423929941, 8423929940, 8423929946], "tags": {"addr:city": "\u00d6rebro", "addr:country": "SE", "addr:housenumber": "1", "addr:postcode": "702 36", "addr:street": "S\u00e4ljarev\u00e4gen", "amenity": "restaurant", "check_date": "2023-07-11", "cuisine": "sushi", "indoor": "area", "level": "1", "name": "Sushi Yama", "opening_hours": "Mo-Fr 10:00-20:00; Sa 10:00-18:00; Su 11:00-18:00", "phone": "+46 19 22 33 20", "website": "https://www.sushiyama.se/"}}, {"type": "way", "id": 907179405, "nodes": [8423929950, 8423929949, 8423929948, 8423929947, 8423929950], "tags": {"amenity": "bar", "indoor": "area", "level": "1", "name": "Naked Juicebar", "phone": "+46 73-673 17 55"}}, {"type": "way", "id": 907179406, "nodes": [8423929958, 8423929957, 8423929956, 8423929955, 8423929954, 8423929953, 8423929952, 8423929927, 8423929926, 8423929951, 8423929958], "tags": {"amenity": "cafe", "indoor": "area", "level": "1", "name": "The Coffee", "phone": "+46 19-22 54 55", "takeaway": "yes"}}, {"type": "way", "id": 907179422, "nodes": [2566027066, 8423930023, 8423930022, 8423930021, 8423930020, 8423930019, 2566027062, 8430296640, 8427182633, 2566027066], "tags": {"amenity": "restaurant", "check_date": "2023-07-17", "cuisine": "ice_cream;italian;pasta;regional", "indoor": "room", "level": "1", "name": "Bellini", "room": "shop"}}, {"type": "way", "id": 907903434, "nodes": [8430296564, 8430296559, 8430296558, 8430296560, 8430296564], "tags": {"amenity": "cafe", "indoor": "room", "level": "2", "name": "Le Croissant", "room": "shop", "second_hand": "no", "wheelchair": "yes"}}, {"type": "way", "id": 907903440, "nodes": [8430296591, 8430296584, 8430296583, 8430296589, 8430296590, 8430296591], "tags": {"addr:housenumber": "1", "addr:street": "S\u00e4ljarev\u00e4gen", "amenity": "restaurant", "check_date": "2023-07-17", "cuisine": "asian", "indoor": "room", "level": "2", "name": "Chili & Wok", "phone": "+46 19-22 30 81", "room": "shop"}}, {"type": "way", "id": 907903442, "nodes": [8430296594, 8430292155, 8430296593, 8430292158, 8430292168, 8430296594]}, {"type": "way", "id": 907903444, "nodes": [8430296604, 8430296601, 8430296600, 8430296599, 8430296598, 8430296597, 8430292184, 8430296596, 8430296603, 8430296604]}, {"type": "way", "id": 907903453, "nodes": [2566027066, 8427182633, 8430296640, 8430292183, 8430296639, 8430296638, 8430296637, 8430296636, 8430296630, 2566027066], "tags": {"amenity": "restaurant", "indoor": "room", "level": "2", "name": "Restaurangtorget", "phone": "+46 19-22 35 42", "room": "shop"}}, {"type": "way", "id": 967649982, "nodes": [8952180225, 11559375439, 8952149715, 8952180219, 8952180232, 8952149714, 8952180230, 8952149713, 8952180221, 8952180229, 8952149711, 8952180223, 11559375438, 8952180231, 8952180225], "tags": {"amenity": "restaurant", "building": "yes", "name": "P\u00e5 Sp\u00e5ret"}}, {"type": "way", "id": 1037804421, "nodes": [9559018260, 9559018229, 3830069170, 9091603034, 9559018284, 9559018260], "tags": {"amenity": "restaurant", "building": "yes", "cuisine": "greek", "source": "Bing"}}, {"type": "way", "id": 1093781479, "nodes": [8430296579, 8430296581, 8430296583, 8430296584, 8430296582, 8430296580, 8430296579], "tags": {"amenity": "restaurant", "check_date": "2023-07-11", "cuisine": "kebab", "indoor": "room", "level": "2", "name": "Warma West Shawarma", "room": "shop"}}, {"type": "way", "id": 1132274340, "nodes": [10557660907, 10557660874, 10557660908, 10557660903, 10557660904, 10557666009, 10557666010, 10557660906, 10557660905, 10557660907], "tags": {"addr:city": "Karlskoga", "addr:country": "SE", "addr:housenumber": "3", "addr:postcode": "69133", "addr:street": "Filipsstadsv\u00e4gen", "amenity": "restaurant", "building": "commercial", "cuisine": "asian", "email": "karlskoga@rosegardengroup.se", "name": "Rosegarden", "opening_hours": "Mo-Fr 11:30-20:30; Sa,Su 12:00-20:30", "phone": "+46 586 35888", "website": "https://rosegarden.se/locations/karlskoga"}}, {"type": "way", "id": 1225477335, "nodes": [1696590637, 1696590662, 1696590678, 1696590664, 1696590658, 11217230984, 1696590655, 1696590651, 7899018301, 7899018300, 7899018299, 11154554699, 1696590623, 11154554614, 11217230975, 11154554691, 1696590616, 7899018298, 7899018297, 7899018296, 7899018295, 1696590637], "tags": {"amenity": "cafe", "building": "yes", "name": "Caf\u00e9 Innova"}}, {"type": "way", "id": 1244564949, "nodes": [11569044323, 11569044324, 11569044325, 11569044326, 11569044323], "tags": {"amenity": "cafe", "building": "yes"}}, {"type": "relation", "id": 3862798, "members": [{"type": "way", "ref": 290698198, "role": "outer"}, {"type": "way", "ref": 290698200, "role": "outer"}], "tags": {"addr:city": "Sk\u00f6llersta", "addr:country": "SE", "addr:housenumber": "24", "addr:postcode": "69774", "addr:street": "Klockarv\u00e4gen", "amenity": "restaurant", "building": "yes", "cuisine": "pizza;kebab", "name": "Pizzeria Eldorado", "phone": "019-23 07 70", "type": "multipolygon"}}, {"type": "relation", "id": 8170944, "members": [{"type": "way", "ref": 575529426, "role": "outer"}, {"type": "way", "ref": 575529420, "role": "outer"}], "tags": {"amenity": "restaurant", "building": "yes", "cuisine": "pizza;kebab", "name": "Semurg Pizza & Kebab", "type": "multipolygon"}}, {"type": "relation", "id": 12326735, "members": [{"type": "way", "ref": 907903442, "role": "outer"}, {"type": "way", "ref": 907903444, "role": "outer"}], "tags": {"amenity": "cafe", "brand": "Espresso House", "brand:wikidata": "Q10489162", "check_date": "2023-07-11", "cuisine": "coffee_shop", "indoor": "room", "level": "2", "name": "Espresso House", "phone": "+46 76-521 91 65", "room": "shop", "takeaway": "yes", "type": "multipolygon"}}, {"type": "relation", "id": 14571161, "members": [{"type": "way", "ref": 907179378, "role": "outer"}, {"type": "way", "ref": 907179403, "role": "outer"}], "tags": {"amenity": "restaurant", "cuisine": "indian", "indoor": "room", "level": "1", "name": "Kosheli", "phone": "+46 19-22 32 22", "room": "shop", "type": "multipolygon", "wheelchair": "yes"}}, {"type": "relation", "id": 14571162, "members": [{"type": "way", "ref": 907179379, "role": "outer"}, {"type": "way", "ref": 907179402, "role": "outer"}], "tags": {"amenity": "restaurant", "check_date": "2023-07-11", "cuisine": "burger", "indoor": "room", "level": "1", "name": "Bastard Burgers", "phone": "+46 19-10 82 25", "room": "shop", "type": "multipolygon"}}]}