{"version": 0.6, "generator": "Overpass API 0.7.61.5 4133829e", "osm3s": {"timestamp_osm_base": "2024-03-08T21:11:44Z", "copyright": "The data included in this document is from www.openstreetmap.org. The data is made available under ODbL."}, "elements": [{"type": "node", "id": 462750840, "lat": 57.181093, "lon": 14.0492865}, {"type": "node", "id": 766871710, "lat": 57.1952912, "lon": 14.1373441, "tags": {"amenity": "cafe"}}, {"type": "node", "id": 829908713, "lat": 57.1845923, "lon": 14.0417481, "tags": {"addr:country": "SE", "addr:housenumber": "22", "addr:street": "Storgatan", "amenity": "restaurant", "brand": "Rosegarden", "cuisine": "asian;thai;vietnamese;chinese;japanese", "name": "Rosegarden", "opening_hours": "Mo-Th 11:30-21:00, Fr 11:30-22:00, Sa 12:00-22:00, Su 13:00-21:00", "phone": "+46 370 185 50", "takeaway": "yes", "website": "https://rosegarden.se/find-us?restaurant=5713bdbbad4f21090090d479"}}, {"type": "node", "id": 1801786963, "lat": 57.1841453, "lon": 14.0451474, "tags": {"addr:city": "V\u00e4rnamo", "addr:country": "SE", "addr:housenumber": "32", "addr:street": "Storgatan", "amenity": "cafe", "brand": "Stigs Caf\u00e9", "contact:facebook": "https://www.facebook.com/dittcafelivingroom/", "contact:instagram": "dittcafelivingroom", "name": "Ditt Caf\u00e9 Livingroom", "old_name": "Stigs Pelikanen", "opening_hours": "Mo-We 09:00-18:00, Th-Fr 09:00-22:00, Sa 09:00-18:00, Su 10:00-16:00", "phone": "+46 370-140 50", "website": "https://info.dittcafe.se/sv/cafeer/stigs/"}}, {"type": "node", "id": 1859797162, "lat": 57.2633469, "lon": 13.828306, "tags": {"amenity": "restaurant", "cuisine": "steak_house", "name": "Diligensen"}}, {"type": "node", "id": 1859797218, "lat": 57.2635022, "lon": 13.8288341, "tags": {"amenity": "restaurant", "cuisine": "regional", "name": "Bonanza"}}, {"type": "node", "id": 1859797266, "lat": 57.2633282, "lon": 13.8279249, "tags": {"amenity": "restaurant", "cuisine": "pizza", "name": "Pizzeria Manolito"}}, {"type": "node", "id": 1859797268, "lat": 57.2628177, "lon": 13.8321628, "tags": {"amenity": "cafe", "name": "Kristinastugan"}}, {"type": "node", "id": 1859797342, "lat": 57.2635951, "lon": 13.8393243, "tags": {"amenity": "restaurant", "cuisine": "mexican", "name": "Mexican Cantina"}}, {"type": "node", "id": 1859797437, "lat": 57.2629626, "lon": 13.8340242, "tags": {"amenity": "restaurant", "cuisine": "regional", "name": "Restaurang El Toro"}}, {"type": "node", "id": 1859797558, "lat": 57.2637242, "lon": 13.8290702, "tags": {"amenity": "cafe", "cuisine": "sandwich", "name": "Mamma Daltons"}}, {"type": "node", "id": 1867662876, "lat": 57.3153947, "lon": 14.2909084, "tags": {"addr:city": "Vrigstad", "addr:country": "SE", "addr:housenumber": "2", "addr:postcode": "57003", "addr:street": "Flahult", "amenity": "cafe", "name": "Caf\u00e8 Timjan", "opening_hours": "12:00-18:00", "phone": "+46 706-346275", "website": "https://www.timjan.se/"}}, {"type": "node", "id": 1867663565, "lat": 57.3159126, "lon": 14.2921772, "tags": {"addr:city": "Vrigstad", "addr:country": "SE", "addr:housenumber": "2", "addr:postcode": "57003", "addr:street": "Flahult", "amenity": "restaurant", "name": "Restaurang Timjan", "phone": "+46 706-346275", "website": "https://www.timjan.se/"}}, {"type": "node", "id": 2368317992, "lat": 56.9788407, "lon": 14.0342062, "tags": {"amenity": "cafe", "name": "Sussie\u00b4s Caf\u00e9", "source": "http://ostkaka.nu/"}}, {"type": "node", "id": 2371712097, "lat": 56.9192302, "lon": 13.9695883, "tags": {"amenity": "cafe", "name": "Lekland"}}, {"type": "node", "id": 2776846000, "lat": 57.1820459, "lon": 14.0576512, "tags": {"addr:country": "SE", "addr:housenumber": "2", "addr:street": "Malm\u00f6v\u00e4gen", "amenity": "restaurant", "contact:facebook": "https://www.facebook.com/grillochpizzahuset/", "cuisine": "pizza", "name": "Grill & pizzahuset", "opening_hours": "Mo-Fr 10:00-22:00; Sa,Su 11:00-23:00"}}, {"type": "node", "id": 2824906118, "lat": 57.174853, "lon": 13.7330177, "tags": {"amenity": "restaurant", "cuisine": "regional", "name": "Bredaryds W\u00e4rdshus & Bryggeri"}}, {"type": "node", "id": 2824910682, "lat": 57.1729803, "lon": 13.7383928, "tags": {"amenity": "restaurant", "cuisine": "chinese", "name": "Bambu"}}, {"type": "node", "id": 2929645717, "lat": 57.2423386, "lon": 14.5130523, "tags": {"addr:city": "R\u00f6rvik", "addr:country": "SE", "addr:postcode": "57001", "addr:street": "Nya Hj\u00e4lmseryd", "amenity": "cafe", "contact:email": "info@suzis.se", "contact:website": "http://suzis.se", "name": "Suzis Caf\u00e9 med B&B"}}, {"type": "node", "id": 3775204972, "lat": 57.114964, "lon": 14.1669367, "tags": {"addr:city": "Bor", "addr:country": "SE", "addr:housenumber": "1", "addr:postcode": "33015", "addr:street": "Centrumv\u00e4gen", "amenity": "restaurant", "cuisine": "pizza", "delivery": "no", "name": "Bors pizzeria", "opening_hours": "11:00-21:00", "smoking": "no", "takeaway": "yes"}}, {"type": "node", "id": 3890876562, "lat": 57.0603546, "lon": 13.8494692}, {"type": "node", "id": 3890876564, "lat": 57.0604473, "lon": 13.849798}, {"type": "node", "id": 3890876565, "lat": 57.0603003, "lon": 13.8496382}, {"type": "node", "id": 3890876569, "lat": 57.0605016, "lon": 13.8496291}, {"type": "node", "id": 5104026575, "lat": 57.1928392, "lon": 14.3305816, "tags": {"amenity": "cafe"}}, {"type": "node", "id": 5365410397, "lat": 57.1857154, "lon": 14.0265714}, {"type": "node", "id": 5365410398, "lat": 57.1857938, "lon": 14.0267799}, {"type": "node", "id": 5365410399, "lat": 57.1856296, "lon": 14.0269902}, {"type": "node", "id": 5365410400, "lat": 57.1855512, "lon": 14.0267817}, {"type": "node", "id": 5809258402, "lat": 57.1620244, "lon": 14.0746829, "tags": {"amenity": "restaurant", "brand": "Rosegarden", "cuisine": "asian", "drive_through": "yes", "name": "Rosegarden", "opening_hours:covid19": "Mo-Fr 11:30-21:00; Sa-Su 12:30-20:00", "phone": "+46 370-802 88", "takeaway": "yes", "website": "https://rosegarden.se/find-us?restaurant=5756e6476d4c3213002735af"}}, {"type": "node", "id": 5809258403, "lat": 57.1615706, "lon": 14.0752512, "tags": {"amenity": "cafe", "drive_in": "yes", "name": "Stigs Caf\u00e9 & Bageri"}}, {"type": "node", "id": 6084507006, "lat": 57.1838902, "lon": 14.0289336}, {"type": "node", "id": 6084507007, "lat": 57.1836509, "lon": 14.0289914}, {"type": "node", "id": 6084507008, "lat": 57.183639, "lon": 14.0288236}, {"type": "node", "id": 6084507009, "lat": 57.1838381, "lon": 14.0287754}, {"type": "node", "id": 6833011534, "lat": 57.1156349, "lon": 14.1688482, "tags": {"amenity": "cafe", "cuisine": "coffee_shop"}}, {"type": "node", "id": 7765674282, "lat": 57.1862389, "lon": 14.0388117, "tags": {"addr:city": "V\u00e4rnamo", "addr:country": "SE", "addr:housenumber": "7B", "addr:postcode": "331 31", "addr:street": "Storgatsbacken", "amenity": "restaurant", "contact:facebook": "https://www.facebook.com/pages/category/Pizza-Place/V%C3%A4rnamo-Kebabshi-124776954903061/", "cuisine": "pizza;kebab", "name": "Pizzeria Kebabshi", "opening_hours": "Mo-Fr 11:30-20:45; Sa,Su 12:30-20:45", "phone": "+46 370-108 88", "website": "https://kebabshi.se/"}}, {"type": "node", "id": 7765674283, "lat": 57.1861751, "lon": 14.0382325, "tags": {"addr:city": "V\u00e4rnamo", "addr:country": "SE", "addr:housenumber": "6b", "addr:postcode": "331 30", "addr:street": "Storgatsbacken", "amenity": "restaurant", "contact:instagram": "tapasmarketvmo", "cuisine": "tapas", "email": "bokning@tapasmarket.se", "name": "Tapasmarket", "opening_hours": "Mo-Th 11:30-14:00, 17:00-22:00; Fr 11:30-14:00, 17:00+; Sa 17:00+", "phone": "+46 370-190 20", "website": "https://tapasmarket.se/"}}, {"type": "node", "id": 7765739187, "lat": 57.1850861, "lon": 14.0412243, "tags": {"addr:city": "V\u00e4rnamo", "addr:country": "SE", "addr:housenumber": "23 B", "addr:postcode": "331 37", "addr:street": "Storgatsbacken", "amenity": "cafe", "brand": "Espresso House", "brand:wikidata": "Q10489162", "brand:wikipedia": "sv:Espresso House", "cuisine": "coffee_shop", "name": "Espresso House", "opening_hours": "Mo-Fr 08:00-19:00; Sa-Su 09:00-18:00", "phone": "+46 76 521 93 43", "takeaway": "yes", "website": "https://espressohouse.com/coffee-shops/vrnamo/"}}, {"type": "node", "id": 7765739188, "lat": 57.185358, "lon": 14.0398812, "tags": {"addr:city": "V\u00e4rnamo", "addr:country": "SE", "addr:housenumber": "18A", "addr:street": "Storgatsbacken", "amenity": "restaurant", "cuisine": "pizza;salads", "name": "D8 Bistro & Caf\u00e9", "opening_hours": "Tu,We 11:00-14:00,17:00-21:00; Th 11:00-14:00,17:00-22:00; Fr 11:00-14:00,17:00-23:00; Sa 11:00-23:00", "phone": "+4637070100", "website": "https://d8bistro.se/"}}, {"type": "node", "id": 7765739189, "lat": 57.1853356, "lon": 14.0404427, "tags": {"addr:city": "V\u00e4rnamo", "addr:country": "SE", "addr:housenumber": "19", "addr:postcode": "331 30", "addr:street": "Storgatsbacken", "amenity": "restaurant", "contact:facebook": "https://www.facebook.com/harrysvarnamo/", "contact:instagram": "harrysvarnamo", "email": "varnamo@harrys.se", "name": "Harrys", "opening_hours": "Mo 00:00-02:00, 17:00-22:00; Tu, We 17:00-22:00; Th 17:00-23:00; Fr 17:00-24:00; Sa 00:00-02:00, 12:00-16:00, 18:00-24:00", "phone": "+46 370 - 498 00", "website": "https://www.harrys.se/restauranger/varnamo/"}}, {"type": "node", "id": 7765739530, "lat": 57.1880641, "lon": 14.0370678}, {"type": "node", "id": 7765739531, "lat": 57.1881083, "lon": 14.0370661}, {"type": "node", "id": 7805888700, "lat": 57.028205, "lon": 14.0133291, "tags": {"addr:city": "Vittaryd", "addr:postcode": "341 55", "addr:street": "Toftaholm Herrg\u00e5rd", "amenity": "restaurant", "cuisine": "scandinavian;regional", "name": "Toftaholm restaurant", "opening_hours": "Mo-Fr 07:00-09:30,12:00-15:00,18:00-21:00; Sa 08:00-10:00,12:00-15:00,18:00-21:00; Su 08:00-10:00,12:00-17:00", "phone": "+46 370 440 55", "website": "https://www.toftaholm.se/"}}, {"type": "node", "id": 7917874009, "lat": 57.174419, "lon": 14.0598012, "tags": {"addr:city": "V\u00e4rnamo", "addr:country": "SE", "addr:housenumber": "59D", "addr:postcode": "33142", "addr:street": "Ringv\u00e4gen", "amenity": "restaurant", "contact:facebook": "https://www.facebook.com/soderportrestaurang", "cuisine": "asian;Swedish", "name": "S\u00f6derport", "opening_hours": "Mo-Sa 11:30-15:00", "phone": "+46 72-027 77 55"}}, {"type": "node", "id": 7989574703, "lat": 57.1894275, "lon": 14.0380606}, {"type": "node", "id": 7989574704, "lat": 57.1894244, "lon": 14.0381465}, {"type": "node", "id": 7989574705, "lat": 57.1895036, "lon": 14.0381532}, {"type": "node", "id": 7989574706, "lat": 57.1895072, "lon": 14.0381643}, {"type": "node", "id": 7989574707, "lat": 57.1894792, "lon": 14.038405}, {"type": "node", "id": 7989574708, "lat": 57.1893894, "lon": 14.0384086}, {"type": "node", "id": 7989574709, "lat": 57.1893839, "lon": 14.0383975}, {"type": "node", "id": 7989574710, "lat": 57.1893942, "lon": 14.0382937}, {"type": "node", "id": 7989574711, "lat": 57.1893515, "lon": 14.0382877}, {"type": "node", "id": 7989574712, "lat": 57.1893491, "lon": 14.0383328}, {"type": "node", "id": 7989574713, "lat": 57.1893005, "lon": 14.0383272}, {"type": "node", "id": 7989574714, "lat": 57.1893054, "lon": 14.0382268}, {"type": "node", "id": 7989574715, "lat": 57.1893104, "lon": 14.0381337}, {"type": "node", "id": 7989574716, "lat": 57.1893012, "lon": 14.038218}, {"type": "node", "id": 7989574717, "lat": 57.1893578, "lon": 14.0381398}, {"type": "node", "id": 7989574718, "lat": 57.1893609, "lon": 14.0380538}, {"type": "node", "id": 7989574719, "lat": 57.1894737, "lon": 14.0384152}, {"type": "node", "id": 7989574757, "lat": 57.1875326, "lon": 14.0379947, "tags": {"addr:city": "V\u00e4rnamo", "addr:country": "SE", "addr:housenumber": "10", "addr:postcode": "331 34", "addr:street": "J\u00f6nk\u00f6pingsv\u00e4gen", "amenity": "restaurant", "contact:facebook": "https://www.facebook.com/people/Pizzeria-Akropolis/100083395243750/", "cuisine": "pizza", "name": "Pizzeria Akropolis", "opening_hours": "Mo-Su 11:00-21:00; Fr,Sa 12:00-22:00", "phone": "+46 370-143 01", "website": "https://akropolisv\u00e4rnamo.se/"}}, {"type": "node", "id": 7989574769, "lat": 57.1866842, "lon": 14.037145, "tags": {"addr:city": "V\u00e4rnamo", "addr:country": "SE", "addr:housenumber": "1A", "addr:street": "Pilgatan", "amenity": "restaurant", "cuisine": "sushi", "name": "Nankoku Sushi Bar", "opening_hours": "Mo-Th 11:00-21:30; Fr 11:00-22:00; Sa 12:00-22:00", "phone": "+46370301088"}}, {"type": "node", "id": 7995654366, "lat": 57.1616281, "lon": 14.0751225, "tags": {"amenity": "restaurant", "cuisine": "pizza", "email": "info@bredastenpizzeria.se", "name": "Bredasten Pizzeria", "opening_hours": "Mo-Su 11:00-21:00", "phone": "+46037030 56 56", "website": "https://bredastenpizzeria.se/"}}, {"type": "node", "id": 8039761088, "lat": 57.1882484, "lon": 14.0370608, "tags": {"door": "yes", "entrance": "yes", "level": "0"}}, {"type": "node", "id": 8039772389, "lat": 57.1879812, "lon": 14.036855, "tags": {"door": "yes", "entrance": "service", "level": "0"}}, {"type": "node", "id": 8039772390, "lat": 57.1879782, "lon": 14.036585, "tags": {"door": "yes", "entrance": "yes", "level": "0"}}, {"type": "node", "id": 8039772394, "lat": 57.1881549, "lon": 14.0364116, "tags": {"door": "yes", "entrance": "service", "level": "0"}}, {"type": "node", "id": 8039772395, "lat": 57.1881267, "lon": 14.0364126, "tags": {"door": "yes", "entrance": "service", "level": "0"}}, {"type": "node", "id": 8039772399, "lat": 57.1883281, "lon": 14.0370578}, {"type": "node", "id": 8039772410, "lat": 57.1879764, "lon": 14.0364184}, {"type": "node", "id": 8039772420, "lat": 57.1879837, "lon": 14.0370709}, {"type": "node", "id": 8039772487, "lat": 57.1882181, "lon": 14.037062, "tags": {"door": "yes", "entrance": "yes", "level": "0"}}, {"type": "node", "id": 8039772488, "lat": 57.188071, "lon": 14.0370676, "tags": {"door": "yes", "entrance": "yes", "level": "0"}}, {"type": "node", "id": 8039772489, "lat": 57.1880403, "lon": 14.0370687, "tags": {"door": "yes", "entrance": "yes", "level": "0"}}, {"type": "node", "id": 8039772517, "lat": 57.1883228, "lon": 14.0365817}, {"type": "node", "id": 8039772518, "lat": 57.18823, "lon": 14.0365852}, {"type": "node", "id": 8039773487, "lat": 57.188228, "lon": 14.0364088}, {"type": "node", "id": 8947081774, "lat": 57.1838444, "lon": 14.0288646}, {"type": "node", "id": 8947081775, "lat": 57.1838846, "lon": 14.0288549}, {"type": "node", "id": 8963103517, "lat": 57.1625678, "lon": 14.4395627, "tags": {"addr:country": "SE", "addr:housenumber": "26", "addr:postcode": "36030", "addr:street": "M\u00f6cklehult", "amenity": "cafe", "email": "smedjan.mocklehult@gmail.com", "name": "Smedjans kaf\u00e9", "phone": "+46739675535", "website": "https://www.smedjanm\u00f6cklehult.se/"}}, {"type": "node", "id": 9060242347, "lat": 57.1857014, "lon": 14.0417397, "tags": {"addr:country": "SE", "addr:housenumber": "3", "addr:street": "Lasarettsgatan", "amenity": "restaurant", "contact:facebook": "https://www.facebook.com/pages/category/Diner/Olympia-Restaurang-V%C3%A4rnamo-878425168844158/", "name": "Olympia", "opening_hours": "Tu-Th 11:00-21:00; Fr 11:00-22:00; Sa 12:00-22:00; Su 12:00-21:00", "phone": "+46 370-152 15", "website": "https://www.olympiavarnamo.se/"}}, {"type": "node", "id": 9080908312, "lat": 57.1822637, "lon": 14.054989}, {"type": "node", "id": 9080908313, "lat": 57.1822606, "lon": 14.0550271}, {"type": "node", "id": 9080908314, "lat": 57.1822271, "lon": 14.0550179}, {"type": "node", "id": 9080908315, "lat": 57.1822284, "lon": 14.0550024}, {"type": "node", "id": 9080908316, "lat": 57.1821753, "lon": 14.0549878}, {"type": "node", "id": 9080950517, "lat": 57.1821757, "lon": 14.0549831}, {"type": "node", "id": 9080950518, "lat": 57.1820876, "lon": 14.0549588}, {"type": "node", "id": 9080950519, "lat": 57.1820748, "lon": 14.0551166}, {"type": "node", "id": 9080950520, "lat": 57.1820711, "lon": 14.0551156}, {"type": "node", "id": 9080950521, "lat": 57.1820653, "lon": 14.055188}, {"type": "node", "id": 9080950522, "lat": 57.1820702, "lon": 14.0551894}, {"type": "node", "id": 9080950523, "lat": 57.1820513, "lon": 14.0554228}, {"type": "node", "id": 9080950524, "lat": 57.1822228, "lon": 14.05547}, {"type": "node", "id": 9080950525, "lat": 57.1822295, "lon": 14.0553872}, {"type": "node", "id": 9080950526, "lat": 57.1820931, "lon": 14.0553497}, {"type": "node", "id": 9080950527, "lat": 57.1821033, "lon": 14.0552244}, {"type": "node", "id": 9080950528, "lat": 57.1821698, "lon": 14.0552427}, {"type": "node", "id": 9080950529, "lat": 57.1821707, "lon": 14.0552309}, {"type": "node", "id": 9080950530, "lat": 57.1821936, "lon": 14.0552372}, {"type": "node", "id": 9080950531, "lat": 57.1821949, "lon": 14.055221}, {"type": "node", "id": 9080950532, "lat": 57.1822404, "lon": 14.0552336}, {"type": "node", "id": 9080950533, "lat": 57.1822438, "lon": 14.0551921}, {"type": "node", "id": 9080950534, "lat": 57.1823338, "lon": 14.0552169}, {"type": "node", "id": 9080950535, "lat": 57.1823503, "lon": 14.0550129}, {"type": "node", "id": 9080950618, "lat": 57.1810862, "lon": 14.0492494}, {"type": "node", "id": 9080950619, "lat": 57.181035, "lon": 14.0492821}, {"type": "node", "id": 9080950620, "lat": 57.1810417, "lon": 14.0493184}, {"type": "node", "id": 9080950621, "lat": 57.1811302, "lon": 14.0490895}, {"type": "node", "id": 9080950622, "lat": 57.1811248, "lon": 14.0490929}, {"type": "node", "id": 9080950623, "lat": 57.1810487, "lon": 14.0490134}, {"type": "node", "id": 9080950624, "lat": 57.1810698, "lon": 14.049129}, {"type": "node", "id": 9080950625, "lat": 57.1810413, "lon": 14.0491467}, {"type": "node", "id": 9080950626, "lat": 57.1810305, "lon": 14.0490876}, {"type": "node", "id": 9080950627, "lat": 57.1809433, "lon": 14.0491419}, {"type": "node", "id": 9080950628, "lat": 57.180954, "lon": 14.0492004}, {"type": "node", "id": 9080950629, "lat": 57.1809017, "lon": 14.049107}, {"type": "node", "id": 9080950630, "lat": 57.1809224, "lon": 14.0492201}, {"type": "node", "id": 9080950631, "lat": 57.1808611, "lon": 14.0492618}, {"type": "node", "id": 9080950632, "lat": 57.1808667, "lon": 14.0492582}, {"type": "node", "id": 9080950633, "lat": 57.181104, "lon": 14.048979}, {"type": "node", "id": 9080950634, "lat": 57.1808454, "lon": 14.049142}, {"type": "node", "id": 9080950635, "lat": 57.1808822, "lon": 14.0493772}, {"type": "node", "id": 9080950636, "lat": 57.181152, "lon": 14.0492084}, {"type": "node", "id": 9085065715, "lat": 57.1832029, "lon": 14.0521698, "tags": {"addr:country": "SE", "addr:housenumber": "1", "addr:postcode": "331 32", "addr:street": "V\u00e4xj\u00f6v\u00e4gen", "amenity": "restaurant", "contact:facebook": "https://www.facebook.com/G%C3%A4stgivarg%C3%A5rden-246128260318/", "contact:instagram": "gastgivargarden", "email": "info@gastgivargarden.com", "name": "G\u00e4stgivarg\u00e5rden", "opening_hours": "Mo-Fr 11:30-14:00", "phone": "+46 370-30 15 65", "website": "https://www.gastgivargarden.com/"}}, {"type": "node", "id": 9140589407, "lat": 57.1743301, "lon": 14.0278861, "tags": {"addr:city": "V\u00e4rnamo", "addr:country": "SE", "addr:housenumber": "5", "addr:postcode": "331 52", "addr:street": "Doktorsgatan", "amenity": "cafe", "brand": "Stigs Caf\u00e9", "email": "stigssjukhuset@dittcafe.se", "name": "Stigs Caf\u00e9", "opening_hours": "Mo-Fr 08:00-16:00", "phone": "+46 370-181 63", "website": "https://info.dittcafe.se/sv/cafeer/stigs/"}}, {"type": "node", "id": 9140589408, "lat": 57.183082, "lon": 14.0494819, "tags": {"addr:city": "V\u00e4rnamo", "addr:country": "SE", "addr:housenumber": "52", "addr:postcode": "331 31", "addr:street": "Storgatan", "amenity": "cafe", "brand": "Stigs Caf\u00e9", "contact:facebook": "https://www.facebook.com/stigskafferepet/", "name": "Kafferepet", "opening_hours": "Mo 08:00-13:00; Tu-Fr 08:00-15:00", "phone": "+46 370-100 14", "website": "https://info.dittcafe.se/sv/cafeer/stigs/"}}, {"type": "node", "id": 9140589409, "lat": 57.1837652, "lon": 14.0370364, "tags": {"addr:city": "V\u00e4rnamo", "addr:country": "SE", "addr:housenumber": "3", "addr:street": "J\u00e4rnv\u00e4gsgatan", "amenity": "restaurant", "brand": "Pinchos", "cuisine": "tapas", "email": "info@varnamo.pinchos.se", "name": "Pinchos", "opening_hours": "Tu-Th 17:00-22:00; Fr 16:00-24:00; Sa 14:00+; Su 16:00-21:00 || Tu-Th 17:00-20:15; Fr 16:00-21:15; Sa 14:00-21:15; Su 16:00-18:45 open \"take away\"", "outdoor_seating": "yes", "phone": "+46 370-30 56 50", "website": "https://www.pinchos.se/restaurant/se-varnamo-jarnvagsgatan/"}}, {"type": "node", "id": 9140589410, "lat": 57.1838844, "lon": 14.0431653, "tags": {"amenity": "restaurant", "name": "Best Western", "opening_hours": "Mo-Fr 11:30-14:00 open \"lunchmeny\" || Mo-Th 17:30-20:00 open \"kv\u00e4llsbuff\u00e9\"", "website": "https://www.varnamohotel.se/restaurang/"}}, {"type": "node", "id": 9140589411, "lat": 57.1849495, "lon": 14.0405086, "tags": {"amenity": "restaurant", "cuisine": "italian", "name": "SinatraBaren", "operator": "Wine & Design", "website": "https://wineanddesign.se/sinatrabaren/"}}, {"type": "node", "id": 9140589412, "lat": 57.1849848, "lon": 14.0405756, "tags": {"amenity": "bar", "name": "Proseccobaren", "operator": "Wine & Design", "website": "https://wineanddesign.se/proseccobaren/"}}, {"type": "node", "id": 9232535911, "lat": 56.9208886, "lon": 13.9873905}, {"type": "node", "id": 9232550136, "lat": 56.9209125, "lon": 13.9872753}, {"type": "node", "id": 9232550140, "lat": 56.9205864, "lon": 13.9872063}, {"type": "node", "id": 9232550154, "lat": 56.9205534, "lon": 13.9873649}, {"type": "node", "id": 9232550158, "lat": 56.9210419, "lon": 13.9877037}, {"type": "node", "id": 9232550160, "lat": 56.9209885, "lon": 13.9873721}, {"type": "node", "id": 9232550164, "lat": 56.9207265, "lon": 13.9873041}, {"type": "node", "id": 9232550170, "lat": 56.9210953, "lon": 13.9874467}, {"type": "node", "id": 9232550176, "lat": 56.9207553, "lon": 13.9871655}, {"type": "node", "id": 9232550209, "lat": 56.9209725, "lon": 13.9874491}, {"type": "node", "id": 9246782470, "lat": 57.1607026, "lon": 14.0769257, "tags": {"amenity": "restaurant", "name": "Rasta", "opening_hours": "Mo-Fr 11:00-19:00; PH off", "website:menu": "https://www.rasta.se/varnamo/dagens-ratt/"}}, {"type": "node", "id": 9247075109, "lat": 57.1654699, "lon": 14.0640664, "tags": {"amenity": "restaurant", "contact:instagram": "vandalorum_restaurang", "name": "Syltan", "opening_hours": "11:30-16:00", "phone": "+46 370-30 22 10", "website": "https://www.vandalorum.se/en/restaurant-syltan"}}, {"type": "node", "id": 9247075110, "lat": 57.1747299, "lon": 14.028739, "tags": {"amenity": "restaurant", "contact:facebook": "https://www.facebook.com/pages/category/Restaurant/Restaurang-Matlusten-104932537529556/", "contact:instagram": "restaurang_matlusten", "name": "Matlusten", "opening_hours": "Mo-Fr 11:00-14:00; PH off", "phone": "+46 10-244 71 49", "website": "https://www.rjl.se/Folkhalsa-och-vard/sa-kontaktar-du-varden/besok-pa-vara-sjukhus/varnamo-sjukhus/Ata-och-fika/", "website:menu": "http://webmenu.foodit.se/?r=6&m=683&p=1532&c=11462&w=0&v=Week&l=null"}}, {"type": "node", "id": 9247075113, "lat": 57.1776435, "lon": 14.0588522, "tags": {"amenity": "restaurant", "name": "Bowlingmagasinet", "outdoor_seating": "no"}}, {"type": "node", "id": 9311302725, "lat": 57.1818072, "lon": 14.0226129, "tags": {"addr:city": "V\u00e4rnamo", "addr:country": "SE", "addr:housenumber": "2", "addr:postcode": "331 53", "addr:street": "Silkesv\u00e4gen", "amenity": "restaurant", "name": "Sultan Kolgrill", "opening_hours": "Su-Th 11:00-21:00; Fr,Sa 11:00-22:00", "payment:credit_cards": "yes", "payment:debit_cards": "yes"}}, {"type": "node", "id": 9311302726, "lat": 57.1831038, "lon": 14.0490729, "tags": {"addr:city": "V\u00e4rnamo", "addr:country": "SE", "addr:housenumber": "52", "addr:postcode": "331 31", "addr:street": "Storgatan", "amenity": "restaurant", "contact:facebook": "https://www.facebook.com/Pizzeria-San-Marino-945197132209946/", "cuisine": "pizza", "name": "Pizzeria San Marino", "phone": "+46 370 460 90", "website": "https://pizzeriasanmarino.se/"}}, {"type": "node", "id": 9311302727, "lat": 57.1835704, "lon": 14.0544909, "tags": {"addr:country": "SE", "addr:housenumber": "68A", "addr:street": "Storgatan", "amenity": "restaurant", "cuisine": "pizza", "name": "Pizzeria Bella Italia", "opening_hours": "Mo-Th 11:00-21:00; Fr 11:00-22:00; Sa 12:00-22:00; Su 12:00-21:00", "phone": "+46 370-170 10", "website": "https://pizzeriabellaitaliaivarnamo.com/"}}, {"type": "node", "id": 9311302729, "lat": 57.1838902, "lon": 14.0305817, "tags": {"addr:city": "V\u00e4rnamo", "addr:country": "SE", "addr:housenumber": "1", "addr:place": "Sveaplan", "addr:postcode": "33150", "amenity": "restaurant", "contact:facebook": "Babylons-Pizzeria-V%C3%A4rnamo-101807721190861", "cuisine": "pizza", "name": "Pizzeria Babylon", "opening_hours": "Mo-Th 11:00-21:00; Fr 11:00-22:00; Sa 12:00-22:00; Su 12:00-21:00", "phone": "+46 370-146 28", "website": "https://babylonvarnamo.se/"}}, {"type": "node", "id": 9477033792, "lat": 57.1748039, "lon": 14.0641008, "tags": {"addr:country": "SE", "addr:housenumber": "1 A", "addr:street": "Expov\u00e4gen", "amenity": "restaurant", "description": "Seniorrestaurang", "name": "Restaurang Expo", "opening_hours": "Mo-Su 12:45-13:45", "website": "https://kommun.varnamo.se/omsorg-stod-och-hjalp/sarskilda-boenden/restauranger/restaurang-expo.html"}}, {"type": "node", "id": 9477033793, "lat": 57.1829119, "lon": 14.0397552, "tags": {"amenity": "restaurant", "description": "Seniorrestaurang", "name": "Restaurang Ludd\u00f6", "opening_hours": "Mo-Fr 12:00-13:30; Sa-Su 12:30-13:30", "website": "https://kommun.varnamo.se/omsorg-stod-och-hjalp/sarskilda-boenden/restauranger/restaurang-luddo.html"}}, {"type": "node", "id": 9526851136, "lat": 56.9138271, "lon": 13.9874662, "tags": {"amenity": "restaurant", "cuisine": "pizza;international;swedish;kebab", "name": "Lagadalen", "opening_hours": "Mo 11:30-14:00; Tu-Th 11:30-14:00,17:00-20:00; Fr 11:30-14:00,17:00-22:00; Sa 17:00-22:00; Su 12:00-20:00", "operator": "Lagadalen", "outdoor_seating": "yes", "phone": "+46 372 301 62", "takeaway": "yes", "website": "https://www.lagadalen.com/"}}, {"type": "node", "id": 9900585114, "lat": 57.1840383, "lon": 14.0472952, "tags": {"amenity": "cafe", "name": "R\u00e4ttvist butik o caf\u00e9", "opening_hours": "Tu-Fr 11:00-17:00"}}, {"type": "node", "id": 9900585115, "lat": 57.1839784, "lon": 14.0310197, "tags": {"amenity": "cafe", "contact:facebook": "sveahusetcafe", "name": "Sveahuset Caf\u00e9"}}, {"type": "node", "id": 9900585116, "lat": 57.180978, "lon": 14.0466223, "tags": {"amenity": "cafe", "name": "Doppingen"}}, {"type": "node", "id": 9900598817, "lat": 57.1792132, "lon": 14.0584912, "tags": {"addr:city": "V\u00e4rnamo", "addr:country": "SE", "addr:housenumber": "12", "addr:postcode": "331 42", "addr:street": "Malm\u00f6v\u00e4gen", "amenity": "cafe", "contact:instagram": "https://www.instagram.com/hemmafiket/", "cuisine": "salad;sandwich;cake;ice_cream", "highchair": "yes", "name": "Hemmafiket", "opening_hours": "Mo-Fr: 9:00-18:00, Sa-Su: 10:00-16:00", "outdoor_seating": "yes", "payment:cards": "yes", "payment:credit_cards": "yes", "phone": "+46 370 14053", "website": "https://www.instagram.com/hemmafiket/"}}, {"type": "node", "id": 9900598818, "lat": 57.1792348, "lon": 14.0049146, "tags": {"amenity": "cafe", "name": "Caf\u00e9 City Gross"}}, {"type": "node", "id": 9900598819, "lat": 57.1750898, "lon": 14.0617985, "tags": {"amenity": "cafe", "name": "Caf\u00e9 ICA Kvantum"}}, {"type": "node", "id": 9900598820, "lat": 57.1607992, "lon": 14.0765327, "tags": {"addr:city": "V\u00e4rnamo", "addr:country": "SE", "addr:housenumber": "3", "addr:postcode": "331 44", "addr:street": "Bredastensv\u00e4gen", "amenity": "cafe", "brand": "Espresso House", "brand:wikidata": "Q10489162", "brand:wikipedia": "sv:Espresso House", "cuisine": "coffee_shop", "name": "Espresso House", "official_name": "Espresso House V\u00e4rnamo Road", "opening_hours": "Mo-Fr 08:00-20:00; Sa-Su 09:00-19:00", "phone": "+46 76-521 94 17", "takeaway": "yes", "website": "https://espressohouse.com/coffee-shops/vrnamo-road/"}}, {"type": "node", "id": 9900598821, "lat": 57.1829252, "lon": 14.0430307, "tags": {"amenity": "cafe", "contact:instagram": "arkencafekonferens", "name": "Caf\u00e9 Duvan", "opening_hours": "Mo-Fr 09:00-16:30; Sa 09:30-13:30", "phone": "+46 370-199 99", "website": "https://arkenvmo.se/vad-gor-vi/cafe/"}}, {"type": "node", "id": 10581425359, "lat": 56.9209129, "lon": 13.9876136}, {"type": "node", "id": 10581425361, "lat": 56.9209191, "lon": 13.987584}, {"type": "node", "id": 10581425363, "lat": 56.9208242, "lon": 13.9875176}, {"type": "node", "id": 10581425364, "lat": 56.9208176, "lon": 13.9875494}, {"type": "way", "id": 385756779, "nodes": [3890876562, 3890876569, 3890876564, 3890876565, 3890876562], "tags": {"amenity": "cafe", "building": "yes", "name": "Dann\u00e4s V\u00e4ffelcafe Bed&Breakfast", "tourism": "hostel"}}, {"type": "way", "id": 556199560, "nodes": [5365410397, 5365410398, 5365410399, 5365410400, 5365410397], "tags": {"amenity": "cafe", "building": "yes", "name": "Kiosken", "start_date": "1924"}}, {"type": "way", "id": 648014127, "nodes": [6084507009, 8947081774, 8947081775, 6084507006, 6084507007, 6084507008, 6084507009], "tags": {"addr:city": "V\u00e4rnamo", "addr:country": "SE", "addr:housenumber": "2", "addr:postcode": "331 52", "addr:street": "Tr\u00e4ffgatan", "amenity": "restaurant", "building": "yes", "contact:facebook": "https://www.facebook.com/pages/category/Fast-Food-Restaurant/Pizza-Hornaryd-112018480654940/", "cuisine": "pizza", "email": "info@pizzeria-hornaryd.se", "name": "Pizzeria Hornaryd", "opening_hours": "Mo-Fr 11:00-21:00; Sa,Su 11:45-21:00", "payment:credit_cards": "yes", "payment:debit_cards": "yes", "phone": "+46 370-188 84", "website": "https://pizzeria-hornaryd.se/"}}, {"type": "way", "id": 856922949, "nodes": [7989574703, 7989574704, 7989574705, 7989574706, 7989574707, 7989574719, 7989574708, 7989574709, 7989574710, 7989574711, 7989574712, 7989574713, 7989574714, 7989574716, 7989574715, 7989574717, 7989574718, 7989574703], "tags": {"addr:city": "V\u00e4rnamo", "addr:country": "SE", "addr:housenumber": "30a", "addr:postcode": "331 34", "addr:street": "J\u00f6nk\u00f6pingsv\u00e4gen", "amenity": "restaurant", "contact:facebook": "pizzreiamaistro.se", "contact:instagram": "pizzeria-maistro-varnamo", "contact:website": "https://maistro-varnamo.se/", "cuisine": "pizza", "email": "fahdhalol@gmail.com", "name": "Pizzeria Maistro", "opening_hours": "Tu-Th 11:00-20:00; Fr 11:00-21:00; Sa 12:00-20:00", "phone": "+46 370 178 61"}}, {"type": "way", "id": 859817356, "nodes": [8039772399, 8039772517, 8039772518, 8039773487, 8039772394, 8039772395, 8039772410, 8039772390, 8039772389, 8039772420, 8039772489, 7765739530, 8039772488, 7765739531, 8039772487, 8039761088, 8039772399], "tags": {"amenity": "restaurant", "indoor": "room", "level": "0", "name": "Madame Brasserie & Caf\u00e9", "opening_hours": "Mo 07:30-17:00; Tu-Th 07:30-21:00; Fr 07:30-22:00; Sa 10:00-22:00", "website": "https://madame.se/"}}, {"type": "way", "id": 981848632, "nodes": [9080950535, 9080950534, 9080950533, 9080950532, 9080950531, 9080950530, 9080950529, 9080950528, 9080950527, 9080950526, 9080950525, 9080950524, 9080950523, 9080950522, 9080950521, 9080950520, 9080950519, 9080950518, 9080950517, 9080908316, 9080908315, 9080908314, 9080908313, 9080908312, 9080950535], "tags": {"addr:country": "SE", "addr:housenumber": "10", "addr:street": "V\u00e4xj\u00f6v\u00e4gen", "amenity": "restaurant", "cuisine": "pizza", "name": "Pizzeria Chaplin", "opening_hours": "Mo-Fr 11:30-22:00;Sa-Su 12:00-22:00", "start_date": "1979", "website": "http://pizzeriachaplin.se/"}}, {"type": "way", "id": 981848646, "nodes": [9080950636, 9080950618, 462750840, 9080950620, 9080950619, 9080950635, 9080950631, 9080950632, 9080950634, 9080950629, 9080950630, 9080950628, 9080950627, 9080950626, 9080950625, 9080950624, 9080950623, 9080950633, 9080950622, 9080950621, 9080950636], "tags": {"amenity": "cafe", "building": "yes", "contact:facebook": "apladalen.kaffestuga", "contact:instagram": "apladalenskaffestuga", "cuisine": "coffee_shop", "email": "apladalenskaffestuga@hotmail.se", "name": "Apladalens Kaffestuga", "opening_hours": "May-Sep: Tu 10:00-21:00; We-Su 10:00-17:00", "phone": "+46 370-169 40", "website": "https://apladalenskaffestuga.com/"}}, {"type": "way", "id": 1000213787, "nodes": [9232550140, 9232550154, 10581425364, 10581425363, 10581425361, 10581425359, 9232550158, 9232550170, 9232550160, 9232550209, 9232535911, 9232550136, 9232550176, 9232550164, 9232550140], "tags": {"amenity": "restaurant", "building": "yes", "golf": "clubhouse", "name": "Lagan Golfklubb", "sport": "golf", "website": "http://www.lagansgk.se"}}]}