{"version": 0.6, "generator": "Overpass API 0.7.61.5 4133829e", "osm3s": {"timestamp_osm_base": "2024-03-08T21:12:42Z", "copyright": "The data included in this document is from www.openstreetmap.org. The data is made available under ODbL."}, "elements": [{"type": "node", "id": 31574760, "lat": 59.4995087, "lon": 17.9283333, "tags": {"amenity": "restaurant", "name": "Flavors (Scandic InfraCity)", "toilets:wheelchair": "yes", "wheelchair": "yes"}}, {"type": "node", "id": 35804075, "lat": 59.4979816, "lon": 17.9272575, "tags": {"addr:city": "Upplands V\u00e4sby", "addr:country": "SE", "addr:housenumber": "3A", "addr:postcode": "194 61", "addr:street": "Kanalv\u00e4gen", "amenity": "restaurant", "name": "W\u00e4sby Restaurangskola"}}, {"type": "node", "id": 49889370, "lat": 59.476585, "lon": 17.9113178, "tags": {"amenity": "restaurant", "name": "Rotebro Krog"}}, {"type": "node", "id": 49920790, "lat": 59.4981387, "lon": 17.9272415, "tags": {"addr:city": "Upplands V\u00e4sby", "addr:country": "SE", "addr:housenumber": "3A", "addr:postcode": "194 61", "addr:street": "Kanalv\u00e4gen", "amenity": "cafe", "level": "1", "name": "M. As Restaurang"}}, {"type": "node", "id": 49921252, "lat": 59.4992691, "lon": 17.9293461, "tags": {"amenity": "cafe", "name": "Restaurang Upper West"}}, {"type": "node", "id": 49924111, "lat": 59.4992604, "lon": 17.926754, "tags": {"addr:city": "Upplands V\u00e4sby", "addr:country": "SE", "addr:housenumber": "7", "addr:postcode": "194 61", "addr:street": "Kanalv\u00e4gen", "amenity": "cafe", "cuisine": "asian", "name": "Restaurang Thai House"}}, {"type": "node", "id": 53982154, "lat": 59.4847942, "lon": 17.9175466, "tags": {"amenity": "cafe", "created_by": "Potlatch alpha", "indoor_seating": "yes", "name": "Caf\u00e9 & Restaurang", "outdoor_seating": "no"}}, {"type": "node", "id": 93926843, "lat": 59.4991428, "lon": 17.926136, "tags": {"addr:city": "Upplands V\u00e4sby", "addr:country": "SE", "addr:housenumber": "7", "addr:postcode": "194 61", "addr:street": "Kanalv\u00e4gen", "amenity": "restaurant", "cuisine": "italian", "name": "La Piazza Vedugn"}}, {"type": "node", "id": 179673943, "lat": 59.4190356, "lon": 17.8309694, "tags": {"amenity": "restaurant", "created_by": "Potlatch 0.5d"}}, {"type": "node", "id": 235594573, "lat": 59.2468322, "lon": 17.8338509, "tags": {"amenity": "restaurant", "created_by": "JOSM", "name": "Restaurang Brunna", "source": "yahoo + survey"}}, {"type": "node", "id": 248752304, "lat": 59.3294442, "lon": 17.928936, "tags": {"amenity": "restaurant", "cuisine": "pizza", "name": "Nockeby Pizzeria"}}, {"type": "node", "id": 250885848, "lat": 59.0920377, "lon": 17.566424, "tags": {"amenity": "cafe", "name": "\u00c5sgatan 2"}}, {"type": "node", "id": 250885851, "lat": 59.0907973, "lon": 17.5652521, "tags": {"amenity": "cafe", "name": "Lilla Mar\u00e4ng"}}, {"type": "node", "id": 255586304, "lat": 59.4988515, "lon": 17.9403497, "tags": {"amenity": "restaurant", "name": "Restaurang Il Poste"}}, {"type": "node", "id": 286595933, "lat": 59.2646988, "lon": 17.9298006, "tags": {"amenity": "restaurant", "cuisine": "thai", "name": "Lemon", "takeaway": "yes", "website": "http://www.lemon.se"}}, {"type": "node", "id": 301386169, "lat": 59.4342043, "lon": 17.7786595}, {"type": "node", "id": 301386172, "lat": 59.434188, "lon": 17.7784694}, {"type": "node", "id": 301386174, "lat": 59.4339871, "lon": 17.7785359}, {"type": "node", "id": 301386176, "lat": 59.4340033, "lon": 17.778726}, {"type": "node", "id": 301777141, "lat": 59.4259988, "lon": 17.8581817}, {"type": "node", "id": 301777144, "lat": 59.4259815, "lon": 17.8578701}, {"type": "node", "id": 301777147, "lat": 59.4258838, "lon": 17.857891}, {"type": "node", "id": 301777149, "lat": 59.4259011, "lon": 17.8582026}, {"type": "node", "id": 331243958, "lat": 59.2593271, "lon": 17.221943, "tags": {"amenity": "cafe", "cuisine": "coffee_shop", "name": "Tv\u00e5 goda ting"}}, {"type": "node", "id": 331244130, "lat": 59.2592619, "lon": 17.2234055, "tags": {"alt_name": "Elsas Skafferi", "amenity": "cafe", "cuisine": "coffee_shop", "name": "Bl\u00e5 Katten"}}, {"type": "node", "id": 334120461, "lat": 59.3253351, "lon": 17.9054558}, {"type": "node", "id": 334120463, "lat": 59.3254127, "lon": 17.9054291}, {"type": "node", "id": 334120468, "lat": 59.3254435, "lon": 17.9057732}, {"type": "node", "id": 334120472, "lat": 59.3253659, "lon": 17.9057999}, {"type": "node", "id": 335700731, "lat": 59.4239025, "lon": 17.8375319, "tags": {"amenity": "restaurant", "cuisine": "chinese", "indoor_seating": "yes", "name": "Elegant Garden", "outdoor_seating": "yes", "wheelchair": "limited"}}, {"type": "node", "id": 343390650, "lat": 59.3247451, "lon": 17.8897267, "tags": {"amenity": "restaurant", "name": "Drottningholms v\u00e4rdshus", "name:en": "Drottningholm Inn"}}, {"type": "node", "id": 397900830, "lat": 59.4945581, "lon": 17.9257892, "tags": {"addr:city": "Sollentuna", "addr:country": "SE", "addr:housenumber": "24", "addr:postcode": "192 79", "addr:street": "Bergk\u00e4llav\u00e4gen", "amenity": "restaurant", "cuisine": "pizza", "name": "Restaurang & Pizzeria Mexicana", "phone": "+4687546515", "website": "http://letsfindit.se/lfi/prod/p1_4/index.asp?tag=mexicana"}}, {"type": "node", "id": 416556688, "lat": 59.5040285, "lon": 17.81296, "tags": {"amenity": "cafe", "internet_access": "no", "name": "Caf\u00e9 Gott & Gulligt", "opening_hours": "Helger, sommartid."}}, {"type": "node", "id": 431595339, "lat": 59.4236237, "lon": 17.8221578, "tags": {"amenity": "restaurant", "cuisine": "pizza", "name": "Mon Ami", "wheelchair:description": "Ej tillg\u00e4nglig. H\u00f6g tr\u00f6skel in. Ingen bra toa"}}, {"type": "node", "id": 431595341, "lat": 59.4258241, "lon": 17.8248614, "tags": {"amenity": "restaurant", "name": "Emils Fastfood"}}, {"type": "node", "id": 431595342, "lat": 59.4239555, "lon": 17.8301486, "tags": {"amenity": "restaurant", "name": "Lucky House"}}, {"type": "node", "id": 431613794, "lat": 59.424128, "lon": 17.8377532, "tags": {"amenity": "restaurant", "name": "Drick", "wheelchair": "yes"}}, {"type": "node", "id": 431613797, "lat": 59.4241799, "lon": 17.8350624, "tags": {"amenity": "cafe", "name": "Sans Rival", "shop": "bakery", "wheelchair": "yes"}}, {"type": "node", "id": 431613798, "lat": 59.4226479, "lon": 17.8338393, "tags": {"amenity": "restaurant", "name": "Korfu Kolgrill"}}, {"type": "node", "id": 431613801, "lat": 59.4226304, "lon": 17.8383197, "tags": {"amenity": "restaurant", "name": "Sushi & Curry House"}}, {"type": "node", "id": 431613804, "lat": 59.4230277, "lon": 17.8348349, "tags": {"amenity": "restaurant", "name": "Sushibaren", "wheelchair": "yes"}}, {"type": "node", "id": 440624442, "lat": 59.1781622, "lon": 17.430878, "tags": {"amenity": "cafe", "diet:vegan": "yes", "diet:vegetarian": "yes", "name": "Kaf\u00e9 \u00c4nglagott"}}, {"type": "node", "id": 440629383, "lat": 59.1770091, "lon": 17.433477, "tags": {"amenity": "restaurant"}}, {"type": "node", "id": 440629422, "lat": 59.1762751, "lon": 17.4339946, "tags": {"amenity": "restaurant"}}, {"type": "node", "id": 444359142, "lat": 59.3936212, "lon": 17.9021168, "tags": {"amenity": "cafe", "wheelchair": "yes"}}, {"type": "node", "id": 444359147, "lat": 59.3941562, "lon": 17.902621, "tags": {"amenity": "restaurant", "name": "Tensta Krog", "wheelchair": "yes"}}, {"type": "node", "id": 444568845, "lat": 59.177086, "lon": 17.4332758, "tags": {"amenity": "restaurant"}}, {"type": "node", "id": 446048554, "lat": 59.401941, "lon": 17.9418648, "tags": {"amenity": "restaurant", "name": "Kista Garden"}}, {"type": "node", "id": 447945132, "lat": 59.2580214, "lon": 17.2155722, "tags": {"amenity": "cafe", "name": "Gripsholms V\u00e4ffelhus", "source": "survey"}}, {"type": "node", "id": 447955554, "lat": 59.2583873, "lon": 17.2188768, "tags": {"addr:street": "Lottenlund", "amenity": "restaurant", "cuisine": "regional", "description": "restaurangen bel\u00e4gen mitt emellan Gripsholms Slott och Mariefreds mysiga stadsk\u00e4rna", "name": "Slottspaviljongen", "phone": "+46-159-10023", "website": "http://www.slottspaviljongen.se"}}, {"type": "node", "id": 448639730, "lat": 59.0905177, "lon": 17.5654037, "tags": {"amenity": "restaurant", "name": "Domherren"}}, {"type": "node", "id": 480003808, "lat": 59.4116539, "lon": 17.8009166, "tags": {"addr:city": "J\u00e4rf\u00e4lla", "addr:country": "SE", "addr:housenumber": "51", "addr:postcode": "175 45", "addr:street": "Viksj\u00f6plan", "amenity": "restaurant", "email": "info@restauranggoa.se", "level": "0", "name": "Resturang GOA", "opening_hours": "Mo-Th 10:30-21:00; Fr 10:30-22:00; Sa 12:00-22:00; Su 12:00-21:00", "phone": "+46 8-580 370 20", "website": "https://www.restauranggoa.se/"}}, {"type": "node", "id": 480004028, "lat": 59.4118199, "lon": 17.8018007, "tags": {"amenity": "cafe"}}, {"type": "node", "id": 480653295, "lat": 59.4175339, "lon": 17.8342327, "tags": {"addr:city": "J\u00e4rf\u00e4lla", "addr:country": "SE", "addr:housenumber": "112", "addr:street": "Vasav\u00e4gen", "amenity": "restaurant", "cuisine": "chinese", "name": "Mandarin Paradis", "website": "http://www.mandarinparadis.se/"}}, {"type": "node", "id": 501799743, "lat": 59.4547248, "lon": 17.8051749, "tags": {"addr:city": "J\u00e4rf\u00e4lla", "addr:country": "SE", "addr:postcode": "17672", "addr:street": "Gjutarplan", "amenity": "restaurant", "cuisine": "sushi", "name": "Kallh\u00e4lls sushi", "name:en": "Kallh\u00e4lls's Sushi"}}, {"type": "node", "id": 501799751, "lat": 59.4548739, "lon": 17.8052403, "tags": {"addr:city": "J\u00e4rf\u00e4lla", "addr:country": "SE", "addr:housenumber": "40", "addr:postcode": "17672", "addr:street": "Gjutarplan", "alt_name": "Gillesg\u00e5rden", "amenity": "cafe", "cuisine": "pizza", "name": "Gilles pizza och konditori"}}, {"type": "node", "id": 501800027, "lat": 59.4541341, "lon": 17.806555, "tags": {"addr:city": "J\u00e4rf\u00e4lla", "addr:country": "SE", "addr:housenumber": "20", "addr:postcode": "17672", "addr:street": "Gjutarplan", "amenity": "restaurant", "name": "Patrik's Bar & K\u00f6k", "opening_hours": "Tu-Th 11:00-23:00, Mo 11:00-22:00, Fr 11:00-01:00, Sa 12:00-01:00, Su 12:00-22:00"}}, {"type": "node", "id": 503127080, "lat": 59.4419855, "lon": 17.8637349}, {"type": "node", "id": 503127081, "lat": 59.4419584, "lon": 17.8638718}, {"type": "node", "id": 503127082, "lat": 59.4417731, "lon": 17.8637296}, {"type": "node", "id": 503127083, "lat": 59.4418003, "lon": 17.8635928}, {"type": "node", "id": 503339892, "lat": 59.2949225, "lon": 17.7165353, "tags": {"amenity": "cafe", "name": "Rosenhill", "opening_hours": "May-Sep Tu-Su 11:00-17:00", "website": "http://rosenhill-ekero.blogspot.se/", "wheelchair": "limited"}}, {"type": "node", "id": 503509187, "lat": 59.421931, "lon": 17.8192148, "tags": {"addr:city": "J\u00e4rf\u00e4lla", "addr:country": "SE", "addr:housenumber": "1", "addr:street": "Kvartalsv\u00e4gen", "amenity": "restaurant", "cuisine": "pizza", "name": "Pizzeria La Famiglia", "wheelchair": "no"}}, {"type": "node", "id": 503573378, "lat": 59.4164283, "lon": 17.8563965, "tags": {"amenity": "cafe", "name": "Wayne's", "wheelchair": "yes"}}, {"type": "node", "id": 506226441, "lat": 59.407143, "lon": 17.9198027}, {"type": "node", "id": 506226442, "lat": 59.4071854, "lon": 17.9195809}, {"type": "node", "id": 506226445, "lat": 59.4072825, "lon": 17.9196525}, {"type": "node", "id": 506226448, "lat": 59.4072323, "lon": 17.919915}, {"type": "node", "id": 508777412, "lat": 59.1577982, "lon": 17.6587897, "tags": {"amenity": "restaurant", "name": "Glashyttan"}}, {"type": "node", "id": 509446698, "lat": 59.3886194, "lon": 17.7804853, "tags": {"amenity": "cafe", "name": "Bladverket"}}, {"type": "node", "id": 533638339, "lat": 59.1729036, "lon": 17.6507639, "tags": {"amenity": "restaurant", "name": "Rolles skafferi"}}, {"type": "node", "id": 546300492, "lat": 59.2593469, "lon": 17.2189777, "tags": {"amenity": "restaurant", "name": "Restaurang Alba"}}, {"type": "node", "id": 546300494, "lat": 59.258096, "lon": 17.2228512, "tags": {"amenity": "restaurant", "name": "Gripsholms V\u00e4rdshus"}}, {"type": "node", "id": 554299039, "lat": 59.2602919, "lon": 17.2091181, "tags": {"amenity": "restaurant", "name": "Emma Gr\u00f6n"}}, {"type": "node", "id": 566435740, "lat": 59.3288962, "lon": 17.9279008, "tags": {"amenity": "cafe", "email": "butik@nockebybageri.com", "name": "Nockeby bageri", "opening_hours": "Mo-Fr 07:30-19:00; Sa, Su 08:00-17:00", "organic": "yes", "phone": "+46 8-255475", "wheelchair": "no"}}, {"type": "node", "id": 566989951, "lat": 59.2020588, "lon": 17.7667548, "tags": {"amenity": "restaurant", "cuisine": "pizza", "name": "Salems pizzeria"}}, {"type": "node", "id": 566989959, "lat": 59.2016125, "lon": 17.7668402, "tags": {"amenity": "cafe"}}, {"type": "node", "id": 566989960, "lat": 59.2015774, "lon": 17.7665827, "tags": {"amenity": "restaurant", "cuisine": "asian", "name": "Thai- och kinag\u00e5rden"}}, {"type": "node", "id": 587324944, "lat": 59.5145012, "lon": 17.639654, "tags": {"amenity": "restaurant", "name": "Alaniya barbeque"}}, {"type": "node", "id": 587324953, "lat": 59.5158602, "lon": 17.6419398, "tags": {"amenity": "restaurant", "name": "Bro Sushi and Wok", "opening_hours": "Mo-Fr 11:00-21:00; Sa,Su 12:00-21:00", "takeaway": "yes", "website": "https://qopla.com/bro-sushi&wok", "wheelchair": "yes"}}, {"type": "node", "id": 674508488, "lat": 59.1940798, "lon": 17.7483236, "tags": {"amenity": "cafe", "check_date": "2022-07-18", "name": "R\u00f6nninge Kaffestuga"}}, {"type": "node", "id": 691332682, "lat": 59.2206371, "lon": 17.8309345, "tags": {"addr:city": "Tumba", "addr:postcode": "147 43", "amenity": "restaurant", "name": "H\u00e5gelbyhus", "website": "https://hagelbyhus.se/"}}, {"type": "node", "id": 691518847, "lat": 59.1060507, "lon": 17.7314969, "tags": {"amenity": "cafe", "name": "Eldtomta Caf\u00e9 & Konsthantverk", "source": "survey", "website": "https://www.eldtomtacafe.se"}}, {"type": "node", "id": 698057773, "lat": 59.4052905, "lon": 17.8713851, "tags": {"amenity": "restaurant", "name": "Lasse-Maja"}}, {"type": "node", "id": 706195271, "lat": 59.4203744, "lon": 17.8612225, "tags": {"amenity": "restaurant", "cuisine": "thai", "name": "S\u00e4by Sabai", "wheelchair": "yes"}}, {"type": "node", "id": 710212268, "lat": 59.3627346, "lon": 17.8724757, "tags": {"addr:country": "SE", "addr:housenumber": "24", "addr:street": "V\u00e4llingby torg", "amenity": "restaurant", "cuisine": "burger", "email": "vallingby@olearys.se", "name": "O'Learys", "opening_hours": "Mo 11:00-22:00; Tu-Th 11:00-23:00; Fr 11:00-24:00; Sa 12:00-24:00; Su 12:00-21:00", "phone": "+46 857970807", "website": "https://olearys.se/stockholm-vallingby/", "wheelchair": "yes"}}, {"type": "node", "id": 710212962, "lat": 59.3622398, "lon": 17.8725896, "tags": {"amenity": "cafe", "name": "Pallas", "outdoor_seating": "yes", "wheelchair": "yes"}}, {"type": "node", "id": 710213228, "lat": 59.3634761, "lon": 17.8729609, "tags": {"amenity": "cafe", "brand": "Wayne's Coffee", "brand:wikidata": "Q2637272", "brand:wikipedia": "en:Wayne's Coffee", "cuisine": "coffee_shop", "name": "Wayne's Coffee", "takeaway": "yes", "wheelchair": "yes"}}, {"type": "node", "id": 710215386, "lat": 59.363487, "lon": 17.8612451, "tags": {"amenity": "restaurant", "name": "Basilica"}}, {"type": "node", "id": 712888112, "lat": 59.3586521, "lon": 17.8709442, "tags": {"amenity": "restaurant", "name": "Grimsta pizzeria"}}, {"type": "node", "id": 723876673, "lat": 59.3614606, "lon": 17.8748397, "tags": {"amenity": "restaurant", "name": "Massagotti", "opening_hours": "Mo-Fr 10:00-20:00; Sa 10:00-18:00; Su 11:00-18:00", "wheelchair": "yes"}}, {"type": "node", "id": 738046932, "lat": 59.3958862, "lon": 17.8884112, "tags": {"addr:city": "Sp\u00e5nga", "addr:country": "SE", "addr:housenumber": "2", "addr:postcode": "163 65", "addr:street": "Hjulsta torg", "amenity": "restaurant", "capacity": "20", "cuisine": "kebab;pizza;salad;persisk_mat", "name": "AliBaba", "opening_hours": "Mo-Fr 11:00-21:00, Sa-Su 12:00-21:00"}}, {"type": "node", "id": 747141151, "lat": 59.1937075, "lon": 17.7470038, "tags": {"amenity": "restaurant", "check_date": "2022-07-18", "cuisine": "greek", "name": "Grekland i R\u00f6nninge"}}, {"type": "node", "id": 747758236, "lat": 59.3957673, "lon": 17.9003493, "tags": {"addr:country": "SE", "addr:housenumber": "48", "addr:postcode": "163 64", "addr:street": "Tensta all\u00e9", "amenity": "restaurant", "name": "Punjabi Masala", "opening_hours": "Mo-Fr 11:00-23:00; Sa 12:00-23:00; Su 12:00-22:00", "toilets:wheelchair": "yes", "wheelchair": "yes"}}, {"type": "node", "id": 772290622, "lat": 59.415163, "lon": 17.913341, "tags": {"addr:floor": "G", "addr:housenumber": "28", "addr:street": "Sibeliusg\u00e5ngen", "amenity": "restaurant", "check_date": "2023-11-14", "cuisine": "pizza;swedish", "description": "Pizzeria and national swedish food. Alcohol and poker machines.", "level": "0", "name": "Pizza Torget", "opening_hours": "Mo-Th,Su 10:00-23:00; Fr-Sa 11:00-24:00", "payment:cash": "yes", "payment:credit_cards": "yes", "payment:debit_cards": "yes", "phone": "+46 8 752 707 1", "takeaway": "yes", "website": "https://akallatorget.se/"}}, {"type": "node", "id": 775723809, "lat": 59.2862576, "lon": 17.893086, "tags": {"amenity": "cafe"}}, {"type": "node", "id": 787663923, "lat": 59.2672829, "lon": 17.910325, "tags": {"amenity": "restaurant", "brand": "Pizza Hut", "brand:wikidata": "Q191615", "brand:wikipedia": "en:Pizza Hut", "cuisine": "pizza", "name": "Pizza Hut", "wheelchair": "yes"}}, {"type": "node", "id": 796240750, "lat": 59.1940194, "lon": 17.7479159, "tags": {"amenity": "restaurant", "check_date": "2022-07-18", "internet_access": "no", "name": "R\u00f6nninge Bistro Bar"}}, {"type": "node", "id": 799241319, "lat": 59.1398146, "lon": 17.832764, "tags": {"amenity": "cafe", "name": "Caf\u00e9 Rosenhill", "website": "https://caferosenhill.se/"}}, {"type": "node", "id": 799475592, "lat": 59.4919128, "lon": 17.7188348, "tags": {"amenity": "cafe", "name": "Lillsj\u00f6ns caf\u00e9"}}, {"type": "node", "id": 843199491, "lat": 59.2743913, "lon": 17.92194, "tags": {"amenity": "restaurant", "cuisine": "indian", "name": "India Dream", "opening_hours": "Mo-Th 11:00-21:00; Fr 11:00-22:00; Sa 12:00-22:00; Su 12:00-21:00"}}, {"type": "node", "id": 843273253, "lat": 59.3473014, "lon": 17.9079113, "tags": {"addr:city": "Bromma", "addr:country": "SE", "addr:housenumber": "4", "addr:postcode": "168 56", "addr:street": "\u00c4ngby torg", "amenity": "restaurant", "name": "Stammisst\u00e4llet"}}, {"type": "node", "id": 844560894, "lat": 59.4619596, "lon": 17.8218931, "tags": {"amenity": "restaurant", "description": "Vietnamese", "name": "House We"}}, {"type": "node", "id": 847921987, "lat": 59.4097736, "lon": 17.826891, "tags": {"amenity": "restaurant", "name": "Sj\u00f6kanten"}}, {"type": "node", "id": 847922431, "lat": 59.4080864, "lon": 17.8311933, "tags": {"amenity": "restaurant", "name": "Elektronika"}}, {"type": "node", "id": 922124522, "lat": 59.2700856, "lon": 17.9214298, "tags": {"addr:country": "SE", "addr:housenumber": "2", "addr:postcode": "141 75", "addr:street": "Tangentv\u00e4gen", "amenity": "restaurant", "cuisine": "sushi", "name": "Sushikungen", "opening_hours": "Su-We 11:00-20:00; Th-Sa 11:00-21:00"}}, {"type": "node", "id": 984197113, "lat": 59.1990992, "lon": 17.6079453, "tags": {"amenity": "restaurant"}}, {"type": "node", "id": 1005682423, "lat": 59.2527475, "lon": 17.5145498, "tags": {"amenity": "restaurant", "name": "Enh\u00f6rna Pizzeria & Restaurang"}}, {"type": "node", "id": 1037163409, "lat": 59.1871984, "lon": 17.6143842, "tags": {"amenity": "restaurant"}}, {"type": "node", "id": 1044339700, "lat": 59.1596779, "lon": 17.6460904, "tags": {"access": "yes", "amenity": "restaurant", "cuisine": "regional", "internet_access": "no", "name": "Resturang Syd", "opening_hours": "Mo-Fr 10:00-15:00", "operator": "Amica (Fazer) / Scania", "smoking": "no", "website": "http://www.fazeramica.nu/scania", "wheelchair": "yes"}}, {"type": "node", "id": 1044339712, "lat": 59.1664388, "lon": 17.6374227, "tags": {"access": "yes", "amenity": "restaurant", "cuisine": "regional", "internet_access": "no", "name": "Resturang Granpark", "opening_hours": "Mo-Fr 10:00-15:00", "operator": "Amica (Fazer) / Scania", "smoking": "no", "website": "http://www.fazeramica.nu/scania", "wheelchair": "yes"}}, {"type": "node", "id": 1056718656, "lat": 59.3230425, "lon": 17.9174191, "tags": {"amenity": "cafe"}}, {"type": "node", "id": 1070714312, "lat": 59.1685812, "lon": 17.5931133, "tags": {"amenity": "cafe"}}, {"type": "node", "id": 1077380742, "lat": 59.3632646, "lon": 17.8738754, "tags": {"amenity": "restaurant", "cuisine": "sushi"}}, {"type": "node", "id": 1088557699, "lat": 59.3233019, "lon": 17.8883227}, {"type": "node", "id": 1088557737, "lat": 59.3233375, "lon": 17.8880796}, {"type": "node", "id": 1088557762, "lat": 59.3234351, "lon": 17.8883978}, {"type": "node", "id": 1088557784, "lat": 59.3234707, "lon": 17.8881546}, {"type": "node", "id": 1133967598, "lat": 59.4111959, "lon": 17.8030141, "tags": {"addr:city": "J\u00e4rf\u00e4lla", "addr:country": "SE", "addr:housenumber": "11", "addr:postcode": "175 45", "addr:street": "Viksj\u00f6plan", "amenity": "restaurant", "name": "La Gondola", "opening_hours": "Mo-Th 10:00-23:00, Fr 10:00-01:00, Sa 12:00-01:00, Su 12:00-22:00", "phone": "+46 8-580 354 06", "website": "http://la-gondola.se/"}}, {"type": "node", "id": 1134604803, "lat": 59.2903972, "lon": 17.8116373, "tags": {"amenity": "cafe", "name": "Bageri Eker\u00f6", "opening_hours": "Mo-Fr 07:00-18:30;Sa 08:00-17:00;Su off", "payment:cash": "yes", "phone": "+46-8-56035360", "shop": "bakery", "website": "https://www.bageriekero.se/"}}, {"type": "node", "id": 1134604807, "lat": 59.2910944, "lon": 17.812163, "tags": {"amenity": "cafe"}}, {"type": "node", "id": 1163832465, "lat": 59.2060064, "lon": 17.9023097, "tags": {"addr:city": "Tullinge", "addr:country": "SE", "addr:housenumber": "3", "addr:postcode": "146 30", "addr:street": "Ny\u00e4ngsv\u00e4gen", "amenity": "restaurant", "cuisine": "pizza", "name": "Tullinge pizzeria och restaurang", "opening_hours": "Mo-Th 10:00-22:00, Fr 10:00-01:00, Sa 11:00-01:00, Su 11:00-22:00"}}, {"type": "node", "id": 1202815563, "lat": 59.3921287, "lon": 17.916761, "tags": {"amenity": "restaurant"}}, {"type": "node", "id": 1205481398, "lat": 59.1948605, "lon": 17.6310075, "tags": {"amenity": "restaurant", "name": "Wendela Hebbes Hus"}}, {"type": "node", "id": 1205481404, "lat": 59.1948152, "lon": 17.6304414, "tags": {"amenity": "restaurant", "cuisine": "italian", "name": "Ristorante Barolo"}}, {"type": "node", "id": 1205631656, "lat": 59.1935927, "lon": 17.6253212, "tags": {"amenity": "restaurant", "check_date": "2024-02-02", "name": "Restaurang Liban"}}, {"type": "node", "id": 1205631704, "lat": 59.1933605, "lon": 17.6264932, "tags": {"amenity": "cafe", "check_date": "2024-02-04", "name": "Tidermans Konditori", "opening_hours": "Mo-Sa 07:30-22:00; Su 09:00-22:00"}}, {"type": "node", "id": 1207281151, "lat": 59.1972065, "lon": 17.6233418, "tags": {"amenity": "restaurant", "check_date": "2023-04-09", "cuisine": "pizza", "name": "Pizzeria Rimini", "opening_hours": "Mo-Fr 11:00-21:00; Sa-Su,PH 12:00-21:00"}}, {"type": "node", "id": 1207284898, "lat": 59.1974579, "lon": 17.6272764, "tags": {"amenity": "restaurant", "check_date": "2022-06-29", "name": "Caesar's American & Italian Kitchen & Bar"}}, {"type": "node", "id": 1227739834, "lat": 59.3506763, "lon": 17.8547992}, {"type": "node", "id": 1227740406, "lat": 59.3507359, "lon": 17.8545246}, {"type": "node", "id": 1227740569, "lat": 59.3506542, "lon": 17.8544565}, {"type": "node", "id": 1227741051, "lat": 59.3505891, "lon": 17.8547263}, {"type": "node", "id": 1240112998, "lat": 59.1909942, "lon": 17.8222282, "tags": {"amenity": "restaurant", "cuisine": "pizza", "indoor_seating": "yes", "name": "Gula villan", "outdoor_seating": "yes"}}, {"type": "node", "id": 1240178968, "lat": 59.350606, "lon": 17.8546482}, {"type": "node", "id": 1240178977, "lat": 59.3505857, "lon": 17.8546312}, {"type": "node", "id": 1240178983, "lat": 59.3506385, "lon": 17.8545292}, {"type": "node", "id": 1240178984, "lat": 59.3506125, "lon": 17.8545076}, {"type": "node", "id": 1242314689, "lat": 59.2519118, "lon": 17.8498426, "tags": {"amenity": "restaurant"}}, {"type": "node", "id": 1251065958, "lat": 59.3821888, "lon": 17.903051, "tags": {"amenity": "cafe", "wheelchair": "yes"}}, {"type": "node", "id": 1260661038, "lat": 59.1866501, "lon": 17.6107643, "tags": {"amenity": "restaurant", "name": "V\u00e4sterg\u00e5rds pizzeria", "website": "https://www.vastergardspizzeria.se/"}}, {"type": "node", "id": 1284784688, "lat": 59.3420914, "lon": 17.9071721}, {"type": "node", "id": 1284784707, "lat": 59.3421536, "lon": 17.9068581}, {"type": "node", "id": 1284784869, "lat": 59.3421664, "lon": 17.9072293}, {"type": "node", "id": 1284784904, "lat": 59.3422286, "lon": 17.9069153}, {"type": "node", "id": 1369456013, "lat": 59.2622958, "lon": 17.2550045, "tags": {"amenity": "cafe"}}, {"type": "node", "id": 1374082001, "lat": 59.2974803, "lon": 17.926321}, {"type": "node", "id": 1374082005, "lat": 59.2974234, "lon": 17.9265099}, {"type": "node", "id": 1374082011, "lat": 59.2974872, "lon": 17.9265005}, {"type": "node", "id": 1374082019, "lat": 59.2974166, "lon": 17.9263303}, {"type": "node", "id": 1377032204, "lat": 59.1571739, "lon": 17.8207956, "tags": {"amenity": "cafe", "name": "Botkyrka GK", "source": "survey"}}, {"type": "node", "id": 1377032219, "lat": 59.1581419, "lon": 17.8226642, "tags": {"amenity": "cafe", "name": "Botkyrka GK", "source": "survey"}}, {"type": "node", "id": 1393649128, "lat": 59.5121234, "lon": 17.6362817, "tags": {"amenity": "restaurant", "cuisine": "indian", "name": "Indian Gate"}}, {"type": "node", "id": 1393649131, "lat": 59.5120101, "lon": 17.6361268, "tags": {"addr:city": "Bro", "addr:country": "SE", "addr:housenumber": "14", "addr:postcode": "197 30", "addr:street": "K\u00f6pmanv\u00e4gen", "amenity": "restaurant", "capacity": "50", "contact:phone": "+46 8 582 498 84", "cuisine": "pizza", "name": "Bro J\u00e4rnv\u00e4gs Pizzeria", "smoking": "outside"}}, {"type": "node", "id": 1417970887, "lat": 59.1888896, "lon": 17.6321557, "tags": {"amenity": "restaurant"}}, {"type": "node", "id": 1422672079, "lat": 59.5152494, "lon": 17.86843}, {"type": "node", "id": 1422672110, "lat": 59.5152827, "lon": 17.8683581}, {"type": "node", "id": 1422672113, "lat": 59.5153721, "lon": 17.8686512}, {"type": "node", "id": 1422672117, "lat": 59.5154054, "lon": 17.8685793}, {"type": "node", "id": 1445492469, "lat": 59.382455, "lon": 17.8989662, "tags": {"addr:city": "Sp\u00e5nga", "addr:country": "SE", "addr:housenumber": "1", "addr:postcode": "163 51", "addr:street": "Sp\u00e5nga stationsplan", "amenity": "cafe", "name": "Sp\u00e5nga Konditori", "source": "survey"}}, {"type": "node", "id": 1445777917, "lat": 59.175447, "lon": 17.657465, "tags": {"addr:country": "SE", "addr:housenumber": "21", "addr:street": "Industriv\u00e4gen", "amenity": "restaurant", "name": "Restaurang Skutan"}}, {"type": "node", "id": 1452422077, "lat": 59.3513794, "lon": 17.9000021, "tags": {"amenity": "cafe", "cuisine": "thai", "name": "La Rustica", "source": "Bing"}}, {"type": "node", "id": 1452433441, "lat": 59.3468849, "lon": 17.9085116, "tags": {"addr:city": "Bromma", "addr:country": "SE", "addr:housenumber": "3", "addr:postcode": "168 56", "addr:street": "\u00c4ngby torg", "amenity": "cafe", "name": "Torgh\u00f6rnan"}}, {"type": "node", "id": 1458482716, "lat": 59.381263, "lon": 17.8997023, "tags": {"amenity": "restaurant", "name": "ChinaThai"}}, {"type": "node", "id": 1458492629, "lat": 59.3791687, "lon": 17.9041253, "tags": {"addr:city": "Sp\u00e5nga", "addr:country": "SE", "addr:housenumber": "2-4", "addr:postcode": "16355", "addr:street": "Stormbyv\u00e4gen", "amenity": "restaurant", "building": "yes", "name": "Restaurang Sturegatan", "url": "http://www.krogentrekockar.se/"}}, {"type": "node", "id": 1477950897, "lat": 59.4417682, "lon": 17.8983889}, {"type": "node", "id": 1477950933, "lat": 59.4416811, "lon": 17.8983031}, {"type": "node", "id": 1477950942, "lat": 59.4416844, "lon": 17.8987138}, {"type": "node", "id": 1477951119, "lat": 59.4403759, "lon": 17.9128436}, {"type": "node", "id": 1477951207, "lat": 59.4402711, "lon": 17.9128625}, {"type": "node", "id": 1477951253, "lat": 59.4402538, "lon": 17.9124923}, {"type": "node", "id": 1477951374, "lat": 59.4415983, "lon": 17.8986281}, {"type": "node", "id": 1477951386, "lat": 59.4403586, "lon": 17.9124733}, {"type": "node", "id": 1486022188, "lat": 59.4025094, "lon": 17.8677467, "tags": {"al_refresco": "yes", "amenity": "restaurant", "name": "Lilla Barkarby", "source": "survey", "website": "https://www.lillabarkarby.se/"}}, {"type": "node", "id": 1486022217, "lat": 59.4025381, "lon": 17.8695168, "tags": {"al_fresco": "yes", "amenity": "restaurant", "cuisine": "pizza", "name": "Restaurang Tw\u00e5 Kr\u00f6gare", "source": "survey"}}, {"type": "node", "id": 1486892812, "lat": 59.4726629, "lon": 17.7941972, "tags": {"al_frecso": "yes", "amenity": "restaurant", "cuisine": "pizza;thai", "delivery": "yes", "name": "Franco's Pizzeria", "source": "survey", "takeaway": "yes", "website": "https://www.francospizzeria.se/"}}, {"type": "node", "id": 1494239322, "lat": 59.2531891, "lon": 17.8766375, "tags": {"amenity": "restaurant", "check_date": "2022-06-23", "cuisine": "italian;lebanese", "name": "Spinaci"}}, {"type": "node", "id": 1496149097, "lat": 59.4067837, "lon": 17.8526891, "tags": {"amenity": "cafe", "name": "Cafe Veddesta", "source": "survey"}}, {"type": "node", "id": 1511431532, "lat": 59.3311297, "lon": 17.9112186, "tags": {"addr:country": "SE", "addr:housenumber": "13", "addr:street": "Dalg\u00e5ngen", "amenity": "restaurant", "cuisine": "asian", "name": "Thai Malee", "website": "http://www.restaurangelvira.dinstudio.se/"}}, {"type": "node", "id": 1512421740, "lat": 59.3333107, "lon": 17.9244454, "tags": {"addr:country": "SE", "addr:housenumber": "5", "addr:postcode": "168 39", "addr:street": "R\u00e5n\u00f6v\u00e4gen", "amenity": "restaurant", "name": "Bromma Thai", "website": "https://www.brommathai.se/", "wheelchair": "no"}}, {"type": "node", "id": 1512612813, "lat": 59.3294194, "lon": 17.9282229, "tags": {"amenity": "restaurant", "cuisine": "indian", "name": "Mezbaan"}}, {"type": "node", "id": 1513084666, "lat": 59.3418988, "lon": 17.905965, "tags": {"addr:city": "Bromma", "addr:country": "SE", "addr:housenumber": "6", "addr:postcode": "168 51", "addr:street": "F\u00e4rjestadsv\u00e4gen", "al_fresco": "yes", "amenity": "cafe", "branch": "\u00c4ngbyplan", "contact:phone": "+46 8 519 791 12", "name": "Gateau", "source": "survey"}}, {"type": "node", "id": 1514297060, "lat": 59.341486, "lon": 17.9055784, "tags": {"al_fresco": "yes", "amenity": "restaurant", "cuisine": "sushi;thai", "name": "\u00c4ngby Sushi & Thai", "source": "survey"}}, {"type": "node", "id": 1520353386, "lat": 59.5184197, "lon": 17.9112215, "tags": {"amenity": "cafe", "brand": "Wayne's Coffee", "brand:wikidata": "Q2637272", "brand:wikipedia": "en:Wayne's Coffee", "cuisine": "coffee_shop", "level": "2", "name": "Wayne's Coffee", "takeaway": "yes", "website": "https://www.waynescoffee.se/"}}, {"type": "node", "id": 1520353388, "lat": 59.5186027, "lon": 17.9113774, "tags": {"amenity": "cafe", "check_date": "2024-01-14", "name": "Cafe Petit Four", "outdoor_seating": "no"}}, {"type": "node", "id": 1532048099, "lat": 59.4180471, "lon": 17.8348136, "tags": {"addr:city": "J\u00e4rf\u00e4lla", "addr:country": "SE", "addr:housenumber": "106", "addr:street": "Vasav\u00e4gen", "amenity": "cafe", "name": "Br\u00f6dernas Bageri"}}, {"type": "node", "id": 1539913664, "lat": 59.5184606, "lon": 17.9115709, "tags": {"amenity": "restaurant", "capacity": "20", "cuisine": "japanese;sushi", "name": "Arigato sushi", "opening_hours": "Mo-Fr 10:00-19:00;Sa 10:00-17:00;Su 11:00-17:00", "phone": "+46 8 - 590 888 58", "source": "http://www.arigato.se/extra/rest-uppland", "website": "https://www.arigato.se/"}}, {"type": "node", "id": 1549324812, "lat": 59.423037, "lon": 17.836499, "tags": {"amenity": "cafe", "wheelchair": "yes"}}, {"type": "node", "id": 1559437089, "lat": 59.4231653, "lon": 17.8358499, "tags": {"amenity": "cafe", "wheelchair": "yes"}}, {"type": "node", "id": 1561558264, "lat": 59.3333467, "lon": 17.924382, "tags": {"amenity": "restaurant", "cuisine": "pizza", "name": "Drottningholms Pizzeria", "wheelchair": "no"}}, {"type": "node", "id": 1563539320, "lat": 59.3313029, "lon": 17.9316449, "tags": {"amenity": "restaurant", "cuisine": "pizza", "name": "Pizzeria Red Corner"}}, {"type": "node", "id": 1571195782, "lat": 59.462918, "lon": 17.7398704}, {"type": "node", "id": 1571195785, "lat": 59.4629546, "lon": 17.7409047}, {"type": "node", "id": 1571195787, "lat": 59.463066, "lon": 17.7398501}, {"type": "node", "id": 1571195793, "lat": 59.4631026, "lon": 17.7408844}, {"type": "node", "id": 1634896568, "lat": 59.4204733, "lon": 17.8611581, "tags": {"amenity": "restaurant", "cuisine": "indian", "name": "Gurkmeja"}}, {"type": "node", "id": 1635760634, "lat": 59.280377, "lon": 17.8347681, "tags": {"amenity": "cafe"}}, {"type": "node", "id": 1637003670, "lat": 59.2747797, "lon": 17.7852974, "tags": {"amenity": "restaurant", "cuisine": "pizza", "name": "V\u00e4ringg\u00e5rden"}}, {"type": "node", "id": 1647326220, "lat": 59.4350055, "lon": 17.7872895, "tags": {"amenity": "cafe", "name": "G\u00f6rv\u00e4lns slott"}}, {"type": "node", "id": 1667887858, "lat": 59.4180258, "lon": 17.8353709, "tags": {"amenity": "restaurant", "cuisine": "pizza", "name": "J\u00e4rf\u00e4lla Pizzeria"}}, {"type": "node", "id": 1670661309, "lat": 59.2760958, "lon": 17.9253013}, {"type": "node", "id": 1670661312, "lat": 59.2761154, "lon": 17.9251538}, {"type": "node", "id": 1670661315, "lat": 59.276144, "lon": 17.925378}, {"type": "node", "id": 1670661317, "lat": 59.2761711, "lon": 17.92526}, {"type": "node", "id": 1670661319, "lat": 59.2761726, "lon": 17.9251184}, {"type": "node", "id": 1710047614, "lat": 59.4225085, "lon": 17.8351881, "tags": {"amenity": "restaurant", "cuisine": "pizza", "name": "Restaurang Roma", "wheelchair": "yes"}}, {"type": "node", "id": 1735138148, "lat": 59.4093721, "lon": 17.8974687, "tags": {"amenity": "cafe", "name": "H\u00e4sta g\u00e5rd", "opening_hours:signed": "no"}}, {"type": "node", "id": 1823940596, "lat": 59.3455873, "lon": 17.8938441, "tags": {"amenity": "restaurant", "name": "Restaurang Figaro", "source": "survey"}}, {"type": "node", "id": 1823992037, "lat": 59.3512786, "lon": 17.9002063, "tags": {"addr:city": "Bromma", "addr:country": "SE", "addr:housenumber": "1", "addr:postcode": "168 53", "addr:street": "L\u00e5ngskeppsgatan", "amenity": "cafe", "cuisine": "ice_cream;coffee;sandwich", "name": "Caf\u00e9 \u00c4ngby", "opening_hours": "Mo-Fr 09:00-18:00; Sa-Su 10:00-18:00", "outdoor_seating": "yes", "phone": "+46 8 37 06 00", "website": "https://www.instagram.com/cafe.angby/"}}, {"type": "node", "id": 1823992056, "lat": 59.3472311, "lon": 17.8945147, "tags": {"addr:country": "SE", "addr:housenumber": "264", "addr:street": "Bergslagsv\u00e4gen", "al_fresco": "yes", "amenity": "restaurant", "cuisine": "chinese", "indoor_seating": "yes", "name": "Restaurang China House", "outdoor_seating": "no", "source": "survey"}}, {"type": "node", "id": 1823992065, "lat": 59.3466991, "lon": 17.892908, "tags": {"amenity": "cafe", "cuisine": "pizza", "name": "Pizzeria Islandstorget", "source": "survey"}}, {"type": "node", "id": 1831996628, "lat": 59.3415549, "lon": 17.9269697, "tags": {"amenity": "cafe", "name": "Caf\u00e9 Blomma", "source": "survey"}}, {"type": "node", "id": 1859363256, "lat": 59.0924347, "lon": 17.5628289, "tags": {"amenity": "restaurant", "name": "Torino"}}, {"type": "node", "id": 1885664341, "lat": 59.406492, "lon": 17.844282, "tags": {"addr:country": "SE", "addr:housenumber": "24", "addr:street": "Veddestav\u00e4gen", "amenity": "restaurant", "cuisine": "pizza", "name": "Pizzeria Stj\u00e4rnhuset"}}, {"type": "node", "id": 1941971904, "lat": 59.4817852, "lon": 17.9177592, "tags": {"amenity": "restaurant", "cuisine": "pizza"}}, {"type": "node", "id": 1941971932, "lat": 59.4818021, "lon": 17.9175268, "tags": {"addr:city": "Sollentuna", "addr:country": "SE", "addr:housenumber": "2", "addr:postcode": "19278", "addr:street": "Skvadronsv\u00e4gen", "amenity": "restaurant", "cuisine": "indian", "name": "Sukh Indian Restaurang AB", "opening_hours": "Mo-Th 11:00-21:00; Fr 11:00-22:00; Sa-Su 13:00-22:00", "phone": "+4686265540", "website": "https://www.sukhindisk.se"}}, {"type": "node", "id": 1944709531, "lat": 59.420229, "lon": 17.8611526, "tags": {"amenity": "restaurant", "name": "Alddimashki", "toilets:wheelchair": "yes", "wheelchair": "yes"}}, {"type": "node", "id": 2105802237, "lat": 59.400175, "lon": 17.8629198, "tags": {"addr:country": "SE", "addr:housenumber": "33", "addr:street": "Sk\u00e4lbyv\u00e4gen", "amenity": "restaurant", "cuisine": "pizza", "name": "Barkarby Pizzeria", "source": "local_knowledge", "website": "https://www.barkarbypizzeria.se/"}}, {"type": "node", "id": 2198188356, "lat": 59.359538, "lon": 17.2067403, "tags": {"amenity": "restaurant", "cuisine": "thai", "name": "Bussaba Thaifood"}}, {"type": "node", "id": 2198188357, "lat": 59.3593542, "lon": 17.2072027, "tags": {"amenity": "cafe", "name": "Printz Bageri", "website": "http://www.printzbageri.se/"}}, {"type": "node", "id": 2198188359, "lat": 59.3625692, "lon": 17.2052573, "tags": {"amenity": "restaurant", "cuisine": "regional", "name": "V\u00e4rdshuset Gripen", "website": "https://www.vardshusetgripen.se/"}}, {"type": "node", "id": 2198188789, "lat": 59.3631778, "lon": 17.2050841}, {"type": "node", "id": 2198188793, "lat": 59.3631836, "lon": 17.2051237}, {"type": "node", "id": 2198188795, "lat": 59.363188, "lon": 17.2050479}, {"type": "node", "id": 2198188799, "lat": 59.3632021, "lon": 17.2051437}, {"type": "node", "id": 2198188801, "lat": 59.3632082, "lon": 17.2050364}, {"type": "node", "id": 2198188802, "lat": 59.3632223, "lon": 17.2051322}, {"type": "node", "id": 2198188803, "lat": 59.3632266, "lon": 17.2050564}, {"type": "node", "id": 2198188804, "lat": 59.3632325, "lon": 17.2050961}, {"type": "node", "id": 2250605124, "lat": 59.1812452, "lon": 17.1351827, "tags": {"amenity": "restaurant", "historic": "mine", "name": "Skottv\u00e5ngs Gruva"}}, {"type": "node", "id": 2284766617, "lat": 59.2849648, "lon": 17.9210366, "tags": {"amenity": "restaurant", "cuisine": "iraqi", "internet_access": "no", "level": "0", "name": "Al Basha", "smoking": "no", "source": "knowledge", "wheelchair": "yes"}}, {"type": "node", "id": 2284766661, "lat": 59.2849094, "lon": 17.9217137, "tags": {"amenity": "restaurant", "cuisine": "pizza", "internet_access": "no", "level": "0", "name": "Pizzeria Korall", "smoking": "no", "wheelchair": "yes"}}, {"type": "node", "id": 2284766671, "lat": 59.2850335, "lon": 17.9206053, "tags": {"amenity": "restaurant", "cuisine": "pizza", "internet_access": "no", "level": "0", "name": "S\u00e4tra Food House", "smoking": "no", "source": "knowledge", "wheelchair": "yes"}}, {"type": "node", "id": 2322962316, "lat": 59.3797984, "lon": 17.9143691, "tags": {"addr:country": "SE", "addr:housenumber": "1", "addr:street": "Bromstens plan", "amenity": "restaurant", "name": "Sigismund"}}, {"type": "node", "id": 2322962891, "lat": 59.3816276, "lon": 17.9116923, "tags": {"addr:country": "SE", "addr:housenumber": "1", "addr:street": "Erik Tegels v\u00e4g", "amenity": "restaurant", "cuisine": "pizza", "name": "Bromstens Krog", "website": "http://bromstenskrog.se/"}}, {"type": "node", "id": 2372165924, "lat": 59.390972, "lon": 17.8728567, "tags": {"addr:country": "SE", "addr:housenumber": "54", "addr:street": "Finsp\u00e5ngsgatan", "amenity": "restaurant", "name": "Karinas K\u00f6k"}}, {"type": "node", "id": 2380990687, "lat": 59.4759897, "lon": 17.9024307, "tags": {"addr:city": "Sollentuna", "addr:country": "SE", "addr:housenumber": "18", "addr:street": "Ytterbyv\u00e4gen", "amenity": "restaurant", "cuisine": "pizza", "name": "Gillbo Pizzeria", "website": "http://www.gillbopizzeria.se/"}}, {"type": "node", "id": 2407313838, "lat": 59.2645388, "lon": 17.9036743, "tags": {"amenity": "restaurant", "name": "M\u00e5nsk\u00e4ran"}}, {"type": "node", "id": 2412635577, "lat": 59.3821841, "lon": 17.8978324, "tags": {"addr:city": "Sp\u00e5nga", "addr:country": "SE", "addr:housenumber": "1", "addr:postcode": "163 51", "addr:street": "Sp\u00e5nga torg", "amenity": "restaurant", "cuisine": "thai", "name": "Baan Thai", "source": "survey", "url": "http://www.baanthai-spanga.se/", "wheelchair": "yes"}}, {"type": "node", "id": 2422155069, "lat": 59.4427933, "lon": 17.9244404, "tags": {"amenity": "restaurant", "cuisine": "international", "name": "Restaurang Klasro"}}, {"type": "node", "id": 2435440800, "lat": 59.1937761, "lon": 17.6420573, "tags": {"amenity": "restaurant", "check_date": "2023-12-30", "cuisine": "pizza", "name": "Lilla Italy", "phone": "+468 55080750", "source": "local knowledge"}}, {"type": "node", "id": 2435454490, "lat": 59.1886402, "lon": 17.6435677, "tags": {"amenity": "restaurant", "check_date": "2023-05-03", "name": "Mesa Queen"}}, {"type": "node", "id": 2476485522, "lat": 59.1629232, "lon": 17.8795752}, {"type": "node", "id": 2476485523, "lat": 59.162848, "lon": 17.8795534}, {"type": "node", "id": 2476485525, "lat": 59.1628522, "lon": 17.879498}, {"type": "node", "id": 2476485526, "lat": 59.1627734, "lon": 17.8794752}, {"type": "node", "id": 2476485527, "lat": 59.1627151, "lon": 17.8795458}, {"type": "node", "id": 2476485528, "lat": 59.1626889, "lon": 17.8796002}, {"type": "node", "id": 2476485529, "lat": 59.1627179, "lon": 17.8797476}, {"type": "node", "id": 2476485530, "lat": 59.162797, "lon": 17.8797708}, {"type": "node", "id": 2476485531, "lat": 59.16279, "lon": 17.8798626}, {"type": "node", "id": 2476485532, "lat": 59.1628261, "lon": 17.8798731}, {"type": "node", "id": 2476485533, "lat": 59.1628137, "lon": 17.8800345}, {"type": "node", "id": 2476485535, "lat": 59.1627643, "lon": 17.8801861}, {"type": "node", "id": 2476485536, "lat": 59.1629109, "lon": 17.8802287}, {"type": "node", "id": 2476485537, "lat": 59.1629454, "lon": 17.8797779}, {"type": "node", "id": 2476485538, "lat": 59.1629085, "lon": 17.8797672}, {"type": "node", "id": 2493578808, "lat": 59.4710618, "lon": 17.9163643, "tags": {"addr:city": "Sollentuna", "addr:country": "SE", "addr:housenumber": "1", "addr:postcode": "19268", "addr:street": "Konsumentv\u00e4gen", "amenity": "restaurant", "cuisine": "thai", "name": "SG Sushi & Thai", "opening_hours": "Mo-Fr 08:00-21:00; Sa-Su 12:00-20:00", "phone": "+4687547900"}}, {"type": "node", "id": 2495421483, "lat": 59.2923752, "lon": 17.9043535, "tags": {"amenity": "cafe", "name": "Hovcaf\u00e9et"}}, {"type": "node", "id": 2495482668, "lat": 59.2958641, "lon": 17.9230907, "tags": {"amenity": "restaurant", "name": "M\u00e4 Thai"}}, {"type": "node", "id": 2500390553, "lat": 59.4241016, "lon": 17.836907, "tags": {"addr:city": "J\u00e4rf\u00e4lla", "addr:country": "SE", "addr:housenumber": "31", "addr:postcode": "17750", "addr:street": "Riddarplatsen", "amenity": "restaurant", "cuisine": "tapas", "name": "Matadoren", "phone": "+46 8 580 12 300", "website": "http://www.matadoren.com", "wheelchair": "yes"}}, {"type": "node", "id": 2524993539, "lat": 59.2008663, "lon": 17.7702368, "tags": {"amenity": "restaurant", "operator": "Kaiza AB", "website": "https://www.kaizaab.com/"}}, {"type": "node", "id": 2561787631, "lat": 59.2345185, "lon": 17.8519151, "tags": {"amenity": "restaurant", "name": "Tasty7", "source": "local knowledge"}}, {"type": "node", "id": 2577496639, "lat": 59.19392, "lon": 17.7490447, "tags": {"addr:housenumber": "20", "addr:street": "R\u00f6nninge torg", "amenity": "restaurant", "name": "R\u00f6nninge Deli", "source": "knowledge"}}, {"type": "node", "id": 2599925647, "lat": 59.24442, "lon": 17.825237, "tags": {"amenity": "restaurant", "name": "Botvid"}}, {"type": "node", "id": 2605312495, "lat": 59.1999438, "lon": 17.8499486, "tags": {"amenity": "restaurant", "cuisine": "regional", "name": "Alhamra", "source": "local_knowledge"}}, {"type": "node", "id": 2605316997, "lat": 59.2096771, "lon": 17.8503349, "tags": {"amenity": "restaurant", "cuisine": "regional", "source": "local_knowledge"}}, {"type": "node", "id": 2655768896, "lat": 59.3644238, "lon": 17.8417569, "tags": {"addr:city": "H\u00e4sselby", "addr:country": "SE", "addr:housenumber": "39", "addr:postcode": "165 56", "addr:street": "Orm\u00e4ngsgatan", "amenity": "restaurant", "name": "H\u00e4sselby V\u00e4rdshus", "opening_hours": "Mo-Th 10:00-23:00, Fr 10:00-01:00, Sa 11:00-01:00, Su 11:00-23:00", "wheelchair": "yes"}}, {"type": "node", "id": 2663397746, "lat": 59.4601268, "lon": 17.922926, "tags": {"amenity": "restaurant", "cuisine": "indian;pizza", "name": "Asian Garden Norrviken", "website": "https://asiangardennorrviken.se/"}}, {"type": "node", "id": 2772484703, "lat": 59.408712, "lon": 17.9395044, "tags": {"addr:city": "Kista", "addr:country": "SE", "addr:housenumber": "33", "addr:postcode": "16455", "addr:street": "Kista All\u00e9v\u00e4g", "amenity": "restaurant", "contact:phone": "+46 8 403 777 00", "cuisine": "pizza", "highchair": "no", "kids_area": "no", "level": "0", "name": "Runt H\u00f6rnet", "opening_hours": "11:00-20:00", "outdoor_seating": "yes", "self_service": "no", "takeaway": "yes"}}, {"type": "node", "id": 2790124294, "lat": 59.4037015, "lon": 17.9417905, "tags": {"amenity": "restaurant", "cuisine": "pasta", "level": "0", "name": "Black & White", "wheelchair": "yes"}}, {"type": "node", "id": 2790124300, "lat": 59.403545, "lon": 17.9420304, "tags": {"amenity": "restaurant", "level": "0", "name": "Mama Africa", "wheelchair": "yes"}}, {"type": "node", "id": 2820543024, "lat": 59.3627018, "lon": 17.7277406, "tags": {"amenity": "cafe"}}, {"type": "node", "id": 2822089014, "lat": 59.2851689, "lon": 17.9206869, "tags": {"amenity": "restaurant", "cuisine": "seafood", "name": "Al Mazgoof"}}, {"type": "node", "id": 2904751063, "lat": 59.2604203, "lon": 17.2192348, "tags": {"amenity": "restaurant", "cuisine": "pizza", "name": "Mariefreds Kebab & Pizzeria"}}, {"type": "node", "id": 2905795105, "lat": 59.2588533, "lon": 17.2182176, "tags": {"amenity": "cafe", "name": "J\u00e4rnv\u00e4gscaf\u00e9et"}}, {"type": "node", "id": 2914689948, "lat": 59.2596704, "lon": 17.8557859}, {"type": "node", "id": 2914689949, "lat": 59.2596721, "lon": 17.856064}, {"type": "node", "id": 2914689950, "lat": 59.2597544, "lon": 17.8557838}, {"type": "node", "id": 2914689951, "lat": 59.2597561, "lon": 17.856062}, {"type": "node", "id": 2960234826, "lat": 59.194128, "lon": 17.6266289, "tags": {"amenity": "restaurant", "check_date": "2023-06-11", "cuisine": "australian", "name": "Croc's inn", "old_name": "Dynasty"}}, {"type": "node", "id": 2960234832, "lat": 59.1895978, "lon": 17.6261703, "tags": {"amenity": "restaurant", "check_date": "2023-08-12", "cuisine": "indian", "name": "Royal India"}}, {"type": "node", "id": 2960237133, "lat": 59.1949776, "lon": 17.62855, "tags": {"amenity": "restaurant", "check_date": "2023-12-03", "name": "Pinchos"}}, {"type": "node", "id": 2960237134, "lat": 59.1800497, "lon": 17.6472613, "tags": {"amenity": "restaurant", "check_date": "2023-04-10", "indoor_seating": "yes", "name": "Hamnen k\u00f6k & bar", "outdoor_seating": "yes"}}, {"type": "node", "id": 2960237136, "lat": 59.1938602, "lon": 17.6273786, "tags": {"amenity": "restaurant", "check_date": "2023-03-01", "name": "M\u00e1s que tapas", "opening_hours": "Mo-Su 13:00-21:00"}}, {"type": "node", "id": 2960237138, "lat": 59.1937511, "lon": 17.6268105, "tags": {"amenity": "restaurant", "check_date": "2022-06-27", "cuisine": "italian", "name": "La Cantina", "opening_hours": "Mo-Sa 17:00-22:00", "phone": "+46855066600"}}, {"type": "node", "id": 2960237141, "lat": 59.1943277, "lon": 17.6276825, "tags": {"amenity": "restaurant", "check_date": "2023-06-11", "name": "Jumeirah"}}, {"type": "node", "id": 2960237145, "lat": 59.1950298, "lon": 17.625986, "tags": {"addr:city": "S\u00f6dert\u00e4lje", "addr:country": "SE", "addr:housenumber": "10", "addr:street": "Nedre Torek\u00e4llgatan", "amenity": "restaurant", "check_date": "2023-06-11", "name": "Carolina"}}, {"type": "node", "id": 2960237146, "lat": 59.1895203, "lon": 17.6262265, "tags": {"amenity": "restaurant", "check_date": "2023-08-12", "cuisine": "pizza", "name": "Jakobs pizza"}}, {"type": "node", "id": 2960237153, "lat": 59.1876901, "lon": 17.624563, "tags": {"addr:country": "SE", "addr:housenumber": "14", "addr:street": "Mariek\u00e4llgatan", "amenity": "restaurant", "cuisine": "pasta", "name": "Zorbo"}}, {"type": "node", "id": 2961638175, "lat": 59.2025036, "lon": 17.6324355, "tags": {"amenity": "restaurant", "check_date": "2023-07-08", "cuisine": "pizza", "name": "Atilla's"}}, {"type": "node", "id": 2961638177, "lat": 59.1981338, "lon": 17.6255993, "tags": {"amenity": "cafe", "name": "Kafe Tratten", "opening_hours": "Mo-Fr 08:00-20:00; Sa 08:00-19:00; Su 10:00-19:00"}}, {"type": "node", "id": 2961638179, "lat": 59.1999192, "lon": 17.6295294, "tags": {"addr:city": "S\u00f6dert\u00e4lje", "addr:country": "SE", "addr:housenumber": "2A", "addr:postcode": "152 40", "addr:street": "Stockholmsv\u00e4gen", "amenity": "restaurant", "check_date": "2022-07-20", "cuisine": "sushi;ramen", "name": "Teso Sushi & Ramen", "opening_hours": "Mo-Fr 11:00-21:00; Sa 12:00-21:00; Su 12:00-20:00"}}, {"type": "node", "id": 2961638180, "lat": 59.1949788, "lon": 17.628029, "tags": {"amenity": "restaurant", "check_date": "2023-06-11", "name": "Chez Massouh"}}, {"type": "node", "id": 2961638181, "lat": 59.1948942, "lon": 17.628004, "tags": {"amenity": "restaurant", "check_date": "2023-06-11", "cuisine": "kebab;pizza;burger;fishnchips", "name": "Joe's Grill &Pizza"}}, {"type": "node", "id": 2961638183, "lat": 59.1988689, "lon": 17.6270737, "tags": {"amenity": "restaurant", "check_date": "2022-07-02", "description": "Biljard, shuffleboard, dart, ps", "name": "ST Biljard Bar"}}, {"type": "node", "id": 2961652295, "lat": 59.330205, "lon": 17.5392469, "tags": {"amenity": "cafe"}}, {"type": "node", "id": 2961652304, "lat": 59.3304191, "lon": 17.5393493}, {"type": "node", "id": 2961652305, "lat": 59.3304299, "lon": 17.5391376}, {"type": "node", "id": 2961652308, "lat": 59.3305894, "lon": 17.539383}, {"type": "node", "id": 2961652309, "lat": 59.3306002, "lon": 17.5391713}, {"type": "node", "id": 2992365949, "lat": 59.2931362, "lon": 17.6447762}, {"type": "node", "id": 2992365950, "lat": 59.2932059, "lon": 17.6450148}, {"type": "node", "id": 2992365953, "lat": 59.2933052, "lon": 17.6445868}, {"type": "node", "id": 2992365954, "lat": 59.2933208, "lon": 17.6446403}, {"type": "node", "id": 2992365955, "lat": 59.2933809, "lon": 17.6445696}, {"type": "node", "id": 2992365956, "lat": 59.2934012, "lon": 17.644575}, {"type": "node", "id": 2992365958, "lat": 59.2934359, "lon": 17.6447542}, {"type": "node", "id": 2992365959, "lat": 59.293442, "lon": 17.6447096}, {"type": "node", "id": 3004917267, "lat": 59.4539705, "lon": 17.8064424, "tags": {"addr:city": "J\u00e4rf\u00e4lla", "addr:street": "Gjutarplan", "amenity": "cafe", "name": "N\u00e4verbergs Coffee Corner"}}, {"type": "node", "id": 3005329514, "lat": 59.4349759, "lon": 17.7873023, "tags": {"amenity": "restaurant", "name": "G\u00f6rv\u00e4lns slott", "source": "http://www.gorvalnsslott.se/restaurang/", "url": "http://www.gorvalnsslott.se/restaurang/"}}, {"type": "node", "id": 3005353048, "lat": 59.4516633, "lon": 17.7942479, "tags": {"amenity": "cafe", "name": "Kallh\u00e4llsbadet"}}, {"type": "node", "id": 3006456739, "lat": 59.4551809, "lon": 17.8002011, "tags": {"addr:city": "J\u00e4rf\u00e4lla", "addr:country": "SE", "addr:housenumber": "18", "addr:postcode": "17671", "addr:street": "Fabriksv\u00e4gen", "amenity": "restaurant", "name": "Bolinder Strands Krog", "website": "https://bolinderstrandskrog.se/"}}, {"type": "node", "id": 3006456740, "lat": 59.4544019, "lon": 17.8057222, "tags": {"addr:country": "SE", "addr:housenumber": "31", "addr:postcode": "17672", "addr:street": "Gjutarplan", "amenity": "restaurant", "name": "Kallh\u00e4lls restaurang"}}, {"type": "node", "id": 3017913588, "lat": 59.457453, "lon": 17.8165136, "tags": {"addr:city": "J\u00e4rf\u00e4lla", "addr:country": "SE", "addr:housenumber": "35", "addr:postcode": "17672", "addr:street": "K\u00e4lltorpsv\u00e4gen", "amenity": "restaurant", "cuisine": "pizza", "name": "Oregano", "opening_hours": "Mo-Fr 10:00-21:00, Sa,Su 12:00-21:00"}}, {"type": "node", "id": 3055467507, "lat": 59.2669809, "lon": 17.7768163}, {"type": "node", "id": 3055467508, "lat": 59.266985, "lon": 17.7770818}, {"type": "node", "id": 3055467509, "lat": 59.266826, "lon": 17.7770925}, {"type": "node", "id": 3055467510, "lat": 59.2668178, "lon": 17.776827}, {"type": "node", "id": 3126684722, "lat": 59.1973623, "lon": 17.6237216, "tags": {"addr:country": "SE", "addr:housenumber": "23", "addr:street": "Nygatan", "amenity": "restaurant", "check_date": "2022-06-27", "name": "Asian Roxy", "opening_hours": "Mo-Th 10:30-21:00; Fr 10:30-22:00; Sa 12:00-22:00; Su 12:00-21:00", "url:menu": "http://asianroxy.kvartersmenyn.se/"}}, {"type": "node", "id": 3139746935, "lat": 59.1960229, "lon": 17.6246934, "tags": {"amenity": "restaurant", "check_date": "2022-10-19", "cuisine": "steak;meze", "name": "DownTown Steakhouse & Meze", "opening_hours": "Mo-Fr 11:00-14:30"}}, {"type": "node", "id": 3225973664, "lat": 59.3237087, "lon": 17.7497381, "tags": {"addr:city": "Sk\u00e5", "addr:country": "SE", "addr:housenumber": "75", "addr:postcode": "179 75", "addr:street": "F\u00e4rentunav\u00e4gen", "amenity": "restaurant", "cuisine": "pizza", "name": "Sk\u00e5 pizzeria", "opening_hours": "Mo-Fr 11:00-21:00; Sa-Su 12:00-21:00", "phone": "+46 8 560 248 45", "website": "https://skapizzeria.se/"}}, {"type": "node", "id": 3389732720, "lat": 59.3675888, "lon": 17.9006864, "tags": {"amenity": "restaurant", "cuisine": "pizza", "name": "Pizzeria Ancelo"}}, {"type": "node", "id": 3390162465, "lat": 59.1944205, "lon": 17.6229127, "tags": {"amenity": "restaurant", "cuisine": "kebab", "name": "T\u00e4lje Kebab"}}, {"type": "node", "id": 3400822895, "lat": 59.3840986, "lon": 17.8904446, "tags": {"amenity": "restaurant", "name": "Bl\u00e5 Hatt"}}, {"type": "node", "id": 3400932596, "lat": 59.3693161, "lon": 17.9005719, "tags": {"addr:country": "SE", "addr:housenumber": "321", "addr:street": "Sp\u00e5ngav\u00e4gen", "amenity": "restaurant", "cuisine": "sushi;wok:chinese", "name": "Ebi321", "outdoor_seating": "yes"}}, {"type": "node", "id": 3400932597, "lat": 59.3691877, "lon": 17.9005034, "tags": {"amenity": "restaurant", "check_date:opening_hours": "2022-01-10", "cuisine": "pizza;kebab", "name": "Flysta pizzeria", "opening_hours": "Mo-Fr 10:00-21:00; Sa-Su 11:00-21:00", "outdoor_seating": "yes", "phone": "+46 8360076"}}, {"type": "node", "id": 3400932606, "lat": 59.3702065, "lon": 17.9008779, "tags": {"amenity": "restaurant", "check_date:opening_hours": "2022-01-10", "cuisine": "pizza;kebab;pasta", "name": "Il Postino", "opening_hours": "Mo-Fr 10:00-21:00; Sa-Su 11:00-21:00"}}, {"type": "node", "id": 3407604585, "lat": 59.3803304, "lon": 17.8159808, "tags": {"amenity": "restaurant", "cuisine": "pizza", "name": "\u00c5kermyntan Pizzeria", "opening_hours": "Mo-Fr 10:00-21:00; Sa,Su 11:30-21:00", "wheelchair": "yes"}}, {"type": "node", "id": 3436687137, "lat": 59.1913988, "lon": 17.6178916, "tags": {"amenity": "cafe", "fixme": "check which building", "name": "Solbackens caf\u00e9"}}, {"type": "node", "id": 3436687147, "lat": 59.1912133, "lon": 17.617433, "tags": {"amenity": "cafe", "name": "Caf\u00e9 Bellevue"}}, {"type": "node", "id": 3438796274, "lat": 59.4123964, "lon": 17.9133239, "tags": {"addr:city": "Kista", "addr:postcode": "164 78", "amenity": "cafe", "name": "Akalla By Kaf\u00e9", "opening_hours": "Mo-Fr 10:00-17:00; Sa-Su 10:00-16:00", "website": "https://www.akallaby.se/"}}, {"type": "node", "id": 3452506218, "lat": 59.4238852, "lon": 17.8300114, "tags": {"addr:city": "J\u00e4rf\u00e4lla", "addr:country": "SE", "addr:housenumber": "16", "addr:postcode": "177 64", "addr:street": "Kvarnplan", "amenity": "restaurant", "name": "Mill 16"}}, {"type": "node", "id": 3479989134, "lat": 59.1935064, "lon": 17.8387343}, {"type": "node", "id": 3479989136, "lat": 59.1936547, "lon": 17.8386638}, {"type": "node", "id": 3479989139, "lat": 59.1936904, "lon": 17.8382583}, {"type": "node", "id": 3479989140, "lat": 59.1936938, "lon": 17.8390106}, {"type": "node", "id": 3479989146, "lat": 59.1937651, "lon": 17.8388373}, {"type": "node", "id": 3479989149, "lat": 59.1937675, "lon": 17.8383718}, {"type": "node", "id": 3479990334, "lat": 59.2012627, "lon": 17.8174563}, {"type": "node", "id": 3479990338, "lat": 59.2012746, "lon": 17.8170432}, {"type": "node", "id": 3479990353, "lat": 59.201342, "lon": 17.817465}, {"type": "node", "id": 3479990354, "lat": 59.2013462, "lon": 17.8173205}, {"type": "node", "id": 3479990355, "lat": 59.2013496, "lon": 17.8172018}, {"type": "node", "id": 3479990357, "lat": 59.2013539, "lon": 17.8170519}, {"type": "node", "id": 3479990358, "lat": 59.2013614, "lon": 17.8173222}, {"type": "node", "id": 3479990359, "lat": 59.2013648, "lon": 17.8172035}, {"type": "node", "id": 3481318618, "lat": 59.272607, "lon": 17.7494989, "tags": {"amenity": "cafe", "name": "Askn\u00e4s G\u00e5rd", "website": "http://www.asknas.com/"}}, {"type": "node", "id": 3485283242, "lat": 59.3834243, "lon": 17.7149709, "tags": {"amenity": "cafe", "internet_access": "no", "name": "\u00c4ppelfabriken", "website": "http://www.appelfabriken.se/", "wikidata": "Q96476702"}}, {"type": "node", "id": 3508622024, "lat": 59.3770329, "lon": 17.9085347, "tags": {"amenity": "restaurant", "name": "The Rainbow"}}, {"type": "node", "id": 3562915695, "lat": 59.5164952, "lon": 17.6424979, "tags": {"amenity": "cafe", "cuisine": "kebab", "name": "Caf\u00e9 Tr\u00e4ffen"}}, {"type": "node", "id": 3589964422, "lat": 59.468632, "lon": 17.8142479, "tags": {"addr:city": "J\u00e4rf\u00e4lla", "amenity": "restaurant", "cuisine": "thai", "name": "Gold Rain Wok & Thai", "opening_hours": "Mo-Fr 09:30-19:45; Sa 12:00-17:30", "takeaway": "yes"}}, {"type": "node", "id": 3590781554, "lat": 59.4314813, "lon": 17.9429405, "tags": {"amenity": "restaurant", "cuisine": "pizza", "name": "Som hemma"}}, {"type": "node", "id": 3676909705, "lat": 59.3175527, "lon": 17.8774907, "tags": {"amenity": "cafe"}}, {"type": "node", "id": 3694061761, "lat": 59.5179435, "lon": 17.9113956}, {"type": "node", "id": 3694061762, "lat": 59.5179438, "lon": 17.9115073}, {"type": "node", "id": 3694061763, "lat": 59.5179439, "lon": 17.9115298}, {"type": "node", "id": 3694061766, "lat": 59.5181406, "lon": 17.9113929}, {"type": "node", "id": 3694061767, "lat": 59.5181413, "lon": 17.9115255}, {"type": "node", "id": 3705795287, "lat": 59.4410434, "lon": 17.9379534, "tags": {"amenity": "restaurant", "cuisine": "pizza", "name": "Lilla h\u00f6rnet", "opening_hours": "Mo-Su 16:00-21:00"}}, {"type": "node", "id": 3717518572, "lat": 59.2769095, "lon": 17.9082244, "tags": {"amenity": "restaurant", "cuisine": "arabic", "level": "-1", "name": "AlShami Damaskus k\u00f6k"}}, {"type": "node", "id": 3719841637, "lat": 59.4783957, "lon": 17.7508584, "tags": {"addr:city": "Kungs\u00e4ngen", "addr:country": "SE", "addr:housenumber": "2", "addr:postcode": "196 40", "addr:street": "Furuh\u00e4llsplan", "amenity": "restaurant", "cuisine": "asian;sushi", "name": "Mr Wok", "phone": "+46 8 58170555"}}, {"type": "node", "id": 3722056401, "lat": 59.1763637, "lon": 17.6063813, "tags": {"amenity": "restaurant", "name": "Hovsj\u00f6grillen", "takeaway": "yes"}}, {"type": "node", "id": 3725204957, "lat": 59.0852135, "lon": 17.9026026}, {"type": "node", "id": 3725204958, "lat": 59.0851293, "lon": 17.902755}, {"type": "node", "id": 3725204959, "lat": 59.0849844, "lon": 17.9024521}, {"type": "node", "id": 3725204960, "lat": 59.0850686, "lon": 17.9022997}, {"type": "node", "id": 3732551993, "lat": 59.3558218, "lon": 17.8835708, "tags": {"addr:city": "V\u00e4llingby", "addr:country": "SE", "addr:housenumber": "25", "addr:postcode": "162 54", "addr:street": "Multr\u00e5gatan", "amenity": "restaurant", "cuisine": "sushi", "name": "R\u00e5cksta Sushi", "opening_hours": "Mo-Fr 11:00-21:00; Sa-Su 12:00-21:00", "phone": "+46 8 420 516 14", "smoking": "no", "takeaway": "only"}}, {"type": "node", "id": 3737663858, "lat": 59.4852387, "lon": 17.9286749, "tags": {"addr:city": "Sollentuna", "addr:country": "SE", "addr:floor": "G", "addr:housenumber": "1", "addr:postcode": "19279", "addr:street": "Kihlgrens v\u00e4g", "air_conditioning": "no", "amenity": "restaurant", "check_date": "2023-06-27", "cuisine": "pizza", "indoor_seating": "yes", "level": "0", "name": "Rotsunda G\u00e5rd pizza & grill", "outdoor_seating": "yes", "payment:mastercard": "yes", "payment:visa": "yes", "takeaway": "yes", "toilets": "yes", "wheelchair": "yes"}}, {"type": "node", "id": 3811067757, "lat": 59.51014, "lon": 17.6409471}, {"type": "node", "id": 3811067766, "lat": 59.5102123, "lon": 17.6406934}, {"type": "node", "id": 3811068093, "lat": 59.5102953, "lon": 17.6407853}, {"type": "node", "id": 3876366971, "lat": 59.4753192, "lon": 17.9139098, "tags": {"addr:city": "Sollentuna", "addr:country": "SE", "addr:housenumber": "12", "addr:postcode": "19268", "addr:street": "Kung Hans v\u00e4g", "amenity": "restaurant", "cuisine": "lebanese", "name": "Sahara"}}, {"type": "node", "id": 3880246664, "lat": 59.2745963, "lon": 17.9054884, "tags": {"amenity": "restaurant", "name": "Silvias k\u00f6k & bar"}}, {"type": "node", "id": 3893405547, "lat": 59.1853054, "lon": 17.6601562, "tags": {"amenity": "restaurant", "check_date": "2023-04-16", "cuisine": "pizza", "name": "\u00d6stert\u00e4lje pizzeria"}}, {"type": "node", "id": 3893405548, "lat": 59.1852534, "lon": 17.6603824, "tags": {"amenity": "restaurant", "check_date": "2023-04-16", "name": "Kolgrill"}}, {"type": "node", "id": 3903764533, "lat": 59.478831, "lon": 17.7502755, "tags": {"addr:city": "Kungs\u00e4ngen", "addr:country": "SE", "addr:housenumber": "1D", "addr:postcode": "196 30", "addr:street": "Torget", "amenity": "cafe", "name": "Petjos Bageri", "website": "https://www.petjos.se/", "wheelchair": "yes"}}, {"type": "node", "id": 3959717376, "lat": 59.4453845, "lon": 17.9236762, "tags": {"addr:city": "Sollentuna", "addr:country": "SE", "addr:housenumber": "6A", "addr:postcode": "191 49", "addr:street": "Hammarbacken", "amenity": "restaurant", "name": "Matmagasinet", "opening_hours": "Mo-Fr 09:00-14:00", "takeaway": "yes"}}, {"type": "node", "id": 4020607806, "lat": 59.341696, "lon": 17.905837, "tags": {"amenity": "restaurant", "name": "Astrids skafferi"}}, {"type": "node", "id": 4093183125, "lat": 59.2056512, "lon": 17.9068456, "tags": {"amenity": "restaurant", "name": "Restaurang Tullen"}}, {"type": "node", "id": 4097460528, "lat": 59.3494649, "lon": 17.8577893, "tags": {"addr:city": "Bromma", "addr:country": "SE", "addr:housenumber": "85", "addr:postcode": "168 44", "addr:street": "Kanaans v\u00e4g", "amenity": "cafe", "cuisine": "ice_cream", "description": "Bangolf, minigolf, glass, kaffe, bad, strand, wi-fi, boule, korv, godis, slush, V\u00e4sterort,", "internet_access": "wlan", "name": "Kanaans Bangolf & Caf\u00e9", "opening_hours": "10:00-21:00", "phone": "+46 8 37 46 39", "website": "https://www.kanaansbangolf.se/"}}, {"type": "node", "id": 4121875566, "lat": 59.5031903, "lon": 17.7502172, "tags": {"amenity": "restaurant", "cuisine": "italian", "name": "Peppino"}}, {"type": "node", "id": 4123083953, "lat": 59.3551448, "lon": 17.8827465, "tags": {"addr:city": "V\u00e4llingby", "addr:country": "SE", "addr:housenumber": "115", "addr:postcode": "162 60", "addr:street": "J\u00e4mtlandsgatan", "amenity": "cafe", "cuisine": "cafe", "name": "Kanaans Kaffebar", "opening_hours": "Mo-Fr 07:00-18:00; Sa-Su 08:00-16:00"}}, {"type": "node", "id": 4123096695, "lat": 59.355154, "lon": 17.8825406, "tags": {"addr:city": "V\u00e4llingby", "addr:country": "SE", "addr:housenumber": "115", "addr:postcode": "162 60", "addr:street": "J\u00e4mtlandsgatan", "amenity": "restaurant", "cuisine": "pizza;pasta", "drive_through": "no", "name": "Luna Piena", "opening_hours": "Mo-Fr 10:00-22:00; Sa-Su 11:00-22:00", "smoking": "no", "takeaway": "yes"}}, {"type": "node", "id": 4151381180, "lat": 59.4206303, "lon": 17.9002401, "tags": {"amenity": "restaurant", "name": "Bibi House"}}, {"type": "node", "id": 4159207157, "lat": 59.1915081, "lon": 17.6647269, "tags": {"amenity": "restaurant", "name": "Restaurang & Pizzeria Fornh\u00f6jden", "phone": "+46855014130"}}, {"type": "node", "id": 4278322661, "lat": 59.2442598, "lon": 17.2394333}, {"type": "node", "id": 4278322662, "lat": 59.2443267, "lon": 17.2396366}, {"type": "node", "id": 4278322663, "lat": 59.2442469, "lon": 17.2397258}, {"type": "node", "id": 4278322664, "lat": 59.2441891, "lon": 17.2395122}, {"type": "node", "id": 4283679633, "lat": 59.3467144, "lon": 17.8845991, "tags": {"addr:city": "Bromma", "addr:country": "SE", "addr:housenumber": "26", "addr:postcode": "168 48", "addr:street": "Grundtvigsgatan", "amenity": "cafe", "cuisine": "chocolate", "name": "Robert E:S Choklad", "website": "https://sv-se.facebook.com/RobertEsChoklad/"}}, {"type": "node", "id": 4283757891, "lat": 59.2864528, "lon": 17.8020679}, {"type": "node", "id": 4283757892, "lat": 59.2864011, "lon": 17.8021748}, {"type": "node", "id": 4283757893, "lat": 59.2863742, "lon": 17.802125}, {"type": "node", "id": 4283757894, "lat": 59.28634, "lon": 17.8021958}, {"type": "node", "id": 4283757895, "lat": 59.2863484, "lon": 17.8020639}, {"type": "node", "id": 4283757896, "lat": 59.2863008, "lon": 17.8019756}, {"type": "node", "id": 4283757897, "lat": 59.286349, "lon": 17.8018757}, {"type": "node", "id": 4283757898, "lat": 59.2863108, "lon": 17.8021417}, {"type": "node", "id": 4296590790, "lat": 59.4346559, "lon": 17.8240876, "tags": {"amenity": "restaurant", "cuisine": "pizza", "name": "Grand pizzeria & kolgrill", "phone": "+46854244040", "website": "https://www.grandpizzeriakolgrill.se/"}}, {"type": "node", "id": 4315748888, "lat": 59.3610559, "lon": 17.5285725}, {"type": "node", "id": 4315748889, "lat": 59.3610631, "lon": 17.5287914}, {"type": "node", "id": 4315748890, "lat": 59.3609509, "lon": 17.5288056}, {"type": "node", "id": 4315748891, "lat": 59.3609437, "lon": 17.5285867}, {"type": "node", "id": 4393159289, "lat": 59.2691208, "lon": 17.9233162, "tags": {"addr:country": "SE", "addr:housenumber": "1", "addr:postcode": "141 75", "addr:street": "Geometriv\u00e4gen", "amenity": "restaurant", "cuisine": "mediterranean", "name": "Aleppo Kebab", "name:ar": "\u0643\u0628\u0627\u0628 \u062d\u0644\u0628", "name:sv": "Aleppo Kebab", "opening_hours": "Mo-Fr 10:00-21:00; Sa-Su 11:00-21:00", "phone": "+46737729727", "website": "https://www.delil.se/item/aleppo-kebab/"}}, {"type": "node", "id": 4406618092, "lat": 59.3675219, "lon": 17.8430932, "tags": {"addr:city": "H\u00e4sselby", "addr:housenumber": "8", "addr:postcode": "165 55", "addr:street": "H\u00e4sselby Torg", "amenity": "bar", "email": "thecorner.thecorner@hotmail.com", "name": "The Corner", "opening_hours": "Mo,Tu 11:00-23:30, We-Sa 11:00-01:00, Su 11:00-23:00", "phone": "08-50 23 54 10", "website": "https://thecorner.nu/", "wheelchair": "yes"}}, {"type": "node", "id": 4426719189, "lat": 59.5168321, "lon": 17.9010011, "tags": {"amenity": "restaurant", "name": "Drop in"}}, {"type": "node", "id": 4433231704, "lat": 59.2061219, "lon": 17.8283909, "tags": {"addr:city": "Tumba", "addr:country": "SE", "addr:housenumber": "9", "addr:postcode": "147 42", "addr:street": "Tunatorget", "amenity": "restaurant", "cuisine": "burger;pizza;steak_house", "name": "Pizzeria Lilla Tuna", "opening_hours": "Mo-Th 12:00-22:00; Fr 12:00-24:00; Sa 00:00-02:00,12:00-24:00; Su 00:00-02:00,12:00-22:00", "outdoor_seating": "yes", "website": "http://www.lillatuna.se/"}}, {"type": "node", "id": 4563655368, "lat": 59.1983137, "lon": 17.6279461, "tags": {"addr:city": "S\u00f6dert\u00e4lje", "addr:country": "SE", "addr:housenumber": "2", "addr:street": "Jovisgatan", "amenity": "restaurant", "check_date": "2022-06-27", "name": "Lilla Styrbj\u00f6rn", "phone": "+46855099923", "website": "https://lillastyrbj\u00f6rn.se"}}, {"type": "node", "id": 4580228675, "lat": 59.5031619, "lon": 17.7499051, "tags": {"amenity": "restaurant", "name": "Grilliant"}}, {"type": "node", "id": 4582936253, "lat": 59.3610298, "lon": 17.8318007, "tags": {"amenity": "restaurant", "check_date:opening_hours": "2022-06-19", "cuisine": "pizza", "name": "Picola Rosa", "opening_hours": "Mo-Th 10:00-22:00; Fr 10:00-23:00; Sa 11:00-23:00; Su 11:00-22:00"}}, {"type": "node", "id": 4582936254, "lat": 59.3636362, "lon": 17.833794, "tags": {"amenity": "restaurant", "cuisine": "thai", "name": "Top Wok Noodles", "opening_hours": "21:00-unknown", "outdoor_seating": "yes", "phone": "+46 08-739 87 65", "takeaway": "yes", "wheelchair": "yes"}}, {"type": "node", "id": 4760747926, "lat": 59.1965701, "lon": 17.5803072, "tags": {"addr:country": "SE", "addr:housenumber": "106", "addr:street": "Klockarv\u00e4gen", "amenity": "restaurant", "name": "Shlomo festlokal", "name:ar": "\u0642\u0627\u0639\u0629 \u0645\u0631\u062d\u0628\u0627"}}, {"type": "node", "id": 4807472321, "lat": 59.4283402, "lon": 17.9381026, "tags": {"amenity": "restaurant", "cuisine": "italian;italian_pizza;greek;turkish", "name": "Rosabella Pizzeria", "opening_hours": "Mo-Su 10:00-22:00"}}, {"type": "node", "id": 4811869718, "lat": 59.2215347, "lon": 17.8289604, "tags": {"amenity": "cafe", "name": "Caf\u00e9 Anna Giertz", "opening_hours": "Mo-Fr 11:00-15:00; Sa,Su 10:00-16:00"}}, {"type": "node", "id": 4825791154, "lat": 59.1963829, "lon": 17.437039}, {"type": "node", "id": 4825791155, "lat": 59.1964833, "lon": 17.4372516}, {"type": "node", "id": 4825791156, "lat": 59.1963798, "lon": 17.4374381}, {"type": "node", "id": 4825791157, "lat": 59.1962296, "lon": 17.4371201}, {"type": "node", "id": 4825791158, "lat": 59.1963006, "lon": 17.4369922}, {"type": "node", "id": 4825791159, "lat": 59.1963504, "lon": 17.4370977}, {"type": "node", "id": 4825800318, "lat": 59.198249, "lon": 17.4354495}, {"type": "node", "id": 4825800319, "lat": 59.1982952, "lon": 17.4355486}, {"type": "node", "id": 4825800320, "lat": 59.1981888, "lon": 17.4357375}, {"type": "node", "id": 4825801021, "lat": 59.1981427, "lon": 17.4356385}, {"type": "node", "id": 4857778898, "lat": 59.5245969, "lon": 17.6115606, "tags": {"amenity": "restaurant", "name": "Bro Park Krog"}}, {"type": "node", "id": 4868297829, "lat": 59.1910451, "lon": 17.6183501, "tags": {"amenity": "cafe", "name": "Bageriet"}}, {"type": "node", "id": 4872476621, "lat": 59.2403279, "lon": 17.8285136, "tags": {"amenity": "restaurant", "brand": "Pizza Hut", "brand:wikidata": "Q191615", "brand:wikipedia": "en:Pizza Hut", "cuisine": "pizza", "name": "Pizza Hut", "name:en": "Pizza Hut", "name:sv": "Pizza Hut", "opening_hours": "Mo-We 10:00-22:00; Su, Th 11:00-22:00; Fr-Sa 10:00-23:00", "phone": "+46 8-531070308", "website": "https://www.pizzahut.se/"}}, {"type": "node", "id": 4916127114, "lat": 59.274564, "lon": 17.8482256}, {"type": "node", "id": 4916127115, "lat": 59.2747171, "lon": 17.8485735}, {"type": "node", "id": 4916127116, "lat": 59.2744604, "lon": 17.8484153}, {"type": "node", "id": 4916127117, "lat": 59.2747461, "lon": 17.8483931}, {"type": "node", "id": 4916127119, "lat": 59.2745797, "lon": 17.8481278}, {"type": "node", "id": 4916129121, "lat": 59.274538, "lon": 17.8482096}, {"type": "node", "id": 4916129122, "lat": 59.2747108, "lon": 17.8483713}, {"type": "node", "id": 4916129125, "lat": 59.2747346, "lon": 17.8482234}, {"type": "node", "id": 4916129126, "lat": 59.2744895, "lon": 17.8482345}, {"type": "node", "id": 4916129127, "lat": 59.2745299, "lon": 17.8482595}, {"type": "node", "id": 4979264921, "lat": 59.2062343, "lon": 17.5993637, "tags": {"amenity": "restaurant", "name": "Roros Pizzeria Grill & Kebab", "name:sv": "Roros Pizzeria Grill & Kebab", "website": "http://www.roros.se"}}, {"type": "node", "id": 4984397420, "lat": 59.4178722, "lon": 17.8298672, "tags": {"addr:city": "J\u00e4rf\u00e4lla", "addr:country": "SE", "addr:housenumber": "98B", "addr:postcode": "177 41", "addr:street": "J\u00e4rf\u00e4llav\u00e4gen", "amenity": "restaurant", "contact:facebook": "https://www.facebook.com/JET-Pizzeria-205637863178616/", "cuisine": "pizza", "name": "Jet Pizzeria", "opening_hours": "Mo-Th 10:30-20:30; Fr 09:00-20:30; Sa 11:30-20:00", "phone": "+46 8-580 156 10", "website": "https://pizzajet.se/"}}, {"type": "node", "id": 5002245143, "lat": 59.2019804, "lon": 17.6333005, "tags": {"addr:city": "S\u00f6dert\u00e4lje", "addr:country": "SE", "addr:housenumber": "12", "addr:postcode": "15243", "addr:street": "\u00d6stergatan", "amenity": "restaurant", "cuisine": "Grekiskt", "name": "Grekiska Kolgrillsbaren", "opening_hours": "Mo-Fr 11:00-21:00, Sa-Su 12:00-21:00", "outdoor_seating": "yes", "smoking": "isolated", "takeaway": "yes"}}, {"type": "node", "id": 5039204024, "lat": 59.2593457, "lon": 17.2225271, "tags": {"amenity": "restaurant", "capacity": "25", "cuisine": "sushi", "name": "Dala Sushi", "opening_hours": "Mo-Sa 11:00-19:00; Su closed", "takeaway": "yes"}}, {"type": "node", "id": 5084763325, "lat": 59.4482687, "lon": 17.9344657, "tags": {"amenity": "cafe", "name": "Qben", "opening_hours": "Mo-Fr 14:00-17:00"}}, {"type": "node", "id": 5113835285, "lat": 59.5244803, "lon": 17.6119007, "tags": {"amenity": "bar"}}, {"type": "node", "id": 5141780643, "lat": 59.199652, "lon": 17.4418846}, {"type": "node", "id": 5141780644, "lat": 59.1996343, "lon": 17.4419321}, {"type": "node", "id": 5141780645, "lat": 59.1994951, "lon": 17.4417176}, {"type": "node", "id": 5141780646, "lat": 59.1997182, "lon": 17.4420516}, {"type": "node", "id": 5141780647, "lat": 59.1994309, "lon": 17.4416262}, {"type": "node", "id": 5141780648, "lat": 59.1995395, "lon": 17.4413356}, {"type": "node", "id": 5141780649, "lat": 59.1998307, "lon": 17.4417503}, {"type": "node", "id": 5155830284, "lat": 59.3478551, "lon": 17.883272, "tags": {"amenity": "restaurant", "cuisine": "sushi", "indoor_seating": "yes", "name": "Inari Sushi", "outdoor_seating": "no"}}, {"type": "node", "id": 5174066052, "lat": 59.4582789, "lon": 17.9231929, "tags": {"addr:country": "SE", "addr:housenumber": "1B", "addr:postcode": "192 70", "addr:street": "Stationsall\u00e9n", "amenity": "restaurant", "cuisine": "thai;sushi", "name": "Norrviken thai & sushi", "opening_hours": "Mo-Fr 10:30-21:00; Sa, Su 11:00-21:00", "phone": "+46-87547500", "website": "https://norrvikensthai.se/"}}, {"type": "node", "id": 5295788916, "lat": 59.4119651, "lon": 17.8030142, "tags": {"addr:city": "J\u00e4rf\u00e4lla", "addr:country": "SE", "addr:housenumber": "2F", "addr:postcode": "175 45", "addr:street": "Viksj\u00f6plan", "amenity": "restaurant", "contact:facebook": "https://www.facebook.com/TB.Viksjo/", "name": "Taco Bar", "opening_hours": "Mo-Tu 11:00-20:00; We-Th 11:00-21:00; Fr 11:00-22:00; Sa 12:00-22:00; Su 12:00-20:00", "phone": "+46 8-511 611 70", "website": "https://tacobar.se/restaurang/taco-bar-viksjo/", "wheelchair": "yes"}}, {"type": "node", "id": 5295788917, "lat": 59.4120245, "lon": 17.8025293, "tags": {"amenity": "restaurant", "contact:facebook": "https://www.facebook.com/francesbistro/", "contact:instagram": "https://www.instagram.com/francesbistro/", "name": "Frances", "opening_hours": "Tu-Su 13:00-22:00", "phone": "+46 8-511 047 48"}}, {"type": "node", "id": 5295788919, "lat": 59.412148, "lon": 17.8021149, "tags": {"amenity": "cafe", "contact:facebook": "https://www.facebook.com/Vivels-Viksj\u00f6-1733681710194171/", "email": "viksjo@vivels.se", "name": "Vivels", "opening_hours": "Mo-Fr 08:00-18:00; Sa-Su 10:00-17:00", "phone": "+46 8-121 382 31", "website": "http://www.vivels.se/viksjo-centrum/"}}, {"type": "node", "id": 5325740467, "lat": 59.4160822, "lon": 17.910244, "tags": {"amenity": "restaurant", "name": "Meadna"}}, {"type": "node", "id": 5359150711, "lat": 59.4706055, "lon": 17.9172766, "tags": {"addr:city": "Sollentuna", "addr:country": "SE", "addr:housenumber": "1", "addr:postcode": "19268", "addr:street": "Konsumentv\u00e4gen", "amenity": "restaurant", "brand": "Pizza Hut", "brand:wikidata": "Q191615", "brand:wikipedia": "en:Pizza Hut", "cuisine": "pizza", "email": "rotebro@pizzahut.se", "name": "Pizza Hut", "opening_hours": "Mo-Fr 10:00-22:00; Sa 11:00-22:00; Su 11:00-21:00", "phone": "+46 8 6265578", "takeaway": "yes", "website": "https://rotebro.pizzahut.se/meny"}}, {"type": "node", "id": 5363518088, "lat": 59.1943315, "lon": 17.4463966, "tags": {"amenity": "restaurant", "name": "Turinge Ost & Vin"}}, {"type": "node", "id": 5371201427, "lat": 59.4710103, "lon": 17.916377, "tags": {"addr:city": "Sollentuna", "addr:postcode": "19268", "addr:street": "Konsumentv\u00e4gen", "amenity": "restaurant", "cuisine": "pizza", "name": "Pizzeria Rotebro", "opening_hours": "Mo-Fr 10:00-21:00; Sa-Su 11:00-21:00", "phone": "+46 8-393017", "takeaway": "yes"}}, {"type": "node", "id": 5630613284, "lat": 59.4302905, "lon": 17.8322036, "tags": {"amenity": "restaurant", "name": "Eddy's k\u00f6k och bar"}}, {"type": "node", "id": 5775567410, "lat": 59.413347, "lon": 17.8618732, "tags": {"amenity": "restaurant", "brand": "Pizza Hut", "brand:wikidata": "Q191615", "brand:wikipedia": "en:Pizza Hut", "cuisine": "pizza", "delivery": "yes", "name": "Pizza Hut", "opening_hours": "Mo-Fr 10:00-22:00; Sa-Su 11:00-22:00", "operator": "Pizza Hut", "outdoor_seating": "no", "smoking": "no", "takeaway": "yes", "wheelchair": "yes"}}, {"type": "node", "id": 5779041183, "lat": 59.2760349, "lon": 17.9061702, "tags": {"amenity": "restaurant", "cuisine": "burger", "name": "Burgers n' shakes"}}, {"type": "node", "id": 5779513891, "lat": 59.4297141, "lon": 17.9447861, "tags": {"amenity": "restaurant", "cuisine": "sushi", "name": "Moilt Sushi Bar", "outdoor_seating": "no"}}, {"type": "node", "id": 5909531629, "lat": 59.1448496, "lon": 17.7896873, "tags": {"addr:city": "Gr\u00f6dinge", "addr:country": "SE", "addr:housenumber": "6", "addr:postcode": "147 92", "addr:street": "Gr\u00f6dinge Kyrkby", "amenity": "restaurant", "check_date": "2023-08-12", "cuisine": "waffle;coffee_shop", "name": "Klockarg\u00e5rdens V\u00e5ffleri", "opening_hours": "10:00-18:00", "outdoor_seating": "yes", "website": "https://www.klockargardensvaffleri.se/"}}, {"type": "node", "id": 5977511792, "lat": 59.253041, "lon": 17.8800561, "tags": {"amenity": "restaurant", "check_date": "2023-11-13", "cuisine": "pizza", "name": "Solg\u00e5rden Pizzeria", "opening_hours": "Mo-Th 11:00-23:00; Fr 11:00-01:00; Sa 12:00-01:00; Su 12:00-23:00", "payment:cash": "yes", "payment:credit_cards": "yes", "payment:debit_cards": "yes"}}, {"type": "node", "id": 6360649872, "lat": 59.2011112, "lon": 17.8372639, "tags": {"amenity": "restaurant", "cuisine": "international;regional;sandwich", "name": "Restaurang Stinsen"}}, {"type": "node", "id": 6389317211, "lat": 59.3730618, "lon": 17.8572449, "tags": {"amenity": "restaurant", "cuisine": "pizza;kebab;italian", "name": "Ruccola", "opening_hours": "Mo-Fr 09:00-21:00; Sa-Su 12:00-21:00", "phone": "+46-8-51906040", "takeaway": "yes"}}, {"type": "node", "id": 6498861814, "lat": 59.3635278, "lon": 17.7303329}, {"type": "node", "id": 6498861815, "lat": 59.3634625, "lon": 17.7307937}, {"type": "node", "id": 6498861816, "lat": 59.3635379, "lon": 17.7308349}, {"type": "node", "id": 6498861817, "lat": 59.3635057, "lon": 17.7310624}, {"type": "node", "id": 6498861818, "lat": 59.3633558, "lon": 17.7309806}, {"type": "node", "id": 6498861819, "lat": 59.363387, "lon": 17.7307603}, {"type": "node", "id": 6498861820, "lat": 59.3633573, "lon": 17.7307441}, {"type": "node", "id": 6498861821, "lat": 59.3634236, "lon": 17.730276}, {"type": "node", "id": 6506149841, "lat": 59.2826058, "lon": 17.9311948, "tags": {"addr:city": "Segeltorp", "addr:country": "SE", "addr:housenumber": "34", "addr:postcode": "14174", "addr:street": "Smista all\u00e9", "amenity": "restaurant", "name": "Bistro Fiesta", "phone": "+46 8 55 55 43 43"}}, {"type": "node", "id": 6532304685, "lat": 59.5092318, "lon": 17.8664779, "tags": {"amenity": "cafe", "check_date:opening_hours": "2020-11-15", "cuisine": "cake", "name": "Caf\u00e9 villa Ed", "opening_hours": "Tu-Fr 11:00-18:00; Sa-Su 11:00-16:00"}}, {"type": "node", "id": 6613015235, "lat": 59.4967802, "lon": 17.7391548, "tags": {"amenity": "cafe", "name": "Biltema Caf\u00e9"}}, {"type": "node", "id": 6655147485, "lat": 59.2595976, "lon": 17.2214133, "tags": {"addr:country": "SE", "addr:housenumber": "10A", "addr:postcode": "64730", "addr:street": "Munkhagsgatan", "amenity": "restaurant", "name": "Rakstugan K\u00f6k & Bar", "name:sv": "Rakstugan K\u00f6k & Bar", "opening_hours": "Mo-Su 12:00-21:00", "phone": "+46 73 623 44 00", "website": "https://www.rakstugan.se"}}, {"type": "node", "id": 6710933247, "lat": 59.4095344, "lon": 17.9263256, "tags": {"amenity": "restaurant", "cuisine": "grill", "name": "Anatolia Kolgrill"}}, {"type": "node", "id": 6798866688, "lat": 59.3633167, "lon": 17.8725664, "tags": {"amenity": "cafe", "brand": "Espresso House", "brand:wikidata": "Q10489162", "brand:wikipedia": "en:Espresso House", "cuisine": "coffee_shop", "internet_access": "wlan", "internet_access:fee": "no", "name": "Espresso House", "opening_hours": "Mo-Fr 06:30-21:00; Sa,Su 08:00-20:00", "outdoor_seating": "yes", "takeaway": "yes", "wheelchair": "yes"}}, {"type": "node", "id": 6798866689, "lat": 59.3638007, "lon": 17.8740131, "tags": {"addr:city": "V\u00e4llingby", "addr:country": "SE", "addr:housenumber": "158", "addr:postcode": "162 13", "addr:street": "\u00c5ngermannagatan", "amenity": "restaurant", "bar": "yes", "name": "Joseph\u00b4s Bar", "outdoor_seating": "yes", "phone": "+46 8-373503", "website": "http://www.josephsbar.se/", "wheelchair": "yes"}}, {"type": "node", "id": 6813219161, "lat": 59.3614986, "lon": 17.8732865, "tags": {"amenity": "restaurant", "cuisine": "greek", "name": "Grekiska Kolgrillsbaren", "wheelchair": "limited"}}, {"type": "node", "id": 6833104982, "lat": 59.4179127, "lon": 17.8301521, "tags": {"addr:city": "J\u00e4rf\u00e4lla", "addr:country": "SE", "addr:housenumber": "98C", "addr:postcode": "177 41", "addr:street": "J\u00e4rf\u00e4llav\u00e4gen", "amenity": "restaurant", "contact:facebook": "https://www.facebook.com/cafesofta/", "contact:instagram": "https://www.instagram.com/softa_bistro_jarfalla/", "cuisine": "sushi", "name": "Sushi by Kyoto", "opening_hours": "Mo-Su 10:00-20:00", "phone": "+46853330200", "website": "https://www.sushibykyoto.se/17/5/restaurang-jarfalla/"}}, {"type": "node", "id": 6950485126, "lat": 59.401567, "lon": 17.8166332, "tags": {"amenity": "restaurant", "name": "Viksj\u00f6 golfrestaurang"}}, {"type": "node", "id": 6958058563, "lat": 59.3623852, "lon": 17.8728952, "tags": {"addr:country": "SE", "addr:housenumber": "10", "addr:street": "V\u00e4llingby torg", "amenity": "restaurant", "cuisine": "asian", "email": "info@rebelkitchen.se", "name": "Re:bel Kitchen", "opening_hours": "Mo-Fr 11:00-21:00; Sa 12:00-21:00; Su 12:00-20:00", "payment:cash": "no", "phone": "+46 851104791", "website": "https://www.rebelkitchen.se/", "wheelchair": "yes"}}, {"type": "node", "id": 6964327578, "lat": 59.4020728, "lon": 17.8018598, "tags": {"amenity": "restaurant", "name": "Amigos"}}, {"type": "node", "id": 6964327579, "lat": 59.4021889, "lon": 17.8019644, "tags": {"amenity": "restaurant", "name": "Wild Chili"}}, {"type": "node", "id": 6984853255, "lat": 59.5177738, "lon": 17.9095514, "tags": {"addr:city": "Upplands V\u00e4sby", "addr:country": "SE", "addr:housenumber": "80", "addr:postcode": "194 33", "addr:street": "Dragonv\u00e4gen", "amenity": "restaurant", "name": "Texas Longhorn"}}, {"type": "node", "id": 7098566743, "lat": 59.4171038, "lon": 17.8589495, "tags": {"addr:city": "J\u00e4rf\u00e4lla", "addr:country": "SE", "addr:housenumber": "4", "addr:postcode": "17738", "addr:street": "Flyginfarten", "amenity": "cafe", "brand": "Espresso House", "brand:wikidata": "Q10489162", "brand:wikipedia": "en:Espresso House", "contact:email": "barkarby_sto@espressohouse.se", "contact:phone": "+46 10-510 13 52", "contact:website": "https://www.espressohouse.com", "cuisine": "coffee_shop", "name": "Espresso House", "opening_hours": "Mo-Fr 07:30-20:00; Sa-Su 08:00-18:00", "takeaway": "yes", "toilets:wheelchair": "yes", "wheelchair": "yes"}}, {"type": "node", "id": 7197148132, "lat": 59.4133174, "lon": 17.8660381, "tags": {"addr:city": "J\u00e4rf\u00e4lla", "addr:country": "SE", "addr:housenumber": "8", "addr:postcode": "17738", "addr:street": "Gripengatan", "amenity": "restaurant", "cuisine": "sushi", "name": "Sushi Yama", "opening_hours": "Mo-Fr 10:00-22:00, Sa-Su 11:00-22:00", "phone": "+46 8-88 88 68", "website": "https://sushiyama.se/", "wheelchair": "yes"}}, {"type": "node", "id": 7402804502, "lat": 59.4786506, "lon": 17.7511983, "tags": {"amenity": "cafe", "name": "Caf\u00e9 Boulevard", "opening_hours": "Mo-Th 10:00-18:00; Fr 10:00-17:00; Sa,Su 10:00-16:00"}}, {"type": "node", "id": 7425615563, "lat": 59.1937245, "lon": 17.8389313}, {"type": "node", "id": 7425659386, "lat": 59.1936692, "lon": 17.8386866}, {"type": "node", "id": 7643259848, "lat": 59.4416619, "lon": 17.8987396}, {"type": "node", "id": 7643259849, "lat": 59.4415995, "lon": 17.8986781}, {"type": "node", "id": 7643259850, "lat": 59.4416095, "lon": 17.8986391}, {"type": "node", "id": 7643259851, "lat": 59.4416717, "lon": 17.8987012}, {"type": "node", "id": 7643259852, "lat": 59.4417465, "lon": 17.8985283}, {"type": "node", "id": 7643259853, "lat": 59.441731, "lon": 17.8985893}, {"type": "node", "id": 7643259854, "lat": 59.4417191, "lon": 17.8985776}, {"type": "node", "id": 7643259855, "lat": 59.4417354, "lon": 17.8985174}, {"type": "node", "id": 7674871203, "lat": 59.2673361, "lon": 17.9089095, "tags": {"amenity": "restaurant", "bulk_purchase": "yes", "cuisine": "indian", "name": "Bengal Tiger"}}, {"type": "node", "id": 7710533147, "lat": 59.4238085, "lon": 17.8357942, "tags": {"addr:city": "J\u00e4rf\u00e4lla", "addr:country": "SE", "addr:housenumber": "16", "addr:postcode": "177 30", "addr:street": "Riddarplatsen", "amenity": "restaurant", "cuisine": "sushi", "name": "sushiyama", "opening_hours": "Mo-Fr 10:00-19:00, Sa 10:00-17:00, Su 11:00-17:00", "phone": "+46 8 10 81 10", "website": "https://www.sushiyama.se"}}, {"type": "node", "id": 7871600626, "lat": 59.4821305, "lon": 17.916962, "tags": {"addr:city": "Sollentuna", "addr:country": "SE", "addr:housenumber": "7", "addr:postcode": "19278", "addr:street": "Rotsunda Torg", "amenity": "restaurant", "cuisine": "persian", "name": "Rustikt", "phone": "+46 704 47 97 99", "website": "https://www.kvartersmenyn.se/index.php/rest/14961"}}, {"type": "node", "id": 7871659197, "lat": 59.4947208, "lon": 17.9261417, "tags": {"addr:city": "Sollentuna", "addr:country": "SE", "addr:housenumber": "24", "addr:postcode": "19279", "addr:street": "Bergk\u00e4llav\u00e4gen", "amenity": "restaurant", "cuisine": "thai", "name": "Thai Enjoy", "opening_hours:covid19": "Mo-Fr 11:00-20:00; Sa-Su 12:00-20:00", "phone": "+46762462113", "takeaway": "only", "website": "https://www.thaienjoy.se/"}}, {"type": "node", "id": 7884269268, "lat": 59.2576092, "lon": 17.7590807, "tags": {"amenity": "cafe"}}, {"type": "node", "id": 7925882776, "lat": 59.2619228, "lon": 17.4970824, "tags": {"addr:city": "Enh\u00f6rna", "addr:postcode": "151 50", "amenity": "cafe", "cuisine": "coffee_shop", "name": "Caf\u00e9 Stallet", "opening_hours:url": "https://www.norrlot.se/index.php/openhours", "outdoor_seating": "yes", "website": "https://www.norrlot.se/"}}, {"type": "node", "id": 7933586585, "lat": 59.196174, "lon": 17.5891074, "tags": {"amenity": "cafe", "brand": "\u041b\u0430\u0433\u0443\u043d\u0430", "cuisine": "coffee_shop", "name": "Lagoona", "name:en": "Lagoona", "takeaway": "yes"}}, {"type": "node", "id": 7985930687, "lat": 59.2593479, "lon": 17.2205037, "tags": {"amenity": "cafe", "name": "Fr\u00f6ken Sj\u00f6gren"}}, {"type": "node", "id": 7995378257, "lat": 59.5160771, "lon": 17.9284774, "tags": {"amenity": "restaurant", "cuisine": "thai", "name": "Thai Ban", "opening_hours": "Mo-Fr 10:00-21:00; Sa,Su 12:00-21:00", "phone": "+46 8-590 302 06", "website": "https://www.thai-ban.se/"}}, {"type": "node", "id": 8401692965, "lat": 59.3597318, "lon": 17.8803592, "tags": {"addr:city": "V\u00e4llingby", "addr:country": "SE", "addr:housenumber": "132", "addr:postcode": "162 55", "addr:street": "Multr\u00e5gatan", "amenity": "restaurant", "cuisine": "pizza;pasta", "name": "Pizzeria La Favorita", "opening_hours": "Mo-Fr 10:00-21:00; Sa-Su 12:00-21:00", "outdoor_seating": "yes", "phone": "+468370850", "takeaway": "yes", "website": "https://lafavorita.se/"}}, {"type": "node", "id": 8447157090, "lat": 59.4234834, "lon": 17.8335518, "tags": {"addr:country": "SE", "addr:housenumber": "4", "addr:street": "Ynglingav\u00e4gen", "amenity": "restaurant", "cuisine": "thai", "email": "info@beirutmeza.se", "name": "Beirut Meza", "opening_hours": "16:00-22:00", "outdoor_seating": "yes", "phone": "+468-580 115 30", "takeaway": "yes", "website": "https://www.beirutmeza.se/"}}, {"type": "node", "id": 8462116247, "lat": 59.3473951, "lon": 17.8832867, "tags": {"addr:city": "Bromma", "addr:country": "SE", "addr:housenumber": "1", "addr:postcode": "168 49", "addr:street": "Blackebergsplan", "amenity": "restaurant", "cuisine": "pizza;american;swedish;italian", "indoor_seating": "yes", "name": "Jhonny's", "opening_hours": "Mo-Th 11:00-22:00; Fr 11:00-23:00; Sa 12:00-23:00; Su 13:00-21:00", "outdoor_seating": "yes", "phone": "+46 8 87 31 81", "website": "https://jhonnys.se/"}}, {"type": "node", "id": 8496702276, "lat": 59.4146675, "lon": 17.8675984, "tags": {"addr:city": "J\u00e4rf\u00e4lla", "addr:country": "SE", "addr:housenumber": "54", "addr:postcode": "177 44", "addr:street": "Barkarbyv\u00e4gen", "amenity": "restaurant", "contact:facebook": "https://www.facebook.com/genkisushi.barkarby/", "contact:instagram": "https://www.instagram.com/genkisushi.barkarby", "cuisine": "sushi", "name": "Genki Sushi", "opening_hours": "Mo-Fr 11:00-20:00; Sa 12:00-20:00; Su 12:00-19:00", "phone": "+46858036520", "takeaway": "yes", "website": "https://www.genkisushi.se/"}}, {"type": "node", "id": 8499912589, "lat": 59.3727379, "lon": 17.9382713, "tags": {"amenity": "restaurant", "contact:website": "https://www.esu-sushi.se/sundbyberg/", "name": "Esu Sushi"}}, {"type": "node", "id": 8526373100, "lat": 59.3581004, "lon": 17.8753999, "tags": {"amenity": "restaurant", "name": "Fanoor"}}, {"type": "node", "id": 8622720138, "lat": 59.3620042, "lon": 17.8752879, "tags": {"amenity": "restaurant", "cuisine": "sushi", "name": "Sushi Kawa", "phone": "+46 70 840 08 18", "website": "https://sushikawa.se/vallingby"}}, {"type": "node", "id": 8715599076, "lat": 59.2682163, "lon": 17.9243712, "tags": {"amenity": "restaurant", "cuisine": "turkish", "name": "Amida", "takeaway": "yes"}}, {"type": "node", "id": 8808330774, "lat": 59.2214916, "lon": 17.2332404, "tags": {"addr:city": "Mariefred", "addr:postcode": "647 92", "addr:street": "Kvartinge G\u00e5rd", "amenity": "cafe", "check_date": "2023-08-06", "name": "Qvartinge Antik - Caf\u00e9et", "opening_hours": "Sa-Su 11:00-15:00", "outdoor_seating": "yes", "phone": "+46706332742", "website": "https://qvartingeantik.se/"}}, {"type": "node", "id": 8866709427, "lat": 59.1980629, "lon": 17.6480029, "tags": {"addr:country": "SE", "addr:housenumber": "12", "addr:street": "Rosenlundsv\u00e4gen", "amenity": "restaurant", "check_date": "2023-04-09", "check_date:opening_hours": "2021-07-20", "cuisine": "pizza", "delivery": "yes", "name": "Rosenlunds pizzeria", "opening_hours": "Mo, Tu 16:00-21:00; We-Sa 11:00-21:00; Su 12:00-20:00", "outdoor_seating": "no", "phone": "+46 8 550 120 66", "takeaway": "yes", "website": "http://www.rosenlundspizzeria.se/"}}, {"type": "node", "id": 9180337270, "lat": 59.3961572, "lon": 17.8876733, "tags": {"amenity": "cafe"}}, {"type": "node", "id": 9182334909, "lat": 59.2587769, "lon": 17.1110091}, {"type": "node", "id": 9182334910, "lat": 59.258682, "lon": 17.1112824}, {"type": "node", "id": 9182334911, "lat": 59.2586106, "lon": 17.1111876}, {"type": "node", "id": 9182334912, "lat": 59.258648, "lon": 17.11108}, {"type": "node", "id": 9182334913, "lat": 59.2584831, "lon": 17.1108606}, {"type": "node", "id": 9182334914, "lat": 59.2585848, "lon": 17.110568}, {"type": "node", "id": 9182334915, "lat": 59.2586545, "lon": 17.1106607}, {"type": "node", "id": 9182334916, "lat": 59.2586104, "lon": 17.1107877}, {"type": "node", "id": 9367915180, "lat": 59.4798593, "lon": 17.7511934, "tags": {"amenity": "cafe", "name": "Petjos Cafe Villa Skoga", "website": "https://www.petjos.se/petjos-cafe-villa-skoga"}}, {"type": "node", "id": 9549671053, "lat": 59.3479568, "lon": 17.8771682, "tags": {"addr:city": "Bromma", "addr:country": "SE", "addr:housenumber": "4", "addr:postcode": "168 46", "addr:street": "Arvid M\u00f6rnes v\u00e4g", "amenity": "restaurant", "cuisine": "persian;pizza;pasta", "name": "Dizin", "opening_hours": "Mo-Th,Su 12:00-23:00; Fr,Sa 12-24", "phone": "+46 76-185 20 70", "website": "https://www.facebook.com/dizin2019"}}, {"type": "node", "id": 9589535160, "lat": 59.346484, "lon": 17.8818327, "tags": {"alcohol": "yes", "amenity": "restaurant", "cuisine": "pizza", "name": "Olivias krog", "phone": "+46 8 374625"}}, {"type": "node", "id": 9710858518, "lat": 59.3925629, "lon": 17.9290486, "tags": {"addr:city": "Stockholm", "addr:country": "SE", "addr:housenumber": "94", "addr:street": "Hjulstav\u00e4gen", "amenity": "restaurant", "name": "Yalla Rinkeby", "website": "https://yallarinkeby.se/"}}, {"type": "node", "id": 9732081159, "lat": 59.212466, "lon": 17.8234373}, {"type": "node", "id": 9732081160, "lat": 59.2123887, "lon": 17.8237867}, {"type": "node", "id": 9732081161, "lat": 59.2121995, "lon": 17.823627}, {"type": "node", "id": 9732081162, "lat": 59.2122387, "lon": 17.82345}, {"type": "node", "id": 9732081163, "lat": 59.212281, "lon": 17.8234857}, {"type": "node", "id": 9732081164, "lat": 59.2123283, "lon": 17.8232719}, {"type": "node", "id": 9732081165, "lat": 59.2123652, "lon": 17.8233031}, {"type": "node", "id": 9732081166, "lat": 59.2123706, "lon": 17.823279}, {"type": "node", "id": 9732081167, "lat": 59.2124531, "lon": 17.8233486}, {"type": "node", "id": 9732081168, "lat": 59.2124386, "lon": 17.8234142}, {"type": "node", "id": 9743319181, "lat": 59.3541217, "lon": 17.91538, "tags": {"addr:city": "Bromma", "addr:country": "SE", "addr:housenumber": "138", "addr:postcode": "16859", "addr:street": "Sp\u00e5ngav\u00e4gen", "amenity": "restaurant", "name": "Bistro Bromma", "opening_hours": "Mo-Su 11:00-21:00", "wheelchair": "yes"}}, {"type": "node", "id": 9750102712, "lat": 59.2410938, "lon": 17.8649127}, {"type": "node", "id": 9750102713, "lat": 59.2410219, "lon": 17.8647209}, {"type": "node", "id": 9750102714, "lat": 59.2409197, "lon": 17.8648673}, {"type": "node", "id": 9750102715, "lat": 59.2409916, "lon": 17.8650591}, {"type": "node", "id": 9791012276, "lat": 59.1957678, "lon": 17.6500176, "tags": {"amenity": "restaurant", "check_date": "2023-06-24", "name": "Bella Notte Pizzeria & Grill", "opening_hours": "11:00-22:00"}}, {"type": "node", "id": 9835500029, "lat": 59.4070816, "lon": 17.8213249}, {"type": "node", "id": 9835500030, "lat": 59.407095, "lon": 17.8213692}, {"type": "node", "id": 9835500031, "lat": 59.4070541, "lon": 17.8214172}, {"type": "node", "id": 9835500032, "lat": 59.4070406, "lon": 17.8213728}, {"type": "node", "id": 9846801815, "lat": 59.1979167, "lon": 17.623685, "tags": {"amenity": "cafe", "check_date": "2023-04-09", "name": "Pink Panda"}}, {"type": "node", "id": 9850281970, "lat": 59.2001441, "lon": 17.6317409, "tags": {"amenity": "restaurant", "check_date": "2022-07-13", "name": "SOT", "opening_hours": "Mo,Fr 11:00-20:00; Tu-Th 11:00-19:30; Sa-Su 12:00-20:00"}}, {"type": "node", "id": 9850314508, "lat": 59.2000142, "lon": 17.6300726, "tags": {"amenity": "cafe", "check_date": "2024-02-02", "name": "Skepparn's Caf\u00e9 och Catering"}}, {"type": "node", "id": 9850417480, "lat": 59.1949085, "lon": 17.6205066, "tags": {"amenity": "restaurant", "check_date": "2022-06-27", "cuisine": "pizza", "name": "Pizzeria Mamma Rosa"}}, {"type": "node", "id": 9850520708, "lat": 59.1924939, "lon": 17.6268524, "tags": {"amenity": "cafe", "brand": "Espresso House", "brand:wikidata": "Q10489162", "check_date": "2022-06-27", "cuisine": "coffee_shop", "name": "Espresso House", "takeaway": "yes"}}, {"type": "node", "id": 9851130993, "lat": 59.1978553, "lon": 17.6233306, "tags": {"amenity": "restaurant", "check_date": "2023-04-09", "cuisine": "pizza", "name": "Nya Blixten", "opening_hours": "Mo-Th,Su 11:00-21:00; Fr-Sa 11:00-22:00"}}, {"type": "node", "id": 9851132358, "lat": 59.1920866, "lon": 17.6268843, "tags": {"amenity": "bar", "check_date": "2023-07-01", "internet_access": "yes", "name": "Templet", "opening_hours": "11:00-02:00", "outdoor_seating": "yes", "payment:cash": "yes"}}, {"type": "node", "id": 9855855222, "lat": 59.1974417, "lon": 17.6267072, "tags": {"amenity": "restaurant", "check_date": "2022-06-29", "name": "Brasseriet p\u00e5 torget"}}, {"type": "node", "id": 9855856379, "lat": 59.1959597, "lon": 17.6292138, "tags": {"amenity": "cafe", "check_date": "2023-10-01", "name": "Bro's Tea"}}, {"type": "node", "id": 9862336125, "lat": 59.1975193, "lon": 17.6260398, "tags": {"amenity": "restaurant", "check_date": "2023-06-11", "cuisine": "sushi", "name": "Tuyama sushi"}}, {"type": "node", "id": 9862360503, "lat": 59.1982508, "lon": 17.6274543, "tags": {"amenity": "cafe", "check_date": "2022-07-02", "name": "Glass Caf\u00e9"}}, {"type": "node", "id": 9863919778, "lat": 59.1818508, "lon": 17.6456523, "tags": {"amenity": "restaurant", "check_date": "2023-04-10", "name": "S\u00f6der H\u00f6rnet"}}, {"type": "node", "id": 9890152918, "lat": 59.1944894, "lon": 17.6279665, "tags": {"addr:country": "SE", "addr:housenumber": "4", "addr:postcode": "15172", "addr:street": "J\u00e4rnagatan", "amenity": "restaurant", "name": "RITZ Grill bistro / bar", "website": "http://Ritz.nu"}}, {"type": "node", "id": 9895007946, "lat": 59.193831, "lon": 17.7481931, "tags": {"amenity": "restaurant", "check_date": "2022-07-18", "cuisine": "sushi", "name": "Misora sushi", "opening_hours": "11:00-21:00"}}, {"type": "node", "id": 9895097214, "lat": 59.2442791, "lon": 17.8258331, "tags": {"amenity": "restaurant", "check_date": "2022-07-18", "name": "Izgara kolgrill"}}, {"type": "node", "id": 9899917015, "lat": 59.1974365, "lon": 17.7993445, "tags": {"amenity": "restaurant", "check_date": "2022-07-20", "indoor_seating": "yes", "name": "Uttrans grill & pasta", "outdoor_seating": "yes"}}, {"type": "node", "id": 9921018736, "lat": 59.3781398, "lon": 17.9314239, "tags": {"amenity": "cafe"}}, {"type": "node", "id": 9948681579, "lat": 59.1545817, "lon": 17.6470408}, {"type": "node", "id": 9948681580, "lat": 59.1544718, "lon": 17.6472092}, {"type": "node", "id": 9948681581, "lat": 59.1544195, "lon": 17.6470795}, {"type": "node", "id": 9948681582, "lat": 59.1545294, "lon": 17.646911}, {"type": "node", "id": 9950705620, "lat": 59.2047998, "lon": 17.6431458, "tags": {"amenity": "restaurant", "check_date": "2023-06-08", "level": "1", "name": "Gasellen", "opening_hours": "Mo-Fr 09:00-14:00; Sa-Su off"}}, {"type": "node", "id": 9986296564, "lat": 59.3568396, "lon": 17.8849202, "tags": {"addr:city": "V\u00e4llingby", "addr:country": "SE", "addr:housenumber": "54", "addr:postcode": "162 55", "addr:street": "Multr\u00e5gatan", "amenity": "restaurant", "name": "R\u00e5cksta Krog", "opening_hours": "Mo-Th 14:00-23:00; Fr-Sa 12:00-24:00; Su 12:00-23:00"}}, {"type": "node", "id": 10011110090, "lat": 59.1863, "lon": 17.634555, "tags": {"addr:city": "S\u00f6dert\u00e4lje", "addr:country": "SE", "addr:housenumber": "24", "addr:street": "V\u00e4rdsholmsgatan", "amenity": "cafe", "check_date": "2024-02-04", "cuisine": "sandwich;regional", "indoor_seating": "yes", "internet_access": "wlan", "name": "Nyvaket caf\u00e9 och bageri", "opening_hours": "Mo,Su off; Tu-Fr 07:00-14:00; Sa 09:00-16:00", "outdoor_seating": "yes"}}, {"type": "node", "id": 10093336601, "lat": 59.4241516, "lon": 17.8357927, "tags": {"addr:floor": "G", "amenity": "cafe", "bar": "no", "brand": "Espresso House", "brand:wikidata": "Q10489162", "check_date": "2023-06-30", "cuisine": "coffee_shop", "drive_through": "no", "internet_access": "wlan", "internet_access:fee": "no", "level": "0", "name": "Espresso House", "opening_hours": "Mo-Fr 07:00-20:00; Sa-Su 08:00-19:00", "outdoor_seating": "yes", "payment:cash": "no", "payment:mastercard": "yes", "payment:visa": "yes", "pets": "yes", "smoking": "no", "takeaway": "yes", "toilets": "yes", "wheelchair": "yes"}}, {"type": "node", "id": 10166152177, "lat": 59.2018289, "lon": 17.6207312, "tags": {"addr:city": "S\u00f6dert\u00e4lje", "addr:country": "SE", "addr:housenumber": "12", "addr:postcode": "15136", "addr:street": "Kvarnbergagatan", "amenity": "bar", "email": "qm@tt-sektionen.se", "name": "SneQuan", "opening_hours": "Fr-Sa 17:17-01:00", "website": "https://tt-sektionen.se/"}}, {"type": "node", "id": 10557373493, "lat": 59.3469112, "lon": 17.8950251, "tags": {"addr:city": "Bromma", "addr:country": "SE", "addr:housenumber": "260C", "addr:postcode": "168 55", "addr:street": "Bergslagsv\u00e4gen", "amenity": "restaurant", "cuisine": "italian", "indoor_seating": "yes", "name": "Mille Gusti", "opening_hours": "Mo-Th 11:00-21:00; Fr 11:00-23:00; Sa 12:00-23:00; Su 12:00-21:00", "outdoor_seating": "yes", "phone": "+46 8-99 91 98", "website": "https://www.millegusti.se"}}, {"type": "node", "id": 10575222841, "lat": 59.1628104, "lon": 17.8800773}, {"type": "node", "id": 10575222842, "lat": 59.1627886, "lon": 17.8800709}, {"type": "node", "id": 10575222843, "lat": 59.1627847, "lon": 17.8801222}, {"type": "node", "id": 10575222844, "lat": 59.1627695, "lon": 17.8801178}, {"type": "node", "id": 10575222845, "lat": 59.1626968, "lon": 17.8797311}, {"type": "node", "id": 10652196355, "lat": 59.4115215, "lon": 17.8639392, "tags": {"addr:city": "J\u00e4rf\u00e4lla", "addr:country": "SE", "addr:housenumber": "9", "addr:postcode": "177 45", "addr:street": "Mustanggatan", "amenity": "restaurant", "cuisine": "japanese", "name": "Ken-O", "opening_hours": "Mo-Sa 11:00-21:00; Su 12:00-21:00", "wheelchair": "yes"}}, {"type": "node", "id": 10652196356, "lat": 59.4104891, "lon": 17.864708, "tags": {"addr:city": "J\u00e4rf\u00e4lla", "addr:country": "SE", "addr:housenumber": "1", "addr:postcode": "177 45", "addr:street": "Flygf\u00e4ltsv\u00e4gen", "addr:unit": "A", "amenity": "restaurant", "cuisine": "american", "name": "American take away", "opening_hours": "Mo-Fr 10:30-21:00; Sa,Su 11:00-21:00", "wheelchair": "yes"}}, {"type": "node", "id": 10702701489, "lat": 59.1982682, "lon": 17.6253251, "tags": {"amenity": "restaurant", "name": "Havana Restauranf", "opening_hours": "Mo 00:00-00:00; Tu-Th 17:00-23:00; Fr, Sa 16:00-02:00; Su 16:00-21:00", "phone": "+4685532525"}}, {"type": "node", "id": 10702729144, "lat": 59.1975527, "lon": 17.6235874, "tags": {"amenity": "restaurant", "check_date": "2023-04-09", "cuisine": "arab", "name": "Antika", "opening_hours": "Mo-Su 11:00-21:00"}}, {"type": "node", "id": 10702736045, "lat": 59.1989188, "lon": 17.6274137, "tags": {"amenity": "restaurant", "name": "550 Bar och k\u00f6k", "opening_hours": "Mo, Tu off; We, Th, Su 16:00-23:00; Fr, Sa 16:00-02:00"}}, {"type": "node", "id": 10702745524, "lat": 59.1975979, "lon": 17.6235636, "tags": {"amenity": "restaurant", "check_date": "2023-04-09", "cuisine": "fried_chicken;oriental;pizza", "name": "Do Re Mi", "opening_hours": "Mo-Fr 11:00-20:00; Sa 12:00-21:00; Su 12:00-20:00", "phone": "+46855060180"}}, {"type": "node", "id": 10702811564, "lat": 59.1936165, "lon": 17.6283981, "tags": {"amenity": "restaurant", "check_date": "2023-06-11", "name": "La Fontana"}}, {"type": "node", "id": 10725115145, "lat": 59.1996302, "lon": 17.4418536}, {"type": "node", "id": 10725115146, "lat": 59.1996027, "lon": 17.4419272}, {"type": "node", "id": 10725115147, "lat": 59.1994813, "lon": 17.4417543}, {"type": "node", "id": 10777526285, "lat": 59.4122955, "lon": 17.8643217, "tags": {"addr:city": "J\u00e4rf\u00e4lla", "addr:country": "SE", "addr:housenumber": "32", "addr:postcode": "177 44", "addr:street": "Barkarbyv\u00e4gen", "amenity": "restaurant", "cuisine": "salad", "name": "Oh Pok\u00e9 Hawaiian Street Food", "website": "https://ohpoke.se/"}}, {"type": "node", "id": 10796919228, "lat": 59.1976759, "lon": 17.6187699, "tags": {"amenity": "restaurant", "check_date": "2023-04-09", "cuisine": "sushi", "name": "Teso Sushi"}}, {"type": "node", "id": 10796920665, "lat": 59.1974639, "lon": 17.6236426, "tags": {"amenity": "restaurant", "check_date": "2023-04-09", "cuisine": "thai", "name": "Parn"}}, {"type": "node", "id": 10797249586, "lat": 59.19944, "lon": 17.6317705, "tags": {"amenity": "restaurant", "check_date": "2023-04-09", "name": "EAT"}}, {"type": "node", "id": 10804670930, "lat": 59.1986108, "lon": 17.6190791, "tags": {"amenity": "restaurant", "check_date": "2023-04-12", "cuisine": "burger", "name": "M&M Burger"}}, {"type": "node", "id": 10804817854, "lat": 59.1959759, "lon": 17.6277469, "tags": {"addr:floor": "0", "amenity": "cafe", "check_date": "2023-10-01", "name": "Tidermans"}}, {"type": "node", "id": 10834024685, "lat": 59.193492, "lon": 17.6282152, "tags": {"amenity": "restaurant", "name": "Stekt. Burgers & stuff", "opening_hours": "Mo, Tu 11:00-21:00; We-Fr 11:00-22:00; Sa 12:00-22:00; Su 12:00-21:00", "phone": "+46855017790", "website": "https://stektburger.se"}}, {"type": "node", "id": 10860259975, "lat": 59.1353723, "lon": 17.7895111}, {"type": "node", "id": 10860259976, "lat": 59.1353427, "lon": 17.7896706}, {"type": "node", "id": 10860259977, "lat": 59.1354668, "lon": 17.7897421}, {"type": "node", "id": 10860259978, "lat": 59.1354922, "lon": 17.7895991}, {"type": "node", "id": 10922351261, "lat": 59.4071849, "lon": 17.9198336}, {"type": "node", "id": 10922351262, "lat": 59.4071761, "lon": 17.9198797}, {"type": "node", "id": 10922351263, "lat": 59.4071116, "lon": 17.9199677}, {"type": "node", "id": 10922351264, "lat": 59.4072413, "lon": 17.9200634}, {"type": "node", "id": 10922351265, "lat": 59.4072651, "lon": 17.9199392}, {"type": "node", "id": 10922351266, "lat": 59.4071343, "lon": 17.9198489}, {"type": "node", "id": 10963310042, "lat": 59.2062479, "lon": 17.6473184, "tags": {"amenity": "restaurant", "check_date": "2023-06-08", "name": "Freddys", "opening_hours": "Mo-Fr 08:00-15:00; Sa 11:00-18:00; Su off"}}, {"type": "node", "id": 10969099164, "lat": 59.1947193, "lon": 17.6279536, "tags": {"amenity": "cafe", "brand": "Espresso House", "brand:wikidata": "Q10489162", "check_date": "2023-06-11", "cuisine": "coffee_shop", "name": "Espresso House", "takeaway": "yes"}}, {"type": "node", "id": 10984665771, "lat": 59.4419718, "lon": 17.8638058}, {"type": "node", "id": 11001459913, "lat": 59.4105523, "lon": 17.8650461, "tags": {"addr:city": "J\u00e4rf\u00e4lla", "addr:country": "SE", "addr:housenumber": "3", "addr:postcode": "17745", "addr:street": "Flygf\u00e4ltsv\u00e4gen", "amenity": "restaurant", "cuisine": "thai", "name": "yangpara", "opening_hours": "Mo-Su 11:00-21:00", "phone": "073-876 28 98", "website": "https://www.yangpara.se/"}}, {"type": "node", "id": 11001818569, "lat": 59.1624162, "lon": 17.6457652, "tags": {"amenity": "cafe", "check_date": "2023-06-23", "name": "F\u00e5gels\u00e5ngen"}}, {"type": "node", "id": 11001848141, "lat": 59.1978063, "lon": 17.6272055, "tags": {"amenity": "restaurant", "check_date": "2023-06-23", "cuisine": "mexican", "name": "Tacquerian", "outdoor_seating": "yes"}}, {"type": "node", "id": 11018990871, "lat": 59.153795, "lon": 17.6490989, "tags": {"amenity": "restaurant", "cuisine": "greek", "name": "Greken"}}, {"type": "node", "id": 11018990872, "lat": 59.1537455, "lon": 17.6491794, "tags": {"amenity": "restaurant", "name": "Il Forno Italiano"}}, {"type": "node", "id": 11034014645, "lat": 59.2021329, "lon": 17.8039209, "tags": {"amenity": "restaurant", "indoor_seating": "yes", "name": "Joe's Grill & Pizza", "outdoor_seating": "yes"}}, {"type": "node", "id": 11034045908, "lat": 59.1974125, "lon": 17.7991904, "tags": {"amenity": "restaurant", "name": "Nila Indisk restaurang"}}, {"type": "node", "id": 11034092071, "lat": 59.1907214, "lon": 17.8229759, "tags": {"amenity": "restaurant", "name": "Indisk restaurang Sonagra"}}, {"type": "node", "id": 11034239531, "lat": 59.202544, "lon": 17.6327199, "tags": {"amenity": "restaurant", "check_date": "2023-07-08", "name": "Attila's kolgrill"}}, {"type": "node", "id": 11034255131, "lat": 59.2022648, "lon": 17.6331273, "tags": {"amenity": "cafe", "check_date": "2023-07-08", "name": "Art Cake House Caf\u00e9"}}, {"type": "node", "id": 11034255132, "lat": 59.2020811, "lon": 17.6335208, "tags": {"amenity": "restaurant", "check_date": "2023-07-08", "cuisine": "asian", "name": "Tawaka sushi wok"}}, {"type": "node", "id": 11051346548, "lat": 59.5188382, "lon": 17.9101023, "tags": {"amenity": "restaurant", "name": "Grekiska grill & bar"}}, {"type": "node", "id": 11051346549, "lat": 59.5187253, "lon": 17.9101935, "tags": {"amenity": "restaurant", "cuisine": "asian", "name": "Liins sushi & wok"}}, {"type": "node", "id": 11051346560, "lat": 59.5183047, "lon": 17.9138895, "tags": {"amenity": "restaurant", "name": "Mangal b.b.q"}}, {"type": "node", "id": 11051346565, "lat": 59.5184939, "lon": 17.9113994, "tags": {"amenity": "restaurant", "cuisine": "japanese", "name": "Coco Sushi Ramen"}}, {"type": "node", "id": 11051346566, "lat": 59.5183136, "lon": 17.9110692, "tags": {"amenity": "cafe", "brand": "Espresso House", "brand:wikidata": "Q10489162", "cuisine": "coffee_shop", "name": "Espresso house", "takeaway": "yes"}}, {"type": "node", "id": 11124587644, "lat": 59.5101663, "lon": 17.6409762}, {"type": "node", "id": 11124587645, "lat": 59.5101502, "lon": 17.6410324}, {"type": "node", "id": 11124587646, "lat": 59.5102004, "lon": 17.6410879}, {"type": "node", "id": 11149630565, "lat": 59.3678746, "lon": 17.8435091, "tags": {"addr:city": "H\u00e4sselby", "addr:housenumber": "18", "addr:postcode": "165 55", "addr:street": "H\u00e4sselby Torg", "amenity": "cafe", "name": "Caf\u00e9 de Nice", "opening_hours": "Mon-Sun 08:00-19:00", "phone": "076-407 76 92", "website": "https://hasselbygardcentrum.se/butik/cafe-de-nice/"}}, {"type": "node", "id": 11162621037, "lat": 59.3797306, "lon": 17.8172729, "tags": {"amenity": "cafe", "name": "Caf\u00e9 Myntan", "opening_hours": "Mo 08:00-16:30; Tu-Fr 08:00-18:00; Sa 09:00-17:00; Su 10:00-16:00"}}, {"type": "node", "id": 11162629111, "lat": 59.3801116, "lon": 17.8173078, "tags": {"amenity": "restaurant", "name": "Sushi Kawa", "opening_hours": "Mo-Fr 10:00-20:00; Sa 10:00-18:00; Su 11:00-18:00"}}, {"type": "node", "id": 11166350032, "lat": 59.3667174, "lon": 17.8434616, "tags": {"amenity": "restaurant", "name": "Solna Korv Grillhuset", "opening_hours": "Mo-Fr 09:30-24:00; Sa,Su 10:00-24:00"}}, {"type": "node", "id": 11166352832, "lat": 59.3665389, "lon": 17.8441434, "tags": {"amenity": "restaurant", "name": "Sushi Osaka", "opening_hours": "Mo-Th 10:30-21:00; Fr 10:30-22:00; Sa 11:00-22:00; Su 11:00-21:00"}}, {"type": "node", "id": 11166368451, "lat": 59.3693583, "lon": 17.8437647, "tags": {"amenity": "restaurant", "name": "H\u00e4sselby Pizzeria", "opening_hours": "PH,Mo-Su 10:00-22:00"}}, {"type": "node", "id": 11166370091, "lat": 59.3668234, "lon": 17.8436189, "tags": {"amenity": "restaurant", "name": "Nya Istanbul", "opening_hours": "Mo-Fr 10:00-21:00; Sa,Su 11:00-21:00"}}, {"type": "node", "id": 11167962342, "lat": 59.4175265, "lon": 17.855062, "tags": {"amenity": "cafe", "cuisine": "bubble_tea", "name": "Boba Manga"}}, {"type": "node", "id": 11167962348, "lat": 59.4175919, "lon": 17.855022, "tags": {"amenity": "restaurant", "cuisine": "indian", "name": "Desi Tarka"}}, {"type": "node", "id": 11167962356, "lat": 59.4175998, "lon": 17.8552953, "tags": {"amenity": "restaurant", "name": "Mevan Kolgrill"}}, {"type": "node", "id": 11198485829, "lat": 59.2442269, "lon": 17.2396573}, {"type": "node", "id": 11198485830, "lat": 59.2442028, "lon": 17.2396842}, {"type": "node", "id": 11198485831, "lat": 59.2442047, "lon": 17.2395655}, {"type": "node", "id": 11198485832, "lat": 59.2441772, "lon": 17.2395962}, {"type": "node", "id": 11198485833, "lat": 59.2442745, "lon": 17.2394838}, {"type": "node", "id": 11198485834, "lat": 59.24429, "lon": 17.2394665}, {"type": "node", "id": 11198485835, "lat": 59.2442958, "lon": 17.2394861}, {"type": "node", "id": 11198485836, "lat": 59.2443113, "lon": 17.2394688}, {"type": "node", "id": 11198491737, "lat": 59.2443292, "lon": 17.2395319}, {"type": "node", "id": 11198491738, "lat": 59.2443195, "lon": 17.2395429}, {"type": "node", "id": 11198491739, "lat": 59.2443286, "lon": 17.2395741}, {"type": "node", "id": 11198491740, "lat": 59.2443134, "lon": 17.2395911}, {"type": "node", "id": 11198491743, "lat": 59.2441897, "lon": 17.239639, "tags": {"entrance": "yes"}}, {"type": "node", "id": 11198491744, "lat": 59.2443207, "lon": 17.2395017, "tags": {"entrance": "yes"}}, {"type": "node", "id": 11199429501, "lat": 59.1999075, "lon": 17.6677835, "tags": {"amenity": "cafe", "name": "Biltema Caf\u00e9", "payment:cash": "no"}}, {"type": "node", "id": 11222462639, "lat": 59.2700073, "lon": 17.9172209, "tags": {"amenity": "cafe", "internet_access": "yes", "name": "Espresso house", "payment:cash": "no"}}, {"type": "node", "id": 11314050869, "lat": 59.2570302, "lon": 17.870207, "tags": {"amenity": "restaurant", "name:ar": "\u0645\u0637\u0639\u0645 \u0627\u0644\u0645\u0644\u0643", "name:en": "King resturang"}}, {"type": "node", "id": 11396364429, "lat": 59.4136711, "lon": 17.8637672, "tags": {"amenity": "restaurant", "cuisine": "svensk_husmanskost", "name": "Icanders"}}, {"type": "node", "id": 11467798997, "lat": 59.5102156, "lon": 17.6410345}, {"type": "node", "id": 11467798998, "lat": 59.5102222, "lon": 17.6410418}, {"type": "node", "id": 11477124408, "lat": 59.2310493, "lon": 17.882583, "tags": {"amenity": "restaurant", "name": "Flottsbro V\u00e4rdshus", "website": "https://www.flottsbro.se/"}}, {"type": "node", "id": 11579322833, "lat": 59.1967472, "lon": 17.6253887, "tags": {"addr:floor": "1", "amenity": "restaurant", "check_date": "2024-02-02", "cuisine": "indian", "level": "0", "name": "Mari Garden"}}, {"type": "node", "id": 11663123680, "lat": 59.404978, "lon": 17.7663042, "tags": {"addr:city": "Viksj\u00f6", "addr:postcode": "17547", "amenity": "cafe", "description": "Under v\u00e5r respektive h\u00f6stterminerna, n\u00e4r v\u00e5r ordinarie verksamhet p\u00e5g\u00e5r, driver vi \u00e4ven Caf\u00e9 Sandvik i den stora r\u00f6da stugan i Sandvik, Hummelmora.", "indoor_seating": "yes", "internet_access": "no", "name": "Caf\u00e9 Sandvik", "note": "Unclear what are the exact months of when they are open. On the website it just says \"Under v\u00e5r respektive h\u00f6stterminerna, n\u00e4r v\u00e5r ordinarie verksamhet p\u00e5g\u00e5r, driver vi \u00e4ven Caf\u00e9 Sandvik i den stora r\u00f6da stugan i Sandvik, Hummelmora.\"", "opening_hours": "Su 11:00-15:00, May-Sep off", "outdoor_seating": "yes", "website": "https://viksjo.scout.se/scoutlokalen/cafe-sandvik/"}}, {"type": "way", "id": 27449297, "nodes": [301386169, 301386172, 301386174, 301386176, 301386169], "tags": {"amenity": "cafe", "building": "yes", "name": "Caf\u00e9 Bruket", "opening_hours": "Jun 21-Aug 15 Mo-Fr 15:00-19:00; Sa,Su 11:00-19:00", "outdoor_seating": "garden", "website": "http://www.bruketsommar.se/caf%C3%A9-bruket-15447353"}}, {"type": "way", "id": 27487871, "nodes": [301777141, 301777144, 301777147, 301777149, 301777141], "tags": {"amenity": "cafe", "building": "yes", "name": "Cafe S\u00e4by G\u00e5rd"}}, {"type": "way", "id": 30303554, "nodes": [334120461, 334120463, 334120468, 334120472, 334120461], "tags": {"addr:postcode": "178 93", "amenity": "cafe", "building": "yes", "building:levels": "1", "building:material": "plaster", "description:en": "Cafe and restaurant established in 1934 in a 17th century building,", "indoor_seating": "yes", "name": "Brostugan", "opening_hours": "Apr 10:00-17:00, May 10:00-20:00, Jun-Aug 10:00-22:00, Sep 10:00-20:00, Oct-Mar 10:00-17:00", "outdoor_seating": "yes", "postal_code": "178 93", "roof:colour": "#FFBB55", "roof:levels": "1", "roof:material": "roof_tiles", "roof:orientation": "along", "roof:shape": "half-hipped", "source": "Yahoo", "website": "https://www.brostugan.se/", "wikidata": "Q4975418"}}, {"type": "way", "id": 41186733, "nodes": [503127080, 10984665771, 503127081, 503127082, 503127083, 503127080], "tags": {"amenity": "cafe", "building": "yes", "name": "Rockstastugan", "opening_hours": "Su 11:00-15:00", "opening_hours:covid19": "closed", "operator": "Friluftsfr\u00e4mjandet", "phone": "+46 8-441 22 05", "website": "https://www.friluftsframjandet.se/regioner/malardalen/lokalavdelningar/jarfalla/rockstastugan-med-sondagscafe/"}}, {"type": "way", "id": 41388753, "nodes": [506226441, 506226442, 506226445, 506226448, 10922351265, 10922351264, 10922351263, 10922351266, 10922351262, 10922351261, 506226441], "tags": {"amenity": "cafe", "building": "yes", "name": "Husby g\u00e5rd", "source": "Yahoo"}}, {"type": "way", "id": 93737905, "nodes": [1088557737, 1088557699, 1088557762, 1088557784, 1088557737], "tags": {"amenity": "cafe", "building": "yes", "indoor_seating": "yes", "name": "Karamellan", "name:fi": "Linnakahvila", "name:sv": "Karamellan", "outdoor_seating": "yes"}}, {"type": "way", "id": 106745766, "nodes": [1227740406, 1227739834, 1227741051, 1240178968, 1240178977, 1240178984, 1240178983, 1227740569, 1227740406], "tags": {"addr:city": "Bromma", "addr:country": "SE", "addr:housenumber": "83", "addr:postcode": "168 44", "addr:street": "Kanaans v\u00e4g", "amenity": "cafe", "building": "yes", "cuisine": "ice_cream;pizza", "name": "Kanaans Tr\u00e4dg\u00e5rdscafe", "opening_hours": "12:00-20:00", "outdoor_seating": "yes", "phone": "+46-8-410 460 18", "website": "https://kanaans.se/"}}, {"type": "way", "id": 113244662, "nodes": [1284784904, 1284784707, 1284784688, 1284784869, 1284784904], "tags": {"amenity": "restaurant", "building": "yes", "capacity": "6", "cuisine": "kebab;greek", "name": "Grill", "takeaway": "yes"}}, {"type": "way", "id": 123127586, "nodes": [1374082001, 1374082019, 1374082005, 1374082011, 1374082001], "tags": {"amenity": "cafe", "building": "commercial", "name": "Caf\u00e9"}}, {"type": "way", "id": 128836864, "nodes": [1422672110, 1422672079, 1422672113, 1422672117, 1422672110], "tags": {"amenity": "cafe", "building": "yes", "name": "Caf\u00e9 Hundkexet"}}, {"type": "way", "id": 134413730, "nodes": [1477951386, 1477951119, 1477951207, 1477951253, 1477951386], "tags": {"amenity": "cafe", "building": "retail", "building:levels": "1", "indoor_seating": "yes", "name": "Helenas cafe", "opening_hours": "We-Su 11:30-15:00", "outdoor_seating": "yes", "source": "Bing"}}, {"type": "way", "id": 134413772, "nodes": [1477950897, 7643259855, 7643259852, 7643259853, 7643259854, 1477950942, 7643259851, 7643259848, 7643259849, 7643259850, 1477951374, 1477950933, 1477950897], "tags": {"addr:city": "Sollentuna", "addr:country": "SE", "addr:postcode": "191 62", "addr:street": "Norra Kolonnv\u00e4gen", "amenity": "cafe", "building": "yes", "name": "Naturkafeet", "opening_hours": "Su 10:00-15:00", "source": "survey"}}, {"type": "way", "id": 143575173, "nodes": [1571195787, 1571195782, 1571195785, 1571195793, 1571195787], "tags": {"addr:city": "Kungs\u00e4ngen", "addr:country": "SE", "addr:housenumber": "1", "addr:postcode": "196 93", "addr:street": "\u00d6r\u00e5ker Smedjan", "amenity": "cafe", "building": "yes", "name": "LADAN - \u00d6r\u00e5kers kulturcentrum", "shop": "variety_store", "url": "http://www.ladanoraker.se/"}}, {"type": "way", "id": 154535608, "nodes": [1670661312, 1670661309, 1670661315, 1670661317, 1670661319, 1670661312], "tags": {"amenity": "cafe", "name": "Zetas tr\u00e4dg\u00e5rdskaf\u00e9"}}, {"type": "way", "id": 209630265, "nodes": [2198188803, 2198188804, 2198188802, 2198188799, 2198188793, 2198188789, 2198188795, 2198188801, 2198188803], "tags": {"amenity": "cafe", "building": "yes", "fixme": "Survey opening and closing hours, was \"11/5-18/8\".", "name": "Strandviks Sj\u00f6caf\u00e9", "website": "http://www.strandvikssjocafe.se/"}}, {"type": "way", "id": 239869066, "nodes": [2476485522, 2476485523, 2476485525, 2476485526, 2476485527, 2476485528, 10575222845, 2476485529, 2476485530, 2476485531, 2476485532, 2476485533, 10575222841, 10575222842, 10575222843, 10575222844, 2476485535, 2476485536, 2476485537, 2476485538, 2476485522], "tags": {"addr:city": "Tullinge", "addr:country": "SE", "addr:housenumber": "1", "addr:postcode": "143 33", "addr:street": "Lidav\u00e4gen", "alt_name": "V\u00e4rdshuset", "amenity": "restaurant", "building": "yes", "contact:phone": "+46-8-778 43 80", "contact:website": "http://www.lida.nu/", "name": "Lida V\u00e4rdshus"}}, {"type": "way", "id": 287905223, "nodes": [2914689950, 2914689951, 2914689949, 2914689948, 2914689950], "tags": {"amenity": "cafe", "building": "yes"}}, {"type": "way", "id": 292628845, "nodes": [2961652305, 2961652309, 2961652308, 2961652304, 2961652305], "tags": {"amenity": "restaurant", "building": "yes", "cuisine": "regional", "email": "sarimner@stromma.se", "name": "Restaurang S\u00e4rimner", "outdoor_seating": "yes", "payment:cash": "no", "phone": "+46 8-560 51 031", "website": "https://www.birkavikingastaden.se/hitta-pa-birka/restaurang-sarimner/"}}, {"type": "way", "id": 295505870, "nodes": [2992365950, 2992365958, 2992365959, 2992365956, 2992365955, 2992365954, 2992365953, 2992365949, 2992365950], "tags": {"amenity": "restaurant", "building": "yes", "name": "Rastaholms v\u00e4rdshus", "phone": "+46-8-56023070", "website": "http://www.rastaholm.se/"}}, {"type": "way", "id": 301483679, "nodes": [3055467507, 3055467508, 3055467509, 3055467510, 3055467507], "tags": {"amenity": "restaurant", "building": "yes", "name": "Nykrog"}}, {"type": "way", "id": 340745949, "nodes": [3479990338, 3479990357, 3479990355, 3479990359, 3479990358, 3479990354, 3479990353, 3479990334, 3479990338], "tags": {"amenity": "cafe", "building": "yes", "fee": "no", "indoor_seating": "yes", "name": "Tumba Bruksmuseum", "outdoor_seating": "yes", "tourism": "museum", "wikidata": "Q10706196"}}, {"type": "way", "id": 340746105, "nodes": [3479989139, 3479989149, 3479989136, 7425659386, 3479989146, 7425615563, 3479989140, 3479989134, 3479989139], "tags": {"addr:city": "Tumba", "addr:country": "SE", "addr:housenumber": "4", "addr:postcode": "147 54", "addr:street": "Storvretsv\u00e4gen", "amenity": "restaurant", "building": "yes", "cuisine": "pizza;burger;kebab;sallad", "name": "Lilla picasso", "opening_hours": "Mo-Su 12:00-22:00", "phone": "+46-8-530-200-86", "website": "https://www.picassopizzagrill.se/"}}, {"type": "way", "id": 365392176, "nodes": [3694061761, 3694061762, 3694061763, 3694061767, 3694061766, 3694061761], "tags": {"amenity": "restaurant", "cuisine": "asian", "email": "info@tamarine.se", "indoor": "room", "level": "0", "name": "Tamarine", "opening_hours": "Mo-Sa 10:00-20:00; Su 11:00-20:00", "phone": "+46 8 590 888 22", "source": "survey", "takeaway": "yes", "website": "https://www.tamarine.se/"}}, {"type": "way", "id": 368668682, "nodes": [3725204957, 3725204958, 3725204959, 3725204960, 3725204957], "tags": {"amenity": "cafe", "building": "commercial", "name": "V\u00e4sterby Caf\u00e9"}}, {"type": "way", "id": 377718020, "nodes": [3811067757, 3811067766, 3811068093, 11467798998, 11467798997, 11124587646, 11124587645, 11124587644, 3811067757], "tags": {"amenity": "cafe", "building": "yes", "contact:phone": "+46 8 582 405 55", "name": "Floristh\u00f6rnan", "opening_hours": "Mo-Fr 08:00-18:00; Sa 09:00-16:00; PH off", "outdoor_seating": "yes", "source": "Bing"}}, {"type": "way", "id": 428739813, "nodes": [4278322661, 11198485833, 11198485834, 11198485835, 11198485836, 11198491744, 11198491737, 11198491738, 11198491739, 11198491740, 4278322662, 4278322663, 11198485829, 11198485830, 11198491743, 11198485832, 11198485831, 4278322664, 4278322661], "tags": {"addr:city": "Mariefred", "addr:country": "SE", "addr:housenumber": "1", "addr:postcode": "647 92", "addr:street": "Hedlandet Ekbacka", "amenity": "cafe", "building": "residential", "cuisine": "coffee_shop", "name": "Kafe Klav\u00e9r", "outdoor_seating": "yes", "website": "https://www.kafeklaver.se/"}}, {"type": "way", "id": 429252093, "nodes": [4283757891, 4283757892, 4283757893, 4283757894, 4283757898, 4283757895, 4283757896, 4283757897, 4283757891], "tags": {"amenity": "cafe", "building": "yes", "name": "Gamla huset butik & caf\u00e9"}}, {"type": "way", "id": 432571366, "nodes": [4315748888, 4315748889, 4315748890, 4315748891, 4315748888], "tags": {"amenity": "cafe", "building": "yes", "name": "Cafe Hovg\u00e5rden"}}, {"type": "way", "id": 490393063, "nodes": [4825791154, 4825791155, 4825791156, 4825791157, 4825791158, 4825791159, 4825791154], "tags": {"amenity": "restaurant", "building": "yes", "name": "M\u00e5ngfaldens Hus"}}, {"type": "way", "id": 490394216, "nodes": [4825800318, 4825800319, 4825800320, 4825801021, 4825800318], "tags": {"amenity": "restaurant", "building": "yes", "name": "Greken"}}, {"type": "way", "id": 500602306, "nodes": [4916129125, 4916129122, 4916127117, 4916127115, 4916127116, 4916129126, 4916129127, 4916129121, 4916127114, 4916127119, 4916129125], "tags": {"amenity": "restaurant", "building": "yes", "name": "Restaurang Jungfrusund"}}, {"type": "way", "id": 529263199, "nodes": [5141780649, 5141780646, 5141780644, 5141780643, 10725115145, 10725115146, 10725115147, 5141780645, 5141780647, 5141780648, 5141780649], "tags": {"amenity": "restaurant", "building": "yes", "name": "Vidbyn\u00e4s"}}, {"type": "way", "id": 692336119, "nodes": [6498861814, 6498861815, 6498861816, 6498861817, 6498861818, 6498861819, 6498861820, 6498861821, 6498861814], "tags": {"addr:city": "Svartsj\u00f6", "addr:country": "SE", "addr:housenumber": "5", "addr:postcode": "17995", "addr:street": "Svartsj\u00f6v\u00e4gen", "amenity": "restaurant", "building": "yes", "cuisine": "swedish", "name": "Svartsj\u00f6 matsal", "opening_hours": "Mo-Fr 10:00-14:30; Sa-Su 10:00-15:00", "phone": "+46 8 7303090", "website": "http://svartsj\u00f6matsal.se.sitebuilder.loopia.com"}}, {"type": "way", "id": 993877124, "nodes": [9182334909, 9182334910, 9182334911, 9182334912, 9182334913, 9182334914, 9182334915, 9182334916, 9182334909], "tags": {"addr:city": "\u00c5kers Styckebruk", "addr:country": "SE", "addr:housenumber": "35", "addr:postcode": "647 52", "addr:street": "Solbergav\u00e4gen", "amenity": "restaurant", "building": "yes", "cuisine": "pizza;burger", "name": "Karas Restaurang Pizzeria", "opening_hours": "Mo-Su 10:00-21:00", "phone": "+46159-310 90"}}, {"type": "way", "id": 1059203543, "nodes": [9732081159, 9732081160, 9732081161, 9732081162, 9732081163, 9732081164, 9732081165, 9732081166, 9732081167, 9732081168, 9732081159], "tags": {"amenity": "restaurant", "building": "yes", "name": "Vretastugan"}}, {"type": "way", "id": 1061188711, "nodes": [9750102712, 9750102713, 9750102714, 9750102715, 9750102712], "tags": {"amenity": "cafe", "building": "yes", "name": "Gula Villan Tr\u00e4dg\u00e5rdscaf\u00e9"}}, {"type": "way", "id": 1071878591, "nodes": [9835500029, 9835500030, 9835500031, 9835500032, 9835500029], "tags": {"amenity": "restaurant", "building": "yes", "cuisine": "asian"}}, {"type": "way", "id": 1085746461, "nodes": [9948681579, 9948681580, 9948681581, 9948681582, 9948681579], "tags": {"addr:city": "S\u00f6dert\u00e4lje", "addr:country": "SE", "addr:housenumber": "66A", "addr:postcode": "151 39", "addr:street": "Nyk\u00f6pingsv\u00e4gen", "amenity": "restaurant", "building": "yes", "cuisine": "thai;sushi", "name": "Wai Thai Food", "opening_hours": "Mo-Fr 10:30-21:00; Sa, Su 11:00-21:00", "website": "https://www.waithaifood.se"}}, {"type": "way", "id": 1167730330, "nodes": [10860259975, 10860259976, 10860259977, 10860259978, 10860259975], "tags": {"amenity": "cafe", "building": "yes", "name": "Karshamra Mat Och Tr\u00e4dg\u00e5rd", "website": "https://www.karshamramatochtradgard.com/"}}]}