{"version": 0.6, "generator": "Overpass API 0.7.61.5 4133829e", "osm3s": {"timestamp_osm_base": "2024-03-08T21:11:44Z", "copyright": "The data included in this document is from www.openstreetmap.org. The data is made available under ODbL."}, "elements": [{"type": "node", "id": 883429588, "lat": 58.0339038, "lon": 14.9754306, "tags": {"amenity": "restaurant", "cuisine": "italian", "name": "Matt & Deli"}}, {"type": "node", "id": 2104792081, "lat": 58.1971511, "lon": 15.0529075, "tags": {"amenity": "restaurant", "name": "Pizzeria Torget"}}, {"type": "node", "id": 2104792134, "lat": 58.1968177, "lon": 15.0535681, "tags": {"amenity": "restaurant", "name": "Pizzeria Palace"}}, {"type": "node", "id": 2104798804, "lat": 58.1966563, "lon": 15.052988, "tags": {"amenity": "cafe", "name": "Storgatans Caf\u00e9 & Sm\u00f6rg\u00e5sbar"}}, {"type": "node", "id": 2383223721, "lat": 57.8009866, "lon": 15.1498831, "tags": {"amenity": "restaurant", "cuisine": "regional", "name": "Ryz\u00e4tras Lunch och Catering", "opening_hours": "Tu-Fr 09:00-16:00; Sa 10:00-16:00"}}, {"type": "node", "id": 2629781360, "lat": 57.8495844, "lon": 14.8240275}, {"type": "node", "id": 2629781361, "lat": 57.8496412, "lon": 14.8238713}, {"type": "node", "id": 2629781362, "lat": 57.8496468, "lon": 14.8241076}, {"type": "node", "id": 2629781363, "lat": 57.8497036, "lon": 14.8239514}, {"type": "node", "id": 2895330941, "lat": 57.9285385, "lon": 14.912141, "tags": {"amenity": "restaurant", "cuisine": "pizza", "delivery": "no", "name": "Sunhults g\u00e4stgiveri", "outdoor_seating": "yes", "smoking": "no", "source": "survey", "takeaway": "yes"}}, {"type": "node", "id": 3021682664, "lat": 58.028544, "lon": 15.0890367}, {"type": "node", "id": 3021682666, "lat": 58.0285506, "lon": 15.0888068}, {"type": "node", "id": 3021682670, "lat": 58.0286328, "lon": 15.0891493}, {"type": "node", "id": 3021682671, "lat": 58.0286605, "lon": 15.0889792}, {"type": "node", "id": 3021702808, "lat": 57.824696, "lon": 15.2743012, "tags": {"amenity": "restaurant", "cuisine": "pizza", "name": "Pizzeria"}}, {"type": "node", "id": 3078063542, "lat": 57.8355665, "lon": 15.267489, "tags": {"amenity": "restaurant", "name": "Ydreg\u00e5rden"}}, {"type": "node", "id": 3292720579, "lat": 58.0285605, "lon": 15.0891617}, {"type": "node", "id": 3292720581, "lat": 58.0285159, "lon": 15.0890204}, {"type": "node", "id": 3292720585, "lat": 58.0285268, "lon": 15.0891422}, {"type": "node", "id": 3292720592, "lat": 58.0286134, "lon": 15.0888432}, {"type": "node", "id": 3292720593, "lat": 58.0285685, "lon": 15.0891121}, {"type": "node", "id": 3292720594, "lat": 58.0286224, "lon": 15.0887877}, {"type": "node", "id": 3292720595, "lat": 58.0286813, "lon": 15.0888218}, {"type": "node", "id": 3292720597, "lat": 58.0286784, "lon": 15.0888395}, {"type": "node", "id": 3292720598, "lat": 58.0287189, "lon": 15.089013}, {"type": "node", "id": 3292720600, "lat": 58.0287411, "lon": 15.0888759}, {"type": "node", "id": 3566897277, "lat": 58.0285254, "lon": 15.0891598, "tags": {"amenity": "cafe", "cuisine": "ice_cream", "name": "Glass"}}, {"type": "node", "id": 3677452962, "lat": 58.0334021, "lon": 15.2795172, "tags": {"amenity": "restaurant", "name": "H\u00f6nsa-Lottas Restaurang", "source": "survey"}}, {"type": "node", "id": 3706307973, "lat": 57.9156125, "lon": 15.0341816, "tags": {"amenity": "cafe", "cuisine": "regional", "name": "Brostorp", "opening_hours": "Fr-Su 11:00-17:00"}}, {"type": "node", "id": 6738435300, "lat": 58.0143587, "lon": 14.6674727, "tags": {"amenity": "cafe", "cuisine": "sandwich;regional", "name": "Krydderi Krokus", "website": "https://www.krydderikrokus.com/"}}, {"type": "node", "id": 6738435305, "lat": 57.974908, "lon": 14.8007141, "tags": {"amenity": "cafe", "name": "Linder\u00e5s Caf\u00e9 och B&B", "website": "https://sverigesminstacafe.se/"}}, {"type": "node", "id": 9466949138, "lat": 57.8945321, "lon": 14.5196647, "tags": {"amenity": "cafe", "name": "\u00c5sens skafferi & servering"}}, {"type": "node", "id": 9992535503, "lat": 58.005665, "lon": 15.0935837}, {"type": "node", "id": 9992535504, "lat": 58.0057082, "lon": 15.0935594}, {"type": "node", "id": 9992535505, "lat": 58.0056765, "lon": 15.0933582}, {"type": "node", "id": 9992535506, "lat": 58.0056333, "lon": 15.0933824}, {"type": "node", "id": 10240427186, "lat": 58.0343461, "lon": 14.97469, "tags": {"addr:country": "SE", "addr:housenumber": "27", "addr:street": "Storgatan", "amenity": "cafe", "check_date": "2023-07-18", "internet_access": "wlan", "internet_access:fee": "customers", "name": "Espresso House", "opening_hours": "Mo-Fr 09:00-18:30; Sa 09:00-17:00; Su 10:00-16:00", "website": "https://espressohouse.com/en/find-us/tranas", "wheelchair": "yes"}}, {"type": "node", "id": 11051909442, "lat": 58.03469, "lon": 14.9751084, "tags": {"addr:country": "SE", "addr:housenumber": "29", "addr:street": "Storgatan", "amenity": "cafe", "check_date": "2023-07-17", "name": "Caf\u00e9 Tranan"}}, {"type": "node", "id": 11051909447, "lat": 58.0355505, "lon": 14.976076, "tags": {"amenity": "restaurant", "check_date": "2023-07-17", "cuisine": "asian;thai;chinese", "name": "Golden Thai", "opening_hours": "Mo-Th 11:00-22:00; Fr 11:00-23:00; Sa 12:00-23:00; Su 13:00-21:00", "website": "https://goldenthai.se"}}, {"type": "node", "id": 11051909463, "lat": 58.0355262, "lon": 14.9776174, "tags": {"addr:country": "SE", "addr:housenumber": "3", "addr:street": "Missionsgatan", "amenity": "restaurant", "check_date": "2023-07-17", "cuisine": "american", "name": "Baronen", "opening_hours": "Mo-Th 11:00-21:00; Fr 11:00-22:00; Sa 12:00-22:00; Su 12:00-21:00", "website": "https://baronentranas.se/"}}, {"type": "node", "id": 11051909485, "lat": 58.0373586, "lon": 14.9778073, "tags": {"amenity": "restaurant", "check_date": "2023-07-17", "cuisine": "pizza", "name": "Pizzeria Shalom"}}, {"type": "node", "id": 11052400325, "lat": 58.0331616, "lon": 14.9770944, "tags": {"amenity": "restaurant", "check_date": "2023-07-18", "name": "Strandbaren"}}, {"type": "node", "id": 11052493252, "lat": 58.0331936, "lon": 14.9734435, "tags": {"amenity": "cafe", "check_date": "2023-07-18", "name": "Linds"}}, {"type": "node", "id": 11081759617, "lat": 58.0405119, "lon": 14.9903104}, {"type": "node", "id": 11081759618, "lat": 58.0404667, "lon": 14.9902484}, {"type": "node", "id": 11081759619, "lat": 58.0405206, "lon": 14.9901082}, {"type": "node", "id": 11081759620, "lat": 58.0405061, "lon": 14.9900883}, {"type": "node", "id": 11081759621, "lat": 58.0405551, "lon": 14.9899609}, {"type": "node", "id": 11081759622, "lat": 58.0406168, "lon": 14.9900374}, {"type": "node", "id": 11561122857, "lat": 58.0366676, "lon": 15.0308794, "tags": {"amenity": "restaurant", "name": "Sj\u00f6krogen", "website": "https://www.sjokrogen.se/"}}, {"type": "way", "id": 257457667, "nodes": [2629781361, 2629781360, 2629781362, 2629781363, 2629781361], "tags": {"amenity": "cafe", "building": "commercial", "cuisine": "ice_cream", "name": "Stalpets Caf\u00e9", "opening_hours": "11:00-20:00", "operator": "Marina Janehed", "phone": "+46 70-8843028", "website": "https://stalpet.wordpress.com/"}}, {"type": "way", "id": 298258591, "nodes": [3021682670, 3292720593, 3292720579, 3292720585, 3021682664, 3292720581, 3021682666, 3292720592, 3292720594, 3292720595, 3292720597, 3292720600, 3292720598, 3021682671, 3021682670], "tags": {"amenity": "restaurant", "building": "yes", "cuisine": "regional", "name": "Torp\u00f6ns f\u00e4rjel\u00e4ge", "outdoor_seating": "yes"}}, {"type": "way", "id": 1090967869, "nodes": [9992535503, 9992535504, 9992535505, 9992535506, 9992535503], "tags": {"amenity": "cafe", "building": "yes", "name": "Stebbarps G\u00e5rd", "website": "https://stebbarp.se"}}, {"type": "way", "id": 1193835282, "nodes": [11081759622, 11081759621, 11081759620, 11081759619, 11081759618, 11081759617, 11081759622], "tags": {"amenity": "restaurant", "building": "yes"}}]}