{"version": 0.6, "generator": "Overpass API 0.7.61.5 4133829e", "osm3s": {"timestamp_osm_base": "2024-03-08T20:57:30Z", "copyright": "The data included in this document is from www.openstreetmap.org. The data is made available under ODbL."}, "elements": [{"type": "node", "id": 316641180, "lat": 55.5814687, "lon": 12.9377678}, {"type": "node", "id": 316641181, "lat": 55.5813739, "lon": 12.9377129}, {"type": "node", "id": 316641184, "lat": 55.5812775, "lon": 12.9382344}, {"type": "node", "id": 316641185, "lat": 55.5814028, "lon": 12.938124}, {"type": "node", "id": 316641186, "lat": 55.5815019, "lon": 12.9381814}, {"type": "node", "id": 316641188, "lat": 55.5814713, "lon": 12.9383465}, {"type": "node", "id": 420777492, "lat": 55.876737, "lon": 12.8402276}, {"type": "node", "id": 420777551, "lat": 55.8768504, "lon": 12.8398314}, {"type": "node", "id": 420777552, "lat": 55.877019, "lon": 12.8392997}, {"type": "node", "id": 420777553, "lat": 55.8771712, "lon": 12.8390955}, {"type": "node", "id": 459473620, "lat": 55.9110903, "lon": 12.6919269, "tags": {"amenity": "pharmacy", "website:stock": "https://www.fass.se/"}}, {"type": "node", "id": 538014296, "lat": 55.8776822, "lon": 12.8426135}, {"type": "node", "id": 538014298, "lat": 55.8765014, "lon": 12.8414203, "tags": {"crossing": "uncontrolled", "highway": "crossing", "tactile_paving": "yes"}}, {"type": "node", "id": 559390697, "lat": 55.8764814, "lon": 12.841238}, {"type": "node", "id": 559390698, "lat": 55.8769593, "lon": 12.8394391}, {"type": "node", "id": 780210441, "lat": 55.5817339, "lon": 12.9321248, "tags": {"amenity": "pharmacy", "app:apple": "https://itunes.apple.com/se/app/kronans-apotek/id1129771604?l=en", "app:google": "https://play.google.com/store/apps/details?id=se.kronansapotek.kronan", "brand": "Kronans apotek", "dispensing": "yes", "drive_through": "no", "healthcare": "pharmacy", "name": "Kronans Apotek", "opening_hours": "Mo-Fr 09:00-19:00; Sa 09:30-16:00; Su 11:00-15:00", "operator": "Kronans Droghandel Apotek AB", "phone": "+46771612612", "website:stock": "https://www.fass.se/"}}, {"type": "node", "id": 1261385383, "lat": 55.5819175, "lon": 12.9328694, "tags": {"amenity": "pharmacy", "app:apple": "https://itunes.apple.com/se/app/apotek-hj%C3%A4rtat-n%C3%A4ra-dig/id1150817089", "app:google": "https://play.google.com/store/apps/details?id=com.presencekit.apotek.se&hl=en_US", "brand": "Apotek Hj\u00e4rtat", "brand:wikidata": "Q10416114", "brand:wikipedia": "sv:Apotek Hj\u00e4rtat", "drive_through": "no", "healthcare": "pharmacy", "name": "Apotek Hj\u00e4rtat", "opening_hours": "Mo-Fr 09:00-19:00; Sa 09:00-17:00; Su 11:00-15:00", "operator": "Apotek Hj\u00e4rtat Retail AB", "owner": "ICA Gruppen AB", "ownership": "private", "phone": "+46771405405"}}, {"type": "node", "id": 1459039953, "lat": 55.5797668, "lon": 12.9326463}, {"type": "node", "id": 1459039956, "lat": 55.5798152, "lon": 12.9322214}, {"type": "node", "id": 1459039959, "lat": 55.5798831, "lon": 12.9324988}, {"type": "node", "id": 1459039961, "lat": 55.5798906, "lon": 12.9324327}, {"type": "node", "id": 1459039968, "lat": 55.5799655, "lon": 12.9324594}, {"type": "node", "id": 1459039969, "lat": 55.5799857, "lon": 12.9322823}, {"type": "node", "id": 1459039971, "lat": 55.5800067, "lon": 12.9325429}, {"type": "node", "id": 1459039972, "lat": 55.5800338, "lon": 12.9323057}, {"type": "node", "id": 1459039974, "lat": 55.5801017, "lon": 12.9327196}, {"type": "node", "id": 1459039977, "lat": 55.5801073, "lon": 12.932671}, {"type": "node", "id": 1459039980, "lat": 55.5801311, "lon": 12.9326795}, {"type": "node", "id": 1459039989, "lat": 55.5801682, "lon": 12.9323537}, {"type": "node", "id": 2383630573, "lat": 55.9658968, "lon": 12.7750985, "tags": {"amenity": "clinic", "emergency": "no", "name": "V\u00e5rdcentralen Rydeb\u00e4ck"}}, {"type": "node", "id": 2383634535, "lat": 55.9664944, "lon": 12.775388, "tags": {"amenity": "pharmacy", "name": "Apotek", "opening_hours": "Mo-Fr 09:00-18:00; Sa 10:00-14:00", "website:stock": "https://www.fass.se/"}}, {"type": "node", "id": 2475838328, "lat": 55.8764836, "lon": 12.841349}, {"type": "node", "id": 2475838329, "lat": 55.8765059, "lon": 12.8411112}, {"type": "node", "id": 2475838330, "lat": 55.876537, "lon": 12.8414996}, {"type": "node", "id": 2475838335, "lat": 55.8766037, "lon": 12.8415867}, {"type": "node", "id": 2475838338, "lat": 55.8767029, "lon": 12.8403582, "tags": {"crossing": "uncontrolled", "highway": "crossing", "tactile_paving": "yes"}}, {"type": "node", "id": 2475838342, "lat": 55.8769248, "lon": 12.8418932}, {"type": "node", "id": 2475838348, "lat": 55.8770794, "lon": 12.8391934}, {"type": "node", "id": 2475838357, "lat": 55.8773905, "lon": 12.8423376}, {"type": "node", "id": 2475838385, "lat": 55.8779508, "lon": 12.8428772}, {"type": "node", "id": 2475838453, "lat": 55.8792293, "lon": 12.8408245}, {"type": "node", "id": 2475838457, "lat": 55.8792333, "lon": 12.8397294}, {"type": "node", "id": 2546824880, "lat": 55.8778871, "lon": 12.8386184}, {"type": "node", "id": 2546824952, "lat": 55.87812, "lon": 12.8396947}, {"type": "node", "id": 2908074697, "lat": 55.8792302, "lon": 12.8404324, "tags": {"bus": "yes", "highway": "bus_stop", "name": "Landskrona Lasarettet Norra", "public_transport": "stop_position"}}, {"type": "node", "id": 3722167999, "lat": 55.8934308, "lon": 12.9665025, "tags": {"addr:city": "Asmundtorp", "addr:country": "SE", "addr:housenumber": "56", "addr:postcode": "261 76", "addr:street": "T\u00e5garpsv\u00e4gen", "amenity": "veterinary", "name": "Erik M\u00f6rne", "opening_hours": "08:00-16:00", "phone": "+46-418-432435", "website": "http://www.morne.se/"}}, {"type": "node", "id": 3786516972, "lat": 55.6116877, "lon": 12.9802694, "tags": {"amenity": "pharmacy", "app:apk": "se.apoteket.recept", "app:apple": "https://itunes.apple.com/se/app/mitt-apotek/id1053398061", "branch": "V\u00e4stra Hamnen", "brand": "Apoteket", "check_date:opening_hours": "2024-02-23", "drive_through": "no", "healthcare": "pharmacy", "name": "Apoteket", "opening_hours": "Mo-Fr 09:00-20:00; Sa 10:00-18:00; Su 10:00-15:00", "operator": "Apoteket AB (556138-6532)", "owner": "Svenska Staten", "ownership": "national", "phone": "+46771450450", "website:stock": "https://www.fass.se/", "wheelchair": "yes"}}, {"type": "node", "id": 3979385583, "lat": 55.5800792, "lon": 12.9327579}, {"type": "node", "id": 3979385584, "lat": 55.5800843, "lon": 12.9327134}, {"type": "node", "id": 4313130824, "lat": 55.8771491, "lon": 12.8421073, "tags": {"alt_name": "Lasarettet Entr\u00e9n", "bus": "yes", "highway": "bus_stop", "name": "Landskrona Lasarettet", "public_transport": "stop_position"}}, {"type": "node", "id": 4334587914, "lat": 55.8791152, "lon": 12.8406334, "tags": {"amenity": "pharmacy", "app:apple": "https://itunes.apple.com/se/app/apotek-hj%C3%A4rtat-n%C3%A4ra-dig/id1150817089", "app:google": "https://play.google.com/store/apps/details?id=com.presencekit.apotek.se&hl=en_US", "brand": "Apotek Hj\u00e4rtat", "name": "Apotek Hj\u00e4rtat", "opening_hours": "Mo-Fr 08:30-17:00", "operator": "Apotek Hj\u00e4rtat Retail AB", "owner": "ICA Gruppen AB", "ownership": "private", "phone": "+46771405405", "website:stock": "https://www.fass.se/", "wheelchair": "yes"}}, {"type": "node", "id": 5167162303, "lat": 55.8684608, "lon": 12.8308886, "tags": {"amenity": "pharmacy", "app:apple": "https://itunes.apple.com/se/app/apotek-hj%C3%A4rtat-n%C3%A4ra-dig/id1150817089", "app:google": "https://play.google.com/store/apps/details?id=com.presencekit.apotek.se&hl=en_US", "brand": "Apotek Hj\u00e4rtat", "dispensing": "yes", "name": "Apotek Hj\u00e4rtat", "opening_hours": "Mo-Fr 09:00-19:00; Sa 10:00-16:00; Su 11:00-16:00", "operator": "Apotek Hj\u00e4rtat Retail AB", "owner": "ICA Gruppen AB", "ownership": "private", "phone": "+46771405405", "website:stock": "https://www.fass.se/", "wheelchair": "yes"}}, {"type": "node", "id": 5227706727, "lat": 55.8705707, "lon": 12.8325498, "tags": {"addr:city": "Landskrona", "addr:country": "SE", "addr:housenumber": "17", "addr:postcode": "26131", "addr:street": "\u00d6stergatan", "amenity": "pharmacy", "app:apk": "se.apoteket.recept", "app:apple": "https://itunes.apple.com/se/app/mitt-apotek/id1053398061", "branch": "apoteket", "brand": "Apoteket", "level": "0", "name": "Apoteket", "opening_hours": "Mo-Fr 09:00-18:00; Sa 10:00-15:00", "operator": "Apoteket AB (556138-6532)", "owner": "Svenska Staten", "ownership": "national", "phone": "+46771450450", "website": "https://apoteket.se/", "website:stock": "https://www.fass.se/", "wheelchair": "yes"}}, {"type": "node", "id": 5598192647, "lat": 55.5951766, "lon": 12.9860308, "tags": {"addr:street": "V\u00e4stra R\u00f6nneholmsv\u00e4gen", "amenity": "dentist", "healthcare": "dentist", "name": "Folktandv\u00e5rden Sk\u00e5ne"}}, {"type": "node", "id": 5993571582, "lat": 55.8714709, "lon": 12.8335975, "tags": {"addr:street": "J\u00e4rnv\u00e4gsgatan", "amenity": "pharmacy", "check_date": "2023-11-28", "contact:website": "http://www.dozapotek.se", "dispensing": "yes", "drive_through": "no", "level": "0", "name": "Doz Apotek", "opening_hours": "Mo-Fr 10:00-18:00; Sa 10:00-15:00; Su off", "wheelchair": "yes"}}, {"type": "node", "id": 6034255206, "lat": 55.871917, "lon": 12.8338877, "tags": {"amenity": "clinic", "name": "Str\u00f6get's Fina F\u00f6tter"}}, {"type": "node", "id": 7038193633, "lat": 55.5871547, "lon": 12.9273273, "tags": {"amenity": "pharmacy", "brand": "Apoteket", "brand:wikidata": "Q1785637", "dispensing": "yes", "drive_through": "no", "healthcare": "pharmacy", "name": "Apoteket", "opening_hours": "Mo-Fr 09:00-18:00; Sa 09:00-15:00; Su off", "operator": "Apoteket AB", "wheelchair": "yes"}}, {"type": "node", "id": 7449297342, "lat": 55.8794456, "lon": 12.841537, "tags": {"amenity": "clinic", "check_date:opening_hours": "2022-05-20", "name": "V\u00e5rdcentralen Centrum", "opening_hours": "Mo-Fr 08:00-17:00; PH,Sa,Su 10:00-15:00"}}, {"type": "node", "id": 7449335312, "lat": 55.8779797, "lon": 12.8428327}, {"type": "node", "id": 7449335314, "lat": 55.8783758, "lon": 12.8422236}, {"type": "node", "id": 7449335315, "lat": 55.8785895, "lon": 12.8416041}, {"type": "node", "id": 7449335316, "lat": 55.8791973, "lon": 12.8416014}, {"type": "node", "id": 7454764170, "lat": 55.8771763, "lon": 12.8421332}, {"type": "node", "id": 7454764173, "lat": 55.877017, "lon": 12.8419812}, {"type": "node", "id": 7546177219, "lat": 55.8885056, "lon": 12.8251085, "tags": {"amenity": "pharmacy", "brand": "Apotek Hj\u00e4rtat", "brand:wikidata": "Q10416114", "brand:wikipedia": "sv:Apotek Hj\u00e4rtat", "healthcare": "pharmacy", "name": "Apotek Hj\u00e4rtat", "opening_hours": "Mo-Fr 08:30-17:30"}}, {"type": "node", "id": 7546177220, "lat": 55.8884468, "lon": 12.8251352, "tags": {"amenity": "dentist", "brand": "Folktandv\u00e5rden", "brand:wikidata": "Q10497476", "brand:wikipedia": "sv:Folktandv\u00e5rden", "name": "Folktandv\u00e5rden"}}, {"type": "node", "id": 7546177222, "lat": 55.8883725, "lon": 12.8251688, "tags": {"amenity": "clinic", "name": "V\u00e5rdcentralen Tornet"}}, {"type": "node", "id": 7600379143, "lat": 55.5890665, "lon": 12.9469076, "tags": {"amenity": "dentist", "healthcare": "dentist", "name": "Tandl\u00e4kare Bitte Widding"}}, {"type": "node", "id": 8595346910, "lat": 55.5978878, "lon": 12.97427, "tags": {"addr:city": "Malm\u00f6", "addr:country": "SE", "addr:housenumber": "94", "addr:street": "Regementsgatan", "amenity": "pharmacy", "dispensing": "yes", "drive_through": "no", "healthcare": "pharmacy", "name": "Regements Apotek", "opening_hours": "Mo-Fr 08:00-20:00; Sa 09:00-17:00", "wheelchair": "no"}}, {"type": "node", "id": 8794347103, "lat": 55.8734632, "lon": 12.8354945, "tags": {"addr:country": "SE", "addr:housenumber": "3B", "addr:street": "Sturegatan", "amenity": "dentist", "name": "Folktandv\u00e5rden Sk\u00e5ne", "opening_hours": "Mo-We 07:30-19:00; Th, Fr 07:30-16:00"}}, {"type": "node", "id": 8944868965, "lat": 55.5870241, "lon": 12.9276032, "tags": {"addr:city": "Limhamn", "addr:country": "SE", "addr:housenumber": "1", "addr:postcode": "216 12", "addr:street": "\u00d6v\u00e4gen", "amenity": "clinic", "healthcare": "clinic", "healthcare:speciality": "physiotherapy;paediatrics;psychiatry", "name": "V\u00e5rdcentralen Limhamn"}}, {"type": "node", "id": 9894560132, "lat": 55.5849323, "lon": 12.9753805, "tags": {"addr:city": "Malm\u00f6", "addr:country": "SE", "addr:housenumber": "65", "addr:postcode": "217 62", "addr:street": "Stadiongatan", "amenity": "dentist", "contact:email": "ptjdentalmalmo@ptj.se", "contact:phone": "+46 40 86 005", "healthcare": "dentist", "name": "PTJ Dental Malm\u00f6", "opening_hours": "Mo-Th 08:00-12:00, 13:00-16:30, Fr 08:00-12:00", "website": "https://www.ptj.se/ptjdental-malmo"}}, {"type": "node", "id": 10293687149, "lat": 55.8746761, "lon": 12.8323366, "tags": {"addr:city": "Landskrona", "addr:country": "SE", "addr:housenumber": "17", "addr:street": "S\u00e4bygatan", "amenity": "dentist", "contact:email": "landskrona@smile.se", "contact:phone": "+46 41-82 79 00", "contact:website": "https://www.smile.se/tandlakare/smile-landskrona/", "healthcare": "dentist", "name": "Smile Landskrona", "opening_hours": "Mo, We 07:30-18:00, Tu 07:30-16:00, Th 07:30-17:00, Fr 07:30-15:00", "operator": "Smile"}}, {"type": "node", "id": 10738188064, "lat": 55.5936358, "lon": 12.9700073, "tags": {"addr:city": "Malm\u00f6", "addr:country": "SE", "addr:housenumber": "44", "addr:street": "K\u00f6penhamnsv\u00e4gen", "amenity": "veterinary", "name": "AniCura Erikslust", "operator": "AniCura"}}, {"type": "node", "id": 10753036584, "lat": 55.5904253, "lon": 12.9616874, "tags": {"addr:city": "Malm\u00f6", "addr:country": "SE", "addr:housenumber": "46", "addr:postcode": "217 73", "addr:street": "Erikslustv\u00e4gen", "amenity": "dentist", "healthcare": "dentist", "name": "Stj\u00e4rntandl\u00e4karna"}}, {"type": "node", "id": 10754157989, "lat": 55.5807372, "lon": 12.9759006, "tags": {"amenity": "pharmacy", "brand": "Apotek Hj\u00e4rtat", "brand:wikidata": "Q10416114", "healthcare": "pharmacy", "name": "Apotek Hj\u00e4rtat"}}, {"type": "node", "id": 10754158034, "lat": 55.574061, "lon": 12.9312826, "tags": {"amenity": "pharmacy", "healthcare": "pharmacy", "name": "Limhamn Apotek"}}, {"type": "node", "id": 10754158036, "lat": 55.5685477, "lon": 12.9461424, "tags": {"amenity": "pharmacy", "branch": "Elineg\u00e5rd", "brand": "Apoteket", "brand:wikidata": "Q1785637", "healthcare": "pharmacy", "name": "Apoteket"}}, {"type": "node", "id": 10756727724, "lat": 55.5642015, "lon": 12.9739811, "tags": {"amenity": "pharmacy", "brand": "Apoteket", "brand:wikidata": "Q1785637", "healthcare": "pharmacy", "name": "Apoteket"}}, {"type": "node", "id": 10756727725, "lat": 55.5645177, "lon": 12.9733889, "tags": {"amenity": "pharmacy", "brand": "Apotek Hj\u00e4rtat", "brand:wikidata": "Q10416114", "healthcare": "pharmacy", "name": "Apotek Hj\u00e4rtat"}}, {"type": "node", "id": 11204920520, "lat": 55.5739656, "lon": 12.9306209, "tags": {"addr:city": "Limhamn", "addr:country": "SE", "addr:housenumber": "16", "addr:postcode": "216 16", "addr:street": "Ringugnsgatan", "amenity": "veterinary", "contact:facebook": "https://www.facebook.com/evidensialimhamn", "email": "veterinarkliniken.limhamn@evidensia.se", "name": "Evidensia", "opening_hours": "Mo-Fr 08:00-17:00", "phone": "+4640496160", "website": "https://evidensia.se/klinik/veterinarkliniken-limhamn/"}}, {"type": "node", "id": 11359121679, "lat": 55.8821223, "lon": 12.852623, "tags": {"addr:city": "Landskrona", "addr:housenumber": "3A", "addr:street": "J\u00e4rvgatan", "amenity": "dentist", "check_date": "2023-11-16", "email": "landskrona@folktandvardenskane.se", "healthcare": "dentist", "internet_access": "wlan", "internet_access:fee": "no", "level": "0", "name": "Folktandv\u00e5rden Sk\u00e5ne", "opening_hours": "Mo-Th 07:30-18:30; Fr 07:30-16:00", "wheelchair": "yes"}}, {"type": "way", "id": 28798923, "nodes": [316641180, 316641185, 316641186, 316641188, 316641184, 316641181, 316641180], "tags": {"addr:city": "Limhamn", "addr:country": "SE", "addr:housenumber": "58", "addr:postcode": "216 14", "addr:street": "Linn\u00e9gatan", "amenity": "dentist", "branch": "Sk\u00e5ne", "brand": "Folktandv\u00e5rden", "brand:wikidata": "Q10497476", "building": "yes", "check_date": "2022-10-29", "contact:website": "https://folktandvardenskane.se/kliniker/malmo-limhamn/", "email": "malmo.limhamn@folktandvardenskane.se", "healthcare": "dentist", "name": "Folktandv\u00e5rden Sk\u00e5ne", "opening_hours": "Mo-Tu 07:00-18:30; We-Th 07:00-17:00; Fr 07:00-16:00; \"Day before public holiday 07:00-16:00\"", "payment:cash": "no", "payment:mastercard": "yes", "payment:visa": "yes"}}, {"type": "way", "id": 132645778, "nodes": [1459039956, 1459039953, 3979385583, 3979385584, 1459039974, 1459039977, 1459039980, 1459039989, 1459039972, 1459039971, 1459039959, 1459039961, 1459039968, 1459039969, 1459039956], "tags": {"addr:city": "Limhamn", "addr:country": "SE", "addr:housenumber": "56", "addr:street": "J\u00e4rnv\u00e4gsgatan", "amenity": "clinic", "building": "yes", "healthcare": "clinic", "name": "Capio Citykliniken"}}, {"type": "way", "id": 247822846, "nodes": [2475838385, 538014296, 2475838357, 7454764170, 4313130824, 7454764173, 2475838342, 2475838335, 2475838330, 538014298, 2475838328, 559390697, 2475838329, 2475838338, 420777492, 420777551, 559390698, 420777552, 2475838348, 420777553, 2546824880, 2546824952, 2475838457, 2908074697, 2475838453, 7449335316, 7449335315, 7449335314, 7449335312, 2475838385], "tags": {"amenity": "hospital", "name": "Landskrona lasarett"}}]}