{"version": 0.6, "generator": "Overpass API 0.7.61.5 4133829e", "osm3s": {"timestamp_osm_base": "2024-03-08T21:11:44Z", "copyright": "The data included in this document is from www.openstreetmap.org. The data is made available under ODbL."}, "elements": [{"type": "node", "id": 254912492, "lat": 57.7793606, "lon": 14.1570439, "tags": {"amenity": "restaurant", "contact:phone": "+46-36-16 30 32", "name": "Evergreen Restaurang & Pizzeria"}}, {"type": "node", "id": 254970739, "lat": 57.7809898, "lon": 14.1590866, "tags": {"amenity": "restaurant", "created_by": "Potlatch 0.8a", "name": "True Thai"}}, {"type": "node", "id": 254971324, "lat": 57.7824523, "lon": 14.1710276, "tags": {"addr:city": "J\u00f6nk\u00f6ping", "addr:country": "SE", "addr:housenumber": "10", "addr:postcode": "553 21", "addr:street": "\u00d6stra Storgatan", "amenity": "restaurant", "contact:email": "jonkoping@cyrano.se", "contact:phone": "+46 367-70 12 00", "contact:website": "https://cyrano.se/Restaurant/Detail?Url=cyrano-jonkoping#web-footer-map", "cuisine": "pizza", "name": "Cyrano", "opening_hours": "Mo-Th 11:30-21:30, Fr 11:30-22:30, Sa 12:00-22:30, Su 12:00-21:00", "outdoor_seating": "yes", "payment:cash": "no", "payment:mastercard": "yes", "payment:visa": "yes", "takeaway": "yes", "website": "https://cyrano.se/Restaurant/Detail?Url=cyrano-jonkoping", "website:menu": "https://cyrano.se/Restaurant/Detail?Url=cyrano-jonkoping#mainmenucategory"}}, {"type": "node", "id": 303741497, "lat": 57.7832412, "lon": 14.1677491}, {"type": "node", "id": 303742161, "lat": 57.7821879, "lon": 14.1713313, "tags": {"amenity": "restaurant", "created_by": "Potlatch 0.10d", "name": "Lingon"}}, {"type": "node", "id": 303783767, "lat": 57.7807716, "lon": 14.1622032, "tags": {"amenity": "restaurant", "created_by": "Potlatch 0.10d", "diet:vegan": "yes", "diet:vegetarian": "yes", "name": "Liban Deli"}}, {"type": "node", "id": 312791543, "lat": 57.780995, "lon": 14.156755, "tags": {"addr:street": "Kapellgatan", "amenity": "restaurant", "created_by": "Potlatch 0.10f", "cuisine": "tapas", "name": "Anna-Gretas Bar & Mat", "outdoor_seating": "yes", "takeaway": "yes", "wheelchair": "limited"}}, {"type": "node", "id": 312791746, "lat": 57.7815171, "lon": 14.1623342, "tags": {"amenity": "restaurant", "created_by": "Potlatch 0.10f", "name": "Aqua Dinner & Drink"}}, {"type": "node", "id": 312791785, "lat": 57.7834872, "lon": 14.1626781, "tags": {"amenity": "restaurant", "cuisine": "burger", "name": "Bueno Burger"}}, {"type": "node", "id": 312791941, "lat": 57.7813706, "lon": 14.1718271, "tags": {"amenity": "restaurant", "created_by": "Potlatch 0.10f", "name": "Ester K\u00f6k & Bar", "wheelchair": "limited"}}, {"type": "node", "id": 312792171, "lat": 57.7835854, "lon": 14.163656, "tags": {"amenity": "restaurant", "created_by": "Potlatch 0.10f", "name": "Ztyle Bar & Matsal"}}, {"type": "node", "id": 312792309, "lat": 57.7823713, "lon": 14.1613268, "tags": {"amenity": "restaurant", "created_by": "Potlatch 0.10f", "name": "\u00c5tta Glas"}}, {"type": "node", "id": 312792594, "lat": 57.7821211, "lon": 14.1614673, "tags": {"amenity": "restaurant", "created_by": "Potlatch 0.10f", "name": "Jungle Thai"}}, {"type": "node", "id": 441799112, "lat": 57.7820011, "lon": 14.1697446}, {"type": "node", "id": 441800727, "lat": 57.7816117, "lon": 14.172356, "tags": {"addr:city": "J\u00f6nk\u00f6ping", "addr:country": "SE", "addr:housenumber": "5", "addr:postcode": "553 20", "addr:street": "Borgm\u00e4stargr\u00e4nd", "amenity": "cafe", "cuisine": "coffee_shop", "name": "Kaffeb\u00f6nan", "smoking": "no", "website": "http://www.kaffebonanjonkoping.com"}}, {"type": "node", "id": 441803325, "lat": 57.7816574, "lon": 14.1720127, "tags": {"amenity": "restaurant", "name": "La Dolce Vita"}}, {"type": "node", "id": 441804470, "lat": 57.7824603, "lon": 14.1629409, "tags": {"amenity": "restaurant", "name": "Loella Lebanese experience"}}, {"type": "node", "id": 441805008, "lat": 57.7821848, "lon": 14.1630474, "tags": {"amenity": "cafe", "name": "Konditori Napoleon", "opening_hours": "Mo-Fr 06:00-18:00; Sa 07:30-15:00; Su off"}}, {"type": "node", "id": 441805013, "lat": 57.7822051, "lon": 14.1643068, "tags": {"amenity": "cafe", "name": "Bernards Konditori"}}, {"type": "node", "id": 441805471, "lat": 57.7823563, "lon": 14.1717266, "tags": {"amenity": "cafe", "name": "Bernards City"}}, {"type": "node", "id": 441805539, "lat": 57.7839002, "lon": 14.1628434, "tags": {"amenity": "restaurant", "name": "Restaurang SOYA"}}, {"type": "node", "id": 441805540, "lat": 57.7834417, "lon": 14.1631326, "tags": {"amenity": "restaurant", "name": "Jensen's B\u00f8fhus", "payment:cash": "no", "payment:mastercard": "yes", "payment:visa": "yes"}}, {"type": "node", "id": 441806357, "lat": 57.7833002, "lon": 14.1619104, "tags": {"amenity": "cafe", "name": "Coffeehouse by George"}}, {"type": "node", "id": 441826768, "lat": 57.781209, "lon": 14.156898, "tags": {"addr:street": "Kapellgatan", "amenity": "restaurant", "cuisine": "indian", "diet:vegan": "yes", "diet:vegetarian": "yes", "name": "Indiska k\u00f6ket", "outdoor_seating": "yes", "takeaway": "yes", "wheelchair": "limited"}}, {"type": "node", "id": 441826875, "lat": 57.7805016, "lon": 14.1568689, "tags": {"amenity": "restaurant", "name": "Mat & V\u00e4nner"}}, {"type": "node", "id": 441830554, "lat": 57.7817514, "lon": 14.1568489, "tags": {"amenity": "restaurant", "name": "Smirres Gatuk\u00f6k"}}, {"type": "node", "id": 441830787, "lat": 57.7817581, "lon": 14.1554731, "tags": {"amenity": "cafe", "name": "Caf\u00e9 Pingst"}}, {"type": "node", "id": 441833272, "lat": 57.782385, "lon": 14.1616615, "tags": {"amenity": "restaurant", "name": "Bl\u00e5hed Gastronomi"}}, {"type": "node", "id": 441836955, "lat": 57.7798819, "lon": 14.1616186, "tags": {"amenity": "restaurant", "name": "En italienare & en grek"}}, {"type": "node", "id": 441849474, "lat": 57.7836388, "lon": 14.1697382, "tags": {"amenity": "restaurant", "name": "Trottoaren"}}, {"type": "node", "id": 461715581, "lat": 58.0284712, "lon": 14.4559721, "tags": {"amenity": "restaurant", "name": "Tzatziki"}}, {"type": "node", "id": 618836123, "lat": 57.8603072, "lon": 14.1234684, "tags": {"amenity": "cafe", "name": "Konditori Briljanten"}}, {"type": "node", "id": 623486637, "lat": 57.8671138, "lon": 13.9577523, "tags": {"amenity": "restaurant", "cuisine": "burger", "name": "Ljunga v\u00e4rdshus"}}, {"type": "node", "id": 699747611, "lat": 57.7833239, "lon": 14.162308, "tags": {"amenity": "cafe", "name": "Sandys", "source": "survey"}}, {"type": "node", "id": 699753783, "lat": 57.7839725, "lon": 14.1625147, "tags": {"amenity": "cafe", "name": "Graffiti Caf\u00e9", "source": "survey"}}, {"type": "node", "id": 800188372, "lat": 57.8217527, "lon": 14.2691603}, {"type": "node", "id": 828824219, "lat": 57.7847106, "lon": 14.169146, "tags": {"amenity": "restaurant", "name": "Dal Baffo"}}, {"type": "node", "id": 848956373, "lat": 57.78014, "lon": 14.1585642, "tags": {"amenity": "restaurant", "cuisine": "pizza", "name": "Campino"}}, {"type": "node", "id": 848956377, "lat": 57.7778888, "lon": 14.1560099, "tags": {"amenity": "restaurant", "cuisine": "italian", "name": "Tortellini"}}, {"type": "node", "id": 848956391, "lat": 57.7777179, "lon": 14.155907, "tags": {"amenity": "restaurant", "name": "Kock & Bar"}}, {"type": "node", "id": 848956406, "lat": 57.7768638, "lon": 14.1553528, "tags": {"amenity": "restaurant", "cuisine": "lebanese", "name": "Sambosak"}}, {"type": "node", "id": 848956415, "lat": 57.7781678, "lon": 14.15621, "tags": {"amenity": "restaurant", "cuisine": "chinese", "name": "1988 Beijing"}}, {"type": "node", "id": 855150749, "lat": 57.7828181, "lon": 14.1647247, "tags": {"amenity": "restaurant", "name": "Sm\u00e5l\u00e4ndska Kolonin"}}, {"type": "node", "id": 855153300, "lat": 57.7825508, "lon": 14.1617323, "tags": {"amenity": "restaurant", "name": "Tusen och en natt"}}, {"type": "node", "id": 889312071, "lat": 58.0226702, "lon": 14.467138, "tags": {"addr:city": "Gr\u00e4nna", "addr:country": "SE", "addr:housenumber": "41B", "addr:postcode": "56331", "addr:street": "Brahegatan", "amenity": "cafe", "cuisine": "ice_cream", "name": "Grenna Glass"}}, {"type": "node", "id": 1242580696, "lat": 57.7822167, "lon": 14.1442975}, {"type": "node", "id": 1242580702, "lat": 57.7822484, "lon": 14.1441275}, {"type": "node", "id": 1242580704, "lat": 57.7821879, "lon": 14.1445637}, {"type": "node", "id": 1242580705, "lat": 57.7820572, "lon": 14.1445139}, {"type": "node", "id": 1242580707, "lat": 57.7820858, "lon": 14.1442493}, {"type": "node", "id": 1242580715, "lat": 57.7820319, "lon": 14.1442288}, {"type": "node", "id": 1242580719, "lat": 57.7822295, "lon": 14.1443024}, {"type": "node", "id": 1242580722, "lat": 57.7820509, "lon": 14.1440524}, {"type": "node", "id": 1369673913, "lat": 58.0523723, "lon": 14.5079406, "tags": {"addr:city": "Gr\u00e4nna", "addr:postcode": "563 91", "amenity": "restaurant", "internet_access": "wlan", "name": "Restaurang Brahehus", "opening_hours": "Mo-Su 07:00-22:00", "source": "survey"}}, {"type": "node", "id": 1678170861, "lat": 57.7896217, "lon": 14.2751104, "tags": {"amenity": "restaurant", "cuisine": "chicken;kebab", "name": "Cicki Ma Ma"}}, {"type": "node", "id": 1678171977, "lat": 57.7906174, "lon": 14.2726232, "tags": {"amenity": "restaurant", "name": "La Rosa"}}, {"type": "node", "id": 1678174118, "lat": 57.7909118, "lon": 14.2717086, "tags": {"amenity": "restaurant", "cuisine": "international", "name": "Mackor & Macaroner"}}, {"type": "node", "id": 1678174322, "lat": 57.7896437, "lon": 14.2740099, "tags": {"amenity": "restaurant", "cuisine": "thai", "name": "East End"}}, {"type": "node", "id": 1678174413, "lat": 57.7894671, "lon": 14.274504, "tags": {"amenity": "restaurant", "cuisine": "thai", "name": "Wok och Thai Take away"}}, {"type": "node", "id": 1678177386, "lat": 57.787547, "lon": 14.278943, "tags": {"amenity": "restaurant", "cuisine": "regional", "name": "Stockmakaren"}}, {"type": "node", "id": 1779154802, "lat": 57.7845949, "lon": 14.1691313, "tags": {"amenity": "restaurant", "name": "Amadeus"}}, {"type": "node", "id": 1779154804, "lat": 57.7821159, "lon": 14.1737647, "tags": {"amenity": "cafe", "brand": "Espresso House", "brand:wikidata": "Q10489162", "brand:wikipedia": "sv:Espresso House", "cuisine": "coffee_shop", "diet:vegetarian": "yes", "drink:espresso": "served", "name": "Espresso House", "takeaway": "yes"}}, {"type": "node", "id": 1779154806, "lat": 57.7812735, "lon": 14.1722901, "tags": {"addr:city": "J\u00f6nk\u00f6ping", "addr:country": "SE", "addr:housenumber": "5", "addr:street": "Borgm\u00e4stargr\u00e4nd", "amenity": "restaurant", "capacity": "30", "cuisine": "chinese", "name": "Gamla Wok", "opening_hours": "Mo-Su 11:00-21:00", "outdoor_seating": "yes", "smoking": "outside", "takeaway": "yes", "website": "http://www.gamlawok.se"}}, {"type": "node", "id": 1811708339, "lat": 57.9090986, "lon": 14.0905399, "tags": {"addr:city": "Habo", "addr:country": "SE", "addr:housename": "V\u00e5rdcentrum", "addr:housenumber": "37", "addr:postcode": "566 31", "addr:street": "K\u00e4rrsv\u00e4gen", "amenity": "restaurant", "cuisine": "regional", "name": "Restaurang K\u00e4rrsliljan"}}, {"type": "node", "id": 1811726239, "lat": 57.9077406, "lon": 14.0748248, "tags": {"addr:city": "Habo", "addr:country": "SE", "addr:housenumber": "10", "addr:postcode": "566 31", "addr:street": "J\u00f6nk\u00f6pingsv\u00e4gen", "alt_name": "95:an", "amenity": "restaurant", "name": "Habo k\u00f6k & bar"}}, {"type": "node", "id": 1811765509, "lat": 57.9087127, "lon": 14.0745557, "tags": {"amenity": "cafe", "name": "Landhs Konditori"}}, {"type": "node", "id": 1819358579, "lat": 58.0285651, "lon": 14.4554221, "tags": {"amenity": "restaurant", "name": "Brasserie Bryggan"}}, {"type": "node", "id": 1819358623, "lat": 58.0285101, "lon": 14.4557284, "tags": {"amenity": "restaurant", "name": "R2"}}, {"type": "node", "id": 1819358676, "lat": 58.0285272, "lon": 14.45773, "tags": {"amenity": "cafe", "name": "Strandterassen"}}, {"type": "node", "id": 1820555077, "lat": 57.87578, "lon": 14.300822, "tags": {"amenity": "cafe"}}, {"type": "node", "id": 1835103198, "lat": 58.0232803, "lon": 14.4678721, "tags": {"addr:city": "Gr\u00e4nna", "addr:country": "SE", "addr:housenumber": "47", "addr:street": "Brahegatan", "amenity": "restaurant", "name": "Amalias Pub & Restaurant", "phone": "+46 390-10017", "source": "survey"}}, {"type": "node", "id": 1853285796, "lat": 57.7930186, "lon": 14.2758489, "tags": {"amenity": "restaurant", "contact:phone": "+46 36-144141", "cuisine": "pizza", "name": "Pizzeria Biblos", "takeaway": "yes"}}, {"type": "node", "id": 1867657190, "lat": 57.78288, "lon": 14.266031, "tags": {"amenity": "restaurant", "cuisine": "pizza", "name": "Pizzeria Majst\u00e5ngen"}}, {"type": "node", "id": 1867672691, "lat": 57.7794409, "lon": 14.2738335, "tags": {"amenity": "restaurant", "cuisine": "pizza", "name": "Pizzeria S\u00f6der"}}, {"type": "node", "id": 1874293996, "lat": 57.8503049, "lon": 14.0392373, "tags": {"amenity": "restaurant", "cuisine": "regional", "name": "Sand Golf club restaurang", "source": "http://www.sandgolfclub.se/svenska/restaurang/"}}, {"type": "node", "id": 1877345565, "lat": 57.921564, "lon": 13.880218, "tags": {"addr:housenumber": "13", "addr:postcode": "56531", "addr:street": "Bosebygdsv\u00e4gen", "amenity": "restaurant", "cuisine": "international", "name": "Bj\u00f6rkhaga", "source": "http://www.hotellbjorkhaga.se/index.html", "website": "http://www.hotellbjorkhaga.se/index.html"}}, {"type": "node", "id": 1877637720, "lat": 57.7850469, "lon": 14.1586732, "tags": {"addr:country": "SE", "addr:housenumber": "25", "addr:street": "Svavelsticksgr\u00e4nd", "amenity": "restaurant", "cuisine": "fish", "name": "Pescadores", "website": "https://www.pescadores.se/"}}, {"type": "node", "id": 1886410380, "lat": 57.9033115, "lon": 13.8621309, "tags": {"addr:country": "SE", "addr:housenumber": "1", "addr:postcode": "56591", "addr:street": "Bottnarydsv\u00e4gen", "amenity": "restaurant", "cuisine": "burger", "name": "VIP", "website": "https://www.vipmullsjo.se/"}}, {"type": "node", "id": 1955801336, "lat": 57.781301, "lon": 14.1618183, "tags": {"addr:city": "J\u00f6nk\u00f6ping", "addr:country": "SE", "addr:postcode": "553 16", "addr:street": "Brunnsgatan", "amenity": "cafe", "atm": "no", "drive_through": "no", "internet_access": "no", "name": "Lilla Malmborgs", "outdoor_seating": "yes", "smoking": "outside"}}, {"type": "node", "id": 1968380955, "lat": 57.914708, "lon": 13.8844872, "tags": {"addr:country": "SE", "addr:housenumber": "8", "addr:street": "Strandv\u00e4gen", "amenity": "cafe", "cuisine": "coffee_shop", "name": "Landhs caf\u00e9"}}, {"type": "node", "id": 1989019518, "lat": 57.7803, "lon": 14.157676, "tags": {"addr:country": "SE", "addr:housenumber": "15", "addr:street": "Klostergatan", "amenity": "restaurant", "cuisine": "regional", "name": "Piq-nick"}}, {"type": "node", "id": 1994496004, "lat": 57.7848457, "lon": 14.1576087, "tags": {"amenity": "restaurant", "cuisine": "regional", "name": "Tegel", "wheelchair": "yes"}}, {"type": "node", "id": 2173680644, "lat": 58.0181194, "lon": 14.4648544}, {"type": "node", "id": 2173680648, "lat": 58.0181363, "lon": 14.464757}, {"type": "node", "id": 2173680672, "lat": 58.0182472, "lon": 14.4649337}, {"type": "node", "id": 2173680675, "lat": 58.0182641, "lon": 14.4648363}, {"type": "node", "id": 2216447354, "lat": 57.7818312, "lon": 14.1640378, "tags": {"amenity": "restaurant", "diet:vegetarian": "only", "name": "Kaf\u00e9 Braheparken", "ref": "http://www.kafebraheparken.se/"}}, {"type": "node", "id": 2271410640, "lat": 57.7793764, "lon": 14.159859, "tags": {"addr:city": "J\u00f6nk\u00f6ping", "addr:country": "SE", "addr:housenumber": "9", "addr:postcode": "553 18", "addr:street": "Gjuterigatan", "amenity": "restaurant", "cuisine": "international", "delivery": "no", "name": "Sajens Mat & M\u00f6ten", "opening_hours": "Mo-Fr 07:45-16:00", "takeaway": "yes"}}, {"type": "node", "id": 2271413648, "lat": 57.7780921, "lon": 14.1583465, "tags": {"amenity": "restaurant", "cuisine": "indian", "name": "Tandori palace", "website": "https://www.tandooripalace.se/start.html"}}, {"type": "node", "id": 2271417149, "lat": 57.7837923, "lon": 14.1583358, "tags": {"amenity": "restaurant", "cuisine": "international", "name": "M\u00e4ster Gudmunds k\u00e4llare", "website": "https://mastergudmund.se/"}}, {"type": "node", "id": 2271417181, "lat": 57.7855825, "lon": 14.1565655, "tags": {"amenity": "cafe", "diet:vegetarian": "only", "name": "Nyfiket"}}, {"type": "node", "id": 2271417380, "lat": 57.7850963, "lon": 14.1573166, "tags": {"amenity": "bar", "name": "Bongo bar"}}, {"type": "node", "id": 2271767086, "lat": 57.7815059, "lon": 14.1700697, "tags": {"amenity": "restaurant", "cuisine": "tapas", "name": "Neo", "smoking": "no", "wheelchair": "yes"}}, {"type": "node", "id": 2271775753, "lat": 57.783375, "lon": 14.163966, "tags": {"amenity": "restaurant", "cuisine": "tapas", "name": "Vinotek & Tapasbar", "outdoor_seating": "no"}}, {"type": "node", "id": 2271777951, "lat": 57.7832512, "lon": 14.1617032, "tags": {"amenity": "restaurant", "name": "Texas Longhorn"}}, {"type": "node", "id": 2271779824, "lat": 57.783123, "lon": 14.162145, "tags": {"amenity": "cafe", "name": "Caf\u00e9 Adelante"}}, {"type": "node", "id": 2490596817, "lat": 58.0526986, "lon": 14.3457964}, {"type": "node", "id": 2490596833, "lat": 58.0527486, "lon": 14.345604}, {"type": "node", "id": 2490596837, "lat": 58.0528854, "lon": 14.345731}, {"type": "node", "id": 2490596931, "lat": 58.0526734, "lon": 14.3459741}, {"type": "node", "id": 2490597309, "lat": 58.0527933, "lon": 14.3460854}, {"type": "node", "id": 2490597358, "lat": 58.0527155, "lon": 14.3458121}, {"type": "node", "id": 2573549025, "lat": 57.781332, "lon": 14.1707198, "tags": {"amenity": "cafe", "cuisine": "coffee_shop", "internet_access": "no", "name": "Bryggan cafe & bistro"}}, {"type": "node", "id": 2639158945, "lat": 58.1823177, "lon": 13.9585586, "tags": {"amenity": "restaurant", "name": "Pizzeria Happy time"}}, {"type": "node", "id": 2742945462, "lat": 57.7778398, "lon": 14.1622719, "tags": {"addr:city": "J\u00f6nk\u00f6ping", "addr:country": "SE", "addr:housenumber": "5", "addr:postcode": "553 18", "addr:street": "Gjuterigatan", "amenity": "restaurant", "name": "Taste of Beirut"}}, {"type": "node", "id": 2742945476, "lat": 57.7789767, "lon": 14.1635513, "tags": {"addr:city": "J\u00f6nk\u00f6ping", "addr:country": "SE", "addr:housenumber": "5", "addr:postcode": "553 18", "addr:street": "Gjuterigatan", "amenity": "cafe", "name": "Rio"}}, {"type": "node", "id": 2758099681, "lat": 57.78528, "lon": 14.1575755, "tags": {"addr:city": "J\u00f6nk\u00f6ping", "addr:country": "SE", "addr:housenumber": "17", "addr:postcode": "55315", "addr:street": "Svavelsticksgr\u00e4nd", "amenity": "bar", "name": "Akademien", "opening_hours": "We 21:00-02:00", "phone": "+4670-766 62 45", "smoking": "outside", "source": "https://www.facebook.com/akademien/info", "wheelchair": "limited"}}, {"type": "node", "id": 3325203336, "lat": 58.1789517, "lon": 13.6879664}, {"type": "node", "id": 3325203347, "lat": 58.179121, "lon": 13.6877811}, {"type": "node", "id": 3325203348, "lat": 58.1790577, "lon": 13.6879589}, {"type": "node", "id": 3434225155, "lat": 58.1790543, "lon": 13.6877858}, {"type": "node", "id": 3444650433, "lat": 58.1812101, "lon": 13.9577983, "tags": {"amenity": "restaurant", "name": "Gr\u00e4nden", "source": "survey", "website": "www.grandentidaholm.com"}}, {"type": "node", "id": 3579000235, "lat": 57.7814844, "lon": 14.1856527, "tags": {"amenity": "restaurant", "cuisine": "italian", "name": "Dal Baffo", "website": "https://dalbaffo.kvartersmenyn.se/"}}, {"type": "node", "id": 3660236454, "lat": 57.7870483, "lon": 14.2176716, "tags": {"amenity": "restaurant", "internet_access": "wlan", "operator": "J\u00f6nk\u00f6ping SweCamp Villa Bj\u00f6rkhagen", "outdoor_seating": "yes"}}, {"type": "node", "id": 4121893525, "lat": 57.8012193, "lon": 14.2720726}, {"type": "node", "id": 4121893526, "lat": 57.8011577, "lon": 14.272043}, {"type": "node", "id": 4121893527, "lat": 57.8011278, "lon": 14.2722626}, {"type": "node", "id": 4121893528, "lat": 57.8011894, "lon": 14.2722922}, {"type": "node", "id": 4121893554, "lat": 57.8222305, "lon": 14.2685129}, {"type": "node", "id": 4121893555, "lat": 57.8217341, "lon": 14.2685637}, {"type": "node", "id": 4121893557, "lat": 57.8223005, "lon": 14.2688685}, {"type": "node", "id": 4239851929, "lat": 58.1784857, "lon": 13.9586012, "tags": {"addr:city": "Tidaholm", "addr:country": "SE", "addr:housenumber": "1", "addr:postcode": "52230", "addr:street": "Vulcans v\u00e4g", "amenity": "restaurant", "name": "Vin Contoret"}}, {"type": "node", "id": 4382100200, "lat": 57.7807685, "lon": 14.1725475, "tags": {"amenity": "cafe", "name": "Bernards", "opening_hours": "Mo-Fr 07:30-19:30; Sa 07:30-17:00; Su 09:00-16:00"}}, {"type": "node", "id": 4936776421, "lat": 58.0183418, "lon": 14.3225967, "tags": {"addr:country": "SE", "addr:housenumber": "2", "addr:postcode": "560 34", "addr:street": "Stigby Persg\u00e5rd", "amenity": "cafe", "email": "info@persgarden.se", "internet_access": "wlan", "name": "Persg\u00e5rden", "opening_hours": "Mo-Su 10:00-17:00", "phone": "+46 390-40156", "website": "https://www.persgarden.se/"}}, {"type": "node", "id": 5156862728, "lat": 57.7832216, "lon": 14.1681275}, {"type": "node", "id": 5156862729, "lat": 57.7832396, "lon": 14.1679293}, {"type": "node", "id": 5156862730, "lat": 57.7832073, "lon": 14.1681229}, {"type": "node", "id": 5156862731, "lat": 57.7832253, "lon": 14.1679247}, {"type": "node", "id": 5156862732, "lat": 57.7830578, "lon": 14.1680792}, {"type": "node", "id": 5156862733, "lat": 57.7830547, "lon": 14.1681135}, {"type": "node", "id": 5156862734, "lat": 57.7830314, "lon": 14.1678211}, {"type": "node", "id": 5156862735, "lat": 57.7830094, "lon": 14.1680637}, {"type": "node", "id": 5156862736, "lat": 57.7830751, "lon": 14.16812}, {"type": "node", "id": 5156862737, "lat": 57.7831002, "lon": 14.1678431}, {"type": "node", "id": 5156862738, "lat": 57.78311, "lon": 14.167736}, {"type": "node", "id": 5156862739, "lat": 57.7830651, "lon": 14.1682301}, {"type": "node", "id": 5156862740, "lat": 57.7830947, "lon": 14.1682395}, {"type": "node", "id": 5156862741, "lat": 57.7831396, "lon": 14.1677454}, {"type": "node", "id": 5156862742, "lat": 57.7831421, "lon": 14.1677174}, {"type": "node", "id": 5156862743, "lat": 57.7830928, "lon": 14.1682606}, {"type": "node", "id": 5156862744, "lat": 57.7831919, "lon": 14.1682922}, {"type": "node", "id": 5379426781, "lat": 57.7928673, "lon": 14.2698251, "tags": {"amenity": "cafe", "name": "Gustavs Konditori"}}, {"type": "node", "id": 5432876269, "lat": 57.914748, "lon": 13.6907726, "tags": {"amenity": "cafe", "name": "EJ Farm Glassfabrik", "phone": "+46708917181", "website": "http://www.ejfarm.se/"}}, {"type": "node", "id": 5652599677, "lat": 57.7915277, "lon": 14.2606765, "tags": {"addr:city": "Huskvarna", "addr:country": "SE", "addr:housenumber": "156", "addr:postcode": "561 32", "addr:street": "Huskvarnav\u00e4gen", "amenity": "restaurant", "cuisine": "vietnamese", "name": "VietNamNam restaurang", "website": "http://www.restaurangvietnamnam.se/"}}, {"type": "node", "id": 5652790033, "lat": 57.8219168, "lon": 14.2691422}, {"type": "node", "id": 5652790034, "lat": 57.8219423, "lon": 14.2690915}, {"type": "node", "id": 5652790035, "lat": 57.821938, "lon": 14.2688881}, {"type": "node", "id": 5652790040, "lat": 57.8222952, "lon": 14.268628}, {"type": "node", "id": 5652790041, "lat": 57.8222331, "lon": 14.2686328}, {"type": "node", "id": 5660372423, "lat": 58.1811115, "lon": 13.9641187, "tags": {"amenity": "cafe", "name": "Kaffestugan"}}, {"type": "node", "id": 5777667008, "lat": 58.1790512, "lon": 13.6876231}, {"type": "node", "id": 5777667009, "lat": 58.1791178, "lon": 13.6876184}, {"type": "node", "id": 5777667010, "lat": 58.1790478, "lon": 13.6874533}, {"type": "node", "id": 5777667011, "lat": 58.1789418, "lon": 13.6874608}, {"type": "node", "id": 5864419943, "lat": 57.7815024, "lon": 14.1886416, "tags": {"amenity": "cafe", "ele": "89.22", "source": "survey"}}, {"type": "node", "id": 5909531626, "lat": 58.061968, "lon": 14.4991744, "tags": {"addr:city": "Gr\u00e4nna", "addr:country": "SE", "addr:housenumber": "3", "addr:postcode": "563 91", "addr:street": "Uppgr\u00e4nna G\u00e4stgivareg\u00e5rd", "amenity": "cafe", "description": "Eco caf\u00e9", "name": "Uppgrenna naturhus", "outdoor_seating": "yes", "website": "https://uppgrennanaturhus.se/"}}, {"type": "node", "id": 6001215190, "lat": 57.7808789, "lon": 14.1577131, "tags": {"amenity": "restaurant", "cuisine": "burger", "name": "Rob's burger & steak"}}, {"type": "node", "id": 6092672200, "lat": 58.1789469, "lon": 13.6876637, "tags": {"entrance": "main"}}, {"type": "node", "id": 6268173589, "lat": 57.7849335, "lon": 14.1571249, "tags": {"addr:city": "J\u00f6nk\u00f6ping", "addr:country": "SE", "addr:housenumber": "8", "addr:postcode": "55315", "addr:street": "T\u00e4ndsticksgr\u00e4nd", "amenity": "restaurant", "cuisine": "steak_house", "name": "Blackstone Steakhouse", "opening_hours": "Tu-Sa 17:00-24:00"}}, {"type": "node", "id": 6441028846, "lat": 58.0982467, "lon": 14.0748431, "tags": {"amenity": "restaurant"}}, {"type": "node", "id": 6549504291, "lat": 57.9360641, "lon": 14.491723, "tags": {"amenity": "restaurant", "cuisine": "regional", "name": "BauerG\u00e5rden", "outdoor_seating": "yes", "source": "survey", "website": "https://bauergarden.se/"}}, {"type": "node", "id": 6564828673, "lat": 58.0228314, "lon": 14.4673069, "tags": {"addr:city": "Gr\u00e4nna", "addr:country": "SE", "addr:housenumber": "43", "addr:postcode": "563 32", "addr:street": "Brahegatan", "amenity": "cafe", "name": "Fiket", "outdoor_seating": "yes", "payment:cash": "yes", "payment:mastercard": "yes", "payment:visa": "yes", "source": "survey", "website": "https://fiket.se/"}}, {"type": "node", "id": 6631461316, "lat": 58.0845422, "lon": 13.8870341, "tags": {"amenity": "cafe", "name": "Caf\u00e9 Kvarnen", "website": "https://cafekvarnen.se"}}, {"type": "node", "id": 6661454485, "lat": 57.7805397, "lon": 14.1716117, "tags": {"amenity": "restaurant", "name": "Ciro"}}, {"type": "node", "id": 6661454585, "lat": 57.7811337, "lon": 14.1714151, "tags": {"amenity": "restaurant", "name": "Vue"}}, {"type": "node", "id": 6681503873, "lat": 57.9153887, "lon": 14.3740224, "tags": {"amenity": "cafe", "name": "Fl\u00e4ttinge G\u00e5rdscaf\u00e9"}}, {"type": "node", "id": 7023225152, "lat": 57.916281, "lon": 13.8786536, "tags": {"amenity": "restaurant", "name": "Amigo Pizzeria", "phone": "+46 392 13366"}}, {"type": "node", "id": 7201283142, "lat": 57.7814424, "lon": 14.1622685, "tags": {"addr:city": "J\u00f6nk\u00f6ping", "addr:country": "SE", "addr:housenumber": "30", "addr:postcode": "553 16", "addr:street": "Barnarpsgatan", "amenity": "restaurant", "cuisine": "sushi", "name": "Sushi Yama", "opening_hours": "Mo-Sa 11:00-21:00; Su 12:00-21:00", "phone": "+46 36 12 88 00", "website": "https://www.sushiyama.se/"}}, {"type": "node", "id": 7256611598, "lat": 57.782418, "lon": 14.206243}, {"type": "node", "id": 7256611599, "lat": 57.7823198, "lon": 14.2062731}, {"type": "node", "id": 7256611600, "lat": 57.7823683, "lon": 14.2068287}, {"type": "node", "id": 7256611601, "lat": 57.7824665, "lon": 14.2067985}, {"type": "node", "id": 7596244778, "lat": 57.7823919, "lon": 14.1694906, "tags": {"amenity": "cafe", "name": "Frimans Caf\u00e9 & Bistro"}}, {"type": "node", "id": 7765214767, "lat": 58.0431859, "lon": 14.3381122, "tags": {"amenity": "restaurant", "cuisine": "thai", "name": "Talay Thai", "opening_hours": "Mo-Su 12:00-22:00", "outdoor_seating": "garden", "website": "https://talaythai.se/"}}, {"type": "node", "id": 7775553085, "lat": 57.7814758, "lon": 14.1804449, "tags": {"amenity": "restaurant", "cuisine": "sushi", "name": "Samurai sushi bar"}}, {"type": "node", "id": 8219370159, "lat": 58.1776089, "lon": 14.162245, "tags": {"amenity": "cafe", "name": "Bisonfarmen i Gate"}}, {"type": "node", "id": 8300001720, "lat": 57.7945779, "lon": 14.1353882, "tags": {"amenity": "restaurant", "name": "Restaurang Fj\u00e4llstugan"}}, {"type": "node", "id": 8322225781, "lat": 57.7809558, "lon": 14.166964}, {"type": "node", "id": 8333962746, "lat": 57.7810217, "lon": 14.1666125}, {"type": "node", "id": 8333962747, "lat": 57.7810482, "lon": 14.1664715}, {"type": "node", "id": 8333962748, "lat": 57.7810503, "lon": 14.1664603}, {"type": "node", "id": 8333962749, "lat": 57.7808029, "lon": 14.1662971}, {"type": "node", "id": 8333962751, "lat": 57.780875, "lon": 14.1669115}, {"type": "node", "id": 8335722734, "lat": 57.7807617, "lon": 14.1665165}, {"type": "node", "id": 8335722735, "lat": 57.7806674, "lon": 14.1667741}, {"type": "node", "id": 8335722736, "lat": 57.7807207, "lon": 14.1664894}, {"type": "node", "id": 8335722752, "lat": 57.7807679, "lon": 14.1664837, "tags": {"entrance": "yes"}}, {"type": "node", "id": 8341464283, "lat": 57.7823698, "lon": 14.2062578, "tags": {"amenity": "toilets"}}, {"type": "node", "id": 8349138137, "lat": 57.8538793, "lon": 14.1275144}, {"type": "node", "id": 8349138138, "lat": 57.8537423, "lon": 14.1275282}, {"type": "node", "id": 8349138139, "lat": 57.8537368, "lon": 14.1273329}, {"type": "node", "id": 8349138140, "lat": 57.8538073, "lon": 14.1273259}, {"type": "node", "id": 8349138141, "lat": 57.853809, "lon": 14.1273875}, {"type": "node", "id": 8373325519, "lat": 57.7820036, "lon": 14.1695905}, {"type": "node", "id": 8373325520, "lat": 57.7820061, "lon": 14.1695624}, {"type": "node", "id": 8373325521, "lat": 57.7820186, "lon": 14.1695251}, {"type": "node", "id": 8373325522, "lat": 57.7820708, "lon": 14.1694223}, {"type": "node", "id": 8373325523, "lat": 57.7820791, "lon": 14.1694028}, {"type": "node", "id": 8373325524, "lat": 57.7820823, "lon": 14.1693818}, {"type": "node", "id": 8373325525, "lat": 57.7820773, "lon": 14.1693631}, {"type": "node", "id": 8373325526, "lat": 57.7820711, "lon": 14.1693573}, {"type": "node", "id": 8373325527, "lat": 57.7820605, "lon": 14.1693538}, {"type": "node", "id": 8373325528, "lat": 57.7820499, "lon": 14.1693526}, {"type": "node", "id": 8373325529, "lat": 57.7820462, "lon": 14.1693281}, {"type": "node", "id": 8373325530, "lat": 57.782043, "lon": 14.1693141}, {"type": "node", "id": 8373325531, "lat": 57.7820325, "lon": 14.1693024}, {"type": "node", "id": 8373325532, "lat": 57.7820237, "lon": 14.1693013}, {"type": "node", "id": 8373325533, "lat": 57.7820125, "lon": 14.1693071}, {"type": "node", "id": 8373325534, "lat": 57.7820026, "lon": 14.1693234}, {"type": "node", "id": 8373325535, "lat": 57.7819995, "lon": 14.1693421}, {"type": "node", "id": 8373325536, "lat": 57.7819951, "lon": 14.1693585}, {"type": "node", "id": 8373325537, "lat": 57.781987, "lon": 14.1693678}, {"type": "node", "id": 8373325538, "lat": 57.7819783, "lon": 14.1693713}, {"type": "node", "id": 8373325539, "lat": 57.7819702, "lon": 14.1693725}, {"type": "node", "id": 8373325540, "lat": 57.7819615, "lon": 14.1693795}, {"type": "node", "id": 8373325541, "lat": 57.7819584, "lon": 14.1694005}, {"type": "node", "id": 8373325542, "lat": 57.7819627, "lon": 14.169425}, {"type": "node", "id": 8373325543, "lat": 57.7819677, "lon": 14.1694542}, {"type": "node", "id": 8373325544, "lat": 57.7819683, "lon": 14.1694729}, {"type": "node", "id": 8373325545, "lat": 57.7819671, "lon": 14.1694857}, {"type": "node", "id": 8373325546, "lat": 57.7819266, "lon": 14.1696468}, {"type": "node", "id": 8373325547, "lat": 57.7819217, "lon": 14.1696632}, {"type": "node", "id": 8373325548, "lat": 57.7819111, "lon": 14.1696714}, {"type": "node", "id": 8373325549, "lat": 57.7819036, "lon": 14.1696737}, {"type": "node", "id": 8373325550, "lat": 57.7818955, "lon": 14.1696772}, {"type": "node", "id": 8373325551, "lat": 57.7818918, "lon": 14.1696865}, {"type": "node", "id": 8373325552, "lat": 57.7818899, "lon": 14.1697052}, {"type": "node", "id": 8373325553, "lat": 57.7818899, "lon": 14.1697251}, {"type": "node", "id": 8373325554, "lat": 57.781893, "lon": 14.1697391}, {"type": "node", "id": 8373325555, "lat": 57.7818993, "lon": 14.1697566}, {"type": "node", "id": 8373325556, "lat": 57.7819049, "lon": 14.1697683}, {"type": "node", "id": 8373325557, "lat": 57.7819142, "lon": 14.1697776}, {"type": "node", "id": 8373325558, "lat": 57.7819242, "lon": 14.1697858}, {"type": "node", "id": 8373325559, "lat": 57.7819372, "lon": 14.1697916}, {"type": "node", "id": 8373325560, "lat": 57.7819746, "lon": 14.1697916}, {"type": "node", "id": 8373325561, "lat": 57.7819858, "lon": 14.1697846}, {"type": "node", "id": 8373325562, "lat": 57.7819945, "lon": 14.1697729}, {"type": "node", "id": 8373325563, "lat": 57.7820001, "lon": 14.1697578}, {"type": "node", "id": 8968668143, "lat": 57.7803229, "lon": 14.171556, "tags": {"addr:country": "SE", "addr:housenumber": "14", "addr:street": "lillsj\u00f6raden", "amenity": "restaurant", "name": "Bada Bing Burger", "opening_hours": "Mo-Su 11:00-22:00", "phone": "+46 36 31 03 39", "website": "https://badabingburger.se/atollen"}}, {"type": "node", "id": 8968792217, "lat": 57.7801959, "lon": 14.1715551, "tags": {"amenity": "restaurant", "name": "El gordo"}}, {"type": "node", "id": 8975256101, "lat": 57.8578797, "lon": 14.12172}, {"type": "node", "id": 8975256102, "lat": 57.8575952, "lon": 14.1214166}, {"type": "node", "id": 8975256103, "lat": 57.857582, "lon": 14.1214603}, {"type": "node", "id": 8975256104, "lat": 57.8574202, "lon": 14.1212876}, {"type": "node", "id": 8975256105, "lat": 57.8573731, "lon": 14.1214437}, {"type": "node", "id": 8975256106, "lat": 57.8578193, "lon": 14.1219198}, {"type": "node", "id": 8975299521, "lat": 57.8611518, "lon": 14.1243203, "tags": {"amenity": "restaurant", "cuisine": "pizza", "name": "Villa Vesuvio"}}, {"type": "node", "id": 8975299594, "lat": 57.8612199, "lon": 14.1242682}, {"type": "node", "id": 8975299595, "lat": 57.8612092, "lon": 14.1242578}, {"type": "node", "id": 8975299596, "lat": 57.861218, "lon": 14.1242256}, {"type": "node", "id": 8975299597, "lat": 57.8611834, "lon": 14.1241921}, {"type": "node", "id": 8975299598, "lat": 57.8611719, "lon": 14.124234}, {"type": "node", "id": 8975299599, "lat": 57.8611406, "lon": 14.1242037}, {"type": "node", "id": 8975299600, "lat": 57.8610919, "lon": 14.1243811}, {"type": "node", "id": 8975299601, "lat": 57.8611686, "lon": 14.1244554}, {"type": "node", "id": 8975299602, "lat": 57.8611287, "lon": 14.1240592}, {"type": "node", "id": 8975299603, "lat": 57.8610282, "lon": 14.1239558}, {"type": "node", "id": 8975299604, "lat": 57.8610879, "lon": 14.1237507}, {"type": "node", "id": 8975299605, "lat": 57.8611627, "lon": 14.1238277}, {"type": "node", "id": 8975299606, "lat": 57.861139, "lon": 14.123909}, {"type": "node", "id": 8975299607, "lat": 57.8611642, "lon": 14.1239349}, {"type": "node", "id": 8975299608, "lat": 57.861158, "lon": 14.123956}, {"type": "node", "id": 8975299609, "lat": 57.861174, "lon": 14.1239725}, {"type": "node", "id": 8975299610, "lat": 57.8611543, "lon": 14.1240403}, {"type": "node", "id": 8975299611, "lat": 57.8611388, "lon": 14.1240244}, {"type": "node", "id": 8983385525, "lat": 57.7814511, "lon": 14.1611371, "tags": {"addr:city": "J\u00f6nk\u00f6ping", "addr:country": "SE", "addr:housenumber": "25", "addr:postcode": "553 16", "addr:street": "Tr\u00e4dg\u00e5rdsgatan", "amenity": "cafe", "cuisine": "crepes;waffle;juice;smoothie;smoothies;crepe;ice_cream;gelato", "internet_access": "yes", "internet_access:fee": "no", "internet_access:ssid": "Lemon Garden WIFI", "name": "Lemon Garden JKPG", "opening_hours": "Mo-Su 12:00-23:00", "outdoor_seating": "yes", "phone": "036-46655", "website": "Lemongarden.se"}}, {"type": "node", "id": 9014324296, "lat": 57.7832349, "lon": 14.1678184}, {"type": "node", "id": 9063103402, "lat": 58.0218046, "lon": 14.4656964, "tags": {"amenity": "cafe", "name": "Hallska G\u00e5rden"}}, {"type": "node", "id": 9085443391, "lat": 57.7821999, "lon": 14.1611163, "tags": {"addr:city": "J\u00f6nk\u00f6ping", "addr:country": "SE", "addr:housenumber": "18", "addr:postcode": "553 16", "addr:street": "Nygatan", "air_conditioning": "yes", "amenity": "restaurant", "cuisine": "arabic;middle_eastern;kebab;pasta", "delivery": "yes", "name": "Hayat D\u00f6ner & Pasta", "opening_hours": "Mo-Th 11:00-22:00; Fr 11:00-03:00; Sa 12:00-03:00; Su 13:00-22:00;", "phone": "+4636162525", "takeaway": "yes", "website": "https://www.instagram.com/hayatdonerjkpg/", "wheelchair": "yes"}}, {"type": "node", "id": 9465912027, "lat": 57.7843439, "lon": 14.1690885, "tags": {"amenity": "restaurant", "indoor_seating": "no", "name": "Piren", "outdoor_seating": "no", "takeaway": "only"}}, {"type": "node", "id": 9904688862, "lat": 57.9154832, "lon": 13.8820978, "tags": {"amenity": "restaurant", "cuisine": "sushi", "name": "Sushi N\u00e4ra"}}, {"type": "node", "id": 9904700851, "lat": 57.9155526, "lon": 13.8828437, "tags": {"addr:country": "SE", "addr:housenumber": "29", "addr:street": "J\u00e4rnv\u00e4gsgatan", "amenity": "restaurant", "cuisine": "pizza", "name": "Viking"}}, {"type": "node", "id": 9922240518, "lat": 57.8538755, "lon": 14.1273808}, {"type": "node", "id": 9974758016, "lat": 57.8000961, "lon": 13.6996418}, {"type": "node", "id": 9974763117, "lat": 57.7999309, "lon": 13.7003946}, {"type": "node", "id": 9974763118, "lat": 57.7998579, "lon": 13.7003381}, {"type": "node", "id": 9974763119, "lat": 57.800023, "lon": 13.6995853}, {"type": "node", "id": 10002249402, "lat": 58.0282138, "lon": 14.4566394}, {"type": "node", "id": 10002249403, "lat": 58.0283438, "lon": 14.4568927}, {"type": "node", "id": 10002249404, "lat": 58.0284448, "lon": 14.4567078}, {"type": "node", "id": 10002249405, "lat": 58.0283148, "lon": 14.4564544}, {"type": "node", "id": 10002253618, "lat": 58.0285329, "lon": 14.4570639}, {"type": "node", "id": 10002253619, "lat": 58.028631, "lon": 14.4572163}, {"type": "node", "id": 10002253620, "lat": 58.0286735, "lon": 14.4571186}, {"type": "node", "id": 10002253621, "lat": 58.0285754, "lon": 14.4569662}, {"type": "node", "id": 10002253668, "lat": 58.0294966, "lon": 14.4585934}, {"type": "node", "id": 10002253669, "lat": 58.0297094, "lon": 14.458795}, {"type": "node", "id": 10002253670, "lat": 58.0297235, "lon": 14.4587419}, {"type": "node", "id": 10002253671, "lat": 58.0297767, "lon": 14.4587923}, {"type": "node", "id": 10002253672, "lat": 58.0298079, "lon": 14.4586747}, {"type": "node", "id": 10002253673, "lat": 58.029542, "lon": 14.4584226}, {"type": "node", "id": 10002253674, "lat": 58.029507, "lon": 14.4585567}, {"type": "node", "id": 10002253677, "lat": 58.0295182, "lon": 14.4585117}, {"type": "node", "id": 10004051517, "lat": 57.7824511, "lon": 14.1742334, "tags": {"amenity": "restaurant", "name": "STUK"}}, {"type": "node", "id": 10004716717, "lat": 57.782686, "lon": 14.1645984, "tags": {"amenity": "restaurant", "name": "Park Brasserie"}}, {"type": "node", "id": 10124884110, "lat": 57.8219961, "lon": 14.2683969}, {"type": "node", "id": 10124884111, "lat": 57.8220281, "lon": 14.2683563}, {"type": "node", "id": 10124884112, "lat": 57.8220686, "lon": 14.2683552}, {"type": "node", "id": 10124884113, "lat": 57.8221068, "lon": 14.2683774}, {"type": "node", "id": 10124884114, "lat": 57.8219803, "lon": 14.2685366}, {"type": "node", "id": 10124884115, "lat": 57.8221818, "lon": 14.2684639}, {"type": "node", "id": 10124884116, "lat": 57.8221324, "lon": 14.2684677}, {"type": "node", "id": 10124884117, "lat": 57.8221222, "lon": 14.268411}, {"type": "node", "id": 10124884118, "lat": 57.8219886, "lon": 14.2684235}, {"type": "node", "id": 10124884119, "lat": 57.8220086, "lon": 14.2683735}, {"type": "node", "id": 10124884120, "lat": 57.8220889, "lon": 14.2683547}, {"type": "node", "id": 10124884121, "lat": 57.8220511, "lon": 14.2683557}, {"type": "node", "id": 10124884122, "lat": 57.8219768, "lon": 14.2684248}, {"type": "node", "id": 10124884123, "lat": 57.8221829, "lon": 14.2685165}, {"type": "node", "id": 10124884124, "lat": 57.8221312, "lon": 14.2684103}, {"type": "node", "id": 10124884125, "lat": 57.8222449, "lon": 14.2688728}, {"type": "node", "id": 10124884126, "lat": 57.8222452, "lon": 14.2688852}, {"type": "node", "id": 10124884127, "lat": 57.8221123, "lon": 14.2689279}, {"type": "node", "id": 10124884128, "lat": 57.8221117, "lon": 14.2688952}, {"type": "node", "id": 10124884129, "lat": 57.8220496, "lon": 14.2689325}, {"type": "node", "id": 10124884130, "lat": 57.8220485, "lon": 14.2688799}, {"type": "node", "id": 10124884140, "lat": 57.8222992, "lon": 14.2688113}, {"type": "node", "id": 10124884141, "lat": 57.8217461, "lon": 14.2689499}, {"type": "node", "id": 10220597317, "lat": 57.7824076, "lon": 14.1714913, "tags": {"addr:city": "J\u00f6nk\u00f6ping", "addr:country": "SE", "addr:housenumber": "12", "addr:postcode": "553 21", "addr:street": "\u00d6stra Storgatan", "amenity": "restaurant", "bar": "yes", "contact:email": "jonkoping.city@brodernas.nu", "contact:phone": "+46 36-400 90", "contact:website": "https://brodernas.nu/kontakta-oss/", "cuisine": "burger", "name": "Br\u00f6dernas J\u00f6nk\u00f6ping City", "opening_hours": "Mo-Th 11:00-14:00, 16:00-21:00, Fr-Sa 11:00-22:00, Su, PH 12:00-20:=0", "payment:cash": "no", "payment:mastercard": "yes", "payment:visa": "yes", "website": "https://brodernas.nu/restauranger/jonkoping-city/"}}, {"type": "node", "id": 10220597366, "lat": 57.7819729, "lon": 14.1766133, "tags": {"addr:city": "J\u00f6nk\u00f6ping", "addr:country": "SE", "addr:housenumber": "33", "addr:postcode": "553 21", "addr:street": "\u00d6stra Storgatan", "amenity": "restaurant", "bar": "yes", "contact:email": "jonkoping.grand@rosegardengroup.com", "contact:phone:reservation": "+46 36-860 28 89", "cuisine": "asian", "name": "Rosegarden", "opening_hours": "Mo-Th 11:30-14:30, 17:30-21:00, Fr 11:30-14:30, 17:30-22:00, Sa 12:00-15:00, 17:30-22:00, Su 13:00-21:00", "website": "https://rosegarden.se/locations/jkpggrand"}}, {"type": "node", "id": 10731448001, "lat": 57.7839383, "lon": 14.2340776, "tags": {"amenity": "restaurant", "name": "Thomas Pizza"}}, {"type": "node", "id": 11053688419, "lat": 57.7907212, "lon": 14.2753236, "tags": {"addr:country": "SE", "addr:housenumber": "23d", "addr:street": "Kungsgatan", "amenity": "restaurant", "check_date": "2023-07-18", "cuisine": "burger", "name": "Brooklyn Burger Huskvarna", "payment:mastercard": "yes", "payment:visa": "yes"}}, {"type": "node", "id": 11062527305, "lat": 57.9065957, "lon": 14.0771658, "tags": {"addr:country": "SE", "addr:housenumber": "14", "addr:street": "J\u00f6nk\u00f6pingsv\u00e4gen", "amenity": "restaurant", "cuisine": "kebab;pizza", "name": "Stationen Habo", "opening_hours": "Su 12:00-21:00; Fr 11:30-22:00; Mo-Th 11:30-21:00; Sa 12:00-22:00"}}, {"type": "node", "id": 11064538517, "lat": 58.1788569, "lon": 13.9623806, "tags": {"amenity": "restaurant", "cuisine": "sushi;thai;chinese", "name": "ThaiPalatset", "opening_hours": "Mo-Fr 11:00-22:00; Sa 12:00-22:00; Su 12:00-21:00", "toilets": "yes", "wheelchair": "designated"}}, {"type": "node", "id": 11066952056, "lat": 58.0323624, "lon": 14.4792407, "tags": {"amenity": "cafe", "check_date": "2023-07-25", "name": "Hannas K\u00f6k"}}, {"type": "node", "id": 11166456435, "lat": 57.9583335, "lon": 14.4625865, "tags": {"amenity": "bar"}}, {"type": "node", "id": 11174397412, "lat": 57.7817928, "lon": 14.162118, "tags": {"addr:city": "J\u00f6nk\u00f6ping", "addr:country": "SE", "addr:housenumber": "15", "addr:postcode": "553 16", "addr:street": "Nygatan", "amenity": "cafe", "name": "Find.uzz Cat Caf\u00e9", "theme": "cat", "website": "https://finduzzcatcafe.se"}}, {"type": "node", "id": 11220249468, "lat": 57.8985527, "lon": 14.1039331, "tags": {"amenity": "cafe", "name": "Landhs"}}, {"type": "node", "id": 11220277887, "lat": 57.8986668, "lon": 14.10398, "tags": {"amenity": "restaurant", "name": "Brooklyn Burger"}}, {"type": "node", "id": 11443112956, "lat": 57.7823371, "lon": 14.2064716}, {"type": "way", "id": 108273703, "nodes": [1242580722, 1242580702, 1242580719, 1242580696, 1242580704, 1242580705, 1242580707, 1242580715, 1242580722], "tags": {"amenity": "restaurant", "building": "yes", "name": "Stugan", "source": "Bing"}}, {"type": "way", "id": 207208503, "nodes": [2173680672, 2173680644, 2173680648, 2173680675, 2173680672], "tags": {"amenity": "cafe", "building": "historic", "indoor_seating": "yes", "name": "Kaf\u00e9 hembygdsstugan", "outdoor_seating": "yes"}}, {"type": "way", "id": 237806182, "nodes": [8333962748, 8333962747, 8333962746, 8322225781, 8333962751, 8335722735, 8335722736, 8335722734, 8335722752, 8333962749, 8333962748], "tags": {"addr:country": "SE", "addr:housenumber": "3", "addr:street": "Vallgatan", "amenity": "restaurant", "building": "yes", "building:levels": "3", "name": "Guvern\u00f6ren", "toilets:wheelchair": "yes", "wheelchair": "yes"}}, {"type": "way", "id": 241413050, "nodes": [2490596833, 2490596817, 2490597358, 2490596931, 2490597309, 2490596837, 2490596833], "tags": {"amenity": "restaurant", "building": "yes", "name": "Framn\u00e4s"}}, {"type": "way", "id": 336379792, "nodes": [5777667008, 5777667009, 3325203347, 3434225155, 3325203348, 3325203336, 6092672200, 5777667011, 5777667010, 5777667008], "tags": {"alt_name": "Cafe Ingalill", "amenity": "cafe", "building": "yes", "contact:website": "http://www.asleta.se/", "cuisine": "coffee_shop", "name": "\u00c5sle T\u00e5 Caf\u00e9 o Butik (Grens-Fines Stuga)"}}, {"type": "way", "id": 410359018, "nodes": [4121893525, 4121893526, 4121893527, 4121893528, 4121893525], "tags": {"amenity": "cafe", "building": "yes", "name": "Kroatorpet"}}, {"type": "way", "id": 410359023, "nodes": [4121893554, 10124884123, 10124884115, 10124884116, 10124884124, 10124884117, 10124884113, 10124884120, 10124884112, 10124884121, 10124884111, 10124884119, 10124884110, 10124884118, 10124884122, 10124884114, 4121893555, 10124884141, 800188372, 5652790033, 5652790034, 5652790035, 10124884130, 10124884129, 10124884127, 10124884128, 10124884126, 10124884125, 4121893557, 10124884140, 5652790040, 5652790041, 4121893554], "tags": {"amenity": "restaurant", "building": "yes", "name": "Brunstorps w\u00e4rdshus"}}, {"type": "way", "id": 531222973, "nodes": [303741497, 9014324296, 5156862731, 5156862729, 5156862728, 5156862730, 5156862744, 5156862743, 5156862740, 5156862739, 5156862736, 5156862733, 5156862732, 5156862735, 5156862734, 5156862737, 5156862738, 5156862741, 5156862742, 303741497], "tags": {"amenity": "restaurant", "building": "retail", "building:levels": "1", "name": "Twin City", "outdoor_seating": "yes", "roof:levels": "0"}}, {"type": "way", "id": 777585549, "nodes": [7256611598, 8341464283, 7256611599, 11443112956, 7256611600, 7256611601, 7256611598], "tags": {"amenity": "restaurant", "building": "yes", "name": "Sj\u00f6n", "website": "https://www.sjon.se/"}}, {"type": "way", "id": 898461985, "nodes": [9922240518, 8349138137, 8349138138, 8349138139, 8349138140, 8349138141, 9922240518], "tags": {"addr:city": "Bankeryd", "addr:country": "SE", "addr:housenumber": "60", "addr:postcode": "564 33", "addr:street": "Kortebov\u00e4gen", "amenity": "restaurant", "building": "yes", "cuisine": "burger;pizza", "diet:vegan": "yes", "name": "Route 66", "website": "https://route66bankeryd.se"}}, {"type": "way", "id": 901362497, "nodes": [441799112, 8373325519, 8373325520, 8373325521, 8373325522, 8373325523, 8373325524, 8373325525, 8373325526, 8373325527, 8373325528, 8373325529, 8373325530, 8373325531, 8373325532, 8373325533, 8373325534, 8373325535, 8373325536, 8373325537, 8373325538, 8373325539, 8373325540, 8373325541, 8373325542, 8373325543, 8373325544, 8373325545, 8373325546, 8373325547, 8373325548, 8373325549, 8373325550, 8373325551, 8373325552, 8373325553, 8373325554, 8373325555, 8373325556, 8373325557, 8373325558, 8373325559, 8373325560, 8373325561, 8373325562, 8373325563, 441799112], "tags": {"amenity": "cafe", "brand": "Wayne's Coffee", "brand:wikidata": "Q2637272", "brand:wikipedia": "en:Wayne's Coffee", "building": "yes", "cuisine": "coffee_shop", "drink:espresso": "served", "name": "Wayne's Coffee", "takeaway": "yes"}}, {"type": "way", "id": 969885208, "nodes": [8975256101, 8975256102, 8975256103, 8975256104, 8975256105, 8975256106, 8975256101], "tags": {"amenity": "restaurant", "building": "yes"}}, {"type": "way", "id": 969885242, "nodes": [8975299594, 8975299595, 8975299596, 8975299597, 8975299598, 8975299599, 8975299600, 8975299601, 8975299594], "tags": {"amenity": "restaurant", "building": "yes", "cuisine": "pizza"}}, {"type": "way", "id": 969885243, "nodes": [8975299602, 8975299603, 8975299604, 8975299605, 8975299606, 8975299607, 8975299608, 8975299609, 8975299610, 8975299611, 8975299602], "tags": {"amenity": "restaurant", "building": "yes", "cuisine": "pizza", "name": "Lillg\u00e5rden"}}, {"type": "way", "id": 1088790903, "nodes": [9974758016, 9974763117, 9974763118, 9974763119, 9974758016], "tags": {"amenity": "cafe", "building": "yes", "name": "Karins lada"}}, {"type": "way", "id": 1092131787, "nodes": [10002249402, 10002249403, 10002249404, 10002249405, 10002249402], "tags": {"amenity": "restaurant", "building": "yes"}}, {"type": "way", "id": 1092131791, "nodes": [10002253618, 10002253619, 10002253620, 10002253621, 10002253618], "tags": {"amenity": "restaurant", "building": "yes"}}, {"type": "way", "id": 1092131804, "nodes": [10002253668, 10002253669, 10002253670, 10002253671, 10002253672, 10002253673, 10002253677, 10002253674, 10002253668], "tags": {"amenity": "restaurant", "building": "yes"}}]}