{"version": 0.6, "generator": "Overpass API 0.7.61.5 4133829e", "osm3s": {"timestamp_osm_base": "2024-03-08T20:58:30Z", "copyright": "The data included in this document is from www.openstreetmap.org. The data is made available under ODbL."}, "elements": [{"type": "node", "id": 541997053, "lat": 61.2973344, "lon": 17.0564613, "tags": {"amenity": "hospital", "name": "N\u00e4rsjukhuset i S\u00f6derhamn"}}, {"type": "node", "id": 1383270915, "lat": 61.3028343, "lon": 17.0554436, "tags": {"amenity": "pharmacy", "app:apple": "https://itunes.apple.com/se/app/apotek-hj%C3%A4rtat-n%C3%A4ra-dig/id1150817089", "app:google": "https://play.google.com/store/apps/details?id=com.presencekit.apotek.se&hl=en_US", "brand": "Apotek Hj\u00e4rtat", "brand:wikidata": "Q10416114", "brand:wikipedia": "sv:Apotek Hj\u00e4rtat", "healthcare": "pharmacy", "name": "Apotek Hj\u00e4rtat", "operator": "Apotek Hj\u00e4rtat Retail AB", "owner": "ICA Gruppen AB", "ownership": "private", "phone": "+46771405405", "website:stock": "https://www.fass.se/"}}, {"type": "node", "id": 1581663013, "lat": 61.2957048, "lon": 17.0210156, "tags": {"amenity": "pharmacy", "brand": "Apotek Hj\u00e4rtat", "brand:wikidata": "Q10416114", "healthcare": "pharmacy", "name": "Apotek Hj\u00e4rtat"}}, {"type": "node", "id": 2264926951, "lat": 60.8889013, "lon": 16.7165717, "tags": {"addr:city": "Ockelbo", "addr:country": "SE", "addr:housenumber": "1", "addr:postcode": "81630", "addr:street": "S\u00f6dra \u00c5sgatan", "amenity": "pharmacy", "drive_through": "no", "healthcare": "pharmacy", "name": "Estesik Kirugi", "website:stock": "https://www.fass.se/"}}, {"type": "node", "id": 2265583667, "lat": 60.8891321, "lon": 16.7139147}, {"type": "node", "id": 2265583668, "lat": 60.889121, "lon": 16.7133807}, {"type": "node", "id": 2265583669, "lat": 60.8890466, "lon": 16.7138533}, {"type": "node", "id": 2265583670, "lat": 60.8886134, "lon": 16.7129921}, {"type": "node", "id": 2265583671, "lat": 60.8889931, "lon": 16.7134156}, {"type": "node", "id": 2265583672, "lat": 60.8892206, "lon": 16.7139822}, {"type": "node", "id": 2265583673, "lat": 60.8884993, "lon": 16.7137892}, {"type": "node", "id": 2265583674, "lat": 60.8882119, "lon": 16.7132894}, {"type": "node", "id": 2265583675, "lat": 60.8891502, "lon": 16.7135496}, {"type": "node", "id": 2265583676, "lat": 60.8882742, "lon": 16.7129239}, {"type": "node", "id": 2265583677, "lat": 60.8888339, "lon": 16.7133018}, {"type": "node", "id": 2265583678, "lat": 60.8885333, "lon": 16.7132297}, {"type": "node", "id": 2265583679, "lat": 60.8890122, "lon": 16.713303}, {"type": "node", "id": 2265583680, "lat": 60.8892343, "lon": 16.7135288}, {"type": "node", "id": 2265583681, "lat": 60.8891812, "lon": 16.7142141}, {"type": "node", "id": 2265583682, "lat": 60.8885944, "lon": 16.7128707}, {"type": "node", "id": 2265583683, "lat": 60.8885688, "lon": 16.7132553}, {"type": "node", "id": 2265583684, "lat": 60.8887041, "lon": 16.7139364}, {"type": "node", "id": 2265583685, "lat": 60.8891886, "lon": 16.7137999}, {"type": "node", "id": 2265583686, "lat": 60.8884364, "lon": 16.7136862}, {"type": "node", "id": 2265583687, "lat": 60.8893035, "lon": 16.713578}, {"type": "node", "id": 2265583689, "lat": 60.8889371, "lon": 16.7137436}, {"type": "node", "id": 2265583690, "lat": 60.8891166, "lon": 16.7137487}, {"type": "node", "id": 2265583691, "lat": 60.8890922, "lon": 16.7141503}, {"type": "node", "id": 2265583692, "lat": 60.8881807, "lon": 16.7125732}, {"type": "node", "id": 2265583693, "lat": 60.8884966, "lon": 16.713333}, {"type": "node", "id": 2265583694, "lat": 60.8892338, "lon": 16.7139916}, {"type": "node", "id": 2265583695, "lat": 60.8888905, "lon": 16.7140179}, {"type": "node", "id": 2265583696, "lat": 60.8888568, "lon": 16.7131664}, {"type": "node", "id": 2265583697, "lat": 60.8887587, "lon": 16.7136155}, {"type": "node", "id": 2265583698, "lat": 60.8880772, "lon": 16.7131924}, {"type": "node", "id": 2265583699, "lat": 60.8880378, "lon": 16.7134233}, {"type": "node", "id": 2265583700, "lat": 60.8890987, "lon": 16.7135129}, {"type": "node", "id": 2265583701, "lat": 60.8885682, "lon": 16.7133845}, {"type": "node", "id": 2265583702, "lat": 60.8890047, "lon": 16.7140999}, {"type": "node", "id": 2265583703, "lat": 60.8881377, "lon": 16.7128257}, {"type": "node", "id": 4159047328, "lat": 61.2306597, "lon": 16.5687702, "tags": {"amenity": "pharmacy", "app:apple": "https://itunes.apple.com/se/app/apotek-hj%C3%A4rtat-n%C3%A4ra-dig/id1150817089", "app:google": "https://play.google.com/store/apps/details?id=com.presencekit.apotek.se&hl=en_US", "brand": "Apotek Hj\u00e4rtat Kilafors", "dispensing": "yes", "name": "Apotek Hj\u00e4rtat", "operator": "Apotek Hj\u00e4rtat Retail AB", "owner": "ICA Gruppen AB", "ownership": "private", "phone": "+46771405405", "website:stock": "https://www.fass.se/"}}, {"type": "node", "id": 4348281798, "lat": 61.2941695, "lon": 17.0185278, "tags": {"amenity": "clinic", "healthcare": "clinic", "name": "E-H\u00e4lsan"}}, {"type": "node", "id": 4348281799, "lat": 61.2942184, "lon": 17.018375, "tags": {"amenity": "pharmacy", "app:apple": "https://itunes.apple.com/se/app/apotek-hj%C3%A4rtat-n%C3%A4ra-dig/id1150817089", "app:google": "https://play.google.com/store/apps/details?id=com.presencekit.apotek.se&hl=en_US", "brand": "Apotek Hj\u00e4rtat", "brand:wikidata": "Q10416114", "healthcare": "pharmacy", "name": "Apotek Hj\u00e4rtat", "operator": "Apotek Hj\u00e4rtat Retail AB", "owner": "ICA Gruppen AB", "ownership": "private", "phone": "+46771405405", "website:stock": "https://www.fass.se/"}}, {"type": "node", "id": 4348281800, "lat": 61.2939493, "lon": 17.0150346, "tags": {"amenity": "veterinary", "name": "Hudiksvalls sm\u00e5djursklinik"}}, {"type": "node", "id": 6561952286, "lat": 60.9285406, "lon": 17.0423038, "tags": {"addr:country": "SE", "addr:housenumber": "5", "addr:postcode": "817 40", "addr:street": "Solbergav\u00e4gen", "amenity": "pharmacy", "name": "Apoteket", "name:sv": "Apoteket M\u00e5rden", "opening_hours": "Mo-Fr 09:00-17:00", "website": "https://www.apoteket.se/apotek/apoteket-marden-bergby/"}}, {"type": "node", "id": 7716940815, "lat": 61.2608617, "lon": 16.8276672, "tags": {"amenity": "pharmacy"}}, {"type": "node", "id": 8238040746, "lat": 60.8883047, "lon": 16.7135914}, {"type": "node", "id": 8238040747, "lat": 60.888301, "lon": 16.7136129}, {"type": "node", "id": 9243147725, "lat": 61.3015198, "lon": 17.0521816, "tags": {"amenity": "dentist", "healthcare": "dentist"}}, {"type": "node", "id": 9862677116, "lat": 60.8898748, "lon": 16.7164672, "tags": {"amenity": "pharmacy", "name": "Apotek", "opening_hours": "Mo-Fr 09:00-18:00; Sa 10:00-14:00", "website": "https://www.kronansapotek.se/"}}, {"type": "node", "id": 11148977930, "lat": 61.2980527, "lon": 17.0552617, "tags": {"amenity": "clinic", "healthcare": "clinic", "name": "S\u00f6derhamns barnmorskemottagning"}}, {"type": "node", "id": 11153229180, "lat": 61.3026354, "lon": 17.0574331, "tags": {"amenity": "dentist", "healthcare": "dentist", "name": "Tandl\u00e4kargruppen S\u00f6derhamn"}}, {"type": "node", "id": 11153373030, "lat": 61.306101, "lon": 17.0628944, "tags": {"amenity": "dentist", "healthcare": "dentist", "name": "Tandh\u00f6rnan"}}, {"type": "way", "id": 217279248, "nodes": [2265583696, 2265583670, 2265583683, 2265583678, 2265583682, 2265583692, 2265583703, 2265583676, 2265583674, 2265583698, 2265583699, 8238040747, 8238040746, 2265583686, 2265583693, 2265583701, 2265583673, 2265583684, 2265583697, 2265583689, 2265583695, 2265583702, 2265583669, 2265583667, 2265583691, 2265583681, 2265583672, 2265583694, 2265583687, 2265583680, 2265583685, 2265583690, 2265583675, 2265583700, 2265583668, 2265583679, 2265583671, 2265583677, 2265583696], "tags": {"addr:city": "Ockelbo", "addr:country": "SE", "addr:housenumber": "26", "addr:street": "Sj\u00f6\u00e4ngsv\u00e4gen", "amenity": "dentist", "brand": "Folktandv\u00e5rden", "brand:wikidata": "Q10497476", "brand:wikipedia": "sv:Folktandv\u00e5rden", "building": "yes", "healthcare": "dentist", "name": "Folktandv\u00e5rden", "source": "Survey"}}]}