{"version": 0.6, "generator": "Overpass API 0.7.61.5 4133829e", "osm3s": {"timestamp_osm_base": "2024-03-08T21:11:44Z", "copyright": "The data included in this document is from www.openstreetmap.org. The data is made available under ODbL."}, "elements": [{"type": "node", "id": 281783206, "lat": 58.427415, "lon": 15.582116, "tags": {"amenity": "restaurant", "cuisine": "kebab;pizza", "delivery": "no", "email": "setaedword@yahoo.com", "name": "Pizzeria Apollo", "opening_hours": "Mo-Fr 11:00-22:00; Sa-Su 12:00-21:00", "phone": "+46 13 17 28 08", "takeaway": "yes", "website": "http://pizzeriaapollo.se/"}}, {"type": "node", "id": 312384948, "lat": 58.4859115, "lon": 15.5250104}, {"type": "node", "id": 354931825, "lat": 58.518774, "lon": 15.4272956}, {"type": "node", "id": 389497133, "lat": 58.401432, "lon": 15.5705894, "tags": {"amenity": "restaurant", "cuisine": "regional", "email": "info@pegsandtails.se", "name": "Pegs & Tails", "opening_hours:kitchen": "Mo-Fr 11:00-14:00", "phone": "+46 13-14 42 05", "website": "https://www.pegsandtails.se/", "wheelchair": "yes"}}, {"type": "node", "id": 410515300, "lat": 58.3747115, "lon": 15.7091814, "tags": {"addr:city": "Link\u00f6ping", "addr:country": "SE", "addr:housenumber": "38", "addr:street": "Hjulsbrov\u00e4gen", "amenity": "restaurant", "cuisine": "pizza", "name": "Lazlos"}}, {"type": "node", "id": 445021849, "lat": 58.3948533, "lon": 15.5614184, "tags": {"addr:city": "Link\u00f6ping", "addr:country": "SE", "addr:housenumber": "8", "addr:street": "Teknikringen", "amenity": "restaurant", "check_date:opening_hours": "2022-12-20", "name": "Husman", "opening_hours": "Mo-Fr 08:00-15:00", "website": "https://restauranghusman.se/", "wheelchair": "yes"}}, {"type": "node", "id": 445021851, "lat": 58.394111, "lon": 15.5589143, "tags": {"amenity": "restaurant", "cuisine": "asian", "name": "Chili & Lime", "opening_hours": "Mo-Fr 11:00-14:00", "wheelchair": "yes"}}, {"type": "node", "id": 446690232, "lat": 58.394295, "lon": 15.5592605, "tags": {"amenity": "restaurant", "name": "Br\u00f6dernas K\u00f6k", "opening_hours": "Mo-Fr 11:00-14:00", "wheelchair": "yes"}}, {"type": "node", "id": 447348606, "lat": 58.41313, "lon": 15.6017664, "tags": {"addr:city": "Link\u00f6ping", "addr:country": "SE", "addr:housenumber": "9", "addr:postcode": "58217", "addr:street": "Hagmarksgatan", "amenity": "restaurant", "check_date:opening_hours": "2023-05-15", "cuisine": "vietnamese", "name": "Saigon take away", "opening_hours": "Tu-Fr 11:00-20:30; PH,Sa,Su 12:00-20:30; Mo off", "takeaway": "yes"}}, {"type": "node", "id": 452055806, "lat": 58.3021524, "lon": 15.7244118, "tags": {"amenity": "cafe"}}, {"type": "node", "id": 452268581, "lat": 58.4071621, "lon": 15.6410158, "tags": {"addr:city": "Link\u00f6ping", "addr:country": "SE", "addr:housenumber": "41A", "addr:street": "Nya Tanneforsv\u00e4gen", "amenity": "cafe", "check_date:opening_hours": "2021-05-07", "name": "Tannefors Hembageri", "opening_hours": "Mo-Fr 07:00-18:00; Sa 08:30-14:00", "shop": "bakery"}}, {"type": "node", "id": 452647525, "lat": 58.4058993, "lon": 15.59024, "tags": {"amenity": "cafe", "diet:vegan": "no", "drink:oat_milk": "yes", "name": "Dahlbergs Caf\u00e9", "opening_hours": "Mo-Su 10:00-17:30"}}, {"type": "node", "id": 454637577, "lat": 58.3705459, "lon": 15.6421198, "tags": {"amenity": "cafe", "name": "Caf\u00e9 Vidingsj\u00f6", "opening_hours": "Mo-Th 09:00-18:00; We 10:00-18:00; Fr 09:00-16:00; Sa 11:00-15:00; Su 10:00-16:00", "smoking": "no", "wheelchair": "yes"}}, {"type": "node", "id": 483563574, "lat": 58.5129186, "lon": 15.4994134, "tags": {"addr:city": "Ljungsbro", "addr:country": "SE", "addr:housenumber": "4", "addr:postcode": "59069", "addr:street": "Hjalmar Svenfelts v\u00e4g", "amenity": "restaurant", "cuisine": "regional", "email": "tre.broder@cloetta.se", "name": "Tre Br\u00f6der", "phone": "+46 13-285 195", "website": "https://www.trebroder.net/"}}, {"type": "node", "id": 496164071, "lat": 58.5503599, "lon": 16.042685, "tags": {"amenity": "cafe", "operator": "V\u00e4rdshuset L\u00f6fstad slott"}}, {"type": "node", "id": 496164193, "lat": 58.5505749, "lon": 16.0406508, "tags": {"amenity": "restaurant", "name": "V\u00e4rdshuset L\u00f6fstad slott", "website": "https://www.vardshusetlofstadslott.se/"}}, {"type": "node", "id": 534329555, "lat": 58.4148775, "lon": 15.6229094, "tags": {"amenity": "restaurant", "cuisine": "asian", "name": "NiHao", "opening_hours": "Mo-Th 11:00-21:00; Fr 11:00-22:00; Sa 12:00-22:00"}}, {"type": "node", "id": 552443934, "lat": 58.4254229, "lon": 15.6215443, "tags": {"addr:city": "Link\u00f6ping", "addr:country": "SE", "addr:housenumber": "7", "addr:street": "Roxengatan", "amenity": "restaurant", "name": "Restaurang Oscar"}}, {"type": "node", "id": 597428759, "lat": 58.4099576, "lon": 15.6242186, "tags": {"addr:city": "Link\u00f6ping", "addr:country": "SE", "addr:housenumber": "25", "addr:street": "Nygatan", "amenity": "cafe", "brand": "Espresso House", "brand:wikidata": "Q10489162", "brand:wikipedia": "sv:Espresso House", "cuisine": "coffee_shop", "name": "Espresso House", "opening_hours": "Mo-Fr 07:00-21:30; Sa 08:00-21:30; Su 09:00-21:30", "takeaway": "yes"}}, {"type": "node", "id": 624150770, "lat": 58.6036313, "lon": 16.1628843, "tags": {"addr:city": "Norrk\u00f6ping", "addr:country": "SE", "addr:housenumber": "12", "addr:street": "Breda v\u00e4gen", "amenity": "restaurant", "name": "Pizzeria Vesuvio"}}, {"type": "node", "id": 637868334, "lat": 58.4206427, "lon": 15.6066743, "tags": {"addr:city": "Link\u00f6ping", "addr:country": "SE", "addr:housenumber": "15", "addr:postcode": "582 77", "addr:street": "Industrigatan", "amenity": "restaurant", "name": "Restaurang Viktor", "opening_hours": "Mo-Fr 08:00-14:00", "phone": "+46 13 137797", "website": "https://www.restaurangviktor.se/restaurang-viktor/restaurang-viktor-0"}}, {"type": "node", "id": 665203746, "lat": 58.4170688, "lon": 15.6217485, "tags": {"addr:city": "Link\u00f6ping", "addr:country": "SE", "addr:housenumber": "1", "addr:postcode": "582 21", "addr:street": "Bielkegatan", "amenity": "restaurant", "cuisine": "italian;greek", "diet:vegetarian": "yes", "name": "Olympia Da Vinci", "opening_hours": "Mo-Tu 11:15-13:45; We-Fr 11:15-13:45, 16:30-23:30; Sa 16:30-23:30; Su off", "phone": "+46 13 121 121", "website": "http://www.olympia-davinci.se"}}, {"type": "node", "id": 665203774, "lat": 58.4168575, "lon": 15.6217228, "tags": {"addr:city": "Link\u00f6ping", "addr:country": "SE", "addr:housenumber": "2B", "addr:postcode": "582 21", "addr:street": "Bielkegatan", "amenity": "restaurant", "cuisine": "kebab;pizza", "email": "info@pizzeriamarcus.se", "name": "Pizzeria Marcus", "opening_hours": "Mo-Sa 11:00-22:00; Su 12:00-21:00", "phone": "+4613123422"}}, {"type": "node", "id": 722356873, "lat": 58.4124065, "lon": 15.6284318, "tags": {"addr:city": "Link\u00f6ping", "addr:country": "SE", "addr:housenumber": "8", "addr:postcode": "582 22", "addr:street": "\u00c5gatan", "amenity": "restaurant", "cuisine": "indian", "name": "Indian Aroma", "opening_hours": "Mo-Th 11:00-21:00; Fr 11:00-22:00; Sa 12:00-22:00; Su 12:00-21:00", "phone": "+46 13-15 90 06", "website": "https://indianaroma.se"}}, {"type": "node", "id": 738673256, "lat": 58.3880235, "lon": 15.5656599, "tags": {"amenity": "restaurant", "cuisine": "pizza", "name": "pinocchio", "opening_hours": "Mo-Th 11:00-21:00; Fr 11:00-22:00; Sa 12:00-22:00; Su 12:00-21:00", "wheelchair": "yes"}}, {"type": "node", "id": 810371560, "lat": 58.2704859, "lon": 15.7384734, "tags": {"amenity": "cafe", "name": "Slottskaf\u00e9et"}}, {"type": "node", "id": 821883340, "lat": 58.5902558, "lon": 16.1857366, "tags": {"addr:city": "Norrk\u00f6ping", "addr:country": "SE", "addr:housenumber": "26-28", "addr:street": "Gamla R\u00e5dstugugatan", "amenity": "restaurant", "cuisine": "fine_dining;italian;drinks;wine", "name": "\u00c1nima"}}, {"type": "node", "id": 841102422, "lat": 58.3801291, "lon": 15.6798005}, {"type": "node", "id": 867432787, "lat": 58.4202576, "lon": 15.6326124, "tags": {"amenity": "restaurant", "name": "Matverkstan", "website": "http://www.matverkstan.com"}}, {"type": "node", "id": 869628560, "lat": 58.4119529, "lon": 15.6207336, "tags": {"addr:city": "Link\u00f6ping", "addr:country": "SE", "addr:housenumber": "5A", "addr:postcode": "58220", "addr:street": "Platensgatan", "amenity": "restaurant", "cuisine": "indian", "name": "Yogi", "opening_hours": "Mo-Th 11:30-14:00, 17:00-21:00; Fr 11:30-14:00, 17:00-22:00; Sa 12:00-15:00, 17:00-22:00; Su off", "phone": "+46 13 10 09 60", "website": "https://yogi.nu/"}}, {"type": "node", "id": 891110602, "lat": 58.411749, "lon": 15.6217153, "tags": {"addr:city": "Link\u00f6ping", "addr:country": "SE", "addr:housenumber": "43", "addr:postcode": "582 22", "addr:street": "\u00c5gatan", "amenity": "restaurant", "cuisine": "vietnamese", "name": "Eatnam", "opening_hours": "Mo-Fr 11:00-22:00; Sa 11:30-22:00; Su 12:00-21:00", "phone": "+46 13 53350", "website": "https://eatnam.se/lkpg/"}}, {"type": "node", "id": 891110603, "lat": 58.4117876, "lon": 15.6221248, "tags": {"addr:city": "Link\u00f6ping", "addr:country": "SE", "addr:housenumber": "39", "addr:postcode": "582 22", "addr:street": "\u00c5gatan", "amenity": "restaurant", "cuisine": "regional", "food": "yes", "name": "Steve's", "opening_hours": "Mo-Tu off; We-Th 16:00-25:00, Fr-Sa 11:00-27:00, Su 11:00-20:00", "phone": "+46 13-31 06 46", "website": "https://steves.nu"}}, {"type": "node", "id": 891110604, "lat": 58.4118044, "lon": 15.6223346, "tags": {"addr:city": "Link\u00f6ping", "addr:country": "SE", "addr:housenumber": "39", "addr:postcode": "582 22", "addr:street": "\u00c5gatan", "amenity": "restaurant", "cuisine": "mediterranean", "email": "info@picoteo.nu", "name": "Picoteo", "opening_hours": "Mo-Th 16:00+; Fr-Su 12:00+", "phone": "+46 13 30 30 33", "website": "https://picoteo.nu/"}}, {"type": "node", "id": 891110605, "lat": 58.4117566, "lon": 15.6226816, "tags": {"addr:city": "Link\u00f6ping", "addr:country": "SE", "addr:housenumber": "19", "addr:postcode": "582 23", "addr:street": "Klostergatan", "amenity": "restaurant", "cuisine": "regional", "email": "linkoping@olstugan.se", "name": "\u00d6lstugan Tullen", "opening_hours": "Mo-Th 16:00-25:00, Fr-Sa 12:00-26:00, Su 12:00-25:00", "phone": "+46 13-13 88 38", "website": "https://www.olstugan.se/link%C3%B6ping"}}, {"type": "node", "id": 891110608, "lat": 58.4116832, "lon": 15.6205413, "tags": {"addr:city": "Link\u00f6ping", "addr:country": "SE", "addr:housenumber": "4", "addr:postcode": "582 20", "addr:street": "Platensgatan", "amenity": "restaurant", "cuisine": "regional", "name": "Brasserie Grand", "opening_hours": "Mo-Fr 11:00+; Sa 12:00+; Su off", "website": "https://www.brasseriegrand.se/"}}, {"type": "node", "id": 893405020, "lat": 58.4072873, "lon": 15.6218791, "tags": {"amenity": "cafe", "name": "Tropikhuset", "opening_hours": "Su 11:00-16:00; Mo-Fr 09:00-17:00; Sa 10:00-16:00", "website": "https://www.tropikhuset.nu/"}}, {"type": "node", "id": 913884178, "lat": 58.4102764, "lon": 15.6295099, "tags": {"addr:city": "Link\u00f6ping", "addr:country": "SE", "addr:housenumber": "1", "addr:street": "Magasinstorget", "amenity": "cafe", "check_date:opening_hours": "2021-08-22", "name": "Claras", "opening_hours": "Mo-Fr 09:00-16:00", "phone": "+46 13-35 21 20", "website": "https://clarascoffee.se/"}}, {"type": "node", "id": 913884194, "lat": 58.410239, "lon": 15.6282072, "tags": {"amenity": "cafe", "name": "Bokcaf\u00e9et"}}, {"type": "node", "id": 914809300, "lat": 58.4104669, "lon": 15.6288818, "tags": {"addr:city": "Link\u00f6ping", "addr:country": "SE", "addr:housenumber": "11", "addr:street": "Nygatan", "amenity": "restaurant", "cuisine": "pizza", "diet:vegetarian": "yes", "name": "Mozzarella Ristorante", "opening_hours": "Mo-Su 11:00-22:00", "phone": "+46 13-13 44 86", "website": "https://www.mozzarella.nu/"}}, {"type": "node", "id": 977640893, "lat": 58.4123904, "lon": 15.6124284, "tags": {"addr:city": "Link\u00f6ping", "addr:country": "SE", "addr:housenumber": "18", "addr:postcode": "58232", "addr:street": "\u00d6stg\u00f6tagatan", "amenity": "restaurant", "cuisine": "vietnamese", "name": "Sol & Ris", "opening_hours": "Mo-Th 11:00-15:00,17:00-21:00; Fr 11:00-15:00,17:00-22:00; Sa 13:00-22:00; Su off", "takeaway": "yes", "website": "https://www.solochris.se/"}}, {"type": "node", "id": 1049980471, "lat": 58.4344136, "lon": 15.5854206}, {"type": "node", "id": 1055388842, "lat": 58.4043065, "lon": 15.6204647}, {"type": "node", "id": 1055388855, "lat": 58.4043575, "lon": 15.6204627}, {"type": "node", "id": 1055388902, "lat": 58.4043675, "lon": 15.6204138}, {"type": "node", "id": 1055388919, "lat": 58.4042955, "lon": 15.6204166}, {"type": "node", "id": 1055388936, "lat": 58.4043565, "lon": 15.6203656}, {"type": "node", "id": 1055388973, "lat": 58.4043308, "lon": 15.6203465}, {"type": "node", "id": 1055388996, "lat": 58.4043055, "lon": 15.6203676}, {"type": "node", "id": 1055389002, "lat": 58.4043322, "lon": 15.6204838}, {"type": "node", "id": 1081971912, "lat": 58.5903221, "lon": 16.1794544}, {"type": "node", "id": 1081971933, "lat": 58.5902832, "lon": 16.1795803}, {"type": "node", "id": 1081971950, "lat": 58.5902756, "lon": 16.1794017}, {"type": "node", "id": 1081971957, "lat": 58.5902367, "lon": 16.1795276}, {"type": "node", "id": 1097064795, "lat": 58.4127658, "lon": 15.6278563}, {"type": "node", "id": 1097064858, "lat": 58.4128016, "lon": 15.6280372}, {"type": "node", "id": 1097064953, "lat": 58.4125525, "lon": 15.6279367}, {"type": "node", "id": 1097065009, "lat": 58.412572, "lon": 15.6281242}, {"type": "node", "id": 1115231589, "lat": 58.5711617, "lon": 16.1803721, "tags": {"addr:city": "Norrk\u00f6ping", "addr:country": "SE", "addr:housenumber": "1a", "addr:street": "Spr\u00e4ngstensgatan", "amenity": "restaurant", "contact:phone": "+46-111417147", "name": "Dillqvists"}}, {"type": "node", "id": 1121335897, "lat": 58.5878333, "lon": 16.1675619}, {"type": "node", "id": 1121335906, "lat": 58.5878165, "lon": 16.1673071}, {"type": "node", "id": 1121335924, "lat": 58.5877528, "lon": 16.1675859}, {"type": "node", "id": 1121335925, "lat": 58.5877312, "lon": 16.1673313}, {"type": "node", "id": 1121335967, "lat": 58.5877522, "lon": 16.1675861}, {"type": "node", "id": 1151981752, "lat": 58.406626, "lon": 15.5893151, "tags": {"amenity": "restaurant", "name": "Hallbergska W\u00e4rdshuset", "website": "https://www.xn--wrdshusetgamlalinkping-04b36b.se/"}}, {"type": "node", "id": 1158189685, "lat": 58.6176643, "lon": 16.1542274}, {"type": "node", "id": 1158263921, "lat": 58.5871497, "lon": 16.1767082, "tags": {"addr:city": "Norrk\u00f6ping", "addr:country": "SE", "addr:housenumber": "71", "addr:street": "Kungsgatan", "amenity": "restaurant", "cuisine": "regional", "name": "God V\u00e4n"}}, {"type": "node", "id": 1165705064, "lat": 58.4035121, "lon": 15.6255924, "tags": {"addr:city": "Link\u00f6ping", "addr:country": "SE", "addr:housenumber": "19", "addr:postcode": "58225", "addr:street": "Sandb\u00e4cksgatan", "amenity": "restaurant", "fixme": "Maybe closed already, needs to be checked", "name": "Bistro Mejeriet", "phone": "+4613144014", "website": "https://bistromejeriet.se/"}}, {"type": "node", "id": 1177842883, "lat": 58.5772891, "lon": 16.157924, "tags": {"amenity": "cafe", "name": "Rixi Konditori"}}, {"type": "node", "id": 1177971871, "lat": 58.5840307, "lon": 16.1545695, "tags": {"addr:city": "Norrk\u00f6ping", "addr:country": "SE", "addr:housenumber": "51", "addr:street": "Link\u00f6pingsv\u00e4gen", "amenity": "cafe", "name": "Landerholms konditori"}}, {"type": "node", "id": 1177971945, "lat": 58.5838545, "lon": 16.1807291, "tags": {"addr:city": "Norrk\u00f6ping", "addr:country": "SE", "addr:housenumber": "14", "addr:street": "Gymnastikgatan", "amenity": "restaurant", "name": "Royal Fenix"}}, {"type": "node", "id": 1181457411, "lat": 58.5882121, "lon": 16.1856669, "tags": {"addr:city": "Norrk\u00f6ping", "addr:country": "SE", "addr:housenumber": "4", "addr:postcode": "602 32", "addr:street": "Gamla torget", "amenity": "restaurant", "name": "Lagerqvist"}}, {"type": "node", "id": 1181457441, "lat": 58.5877144, "lon": 16.1862758, "tags": {"amenity": "restaurant", "name": "Tr\u00e4dg\u00e5rn", "website": "http://www.bacchus.se/Tradgarn/Hittatilloss/tabid/513/language/en-US/Default.aspx"}}, {"type": "node", "id": 1185190445, "lat": 58.5868169, "lon": 16.1875149, "tags": {"addr:city": "Norrk\u00f6ping", "addr:country": "SE", "addr:housenumber": "48", "addr:street": "Gamla R\u00e5dstugugatan", "amenity": "restaurant", "name": "Butlers h\u00f6rna", "opening_hours": "Mo-Th 11:30-22:00; Fr 11:30-23:00; Sa 12:00-23:00; Su 13:00-21:00"}}, {"type": "node", "id": 1185240375, "lat": 58.5916592, "lon": 16.186426, "tags": {"addr:city": "Norrk\u00f6ping", "addr:country": "SE", "addr:housenumber": "16", "addr:street": "Drottninggatan", "amenity": "restaurant", "cuisine": "chinese", "name": "Peking house", "opening_hours": "Tu-Fr 11:00-21:00; Sa 12:00-21:00; Mo 11:00-15:00; Su 12:00-18:00", "phone": "+46 11-13-3033"}}, {"type": "node", "id": 1185240380, "lat": 58.5947224, "lon": 16.1851549, "tags": {"addr:city": "Norrk\u00f6ping", "addr:country": "SE", "addr:housenumber": "1", "addr:street": "Drottninggatan", "amenity": "restaurant", "diet:vegetarian": "yes", "name": "Renstr\u00f6mmen", "opening_hours": "Mo-Fr 11:00-16:00"}}, {"type": "node", "id": 1185240385, "lat": 58.5913936, "lon": 16.1851197, "tags": {"addr:city": "Norrk\u00f6ping", "addr:country": "SE", "addr:housenumber": "16", "addr:street": "Gamla R\u00e5dstugugatan", "amenity": "restaurant", "cuisine": "pizza", "name": "Trattoria Gabriel"}}, {"type": "node", "id": 1185240402, "lat": 58.5934538, "lon": 16.1799004, "tags": {"addr:city": "Norrk\u00f6ping", "addr:country": "SE", "addr:housenumber": "26", "addr:postcode": "602 22", "addr:street": "Br\u00e5ddgatan", "amenity": "cafe", "name": "Broadway Kvarterskrog"}}, {"type": "node", "id": 1206688976, "lat": 58.5870295, "lon": 16.1783981, "tags": {"addr:city": "Norrk\u00f6ping", "addr:country": "SE", "addr:housenumber": "38", "addr:street": "S:t Persgatan", "amenity": "restaurant", "name": "Pizzeria Napoli"}}, {"type": "node", "id": 1207211737, "lat": 58.5872154, "lon": 16.1751742, "tags": {"addr:city": "Norrk\u00f6ping", "addr:country": "SE", "addr:housenumber": "22", "addr:postcode": "602 33", "addr:street": "S:t Persgatan", "amenity": "restaurant", "name": "Durkslaget"}}, {"type": "node", "id": 1313194880, "lat": 58.5856716, "lon": 16.1876038, "tags": {"addr:city": "Norrk\u00f6ping", "addr:country": "SE", "addr:housenumber": "6", "addr:street": "H\u00f6rngatan", "amenity": "cafe", "cuisine": "coffee_shop", "name": "Cafe Kuriosa"}}, {"type": "node", "id": 1313226914, "lat": 58.5892519, "lon": 16.1850968, "tags": {"amenity": "restaurant", "cuisine": "regional", "name": "Kvarterskrogen Asken"}}, {"type": "node", "id": 1313226922, "lat": 58.5869584, "lon": 16.1873758, "tags": {"amenity": "restaurant", "cuisine": "asian", "name": "Tao Noi", "website": "https://taonoi.se/"}}, {"type": "node", "id": 1313226937, "lat": 58.5863009, "lon": 16.187087, "tags": {"addr:city": "Norrk\u00f6ping", "addr:country": "SE", "addr:housenumber": "88", "addr:street": "S:t Persgatan", "amenity": "restaurant", "cuisine": "fine_dining", "name": "Urbane Goat", "opening_hours": "Mo-Fr 11:00-14:00,16:30-24:00; Sa 16:30-24:00+; Su off"}}, {"type": "node", "id": 1313226950, "lat": 58.5876233, "lon": 16.1867303, "tags": {"addr:country": "SE", "addr:housenumber": "5", "addr:postcode": "60232", "addr:street": "Pr\u00e4stgatan", "amenity": "restaurant", "cuisine": "pizza", "name": "Boca Pizza", "name:en": "Boca Pizza", "name:es": "Boca Pizza", "name:fi": "Boca Pizza", "name:sv": "Boca Pizza", "website": "https://www.bocapizza.se"}}, {"type": "node", "id": 1313226966, "lat": 58.5896168, "lon": 16.1848339, "tags": {"amenity": "restaurant", "name": "Bagarstugan Brasserie & Bageri"}}, {"type": "node", "id": 1313226969, "lat": 58.586449, "lon": 16.1871111, "tags": {"amenity": "restaurant", "cuisine": "spanish", "name": "La Uva"}}, {"type": "node", "id": 1313226975, "lat": 58.5892673, "lon": 16.1857915, "tags": {"amenity": "restaurant", "cuisine": "sushi", "name": "Soja Sushi"}}, {"type": "node", "id": 1313256490, "lat": 58.5898915, "lon": 16.1802444, "tags": {"amenity": "restaurant", "cuisine": "international", "name": "Restaurant Kn\u00e4ppingen", "opening_hours": "Tu-Th 16:00-22:00+; Fr 16:00-24:00; Sa 14:00-24:00; Su,Mo off"}}, {"type": "node", "id": 1313256493, "lat": 58.5912335, "lon": 16.1818698, "tags": {"addr:city": "Norrk\u00f6ping", "addr:country": "SE", "addr:housenumber": "15", "addr:postcode": "602 21", "addr:street": "Garvaregatan", "amenity": "restaurant", "cuisine": "international", "name": "Restaurant Mitropa"}}, {"type": "node", "id": 1313256529, "lat": 58.5896833, "lon": 16.1810598, "tags": {"amenity": "restaurant", "cuisine": "international", "name": "V\u00e4rldens Bar"}}, {"type": "node", "id": 1313266551, "lat": 58.5890224, "lon": 16.1802126, "tags": {"amenity": "cafe", "brand": "Espresso House", "brand:wikidata": "Q10489162", "brand:wikipedia": "sv:Espresso House", "cuisine": "coffee_shop", "diet:vegan": "yes", "diet:vegetarian": "yes", "name": "Espresso house", "opening_hours": "Mo-Sa 10:00-18:00; Su 10:00-17:00", "takeaway": "yes", "wheelchair": "yes"}}, {"type": "node", "id": 1313266555, "lat": 58.5891701, "lon": 16.1798195, "tags": {"amenity": "restaurant", "name": "Restaurang Vy"}}, {"type": "node", "id": 1313266556, "lat": 58.5895418, "lon": 16.1806568, "tags": {"amenity": "restaurant", "int_name": "Student pub Trappan", "name": "Harrys", "opening_hours": "Tu 16:00-22:00, We,Th 16:00-23:00, Fr 15:00-01:00, Sa 12:00-01:00"}}, {"type": "node", "id": 1313888435, "lat": 58.5851318, "lon": 16.1828705, "tags": {"amenity": "cafe", "cuisine": "ice_cream", "name": "Halvars Glass"}}, {"type": "node", "id": 1313912283, "lat": 58.5889341, "lon": 16.1877357, "tags": {"addr:city": "Norrk\u00f6ping", "addr:country": "SE", "addr:housenumber": "42", "addr:street": "Drottninggatan", "amenity": "restaurant", "name": "Lion Bar"}}, {"type": "node", "id": 1321359000, "lat": 58.4112205, "lon": 15.6217675, "tags": {"addr:country": "SE", "addr:housenumber": "8", "addr:street": "Stora torget", "amenity": "restaurant", "check_date": "2022-06-08", "cuisine": "regional", "name": "\u00d6verste M\u00f6rner", "opening_hours": "Mo,Tu 16:00-23:00; We,Th 15:00-24:00, Fr 13:00-25:30, Sa 11:30-25:30, Su 12:00-23:00", "phone": "+46 13-310647"}}, {"type": "node", "id": 1324434774, "lat": 58.4856396, "lon": 15.5306607, "tags": {"amenity": "cafe"}}, {"type": "node", "id": 1397440382, "lat": 58.4153274, "lon": 15.5204364, "tags": {"addr:city": "Link\u00f6ping", "addr:country": "SE", "addr:housenumber": "15", "addr:street": "Norrmalmsv\u00e4gen", "amenity": "restaurant", "cuisine": "pizza", "indoor_seating": "yes", "name": "Pizzeria Hawaii", "outdoor_seating": "no", "source": "Bing"}}, {"type": "node", "id": 1397502933, "lat": 58.4203154, "lon": 15.5090268, "tags": {"addr:city": "Link\u00f6ping", "addr:country": "SE", "addr:housenumber": "4", "addr:postcode": "58662", "addr:street": "K\u00e4rnabrunnsgatan", "amenity": "restaurant", "cuisine": "pizza", "diet:vegetarian": "yes", "indoor_seating": "yes", "name": "Pub & Pizzeria Playa", "opening_hours": "Tu-Th 11:00-21:00; Sa,Su 12:00-20:00; Fr 11:00-21:00", "outdoor_seating": "yes", "payment:cash": "yes", "phone": "+4613298380", "website": "https://playa-pizzeria.webnode.se/", "wheelchair": "limited"}}, {"type": "node", "id": 1411681427, "lat": 58.2931544, "lon": 15.5623993}, {"type": "node", "id": 1411681428, "lat": 58.2930565, "lon": 15.5623806}, {"type": "node", "id": 1411681430, "lat": 58.2931819, "lon": 15.5618787}, {"type": "node", "id": 1411681431, "lat": 58.293084, "lon": 15.56186}, {"type": "node", "id": 1454845590, "lat": 58.4090978, "lon": 15.5624644, "tags": {"amenity": "restaurant", "cuisine": "asian;chinese;sushi;thai", "email": "info@kina-thai.se", "name": "Kina Thai", "opening_hours": "Mo 11:00-15:00; Tu-Fr 11:00-22:00; Sa 13:00-21:00; Su 13:00-20:00", "phone": "+46 13 174747", "takeaway": "yes", "website": "https://www.kina-thai.se/", "wheelchair": "yes"}}, {"type": "node", "id": 1518850216, "lat": 58.4293398, "lon": 15.5941913}, {"type": "node", "id": 1518850218, "lat": 58.4293704, "lon": 15.5937861}, {"type": "node", "id": 1600409412, "lat": 58.3867121, "lon": 15.6488632, "tags": {"amenity": "cafe"}}, {"type": "node", "id": 1658973645, "lat": 58.5887606, "lon": 16.1811751, "tags": {"addr:city": "Norrk\u00f6ping", "addr:country": "SE", "addr:housenumber": "3", "addr:postcode": "602 21", "addr:street": "Laxholmstorget", "amenity": "restaurant", "cuisine": "italian", "name": "Enoteket", "website": "https://www.enoteket.se/"}}, {"type": "node", "id": 1681451134, "lat": 58.5811559, "lon": 16.1471014, "tags": {"addr:city": "Norrk\u00f6ping", "addr:country": "SE", "addr:housename": "SMHI", "addr:housenumber": "1", "addr:postcode": "60176", "addr:street": "Folkborgsv\u00e4gen", "amenity": "restaurant", "name": "Stormk\u00f6ket", "website": "https://www.nordrest.se/"}}, {"type": "node", "id": 1683371945, "lat": 58.402468, "lon": 15.6617545}, {"type": "node", "id": 1683371953, "lat": 58.4024927, "lon": 15.6609305}, {"type": "node", "id": 1683371956, "lat": 58.4021118, "lon": 15.6615736}, {"type": "node", "id": 1683371983, "lat": 58.4021439, "lon": 15.6620588}, {"type": "node", "id": 1683371995, "lat": 58.4020509, "lon": 15.661858}, {"type": "node", "id": 1683372006, "lat": 58.402735, "lon": 15.6609792}, {"type": "node", "id": 1683372064, "lat": 58.4024377, "lon": 15.6608118}, {"type": "node", "id": 1683372107, "lat": 58.402561, "lon": 15.6606037}, {"type": "node", "id": 1683372114, "lat": 58.4022256, "lon": 15.6618201}, {"type": "node", "id": 1683372121, "lat": 58.4023787, "lon": 15.6615617}, {"type": "node", "id": 1683372127, "lat": 58.4022518, "lon": 15.6618767}, {"type": "node", "id": 1683372192, "lat": 58.402159, "lon": 15.6616754}, {"type": "node", "id": 1683372218, "lat": 58.4026338, "lon": 15.6611502}, {"type": "node", "id": 1683372268, "lat": 58.4027181, "lon": 15.6613322}, {"type": "node", "id": 1690994229, "lat": 58.4327352, "lon": 15.5863533}, {"type": "node", "id": 1785627489, "lat": 58.5773841, "lon": 16.1576341, "tags": {"amenity": "restaurant", "name": "Pizzeria Paradiso"}}, {"type": "node", "id": 1863251320, "lat": 58.5913583, "lon": 16.1784699, "tags": {"amenity": "restaurant", "cuisine": "american", "name": "Babas Burger", "outdoor_seating": "yes", "takeaway": "yes"}}, {"type": "node", "id": 1871817070, "lat": 58.3368166, "lon": 16.0268184, "tags": {"amenity": "cafe"}}, {"type": "node", "id": 1913811721, "lat": 58.4079674, "lon": 15.6183524, "tags": {"addr:city": "Link\u00f6ping", "addr:country": "SE", "addr:housenumber": "48A", "addr:postcode": "582 27", "addr:street": "Drottninggatan", "amenity": "restaurant", "check_date:opening_hours": "2021-10-10", "cuisine": "pizza;kebab", "name": "Pizzeria Empoli", "opening_hours": "Mo-Fr 11:00-22:00; Sa-Su 12:00-22:00", "phone": "+4613122023", "source": "http://www.empoli.nu", "website": "http://www.empoli.nu"}}, {"type": "node", "id": 1913814649, "lat": 58.4080148, "lon": 15.617489, "tags": {"addr:city": "Link\u00f6ping", "addr:country": "SE", "addr:housenumber": "2", "addr:postcode": "58227", "addr:street": "Elsa Br\u00e4ndstr\u00f6ms gata", "amenity": "restaurant", "cuisine": "regional", "name": "Drottningbaren", "opening_hours": "Mo-Fr 11:00-14:00", "source": "http://www.drottningbaren.se/", "website": "http://www.drottningbaren.se/"}}, {"type": "node", "id": 1913819148, "lat": 58.5104381, "lon": 15.5027771, "tags": {"amenity": "restaurant", "cuisine": "pizza", "name": "Pizzeria Ciao Ciao", "source": "http://www.ciaociaopizza.se/", "website": "http://www.ciaociaopizza.se/"}}, {"type": "node", "id": 2027955496, "lat": 58.4858838, "lon": 15.5259844}, {"type": "node", "id": 2027955497, "lat": 58.485893, "lon": 15.5261986}, {"type": "node", "id": 2027955500, "lat": 58.4858963, "lon": 15.5259123}, {"type": "node", "id": 2027955502, "lat": 58.4858993, "lon": 15.525982}, {"type": "node", "id": 2027955503, "lat": 58.4859093, "lon": 15.526196}, {"type": "node", "id": 2027955504, "lat": 58.4859124, "lon": 15.5262666}, {"type": "node", "id": 2027955507, "lat": 58.4860836, "lon": 15.5258791}, {"type": "node", "id": 2027955508, "lat": 58.4860857, "lon": 15.5259265}, {"type": "node", "id": 2027955509, "lat": 58.486097, "lon": 15.5261646}, {"type": "node", "id": 2027955510, "lat": 58.4860638, "lon": 15.5262743}, {"type": "node", "id": 2027955511, "lat": 58.4861328, "lon": 15.5259191}, {"type": "node", "id": 2027955512, "lat": 58.4861128, "lon": 15.5261621}, {"type": "node", "id": 2072542099, "lat": 58.507972, "lon": 16.0329557}, {"type": "node", "id": 2072542102, "lat": 58.5079973, "lon": 16.0327349}, {"type": "node", "id": 2072542107, "lat": 58.5080373, "lon": 16.0329831}, {"type": "node", "id": 2072542108, "lat": 58.5080625, "lon": 16.0327623}, {"type": "node", "id": 2080496953, "lat": 58.4102946, "lon": 15.6232667, "tags": {"addr:city": "Link\u00f6ping", "addr:country": "SE", "addr:housenumber": "3", "addr:postcode": "582 24", "addr:street": "Tanneforsgatan", "amenity": "restaurant", "cuisine": "burger", "name": "Br\u00f6dernas", "opening_hours": "Mo-Th 11:00-14:00, 16:30-21:00; Fr 11:00-21:00; Sa-Su 12:00-21:00", "phone": "+46 13 190 21 90", "website": "https://www.brodernas.nu/restauranger/linkoping/"}}, {"type": "node", "id": 2104303161, "lat": 58.5181813, "lon": 15.4280127}, {"type": "node", "id": 2104303164, "lat": 58.5183172, "lon": 15.428251}, {"type": "node", "id": 2104303169, "lat": 58.5186362, "lon": 15.4270541}, {"type": "node", "id": 2271117262, "lat": 58.375506, "lon": 15.6434249}, {"type": "node", "id": 2271117268, "lat": 58.3755865, "lon": 15.6431063}, {"type": "node", "id": 2271117277, "lat": 58.3756907, "lon": 15.643594}, {"type": "node", "id": 2271117281, "lat": 58.3757626, "lon": 15.6433095}, {"type": "node", "id": 2278289399, "lat": 58.3931894, "lon": 15.6781114}, {"type": "node", "id": 2278289403, "lat": 58.3932141, "lon": 15.6780706}, {"type": "node", "id": 2278289404, "lat": 58.3932372, "lon": 15.6781218}, {"type": "node", "id": 2278289407, "lat": 58.3932128, "lon": 15.6781632}, {"type": "node", "id": 2296381298, "lat": 58.4141733, "lon": 15.6161015, "tags": {"amenity": "restaurant", "cuisine": "regional", "diet:vegetarian": "yes", "name": "Hagdahls k\u00f6k", "opening_hours": "Mo-Fr 11:00-15:00", "website": "http://www.hagdahls.se/"}}, {"type": "node", "id": 2300459952, "lat": 58.5086532, "lon": 15.5023363}, {"type": "node", "id": 2300459953, "lat": 58.5087341, "lon": 15.5023794}, {"type": "node", "id": 2300459954, "lat": 58.5087439, "lon": 15.5023061}, {"type": "node", "id": 2300459955, "lat": 58.5087582, "lon": 15.5023011}, {"type": "node", "id": 2300459956, "lat": 58.5087708, "lon": 15.5022756}, {"type": "node", "id": 2300459957, "lat": 58.5087752, "lon": 15.5022489}, {"type": "node", "id": 2300459958, "lat": 58.5087714, "lon": 15.5022144}, {"type": "node", "id": 2300459959, "lat": 58.5087605, "lon": 15.5021927}, {"type": "node", "id": 2300459960, "lat": 58.5087431, "lon": 15.5021826}, {"type": "node", "id": 2300459962, "lat": 58.5086776, "lon": 15.5021851}, {"type": "node", "id": 2301135158, "lat": 58.5108326, "lon": 15.5019619}, {"type": "node", "id": 2301135159, "lat": 58.5108365, "lon": 15.5021776}, {"type": "node", "id": 2301135160, "lat": 58.5109352, "lon": 15.5021712}, {"type": "node", "id": 2301135161, "lat": 58.5109313, "lon": 15.5019555}, {"type": "node", "id": 2307592219, "lat": 58.3988071, "lon": 15.6205449}, {"type": "node", "id": 2307592220, "lat": 58.398607, "lon": 15.6210769}, {"type": "node", "id": 2307592221, "lat": 58.398525, "lon": 15.6209651}, {"type": "node", "id": 2307592222, "lat": 58.3987251, "lon": 15.620433}, {"type": "node", "id": 2342017940, "lat": 58.5874644, "lon": 16.1743081, "tags": {"amenity": "restaurant", "name": "Anno 1852"}}, {"type": "node", "id": 2342018009, "lat": 58.5899919, "lon": 16.1754239, "tags": {"amenity": "cafe", "name": "Caf\u00e9 T\u00e4ppan"}}, {"type": "node", "id": 2342034794, "lat": 58.5926869, "lon": 16.177709, "tags": {"amenity": "restaurant", "cuisine": "greek", "name": "Athena"}}, {"type": "node", "id": 2342035871, "lat": 58.5935787, "lon": 16.1808659, "tags": {"amenity": "restaurant", "name": "Meze"}}, {"type": "node", "id": 2342037542, "lat": 58.5938526, "lon": 16.1814668, "tags": {"amenity": "bar", "name": "Side Bar"}}, {"type": "node", "id": 2342038232, "lat": 58.593587, "lon": 16.1830171, "tags": {"addr:country": "SE", "addr:housenumber": "9", "addr:street": "Br\u00e5ddgatan", "amenity": "restaurant", "cuisine": "international", "name": "Vila", "opening_hours": "Mo 11:30-14:00; Tu-Th 11:30-23:00; Fr 11:30-25:00, Sa 17:00-25:00", "phone": "+46-11-181849", "website": "www.restaurangvila.se"}}, {"type": "node", "id": 2342039191, "lat": 58.5940271, "lon": 16.1849222}, {"type": "node", "id": 2342039192, "lat": 58.5940164, "lon": 16.1848486}, {"type": "node", "id": 2342039193, "lat": 58.59399, "lon": 16.184942}, {"type": "node", "id": 2342039194, "lat": 58.5939793, "lon": 16.1848683}, {"type": "node", "id": 2342042877, "lat": 58.5919056, "lon": 16.1845298, "tags": {"amenity": "restaurant", "name": "Kitchen & Cocktails", "name:sv": "Santorini"}}, {"type": "node", "id": 2342042939, "lat": 58.5914051, "lon": 16.1854606, "tags": {"amenity": "restaurant", "name": "Avenyn", "website": "https://www.instagram.com/avenynnorrkoping/"}}, {"type": "node", "id": 2350619892, "lat": 58.5909758, "lon": 16.1876917, "tags": {"amenity": "restaurant", "name": "Ardor"}}, {"type": "node", "id": 2361623622, "lat": 58.4816602, "lon": 15.8750101}, {"type": "node", "id": 2361623626, "lat": 58.4817063, "lon": 15.8757953}, {"type": "node", "id": 2361623631, "lat": 58.4818475, "lon": 15.8749698}, {"type": "node", "id": 2361623633, "lat": 58.4818936, "lon": 15.875755}, {"type": "node", "id": 2380063753, "lat": 58.3817063, "lon": 15.4367688, "tags": {"amenity": "restaurant", "cuisine": "pizza", "name": "\u00c5tta glas"}}, {"type": "node", "id": 2387990451, "lat": 58.4711417, "lon": 15.4229076, "tags": {"amenity": "cafe", "name": "Bost\u00e4llets vedugnsbageri", "shop": "bakery", "website": "https://www.bostallets.se/"}}, {"type": "node", "id": 2393692460, "lat": 58.4249194, "lon": 15.6183802, "tags": {"addr:city": "Link\u00f6ping", "addr:country": "SE", "addr:housenumber": "11", "addr:street": "Roxengatan", "amenity": "restaurant", "cuisine": "regional", "name": "Restaurang Ganymeden", "opening_hours": "Mo-Fr 08:00-13:30", "website": "https://ganymeden.se/"}}, {"type": "node", "id": 2609451734, "lat": 58.4086403, "lon": 15.6248738, "tags": {"addr:city": "Link\u00f6ping", "addr:country": "SE", "addr:housenumber": "26", "addr:postcode": "582 25", "addr:street": "Drottninggatan", "amenity": "restaurant", "cuisine": "burger;steak_house", "name": "Flaming Bull", "opening_hours": "Tu-Fr 16:00-22:00; Sa 12:00-22:00; Su 12:00-21:00; Mo off", "phone": "+46 13-14 37 65"}}, {"type": "node", "id": 2701783845, "lat": 58.5072219, "lon": 15.9748977, "tags": {"amenity": "restaurant", "name": "Kapten Billes", "opening_hours": "Tu-Sa 10:00-20:00; Su 10:00-17:00", "source": "survey", "website": "https://kaptenbille.se/"}}, {"type": "node", "id": 2725453552, "lat": 58.4094276, "lon": 15.6349231}, {"type": "node", "id": 2725453553, "lat": 58.4094451, "lon": 15.6350877}, {"type": "node", "id": 2725453554, "lat": 58.4093959, "lon": 15.6351068}, {"type": "node", "id": 2725453555, "lat": 58.4093944, "lon": 15.6350931}, {"type": "node", "id": 2725453556, "lat": 58.4093453, "lon": 15.6351121}, {"type": "node", "id": 2725453557, "lat": 58.4093349, "lon": 15.6350141}, {"type": "node", "id": 2725453558, "lat": 58.4093847, "lon": 15.6349948}, {"type": "node", "id": 2725453559, "lat": 58.4093791, "lon": 15.6349419}, {"type": "node", "id": 2758193367, "lat": 58.6041693, "lon": 16.158312}, {"type": "node", "id": 2758193368, "lat": 58.604153, "lon": 16.1584618}, {"type": "node", "id": 2758193369, "lat": 58.6040789, "lon": 16.1584321}, {"type": "node", "id": 2758193370, "lat": 58.6040952, "lon": 16.1582823}, {"type": "node", "id": 2893309428, "lat": 58.41039, "lon": 15.626459, "tags": {"addr:city": "Link\u00f6ping", "addr:country": "SE", "addr:housenumber": "3", "addr:street": "Lilla torget", "amenity": "cafe", "check_date:opening_hours": "2021-04-20", "name": "Gyllencaf\u00e9et", "opening_hours": "Mo-Fr 07:30-19:00, Sa 07:30-17:00, Su 10:00-17:00"}}, {"type": "node", "id": 2917267988, "lat": 58.2956594, "lon": 15.6712264, "tags": {"amenity": "cafe", "name": "Stafs\u00e4ters G\u00e5rdsglass AB", "website": "https://www.stafsater.se/"}}, {"type": "node", "id": 2929866655, "lat": 58.4104748, "lon": 15.6184101, "tags": {"amenity": "restaurant", "name": "Munkk\u00e4llaren", "opening_hours:signed": "no"}}, {"type": "node", "id": 2929876774, "lat": 58.4102528, "lon": 15.6216689, "tags": {"addr:city": "Link\u00f6ping", "addr:country": "SE", "addr:housenumber": "1", "addr:postcode": "582 19", "addr:street": "Stora torget", "amenity": "restaurant", "cuisine": "italian", "name": "1854", "opening_hours": "Mo off; Tu-Th 17:00-22:00; Fr 16:00-24:00; Sa 12:00-24:00; Su 12:00-21:30", "phone": "+4613133191", "website": "https://1854.se/"}}, {"type": "node", "id": 2929883124, "lat": 58.4092763, "lon": 15.6230771, "tags": {"addr:city": "Link\u00f6ping", "addr:country": "SE", "addr:housenumber": "4", "addr:postcode": "58223", "addr:street": "Stora Badstugatan", "amenity": "cafe", "cuisine": "coffee_shop", "name": "Babettes kafferi", "opening_hours": "Tu-Fr 08:00-18:00; Sa 10:00-16:00", "toilets:wheelchair": "yes", "website": "https://babettes.se/", "wheelchair": "yes"}}, {"type": "node", "id": 2930681391, "lat": 58.4122634, "lon": 15.6281494, "tags": {"addr:city": "Link\u00f6ping", "addr:country": "SE", "addr:housenumber": "10", "addr:postcode": "582 22", "addr:street": "\u00c5gatan", "amenity": "restaurant", "cuisine": "pizza;regional", "diet:vegetarian": "yes", "name": "Butterfly", "opening_hours": "Mo-Th 11:00-21:00; Fr 10:00-22:00; Sa 12:00-22:00; Su 12:00-21:00", "phone": "+46 13-13 96 55", "website": "https://butterflyrestaurang.se/"}}, {"type": "node", "id": 2930681568, "lat": 58.4117237, "lon": 15.6301498, "tags": {"addr:city": "Link\u00f6ping", "addr:country": "SE", "addr:housenumber": "1", "addr:postcode": "58223", "addr:street": "Storgatan", "amenity": "restaurant", "cuisine": "regional", "name": "Ekk\u00e4llan mat & dryck", "opening_hours": "Mo-Fr 11:00-22:00; Sa-Su 12:30-22:00", "phone": "+46 13-14 14 38", "website": "https://ekkallanmatodryck.se/ekkallan-storgatan/"}}, {"type": "node", "id": 2930694967, "lat": 58.4127276, "lon": 15.6278698}, {"type": "node", "id": 2941416440, "lat": 58.4134395, "lon": 15.6307558}, {"type": "node", "id": 2941416441, "lat": 58.4132574, "lon": 15.6311141}, {"type": "node", "id": 2941416442, "lat": 58.4133754, "lon": 15.631332}, {"type": "node", "id": 2941416443, "lat": 58.4135575, "lon": 15.6309737}, {"type": "node", "id": 2985098102, "lat": 58.6457805, "lon": 16.0332761, "tags": {"amenity": "cafe", "name": "Caf\u00e9 Villa Flora"}}, {"type": "node", "id": 3011428687, "lat": 58.587358, "lon": 16.1769643, "tags": {"addr:city": "Norrk\u00f6ping", "addr:country": "SE", "addr:housenumber": "69", "addr:street": "Kungsgatan", "amenity": "restaurant", "cuisine": "lebanese", "name": "Paradis du Liban"}}, {"type": "node", "id": 3024896182, "lat": 58.6007982, "lon": 16.1580912, "tags": {"addr:city": "Norrk\u00f6ping", "addr:country": "SE", "addr:housenumber": "18B", "addr:postcode": "602 13", "addr:street": "Taborsbergsv\u00e4gen", "amenity": "restaurant", "name": "Habibi"}}, {"type": "node", "id": 3024896186, "lat": 58.600816, "lon": 16.1578323, "tags": {"addr:city": "Norrk\u00f6ping", "addr:country": "SE", "addr:housenumber": "20", "addr:postcode": "602 13", "addr:street": "Taborsbergsv\u00e4gen", "amenity": "restaurant", "name": "Nya Haga Krog", "outdoor_seating": "yes", "website": "www.hagakrog.se"}}, {"type": "node", "id": 3074865554, "lat": 58.3811841, "lon": 15.5749788, "tags": {"amenity": "restaurant", "cuisine": "pizza", "entrance": "yes", "name": "Orhans Krog", "opening_hours": "Mo-Th 15:00-22:00; Su 12:00-21:00; Sa 12:00-22:00"}}, {"type": "node", "id": 3282932015, "lat": 58.3982101, "lon": 15.5761921, "tags": {"amenity": "cafe", "cuisine": "coffee_shop", "name": "Caf\u00e9 Java", "opening_hours": "Mo-Th 09:00-17:00; Fr 09:30-16:00", "operator": "H\u00f6gskolerestauranger", "outdoor_seating": "no"}}, {"type": "node", "id": 3282932016, "lat": 58.4015289, "lon": 15.5785005, "tags": {"amenity": "restaurant", "cuisine": "asian", "delivery": "no", "drive_through": "no", "name": "EAT Link\u00f6ping steetfood", "opening_hours": "Mo-Fr 10:00-16:00", "operator": "Eurest", "outdoor_seating": "yes", "smoking": "no"}}, {"type": "node", "id": 3282932024, "lat": 58.4015309, "lon": 15.578167, "tags": {"amenity": "cafe", "name": "Moccado", "opening_hours": "Mo-Th 10:00-11:15, 12:00-16:00; Fr 10:00-11:15, 12:00-15:00", "operator": "Eurest"}}, {"type": "node", "id": 3282932025, "lat": 58.4019853, "lon": 15.5769428, "tags": {"amenity": "cafe", "name": "Podden i A-huset", "opening_hours": "Mo-Fr 09:00-15:15", "operator": "Eurest"}}, {"type": "node", "id": 3282932026, "lat": 58.4006463, "lon": 15.5785784, "tags": {"amenity": "restaurant", "cuisine": "regional", "name": "Restaurang K\u00e5rallen", "opening_hours": "Mo-Fr 11:00-13:30", "operator": "Eurest"}}, {"type": "node", "id": 3282932033, "lat": 58.3974123, "lon": 15.5773362, "tags": {"amenity": "cafe", "brand": "Akademibokhandeln", "cuisine": "asian", "name": "Zodiaken", "opening_hours": "Mo-Fr 11:00-15:00", "operator": "H\u00f6gskolerestauranger", "shop": "books", "website": "https://www.hors.se/restaurang/zodiaken/"}}, {"type": "node", "id": 3340860142, "lat": 58.2555403, "lon": 15.5992457}, {"type": "node", "id": 3340860143, "lat": 58.2554719, "lon": 15.5992465}, {"type": "node", "id": 3340860144, "lat": 58.2554726, "lon": 15.5994315}, {"type": "node", "id": 3340860145, "lat": 58.255541, "lon": 15.5994306}, {"type": "node", "id": 3385782991, "lat": 58.400104, "lon": 15.6483049}, {"type": "node", "id": 3385782996, "lat": 58.4001125, "lon": 15.6481792}, {"type": "node", "id": 3385783009, "lat": 58.4002232, "lon": 15.6483062}, {"type": "node", "id": 3385783012, "lat": 58.4002298, "lon": 15.6482078}, {"type": "node", "id": 3529139623, "lat": 58.581805, "lon": 16.1840239, "tags": {"amenity": "restaurant", "cuisine": "pizza", "name": "Rosa Pantern", "smoking": "no", "takeaway": "yes"}}, {"type": "node", "id": 3538959412, "lat": 58.4292402, "lon": 15.5938179}, {"type": "node", "id": 3538959416, "lat": 58.4293564, "lon": 15.5937235}, {"type": "node", "id": 3665273039, "lat": 58.4134658, "lon": 15.6311542}, {"type": "node", "id": 3750673548, "lat": 58.4009881, "lon": 15.5781796, "tags": {"amenity": "cafe", "check_date:opening_hours": "2022-02-18", "cuisine": "coffee_shop", "internet_access": "no", "name": "Sektionscaf\u00e9 Baljan", "opening_hours": "Mo-Fr 08:00-16:15", "phone": "+46 13 259927", "takeaway": "yes", "website": "https://baljan.org/"}}, {"type": "node", "id": 3760875191, "lat": 58.4132161, "lon": 15.6065551, "tags": {"addr:city": "Link\u00f6ping", "addr:country": "SE", "addr:housenumber": "5", "addr:postcode": "582 34", "addr:street": "V\u00e4stra v\u00e4gen", "amenity": "restaurant", "cuisine": "sushi", "name": "Sakura Sushi Bar", "opening_hours": "Mo-Su 11:00-21:00", "takeaway": "yes"}}, {"type": "node", "id": 3764178561, "lat": 58.4108011, "lon": 15.6247143, "tags": {"addr:city": "Link\u00f6ping", "addr:country": "SE", "addr:housenumber": "25A", "addr:postcode": "582 24", "addr:street": "Sankt Larsgatan", "amenity": "restaurant", "capacity": "150", "cuisine": "thai", "name": "Taste of Thai", "opening_hours": "Mo off; Tu-Th 11:00-21:00; Fr 11:00-22:00; Sa 11:30-22:00; Su 12:00-21:00", "phone": "+46 13-131888", "source": "survey", "takeaway": "yes", "website": "http://tasteofthai.nu"}}, {"type": "node", "id": 3764178563, "lat": 58.4122473, "lon": 15.6222465, "tags": {"addr:city": "Link\u00f6ping", "addr:country": "SE", "addr:housenumber": "24", "addr:postcode": "582 23", "addr:street": "Klostergatan", "amenity": "restaurant", "cuisine": "sushi", "name": "Kikkosan", "opening_hours": "Mo-Th 11:30-21:00; Fr 11:30-21:30; Sa 12:00-21:30; Su 13:00-20:00", "source": "survey", "takeaway": "yes", "website": "http://www.kikkosan.se"}}, {"type": "node", "id": 3770643560, "lat": 58.4120464, "lon": 15.6206944, "tags": {"addr:city": "Link\u00f6ping", "addr:country": "SE", "addr:housenumber": "5A", "addr:postcode": "58220", "addr:street": "Platensgatan", "amenity": "restaurant", "cuisine": "asian", "name": "Spice", "opening_hours": "Mo-Fr 11:00-21:00, Sa,Su 12:00-21:00", "phone": "+4613130688", "takeaway": "yes"}}, {"type": "node", "id": 3791200535, "lat": 58.5794983, "lon": 15.9149524}, {"type": "node", "id": 3791200536, "lat": 58.5795111, "lon": 15.9151314}, {"type": "node", "id": 3791200537, "lat": 58.5796367, "lon": 15.914916}, {"type": "node", "id": 3791200538, "lat": 58.5796495, "lon": 15.915095}, {"type": "node", "id": 3921616738, "lat": 58.3811639, "lon": 15.4371846}, {"type": "node", "id": 3921616744, "lat": 58.3812195, "lon": 15.4373779}, {"type": "node", "id": 3921616745, "lat": 58.3812275, "lon": 15.437084}, {"type": "node", "id": 3921616747, "lat": 58.3812351, "lon": 15.4371101}, {"type": "node", "id": 3921616748, "lat": 58.3812528, "lon": 15.4373431}, {"type": "node", "id": 3921616753, "lat": 58.3812897, "lon": 15.4374712}, {"type": "node", "id": 3921616756, "lat": 58.3813258, "lon": 15.4369811}, {"type": "node", "id": 3921616757, "lat": 58.3813271, "lon": 15.4374319}, {"type": "node", "id": 3921616758, "lat": 58.3813288, "lon": 15.4374379}, {"type": "node", "id": 3921616772, "lat": 58.3814275, "lon": 15.4373346}, {"type": "node", "id": 3930691584, "lat": 58.3755363, "lon": 15.6433047, "tags": {"addr:city": "Link\u00f6ping", "addr:country": "SE", "addr:housenumber": "1", "addr:postcode": "589 57", "addr:street": "H\u00e4sslegatan", "entrance": "main"}}, {"type": "node", "id": 3930716971, "lat": 58.3755993, "lon": 15.6435103, "tags": {"addr:city": "Link\u00f6ping", "addr:country": "SE", "addr:housenumber": "2", "addr:postcode": "589 57", "addr:street": "H\u00e4sslegatan"}}, {"type": "node", "id": 3971801914, "lat": 58.4100511, "lon": 15.6229328}, {"type": "node", "id": 4079772995, "lat": 58.4326884, "lon": 15.5862186}, {"type": "node", "id": 4079772998, "lat": 58.4326869, "lon": 15.5862589}, {"type": "node", "id": 4079773000, "lat": 58.4326853, "lon": 15.5863431}, {"type": "node", "id": 4079773003, "lat": 58.4328239, "lon": 15.5861036}, {"type": "node", "id": 4079773009, "lat": 58.4328783, "lon": 15.5860377}, {"type": "node", "id": 4079773019, "lat": 58.4329048, "lon": 15.5860172}, {"type": "node", "id": 4079773022, "lat": 58.4329435, "lon": 15.5861843}, {"type": "node", "id": 4079773100, "lat": 58.4343208, "lon": 15.5855732}, {"type": "node", "id": 4079773102, "lat": 58.4343325, "lon": 15.5854795}, {"type": "node", "id": 4079773103, "lat": 58.4343496, "lon": 15.5856273}, {"type": "node", "id": 4079773108, "lat": 58.4343469, "lon": 15.5853712}, {"type": "node", "id": 4086834151, "lat": 58.411033, "lon": 15.635349, "tags": {"addr:city": "Link\u00f6ping", "addr:country": "SE", "addr:housenumber": "15", "addr:postcode": "582 42", "addr:street": "Nya Tanneforsv\u00e4gen", "amenity": "restaurant", "cuisine": "kebab;pizza", "name": "Bobbys Pizza & Bar", "opening_hours": "Mo-Fr 11:00-18:00+; Sa,Su 12:00-18:00+", "takeaway": "yes"}}, {"type": "node", "id": 4095706801, "lat": 58.410371, "lon": 15.6262746, "tags": {"addr:city": "Link\u00f6ping", "addr:country": "SE", "addr:housenumber": "1", "addr:street": "Lilla torget", "amenity": "restaurant", "cuisine": "salad", "name": "Holy Greens", "opening_hours": "Mo-Fr 10:00-18:00; Sa 11:00-16:00; Su off", "takeaway": "yes", "website": "https://holygreens.se/"}}, {"type": "node", "id": 4095706803, "lat": 58.4102767, "lon": 15.6249181, "tags": {"addr:city": "Link\u00f6ping", "addr:country": "SE", "addr:housenumber": "25C", "addr:postcode": "582 24", "addr:street": "Sankt Larsgatan", "amenity": "restaurant", "check_date:opening_hours": "2021-10-09", "cuisine": "greek", "name": "Grekiskt & Gott", "opening_hours": "Mo-Th 11:00-22:00; Fr 11:00-22:30; Sa 12:00-22:30; Su off", "phone": "+46 13-10 05 50", "website": "https://www.grekisktgott.com/"}}, {"type": "node", "id": 4095706808, "lat": 58.4103557, "lon": 15.6211671, "tags": {"addr:city": "Link\u00f6ping", "addr:country": "SE", "addr:housenumber": "3", "addr:place": "Stora torget", "addr:postcode": "582 19", "amenity": "restaurant", "cuisine": "regional", "name": "Turbulens", "opening_hours": "Mo-Th 16:00+, Fr 15:00-25:00, Sa 12:00-25:00; Su off", "phone": "+46 76-935 34 50", "website": "https://turbulensbistro.se/", "wheelchair": "no"}}, {"type": "node", "id": 4095706809, "lat": 58.4108134, "lon": 15.6240991, "tags": {"addr:city": "Link\u00f6ping", "addr:country": "SE", "addr:housenumber": "38", "addr:street": "Storgatan", "amenity": "restaurant", "cuisine": "asian", "name": "Ming Palace", "opening_hours": "Mo-Th 11:00-16:00; Fr 11:00-20:00; Sa 12:30-20:00; Su 12:00-16:00", "takeaway": "yes"}}, {"type": "node", "id": 4095706810, "lat": 58.4110409, "lon": 15.6260844, "tags": {"addr:city": "Link\u00f6ping", "addr:country": "SE", "addr:housenumber": "30", "addr:postcode": "582 23", "addr:street": "Storgatan", "amenity": "restaurant", "name": "Pinchos", "opening_hours": "closed \"St\u00e4ngt tillsvidare\"", "website": "https://www.pinchos.se/restaurant/se-linkoping-stor/"}}, {"type": "node", "id": 4095706812, "lat": 58.4103874, "lon": 15.6248745, "tags": {"addr:city": "Link\u00f6ping", "addr:country": "SE", "addr:housenumber": "25C", "addr:postcode": "582 24", "addr:street": "Sankt Larsgatan", "amenity": "restaurant", "cuisine": "american;burger;steak_house", "name": "Texas Longhorn", "opening_hours": "Mo-Fr 11:30-14:00,17:00-22:00; Sa 12:00-23:00; Su off", "opening_hours:covid19": "Mo-Fr 11:30-14:00, 17:00-22:00; Sa 12:00-22:00; Su off", "phone": "+46 13-144061", "website": "https://www.texaslonghorn.se/linkoping"}}, {"type": "node", "id": 4124123392, "lat": 58.4114353, "lon": 15.613006, "tags": {"addr:city": "Link\u00f6ping", "addr:country": "SE", "addr:housenumber": "5", "addr:postcode": "58232", "addr:street": "\u00d6stg\u00f6tagatan", "amenity": "cafe", "email": "havajava.linkoping@fazer.se", "name": "Caf\u00e9 Galejan", "opening_hours": "Mo-Fr 10:00-16:00", "phone": "+46 13 12 95 22", "website": "https://www.fazer.se/restauranger-cafeer-och-maltidstjanster/menyer/cafe-galejan/"}}, {"type": "node", "id": 4124144198, "lat": 58.4042908, "lon": 15.6018484, "tags": {"addr:city": "Link\u00f6ping", "addr:country": "SE", "addr:housenumber": "24", "addr:postcode": "58213", "addr:street": "Fridtunagatan", "amenity": "restaurant", "cuisine": "regional", "name": "Svinneriet", "opening_hours": "Mo-Fr 11:00-14:00", "website": "https://www.svinneriet.se/"}}, {"type": "node", "id": 4141815889, "lat": 58.4064633, "lon": 15.6509863, "tags": {"addr:city": "Link\u00f6ping", "addr:country": "SE", "addr:housenumber": "2", "addr:postcode": "58187", "addr:street": "Gelbgjutaregatan", "amenity": "restaurant", "cuisine": "regional", "delivery": "no", "name": "Krubbstugan", "opening_hours": "Mo-Fr 11:00-14:00", "takeaway": "yes", "website": "https://www.krubbstugan.se/"}}, {"type": "node", "id": 4142636290, "lat": 58.4023595, "lon": 15.6611555, "tags": {"entrance": "main"}}, {"type": "node", "id": 4163977541, "lat": 58.617556, "lon": 16.1541027}, {"type": "node", "id": 4163977549, "lat": 58.6175977, "lon": 16.1543573}, {"type": "node", "id": 4163977557, "lat": 58.617636, "lon": 16.1540545}, {"type": "node", "id": 4163977560, "lat": 58.6176776, "lon": 16.1543091}, {"type": "node", "id": 4178997167, "lat": 58.4859109, "lon": 15.5249442}, {"type": "node", "id": 4178997168, "lat": 58.4859139, "lon": 15.52501}, {"type": "node", "id": 4178997173, "lat": 58.485921, "lon": 15.5252176}, {"type": "node", "id": 4178997178, "lat": 58.4859637, "lon": 15.5249355}, {"type": "node", "id": 4178997179, "lat": 58.4859666, "lon": 15.5249973}, {"type": "node", "id": 4178997185, "lat": 58.4859731, "lon": 15.5249962}, {"type": "node", "id": 4178998991, "lat": 58.4859827, "lon": 15.5252074}, {"type": "node", "id": 4257735698, "lat": 58.3801071, "lon": 15.6796926}, {"type": "node", "id": 4280117596, "lat": 58.5954186, "lon": 16.1763445, "tags": {"amenity": "restaurant", "cuisine": "japanese", "name": "Sukiyaki", "opening_hours": "Mo-Th 11:30-21:00; Fr 11:30-22:00; Sa 13:00-22:00; Su 13:00-20:00", "phone": "+46 11-23 88 22"}}, {"type": "node", "id": 4280211293, "lat": 58.5889484, "lon": 16.1879983, "tags": {"amenity": "cafe", "name": "Teaterbaren Skandia", "opening_hours": "Mo-Th 11:00-23:00; Fr-Sa 11:00-25:00"}}, {"type": "node", "id": 4280215592, "lat": 58.5894117, "lon": 16.1878504, "tags": {"amenity": "cafe", "cuisine": "ice_cream", "name": "Caf\u00e9 plaza"}}, {"type": "node", "id": 4280234690, "lat": 58.5905878, "lon": 16.1872129, "tags": {"amenity": "restaurant", "cuisine": "pasta;italian", "name": "H\u00e4rlig pasta", "opening_hours": "Mo-Th 11:30-21:00; Fr 11:30-22:00; Sa 12:00-22:00"}}, {"type": "node", "id": 4297013089, "lat": 58.5942222, "lon": 16.1813519, "tags": {"amenity": "restaurant", "name": "Steak House"}}, {"type": "node", "id": 4303467649, "lat": 58.4075379, "lon": 15.6580456, "tags": {"addr:city": "Link\u00f6ping", "addr:country": "SE", "addr:housenumber": "20", "addr:postcode": "58254", "addr:street": "\u00c5kerbogatan", "amenity": "restaurant", "cuisine": "burger;regional", "delivery": "no", "diet:gluten_free": "yes", "diet:lactose_free": "yes", "diet:vegan": "yes", "diet:vegetarian": "yes", "email": "kontakt@restaurangskyline.se", "name": "Restaurang Skyline", "opening_hours": "Mo-Fr 09:00-15:00", "opening_hours:kitchen": "Mo-Fr 11:00-14:00", "payment:cash": "no", "phone": "+46 13-13 78 47", "smoking": "no", "takeaway": "yes", "website": "https://restaurangskyline.se/", "wheelchair": "yes"}}, {"type": "node", "id": 4317635919, "lat": 58.4104219, "lon": 15.6318742, "tags": {"addr:city": "Link\u00f6ping", "addr:country": "SE", "addr:housenumber": "2", "addr:street": "Strandgatan", "amenity": "restaurant", "leisure": "pitch", "name": "Strandgatan Tv\u00e5", "opening_hours": "We-Fr 16:45-20:00; Sa,Su 12:45-20:00; Mo,Tu off", "phone": "+46 13 485 00 00", "sport": "10pin", "website": "https://www.strandgatantva.se/"}}, {"type": "node", "id": 4319359265, "lat": 58.4270309, "lon": 15.5814841, "tags": {"amenity": "restaurant", "cuisine": "kebab;pizza", "name": "Ullevi Restaurang Pizzeria", "opening_hours": "Mo-Fr 11:00-20:00; Sa-Su 12:00-20:00", "phone": "+46 13 17 03 30", "takeaway": "yes", "website": "https://ullevi-pizzeria.business.site/"}}, {"type": "node", "id": 4319359269, "lat": 58.4264154, "lon": 15.5805978, "tags": {"amenity": "restaurant", "cuisine": "indian", "delivery": "yes", "email": "yap_chin57@hotmail.com", "name": "Spicy India", "opening_hours": "Mo-Fr 11:00-20:00; Sa-Su 12:00-20:00", "phone": "+46 13 12 02 62", "takeaway": "yes", "wheelchair": "yes"}}, {"type": "node", "id": 4319359272, "lat": 58.4264271, "lon": 15.5804254, "tags": {"amenity": "restaurant", "cuisine": "asian;sushi", "delivery": "yes", "email": "yap_chin57@hotmail.com", "name": "Yumei", "opening_hours": "Mo-Fr 11:00-20:00; Sa-Su 12:00-20:00", "phone": "+46 13 12 02 62", "takeaway": "yes", "website": "http://yumei.se/", "wheelchair": "yes"}}, {"type": "node", "id": 4319359273, "lat": 58.4267597, "lon": 15.5815968, "tags": {"amenity": "restaurant", "cuisine": "burger;kebab", "delivery": "yes", "diet:vegetarian": "yes", "email": "hemen_81@hotmail.com", "name": "Zagros Kolgrill", "opening_hours": "Mo-Fr 11:00-21:00; Sa-Su 12:00-21:00", "phone": "+46 13 474 85 00", "takeaway": "yes", "website": "http://zagros.hotmat.se/"}}, {"type": "node", "id": 4323120336, "lat": 58.4180358, "lon": 15.6172389, "tags": {"amenity": "cafe", "name": "Cirkus Caf\u00e9et"}}, {"type": "node", "id": 4323137435, "lat": 58.4178099, "lon": 15.6212192, "tags": {"addr:city": "Link\u00f6ping", "addr:country": "SE", "addr:housenumber": "2", "addr:street": "Sparregatan", "amenity": "restaurant", "cuisine": "indian;kebab", "name": "2 Smaker"}}, {"type": "node", "id": 4326135726, "lat": 58.4101958, "lon": 15.5618113}, {"type": "node", "id": 4326135727, "lat": 58.4101501, "lon": 15.5618578}, {"type": "node", "id": 4326135728, "lat": 58.4101727, "lon": 15.5619386}, {"type": "node", "id": 4326135729, "lat": 58.4102185, "lon": 15.5618921}, {"type": "node", "id": 4412252091, "lat": 58.4103014, "lon": 15.6194037, "tags": {"addr:city": "Link\u00f6ping", "addr:country": "SE", "addr:housenumber": "54", "addr:postcode": "582 28", "addr:street": "Storgatan", "amenity": "cafe", "cuisine": "coffee_shop", "email": "info@cafechocolat.se", "name": "Caf\u00e9 Chocolat", "opening_hours": "Mo-Fr 09:00-17:00; Sa 09:00-16:00", "phone": "+46 13 138 800", "website": "http://www.cafechocolat.se"}}, {"type": "node", "id": 4528616397, "lat": 58.4168649, "lon": 15.6221177, "tags": {"addr:city": "Link\u00f6ping", "addr:country": "SE", "addr:housenumber": "2", "addr:postcode": "582 21", "addr:street": "Bielkegatan", "amenity": "restaurant", "cuisine": "chinese", "name": "East", "opening_hours": "Mo-Th 11:00-14:30, 17:00-21:00; Fr 11:00-14:30, 17:00-21:30; Sa 12:00-15:00, 17:00-21:30; Su 12:00-15:00, 17:00-21:00", "phone": "+461366788", "website": "http://restaurangeast.se/"}}, {"type": "node", "id": 4538197279, "lat": 58.4090011, "lon": 15.624926, "tags": {"addr:city": "Link\u00f6ping", "addr:country": "SE", "addr:housenumber": "36", "addr:street": "Sankt Larsgatan", "amenity": "cafe", "cuisine": "sandwich", "name": "Teddys & Friends", "opening_hours": "Mo-Fr 08:00-16:00; Sa 08:00-12:00; Su off"}}, {"type": "node", "id": 4581710257, "lat": 58.3986559, "lon": 15.6209469, "tags": {"addr:city": "Link\u00f6ping", "addr:country": "SE", "addr:housenumber": "12", "addr:street": "Garnisonsv\u00e4gen"}}, {"type": "node", "id": 4581710258, "lat": 58.3987632, "lon": 15.6206615, "tags": {"addr:city": "Link\u00f6ping", "addr:country": "SE", "addr:housenumber": "10", "addr:street": "Garnisonsv\u00e4gen"}}, {"type": "node", "id": 4640788196, "lat": 58.4095231, "lon": 15.625044, "tags": {"addr:city": "Link\u00f6ping", "addr:country": "SE", "addr:housenumber": "31C", "addr:postcode": "582 24", "addr:street": "Sankt Larsgatan", "amenity": "restaurant", "cuisine": "falafel", "name": "Falafelhuset", "opening_hours": "Mo-Fr 11:00-20:00; Su off; Sa 12:00-21:00", "phone": "+46 13 31 00 05", "website": "https://www.falafelhuset.com/"}}, {"type": "node", "id": 4640788430, "lat": 58.412541, "lon": 15.6280066}, {"type": "node", "id": 4640788431, "lat": 58.4125474, "lon": 15.6280674}, {"type": "node", "id": 4640788432, "lat": 58.4125653, "lon": 15.6280606}, {"type": "node", "id": 4640788433, "lat": 58.4125591, "lon": 15.6279997}, {"type": "node", "id": 4645877453, "lat": 58.4001187, "lon": 15.6483085}, {"type": "node", "id": 4645877454, "lat": 58.4001206, "lon": 15.6482812}, {"type": "node", "id": 4665861219, "lat": 58.4100759, "lon": 15.6229197}, {"type": "node", "id": 4665861220, "lat": 58.4100674, "lon": 15.6229157}, {"type": "node", "id": 4665861221, "lat": 58.4100629, "lon": 15.6229402}, {"type": "node", "id": 4665861222, "lat": 58.4100559, "lon": 15.6229084}, {"type": "node", "id": 4665861223, "lat": 58.4099883, "lon": 15.6228678}, {"type": "node", "id": 4665861224, "lat": 58.4099764, "lon": 15.6229432}, {"type": "node", "id": 4665861225, "lat": 58.4099795, "lon": 15.6230136}, {"type": "node", "id": 4665861226, "lat": 58.4099442, "lon": 15.6230162}, {"type": "node", "id": 4665861227, "lat": 58.4099394, "lon": 15.6228818}, {"type": "node", "id": 4665861228, "lat": 58.4099519, "lon": 15.6228897}, {"type": "node", "id": 4665861229, "lat": 58.4099621, "lon": 15.6228227}, {"type": "node", "id": 4665861230, "lat": 58.4099918, "lon": 15.6228407}, {"type": "node", "id": 4665861231, "lat": 58.4100009, "lon": 15.6227834}, {"type": "node", "id": 4665861232, "lat": 58.4100878, "lon": 15.6228366}, {"type": "node", "id": 4665861306, "lat": 58.4116474, "lon": 15.6227297, "tags": {"addr:city": "Link\u00f6ping", "addr:country": "SE", "addr:housenumber": "26B", "addr:postcode": "582 22", "addr:street": "\u00c5gatan", "amenity": "restaurant", "cuisine": "italian;regional", "name": "Cioccolata Bistro", "opening_hours": "Mo, Tu 11:00-22:00; We, Th 10:00-23:00; Fr 10:00-24:00; Sa 11:00+; Su 10:00-22:00", "website": "https://www.cioccolata.nu/", "wheelchair": "yes"}}, {"type": "node", "id": 4693397260, "lat": 58.4167487, "lon": 15.616989, "tags": {"addr:city": "Link\u00f6ping", "addr:country": "SE", "addr:housenumber": "11", "addr:street": "Gustav Adolfsgatan", "amenity": "restaurant", "cuisine": "french", "name": "Restaurant Parisien", "opening_hours": "Mo-Th 17:00-22:00; Fr,Sa 17:00-24:00"}}, {"type": "node", "id": 4694041860, "lat": 58.4159949, "lon": 15.6144743, "tags": {"amenity": "cafe", "name": "Caf\u00e9 Wasastan", "opening_hours": "Mo-Fr 07:30-17:00; Sa 10:00-14:00"}}, {"type": "node", "id": 4717404368, "lat": 58.4079373, "lon": 15.6185148, "tags": {"addr:city": "Link\u00f6ping", "addr:country": "SE", "addr:housenumber": "46", "addr:postcode": "582 27", "addr:street": "Drottninggatan", "amenity": "restaurant", "check_date:opening_hours": "2021-10-10", "cuisine": "asian", "name": "Restaurang Golden Lotus", "opening_hours": "Mo off; Tu-Fr 11:30-21:30; Sa 12:00-21:30; Su 12:00-21:00", "takeaway": "yes", "website": "http://restauranggoldenlotus.se/"}}, {"type": "node", "id": 4727485590, "lat": 58.3963281, "lon": 15.6158206, "tags": {"addr:city": "Link\u00f6ping", "addr:country": "SE", "addr:housenumber": "19", "addr:postcode": "58758", "addr:street": "Brigadgatan", "amenity": "restaurant", "cuisine": "pakistani", "delivery": "yes", "email": "info@masalakoket.se", "name": "Masala K\u00f6ket", "opening_hours": "Mo-Fr 15:30-21:00; Sa 11:30-22:00; Su 11:30-21:00", "phone": "+46 13-105008", "takeaway": "only", "website": "https://www.masalakoket.se/"}}, {"type": "node", "id": 4876711816, "lat": 58.3756278, "lon": 15.6431861}, {"type": "node", "id": 4876711817, "lat": 58.3756364, "lon": 15.6431521}, {"type": "node", "id": 4946793227, "lat": 58.4292949, "lon": 15.5940638}, {"type": "node", "id": 4946793228, "lat": 58.4294388, "lon": 15.5941132}, {"type": "node", "id": 4946793229, "lat": 58.4293172, "lon": 15.5940846}, {"type": "node", "id": 4970457423, "lat": 58.4101734, "lon": 15.5242863, "tags": {"addr:city": "Link\u00f6ping", "addr:country": "SE", "addr:housenumber": "2", "addr:postcode": "586 63", "addr:street": "Carl Cederstr\u00f6ms gata", "amenity": "restaurant", "delivery": "no", "name": "Calle C", "opening_hours": "Th-Tu 10:00-17:00; We 10:00-20:00", "smoking": "no", "takeaway": "no", "website": "https://www.flygvapenmuseum.se/besok-oss/mat-och-dryck/"}}, {"type": "node", "id": 5040470900, "lat": 58.5935081, "lon": 16.1815592, "tags": {"amenity": "restaurant", "name": "Angry Bull Steakhouse", "opening_hours": "Mo-Th 16:00-22:00; Fr 16:00-25:00, Sa 12:00-25:00, Su 12:00-21:00"}}, {"type": "node", "id": 5201594454, "lat": 58.4194225, "lon": 15.6128061, "tags": {"addr:city": "Link\u00f6ping", "addr:country": "SE", "addr:housenumber": "3A", "addr:postcode": "582 55", "addr:street": "Nordengatan", "amenity": "restaurant", "cuisine": "asian;regional", "name": "Dung's Kitchen"}}, {"type": "node", "id": 5349622155, "lat": 58.4187507, "lon": 15.612049, "tags": {"addr:city": "Link\u00f6ping", "addr:country": "SE", "addr:housenumber": "5", "addr:postcode": "582 77", "addr:street": "Timmermansgatan", "amenity": "restaurant", "cuisine": "italian", "delivery": "no", "email": "info@leborgate.se", "name": "Le Borgate", "opening_hours": "Tu-Sa 16:00-23:00; Su 14:00-21:00", "phone": "+46 13-482 04 57", "takeaway": "yes", "website": "https://leborgate.se/"}}, {"type": "node", "id": 5370093262, "lat": 58.3935254, "lon": 15.5807226, "tags": {"addr:city": "Link\u00f6ping", "addr:country": "SE", "addr:housenumber": "42", "addr:postcode": "582 28", "addr:street": "Johannes Magnus v\u00e4g", "amenity": "restaurant", "check_date:opening_hours": "2021-06-22", "cuisine": "pizza;kebab", "diet:meat": "yes", "diet:vegan": "yes", "diet:vegetarian": "yes", "name": "Vallastadens Pizzeria", "opening_hours": "Mo-Fr 11:00-21:00; Sa-Su 12:00-21:00", "phone": "+46 13-104410", "takeaway": "yes"}}, {"type": "node", "id": 5461271847, "lat": 58.4327143, "lon": 15.5864346, "tags": {"amenity": "restaurant", "cuisine": "tacos;pizza;burger", "level": "1", "name": "Grab & Bite", "opening_hours": "Mo-Fr 11:00-19:00; Sa,Su 11:00-17:00"}}, {"type": "node", "id": 5475794975, "lat": 58.3904092, "lon": 15.6681023, "tags": {"addr:city": "Link\u00f6ping", "addr:country": "SE", "addr:housenumber": "85", "addr:postcode": "58723", "addr:street": "Skogsgatan", "amenity": "restaurant", "cuisine": "pizza;kebab;burger", "delivery": "yes", "level": "0", "name": "Pizzeria Duvkullen", "opening_hours": "Mo-Th 11:00-21:00; Fr 11:00-22:00; Sa-Su 12:00-22:00", "outdoor_seating": "no", "phone": "+4613155988", "smoking": "no", "takeaway": "yes", "website": "http://www.duvkullen.se/"}}, {"type": "node", "id": 5552556623, "lat": 58.4016137, "lon": 15.6219186, "tags": {"amenity": "cafe", "level": "10", "name": "Linds Konditori", "opening_hours": "Mo-Fr 08:00-18:00; Sa-Su 11:00-17:00", "wheelchair": "yes"}}, {"type": "node", "id": 5555644119, "lat": 58.419477, "lon": 15.6108266, "tags": {"addr:city": "Link\u00f6ping", "addr:country": "SE", "addr:housenumber": "21", "addr:postcode": "582 56", "addr:street": "Nordengatan", "amenity": "restaurant", "cuisine": "regional", "name": "Restaurang Norden", "opening_hours": "Mo-Fr 10:30-20:00; Sa 12:00-20:00", "phone": "+4613141020", "wheelchair": "yes"}}, {"type": "node", "id": 5555644999, "lat": 58.4189075, "lon": 15.6110785, "tags": {"addr:city": "Link\u00f6ping", "addr:country": "SE", "addr:housenumber": "1B", "addr:postcode": "582 56", "addr:street": "Sl\u00f6jdgatan", "amenity": "restaurant", "cuisine": "sushi", "name": "Shake Sushi", "wheelchair": "yes"}}, {"type": "node", "id": 5555646004, "lat": 58.4185465, "lon": 15.6120648, "tags": {"addr:city": "Link\u00f6ping", "addr:country": "SE", "addr:housenumber": "9", "addr:postcode": "582 77", "addr:street": "Timmermansgatan", "amenity": "restaurant", "check_date:opening_hours": "2021-09-26", "cuisine": "asian", "name": "Kikkowok", "opening_hours": "Mo-Fr 11:00-21:00; Sa,Su 12:00-21:00", "takeaway": "yes", "wheelchair": "yes"}}, {"type": "node", "id": 5647504049, "lat": 58.4023132, "lon": 15.6197987, "tags": {"amenity": "restaurant", "cuisine": "international;regional", "diet:vegetarian": "yes", "level": "11", "name": "Bl\u00e5klinten", "opening_hours": "Mo-Fr 11:00-15:00", "smoking": "no", "takeaway": "yes", "toilets": "yes"}}, {"type": "node", "id": 5774947153, "lat": 58.4074032, "lon": 15.6406507, "tags": {"addr:city": "Link\u00f6ping", "addr:country": "SE", "addr:housenumber": "39", "addr:street": "Nya Tanneforsv\u00e4gen", "amenity": "restaurant", "cuisine": "pizza;kebab", "name": "Zorros k\u00f6k och bar", "opening_hours": "Mo-Th 11:00-21:00; Fr 11:00-23:00; Sa 12:00-23:00; Su 12:00-21:00", "phone": "+4613100770"}}, {"type": "node", "id": 5778960872, "lat": 58.5897681, "lon": 16.1747794, "tags": {"amenity": "bar", "description": "Outdoor Bar/Cafe open only in summer", "name": "Arbis Altan", "opening_hours": "Tu-Sa 16:00-25:00", "website": "https://www.arbis.se/altanen"}}, {"type": "node", "id": 5799880360, "lat": 58.3919893, "lon": 15.5833392, "tags": {"addr:city": "Link\u00f6ping", "addr:country": "SE", "addr:housenumber": "11", "addr:street": "L\u00e4rdomsgatan", "amenity": "restaurant", "cuisine": "italian;pizza", "name": "Bestia", "opening_hours": "We-Th 17:00-21:00; Fr 11:30-22:00; Sa 12:00-22:00; Su 12:00-20:00", "takeaway": "yes", "website": "https://bestialkpg.se/"}}, {"type": "node", "id": 5799880361, "lat": 58.4117915, "lon": 15.6207957, "tags": {"addr:city": "Link\u00f6ping", "addr:country": "SE", "addr:housenumber": "3", "addr:postcode": "582 20", "addr:street": "Platensgatan", "amenity": "restaurant", "cuisine": "kebab", "email": "hello@coknajs.se", "name": "\u00c7ok Najs", "opening_hours": "Mo-We 11:00-22:00; Th,Fr 11:00+; Sa 12:00+; Su off", "phone": "+46 13 - 13 13 99", "takeaway": "yes", "website": "https://coknajs.se/"}}, {"type": "node", "id": 5799880363, "lat": 58.4110475, "lon": 15.6219421, "tags": {"addr:city": "Link\u00f6ping", "addr:country": "SE", "addr:housenumber": "9", "addr:postcode": "58219", "addr:street": "Stora torget", "amenity": "restaurant", "cuisine": "regional", "email": "info@storan.se", "name": "Storan", "opening_hours": "Mo-Fr 11:30+; Sa 12:00+; Su off", "phone": "+46 13-10 31 90", "website": "https://www.storan.se/"}}, {"type": "node", "id": 5823112815, "lat": 58.4103305, "lon": 15.6222273, "tags": {"addr:city": "Link\u00f6ping", "addr:country": "SE", "addr:housenumber": "8", "addr:street": "Tanneforsgatan", "amenity": "restaurant", "name": "Brasserie Bouquet", "opening_hours": "Mo-Th 11:00-23:00, Fr 11:00-25:30, Sa 11:30-25:30", "website": "https://brasseriebouquet.se/"}}, {"type": "node", "id": 5837739658, "lat": 58.5412457, "lon": 15.622924, "tags": {"amenity": "cafe", "name": "Sandviks camping"}}, {"type": "node", "id": 5854567652, "lat": 58.3946721, "lon": 15.7066131, "tags": {"addr:city": "Link\u00f6ping", "addr:country": "SE", "addr:housenumber": "21", "addr:postcode": "58941", "addr:street": "L\u00e5sbomsgatan", "amenity": "restaurant", "cuisine": "thai", "name": "Watsanas thai-wok", "opening_hours": "Mo-We 11:00-14:30, Th-Fr 11:00-20:00", "outdoor_seating": "yes", "phone": "+46 72-324 13 13", "takeaway": "yes", "website": "https://www.facebook.com/watsanasthaiwok/"}}, {"type": "node", "id": 5871750818, "lat": 58.3911826, "lon": 15.6263418, "tags": {"addr:city": "Link\u00f6ping", "addr:country": "SE", "addr:housenumber": "52", "addr:postcode": "587 50", "addr:street": "Garnisonsv\u00e4gen", "amenity": "restaurant", "cuisine": "pizza;regional", "delivery": "yes", "name": "S\u00f6derkrogen"}}, {"type": "node", "id": 6149474369, "lat": 58.4098618, "lon": 15.6287224, "tags": {"amenity": "restaurant", "diet:vegetarian": "yes", "name": "von Dufva", "opening_hours": "Mo-Fr 11:30-14:00, Fr 17:00-21:30; Sa 11:00-14:00", "website": "https://vondufva.se/"}}, {"type": "node", "id": 6173296121, "lat": 58.3971549, "lon": 15.5101136, "tags": {"amenity": "restaurant", "cuisine": "lunch", "name": "Restaurang Baronen"}}, {"type": "node", "id": 6199037683, "lat": 58.4161577, "lon": 15.6258307, "tags": {"amenity": "cafe", "brand": "Espresso House", "brand:wikidata": "Q10489162", "brand:wikipedia": "sv:Espresso House", "cuisine": "coffee_shop", "internet_access": "yes", "name": "Espresso House", "opening_hours": "Mo-Fr 05:00-21:00; Sa,Su 06:30-20:00", "payment:cash": "no", "payment:credit_cards": "yes", "takeaway": "yes"}}, {"type": "node", "id": 6336207385, "lat": 58.5911997, "lon": 16.1869058, "tags": {"addr:country": "SE", "addr:housenumber": "13", "addr:postcode": "602 24", "addr:street": "Drottninggatan", "amenity": "restaurant", "contact:phone": "+46 11 19 96 90", "name": "Restaurang Sn\u00e4ckan"}}, {"type": "node", "id": 6386014205, "lat": 58.4076813, "lon": 15.6402291, "tags": {"addr:city": "Link\u00f6ping", "addr:country": "SE", "addr:housenumber": "35", "addr:postcode": "58242", "addr:street": "Nya Tanneforsv\u00e4gen", "amenity": "restaurant", "check_date:opening_hours": "2021-09-18", "cuisine": "indian", "email": "info@nawabrestaurang.se", "name": "Nawab", "opening_hours": "Tu-Fr 11:00-21:00; Sa-Su 13:00-21:00", "phone": "+46 13-10 06 01", "takeaway": "yes", "website": "https://www.nawabrestaurang.se/"}}, {"type": "node", "id": 6418223655, "lat": 58.5183772, "lon": 15.4276029}, {"type": "node", "id": 6418223656, "lat": 58.5184438, "lon": 15.4274564}, {"type": "node", "id": 6418223657, "lat": 58.518405, "lon": 15.4273884}, {"type": "node", "id": 6418223658, "lat": 58.5183365, "lon": 15.4275317}, {"type": "node", "id": 6482141899, "lat": 58.592827, "lon": 16.1755174, "tags": {"amenity": "restaurant", "cuisine": "pizza", "name": "Of Course Pizza"}}, {"type": "node", "id": 6482141900, "lat": 58.5898483, "lon": 16.1808269, "tags": {"amenity": "restaurant", "cuisine": "korean", "name": "Mannam"}}, {"type": "node", "id": 6594470885, "lat": 58.4083481, "lon": 15.6262129, "tags": {"amenity": "cafe", "name": "Martas Cafe"}}, {"type": "node", "id": 6598057585, "lat": 58.5917183, "lon": 16.1775947, "tags": {"addr:city": "Norrk\u00f6ping", "addr:country": "SE", "addr:housenumber": "30", "addr:postcode": "602 20", "addr:street": "Kungsgatan 30, 602 20 Norrk\u00f6ping, Sweden", "amenity": "restaurant", "name": "Pinchos", "website": "https://pinchos.se/restaurant/se-norrkoping-kungs/"}}, {"type": "node", "id": 6627386287, "lat": 58.4078233, "lon": 15.6400314, "tags": {"addr:city": "Link\u00f6ping", "addr:country": "SE", "addr:housenumber": "35", "addr:street": "Nya Tanneforsv\u00e4gen", "amenity": "restaurant", "check_date:opening_hours": "2021-09-18", "cuisine": "asian;sushi", "name": "Ohayo Sushi", "opening_hours": "Tu-Sa 11:30-20:30; Su 13:00-20:00", "phone": "+4613101320", "website": "https://www.ohayosushi.se/Hem.html"}}, {"type": "node", "id": 6777810195, "lat": 58.4182661, "lon": 15.6126508, "tags": {"addr:city": "Link\u00f6ping", "addr:country": "SE", "addr:housenumber": "24A", "addr:postcode": "582 32", "addr:street": "Sveagatan", "amenity": "restaurant", "cuisine": "grill;barbecue", "name": "Vasa kolgrill", "opening_hours": "Mo-Th 11:00-21:00; Fr-Sa 11:00-22:00; Su 11:00-21:00", "phone": "+46 13 13 26 40", "website": "https://www.vasakolgrill.se/"}}, {"type": "node", "id": 6813943856, "lat": 58.5886516, "lon": 16.1858432, "tags": {"addr:city": "Norrk\u00f6ping", "addr:country": "SE", "addr:housenumber": "3", "addr:postcode": "602 24", "addr:street": "Gamla torget", "amenity": "restaurant"}}, {"type": "node", "id": 6813943857, "lat": 58.5891534, "lon": 16.1854241, "tags": {"addr:city": "Norrk\u00f6ping", "addr:country": "SE", "addr:housenumber": "1", "addr:postcode": "602 25", "addr:street": "Skolgatan", "amenity": "restaurant", "name": "Pigeon Street"}}, {"type": "node", "id": 6813943858, "lat": 58.589247, "lon": 16.1861135, "tags": {"addr:city": "Norrk\u00f6ping", "addr:country": "SE", "addr:housenumber": "1", "addr:postcode": "602 25", "addr:street": "Skolgatan", "amenity": "cafe", "internet_access": "wlan", "level": "0;1", "name": "Tinas Caf\u00e9 \u00e5 S\u00e5nt", "opening_hours": "Mo-Fr 10:00-18:00; Sa 10:00-16:00; Su off", "wheelchair": "limited"}}, {"type": "node", "id": 6813943859, "lat": 58.590035, "lon": 16.1804993, "tags": {"addr:city": "Norrk\u00f6ping", "addr:country": "SE", "addr:housenumber": "3", "addr:postcode": "602 21", "addr:street": "Tunnbindaregatan", "amenity": "restaurant", "cuisine": "deli", "diet:vegan": "yes", "diet:vegetarian": "yes", "name": "Mocca Deli", "opening_hours": "Mo-Th 11:00-22:00; Fr 11:00-23:00; Sa 12:00-23:00; Su 12:00-20:00", "phone": "+46 11 102288"}}, {"type": "node", "id": 6937861588, "lat": 58.4178285, "lon": 15.6716391, "tags": {"addr:city": "Link\u00f6ping", "addr:country": "SE", "addr:housenumber": "16", "addr:postcode": "58278", "addr:street": "Torvingegatan", "amenity": "restaurant", "cuisine": "regional", "email": "dungskok@hotmail.com", "name": "Dungs k\u00f6k", "opening_hours": "Mo-Fr 11:00-15:00", "opening_hours:kitchen": "Mo-Fr 11:00-14:00", "phone": "+46 734-20 94 91", "takeaway": "yes", "website": "https://dungskok.se/"}}, {"type": "node", "id": 6966942846, "lat": 58.5902886, "lon": 16.1873446, "tags": {"amenity": "restaurant", "cuisine": "pizza", "name": "Norrk\u00f6pings Pizzeria", "wheelchair": "no"}}, {"type": "node", "id": 6966942850, "lat": 58.5914579, "lon": 16.1871529, "tags": {"addr:city": "Norrk\u00f6ping", "addr:country": "SE", "addr:housenumber": "6", "addr:postcode": "60242", "addr:street": "Tr\u00e4dg\u00e5rdsgatan", "amenity": "restaurant", "cuisine": "burger", "name": "Burgers & Bangers", "opening_hours": "Mo off; Tu-Fr 16:00-24:00; Sa 12:00-24:00; Su 12:00-18:30", "website": "https://burgersandbangers.se/"}}, {"type": "node", "id": 7006650684, "lat": 58.4106447, "lon": 15.6223838, "tags": {"addr:city": "Link\u00f6ping", "addr:country": "SE", "addr:housenumber": "48", "addr:postcode": "582 23", "addr:street": "Storgatan", "amenity": "restaurant", "cuisine": "burger", "name": "Flott", "opening_hours": "Mo-Th 11:00-21:00; Fr 11:00-22:00; Sa 11:30-22:00; Su 12:00-20:00", "takeaway": "yes", "website": "https://www.flott.nu/"}}, {"type": "node", "id": 7057196097, "lat": 58.4112371, "lon": 15.6219648, "tags": {"addr:city": "Link\u00f6ping", "addr:country": "SE", "addr:housenumber": "3", "addr:street": "Hantverkaregatan", "amenity": "restaurant", "cuisine": "burger", "name": "H\u00f6rnan Bar & K\u00e4k", "opening_hours": "Mo off; Tu 11:00-21:00; We-Th 11:00-22:00; Fr-Sa 11:00-24:00; Su 12:00-21:00", "website": "https://www.restaurang-hornan.se/"}}, {"type": "node", "id": 7070152702, "lat": 58.4091271, "lon": 15.6156962, "tags": {"addr:city": "Link\u00f6ping", "addr:country": "SE", "addr:housenumber": "76", "addr:street": "Storgatan", "amenity": "restaurant", "cuisine": "burger", "name": "Beer & Burger", "opening_hours": "Mo-Fr 11:30-13:30, 16:00-23:00; Sa 16:00-23:00", "phone": "+46 13 13 02 00", "website": "http://www.restauranglinkoping.se/"}}, {"type": "node", "id": 7087857945, "lat": 58.5907981, "lon": 16.187752, "tags": {"addr:country": "SE", "addr:housenumber": "8", "addr:street": "Hospitalsgatan", "amenity": "restaurant", "cuisine": "fine_dining;wine", "name": "Gin"}}, {"type": "node", "id": 7087872143, "lat": 58.5900375, "lon": 16.1858637, "tags": {"amenity": "restaurant", "cuisine": "pizza;italian;cafe;lounge", "name": "Pappa Grappa"}}, {"type": "node", "id": 7087872779, "lat": 58.5891816, "lon": 16.1775844, "tags": {"amenity": "cafe", "cuisine": "lunch;cafe", "name": "Restaurang & Caf\u00e9 C"}}, {"type": "node", "id": 7087876002, "lat": 58.5892668, "lon": 16.1880543, "tags": {"addr:country": "SE", "addr:housenumber": "10", "addr:street": "Skolgatan", "amenity": "cafe", "cuisine": "cafe;lunch;soup", "name": "Etcetera"}}, {"type": "node", "id": 7087876751, "lat": 58.5907757, "lon": 16.187634, "tags": {"addr:country": "SE", "addr:housenumber": "8", "addr:street": "Hospitalsgatan", "amenity": "restaurant", "cuisine": "diner;drinks;beer;wine", "name": "Arv Bistro"}}, {"type": "node", "id": 7087877040, "lat": 58.5905257, "lon": 16.1872317, "tags": {"amenity": "cafe", "cuisine": "take_away;lunch;coffee", "name": "Hej! Take away"}}, {"type": "node", "id": 7087877347, "lat": 58.5852211, "lon": 16.1753448, "tags": {"amenity": "restaurant", "cuisine": "burger;regional;pub", "name": "Campino City"}}, {"type": "node", "id": 7087894195, "lat": 58.5916467, "lon": 16.1825244, "tags": {"amenity": "restaurant", "cuisine": "regional", "name": "Gamla Bryggeriet"}}, {"type": "node", "id": 7087898469, "lat": 58.5872636, "lon": 16.1756183, "tags": {"amenity": "cafe", "cuisine": "cafe;lunch", "name": "Caf\u00e9 V\u00e4ster"}}, {"type": "node", "id": 7087901219, "lat": 58.5834358, "lon": 16.1750524, "tags": {"amenity": "cafe", "cuisine": "cafe;bread", "name": "Marikas Caf\u00e9"}}, {"type": "node", "id": 7087922821, "lat": 58.5920603, "lon": 16.1855033, "tags": {"amenity": "cafe", "cuisine": "cafe", "name": "Lilla caf\u00e9et"}}, {"type": "node", "id": 7087925822, "lat": 58.5933603, "lon": 16.1774808, "tags": {"amenity": "restaurant", "cuisine": "lunch", "diet:vegan": "yes", "diet:vegetarian": "yes", "name": "Puck 'n' roll"}}, {"type": "node", "id": 7087938370, "lat": 58.5942521, "lon": 16.1746896, "tags": {"amenity": "restaurant", "cuisine": "thai;lunch", "name": "L.A. Caf\u00e9"}}, {"type": "node", "id": 7099674650, "lat": 58.4111776, "lon": 15.6211407, "tags": {"addr:city": "Link\u00f6ping", "addr:country": "SE", "addr:housenumber": "6", "addr:street": "Stora torget", "amenity": "restaurant", "brand": "Sushi Yama", "brand:wikidata": "Q31897009", "brand:wikipedia": "sv:Sushi Yama", "cuisine": "sushi", "name": "Sushi Yama", "opening_hours": "Mo-Sa 11:00-21:00; Su 12:00-21:00", "phone": "+4613238099", "website": "https://www.sushiyama.se/restauranger/linkoping"}}, {"type": "node", "id": 7099712295, "lat": 58.4118707, "lon": 15.6266698, "tags": {"addr:city": "Link\u00f6ping", "addr:country": "SE", "addr:housenumber": "19", "addr:street": "Repslagaregatan", "amenity": "cafe", "check_date:opening_hours": "2023-05-14", "cuisine": "coffee_shop;pasta", "lunch": "yes", "name": "Melins Caf\u00e9 & Bistro", "opening_hours": "Mo-Fr 09:30-19:00; Sa 10:00-17:00; Su 11:30-16:00", "phone": "+4613102600", "website": "https://www.melinscafe.se/"}}, {"type": "node", "id": 7104857861, "lat": 58.4113363, "lon": 15.6209616, "tags": {"addr:city": "Link\u00f6ping", "addr:country": "SE", "addr:housenumber": "1A", "addr:postcode": "582 20", "addr:street": "Platensgatan", "amenity": "restaurant", "cuisine": "lebanese", "name": "Merwah", "opening_hours": "Mo-Th 11:00-14:00, 16:00-23:00; Fr 11:00-25:00, Sa 12:00-25:00, Su 13:00-23:00", "phone": "+4613126988", "website": "https://www.merwah.se/"}}, {"type": "node", "id": 7104857864, "lat": 58.4114631, "lon": 15.6219024, "tags": {"addr:city": "Link\u00f6ping", "addr:country": "SE", "addr:housenumber": "1", "addr:street": "Hantverkaregatan", "amenity": "restaurant", "check_date": "2022-06-08", "cuisine": "tapas", "email": "info@aiolitapasbar.se", "name": "Aioli Tapasbar", "opening_hours": "Mo-Tu 17:00-21:00; We-Th 17:00-23:00; Fr 17:00-24:00", "phone": "+46134851105", "website": "https://www.aiolitapasbar.se/"}}, {"type": "node", "id": 7104857867, "lat": 58.4159166, "lon": 15.626027, "tags": {"amenity": "cafe", "lunch": "yes", "name": "J\u00e4rnv\u00e4gscaf\u00e9et"}}, {"type": "node", "id": 7164481417, "lat": 58.4097563, "lon": 15.6198376, "tags": {"addr:city": "Link\u00f6ping", "addr:country": "SE", "addr:housenumber": "8", "addr:street": "Apotekaregatan", "amenity": "restaurant", "cuisine": "portuguese", "name": "Alfama", "phone": "+4613104126", "website": "https://restaurantealfama.com/"}}, {"type": "node", "id": 7167557702, "lat": 58.4063911, "lon": 15.6421232, "tags": {"addr:city": "Link\u00f6ping", "addr:country": "SE", "addr:housenumber": "45", "addr:postcode": "58242", "addr:street": "Nya Tanneforsv\u00e4gen", "amenity": "restaurant", "cuisine": "indian", "name": "Ashoka Indisk Restaurang & Bar", "opening_hours": "Mo-Fr 11:00-21:00; Sa 12:00-21:00; Su 12:00-20:00", "payment:cash": "yes", "phone": "+4613126020", "takeaway": "yes", "website": "https://ashoka.se/"}}, {"type": "node", "id": 7201265352, "lat": 58.6183419, "lon": 16.1559958, "tags": {"addr:city": "Norrk\u00f6ping", "addr:country": "SE", "addr:housenumber": "6", "addr:postcode": "602 23", "addr:street": "J\u00e4rngatan", "amenity": "restaurant", "cuisine": "sushi", "name": "Sushi Yama", "opening_hours": "Mo-Fr 10:00-21:00; Sa-Su 11:00-18:00", "phone": "+46 11 14 44 10", "website": "https://www.sushiyama.se/"}}, {"type": "node", "id": 7315913406, "lat": 58.4859357, "lon": 15.5259061}, {"type": "node", "id": 7315913407, "lat": 58.4860454, "lon": 15.5258851}, {"type": "node", "id": 7315913408, "lat": 58.4859764, "lon": 15.5258654}, {"type": "node", "id": 7315913409, "lat": 58.4860004, "lon": 15.5258611}, {"type": "node", "id": 7315913410, "lat": 58.4861053, "lon": 15.525986}, {"type": "node", "id": 7315913411, "lat": 58.4861355, "lon": 15.5259813}, {"type": "node", "id": 7315913412, "lat": 58.4859992, "lon": 15.5258337}, {"type": "node", "id": 7315913413, "lat": 58.4859752, "lon": 15.5258375}, {"type": "node", "id": 7315913414, "lat": 58.4860441, "lon": 15.5258542}, {"type": "node", "id": 7315913415, "lat": 58.4859342, "lon": 15.525872}, {"type": "node", "id": 7315913416, "lat": 58.4861001, "lon": 15.5262365}, {"type": "node", "id": 7315913417, "lat": 58.4860625, "lon": 15.5262424}, {"type": "node", "id": 7315913418, "lat": 58.4859528, "lon": 15.5262917}, {"type": "node", "id": 7315913419, "lat": 58.4859514, "lon": 15.5262605}, {"type": "node", "id": 7364531112, "lat": 58.4103183, "lon": 15.619555, "tags": {"addr:city": "Link\u00f6ping", "addr:country": "SE", "addr:housenumber": "54", "addr:postcode": "582 28", "addr:street": "Storgatan", "amenity": "restaurant", "cuisine": "french", "drink:wine": "yes", "name": "Chez Marie", "opening_hours": "Mo-Tu off; We-Th 16:30-22:00; Fr 16:00-23:00; Sa off; Su 14:00-23:00", "website": "https://chezmarie.se/"}}, {"type": "node", "id": 7475602785, "lat": 58.395866, "lon": 15.6179954, "tags": {"amenity": "restaurant", "name": "\u00d6stg\u00f6ta K\u00f6k"}}, {"type": "node", "id": 7475910014, "lat": 58.3928576, "lon": 15.5835297, "tags": {"addr:city": "Link\u00f6ping", "addr:country": "SE", "addr:housenumber": "1", "addr:street": "Selma Lagerl\u00f6fs gata", "amenity": "restaurant", "name": "Meetly", "opening_hours": "Tu-Sa 10:00-22:30", "website": "https://meetlyvallastaden.se/"}}, {"type": "node", "id": 7496519294, "lat": 58.3878723, "lon": 15.5655126, "tags": {"addr:city": "Link\u00f6ping", "addr:country": "SE", "addr:housenumber": "39", "addr:postcode": "583 33", "addr:street": "Tr\u00f6skaregatan", "amenity": "restaurant", "name": "Biryani House & Snacks Bar", "opening_hours": "Mo-Fr 11:00-21:00; Sa,Su 12:00-21:00"}}, {"type": "node", "id": 7567042270, "lat": 58.410351, "lon": 15.6228655, "tags": {"addr:city": "Link\u00f6ping", "addr:country": "SE", "addr:housenumber": "11", "addr:street": "Tanneforsgatan", "amenity": "cafe", "brand": "Wayne's Coffee", "brand:wikidata": "Q2637272", "brand:wikipedia": "en:Wayne's Coffee", "check_date:opening_hours": "2021-08-05", "cuisine": "coffee_shop", "name": "Wayne's Coffee", "opening_hours": "Mo-Fr 09:00-19:00; Sa 10:00-17:00; Su 11:00-17:00", "takeaway": "yes", "website": "https://www.waynescoffee.se/cafe/waynes-linkoping/"}}, {"type": "node", "id": 7567260532, "lat": 58.4107942, "lon": 15.6209753, "tags": {"addr:city": "Link\u00f6ping", "addr:country": "SE", "addr:housenumber": "5", "addr:postcode": "582 19", "addr:street": "Stora torget", "amenity": "restaurant", "brand": "O'Learys", "brand:wikidata": "Q10605590", "brand:wikipedia": "sv:O'Learys", "cuisine": "american", "email": "linkoping@olearys.se", "name": "O'Learys", "opening_hours": "Mo-Tu 15:00-23:00; We-Th 15:00-26:00, Fr 14:00-27:00, Sa 11:30-27:00, Su 11:30-23:00", "phone": "+46134610961", "website": "https://olearys.se/linkoping/"}}, {"type": "node", "id": 7567260533, "lat": 58.409465, "lon": 15.6222178, "tags": {"addr:city": "Link\u00f6ping", "addr:country": "SE", "addr:housenumber": "1", "addr:street": "Hospitalstorget", "amenity": "restaurant", "cuisine": "mediterranean", "email": "linkoping@pappagrappa.se", "name": "Pappa Grappa", "opening_hours": "Mo-Th 17:00-22:00; Fr-Sa 17:00-23:00", "phone": "+46133900298", "website": "https://www.pappagrappa.se/linkoping"}}, {"type": "node", "id": 7626719692, "lat": 58.5086627, "lon": 15.5022773}, {"type": "node", "id": 7626719693, "lat": 58.5086709, "lon": 15.5022262}, {"type": "node", "id": 7626719694, "lat": 58.5086495, "lon": 15.5022686}, {"type": "node", "id": 7626719695, "lat": 58.5086585, "lon": 15.5022181}, {"type": "node", "id": 7626719696, "lat": 58.5087241, "lon": 15.5021746}, {"type": "node", "id": 7626719697, "lat": 58.5087406, "lon": 15.5021655}, {"type": "node", "id": 7626719698, "lat": 58.5087266, "lon": 15.5021917}, {"type": "node", "id": 7626719699, "lat": 58.5087185, "lon": 15.5022108}, {"type": "node", "id": 7658891926, "lat": 58.609577, "lon": 16.1681025, "tags": {"addr:city": "Norrk\u00f6ping", "addr:country": "SE", "addr:housenumber": "48", "addr:postcode": "60223", "addr:street": "St\u00e5th\u00f6gav\u00e4gen", "amenity": "restaurant", "cuisine": "asian", "name": "Kina Thai", "opening_hours": "Mo 11:00-15:00; Tu-Th 11:00-14:30,17:00-20:00; Fr 11:00-14:30,17:00-21:00; Sa 12:00-20:00; Su 12:00-19:00", "outdoor_seating": "yes", "phone": "+46 11 18 49 49", "takeaway": "yes", "website": "https://kinathai.se", "wheelchair": "yes"}}, {"type": "node", "id": 7807274585, "lat": 58.5849568, "lon": 16.1634694}, {"type": "node", "id": 7815196629, "lat": 58.433091, "lon": 15.5859524}, {"type": "node", "id": 7886965365, "lat": 58.5988342, "lon": 16.1558144, "tags": {"addr:country": "SE", "addr:housenumber": "9", "addr:street": "Norralundsgatan", "amenity": "restaurant", "cuisine": "pizza", "name": "Piccolo Mondo"}}, {"type": "node", "id": 7896601697, "lat": 58.6192559, "lon": 16.1576648, "tags": {"amenity": "cafe", "brand": "Espresso House", "brand:wikidata": "Q10489162", "brand:wikipedia": "sv:Espresso House", "cuisine": "coffee_shop", "name": "Espresso House", "takeaway": "yes"}}, {"type": "node", "id": 7912439170, "lat": 58.5993485, "lon": 16.1689288, "tags": {"addr:country": "SE", "addr:housenumber": "44", "addr:street": "Stockholmsv\u00e4gen", "amenity": "restaurant", "name": "Sulaymani"}}, {"type": "node", "id": 7920347390, "lat": 58.597817, "lon": 16.1706586, "tags": {"amenity": "restaurant", "name": "Kockens"}}, {"type": "node", "id": 7936651921, "lat": 58.5974848, "lon": 16.1711018, "tags": {"addr:city": "Norrk\u00f6ping", "addr:country": "SE", "addr:housenumber": "17", "addr:postcode": "602 17", "addr:street": "Stockholmsv\u00e4gen", "amenity": "restaurant", "cuisine": "pizza", "name": "Ali Baba"}}, {"type": "node", "id": 7944458329, "lat": 58.4117435, "lon": 15.6208193, "tags": {"addr:city": "Link\u00f6ping", "addr:country": "SE", "addr:housenumber": "3", "addr:postcode": "582 20", "addr:street": "Platensgatan", "amenity": "restaurant", "cuisine": "crepe", "name": "Ammos Caf\u00e9 & Creperi", "opening_hours": "Mo-Fr 11:00-20:00; Sa 11:00-17:00; Su 12:00-17:00", "phone": "+46 72 322 96 76", "website": "https://ammoscafecreperi.n.nu/"}}, {"type": "node", "id": 7944458330, "lat": 58.411892, "lon": 15.6207583, "tags": {"addr:city": "Link\u00f6ping", "addr:country": "SE", "addr:housenumber": "5A", "addr:postcode": "58220", "addr:street": "Platensgatan", "amenity": "restaurant", "cuisine": "mexican", "name": "Cabo", "opening_hours": "Mo off; Tu-Fr 15:00+, Sa 14:00+; Su off", "phone": "+46 13 10 64 02", "website": "http://www.cabomexican.se/"}}, {"type": "node", "id": 7985354237, "lat": 58.6188591, "lon": 16.1574117, "tags": {"amenity": "restaurant", "name": "Chili Wok"}}, {"type": "node", "id": 7985354238, "lat": 58.6188819, "lon": 16.1575371, "tags": {"amenity": "restaurant", "name": "Basilica"}}, {"type": "node", "id": 7985354239, "lat": 58.618902, "lon": 16.1576355, "tags": {"amenity": "restaurant", "name": "Delicius Kebab"}}, {"type": "node", "id": 8039656005, "lat": 58.591382, "lon": 16.1868117, "tags": {"amenity": "restaurant", "name": "Sn\u00e4ckan"}}, {"type": "node", "id": 8281932930, "lat": 58.4122111, "lon": 15.6203459, "tags": {"addr:city": "Link\u00f6ping", "addr:country": "SE", "addr:housenumber": "6B", "addr:postcode": "582 20", "addr:street": "Platensgatan", "amenity": "restaurant", "name": "KH bar & restaurang"}}, {"type": "node", "id": 8401076896, "lat": 58.380287, "lon": 15.6796297}, {"type": "node", "id": 8401096230, "lat": 58.380163, "lon": 15.6799665}, {"type": "node", "id": 8401096231, "lat": 58.3802962, "lon": 15.6797951}, {"type": "node", "id": 8401096232, "lat": 58.3802746, "lon": 15.6795687}, {"type": "node", "id": 8420427752, "lat": 58.3802871, "lon": 15.6798745}, {"type": "node", "id": 8420427753, "lat": 58.3802811, "lon": 15.679845}, {"type": "node", "id": 8420427754, "lat": 58.380303, "lon": 15.6798287}, {"type": "node", "id": 8420427755, "lat": 58.3803176, "lon": 15.6797793}, {"type": "node", "id": 8611703049, "lat": 58.3933813, "lon": 15.5788547, "tags": {"addr:city": "Link\u00f6ping", "addr:country": "SE", "addr:housenumber": "5", "addr:postcode": "58330", "addr:street": "Nobeltorget", "amenity": "restaurant", "cuisine": "asian", "name": "Spicy Wok'n'Roll", "opening_hours": "Mo-Fr 11:30-20:00; Sa 13:00-20:00", "phone": "+46 13 13 09 81", "takeaway": "yes", "website": "https://spicywoknroll.se/"}}, {"type": "node", "id": 8852133275, "lat": 58.407507, "lon": 15.6024437, "tags": {"addr:city": "Link\u00f6ping", "addr:country": "SE", "addr:housenumber": "1A", "addr:postcode": "58249", "addr:street": "Johannesborgsparken", "amenity": "restaurant", "cuisine": "regional", "email": "info@restaurangjord.se", "name": "Restaurang Jord", "opening_hours": "Th-Fr 17:00-22:30; Sa 16:30-22:30", "phone": "+46 13-13 13 37", "website": "https://restaurangjord.se"}}, {"type": "node", "id": 9004757180, "lat": 58.4111891, "lon": 15.6213084, "tags": {"addr:city": "Link\u00f6ping", "addr:country": "SE", "addr:housenumber": "7", "addr:street": "Stora torget", "amenity": "restaurant", "cuisine": "regional", "email": "kontakt@smaksak-lkpg.se", "name": "Smaksak", "opening_hours": "Mo-Tu 16:00-22:00, We-Th 16:00-23:00, Fr 15:00+, Sa 12:00+, Su 12:00-22:00", "outdoor_seating": "yes", "website": "https://smaksak-lkpg.se/"}}, {"type": "node", "id": 9004757201, "lat": 58.4126914, "lon": 15.6195546, "tags": {"amenity": "cafe", "name": "Caf\u00e9 Drivb\u00e4nk"}}, {"type": "node", "id": 9007200851, "lat": 58.4143003, "lon": 15.6230743, "tags": {"amenity": "restaurant", "cuisine": "regional", "name": "Restaurang Frimis"}}, {"type": "node", "id": 9026104129, "lat": 58.4110595, "lon": 15.6261498, "tags": {"addr:city": "Link\u00f6ping", "addr:country": "SE", "addr:housenumber": "30", "addr:postcode": "582 23", "addr:street": "Storgatan", "amenity": "restaurant", "cuisine": "japanese", "name": "Sushi Natu", "opening_hours": "Mo-Fr 11:00-21:00; Sa-Su 12:00-21:00", "phone": "+46 13 20 15 16", "website": "https://sushinatulinkoping.se/"}}, {"type": "node", "id": 9062809206, "lat": 58.4176346, "lon": 15.6203913, "tags": {"amenity": "restaurant", "cuisine": "pizza", "name": "Massimo", "takeaway": "yes"}}, {"type": "node", "id": 9073766182, "lat": 58.5891748, "lon": 16.1861542, "tags": {"amenity": "cafe", "name": "Oas Norrk\u00f6ping"}}, {"type": "node", "id": 9084324887, "lat": 58.4119846, "lon": 15.6263508, "tags": {"addr:city": "Link\u00f6ping", "addr:country": "SE", "addr:housenumber": "21", "addr:street": "\u00c5gatan", "amenity": "restaurant", "cuisine": "pasta;pizza", "email": "linkoping@moccadeli.se", "name": "Moccadeli", "opening_hours": "Mo-Th 11:00-22:00; Fr 11:00-23:00; Sa 12:00-23:00; Su 12:00-20:00", "website": "https://moccadeli.se/"}}, {"type": "node", "id": 9085518720, "lat": 58.5850359, "lon": 16.1633972}, {"type": "node", "id": 9085518721, "lat": 58.5850757, "lon": 16.1635578}, {"type": "node", "id": 9085518722, "lat": 58.5849965, "lon": 16.16363}, {"type": "node", "id": 9105543766, "lat": 58.417679, "lon": 15.6174676, "tags": {"amenity": "restaurant", "cuisine": "kebab;pizza", "name": "Pizzeria Florens", "opening_hours": "Mo-Fr 11:00-22:00; Sa,Su 12:00-22:00"}}, {"type": "node", "id": 9128660434, "lat": 58.5962078, "lon": 16.1716528, "tags": {"amenity": "restaurant", "name": "Shameat"}}, {"type": "node", "id": 9136046917, "lat": 58.4082424, "lon": 15.619359, "tags": {"addr:city": "Link\u00f6ping", "addr:country": "SE", "addr:housenumber": "43J", "addr:postcode": "582 27", "addr:street": "Drottninggatan", "amenity": "restaurant", "cuisine": "italian", "email": "info@noitre.se", "name": "Noi Tre", "opening_hours": "Mo-Fr 11:30-22:00; Sa 12:00-22:00; Su 12:00-21:00", "website": "https://www.noitre.se/"}}, {"type": "node", "id": 9161132259, "lat": 58.4116561, "lon": 15.6229301, "tags": {"addr:city": "Link\u00f6ping", "addr:country": "SE", "addr:housenumber": "24B", "addr:postcode": "58222", "addr:street": "\u00c5gatan", "amenity": "bar", "email": "linkoping@shotluckan.se", "indoor_seating": "yes", "name": "Shotluckan", "opening_hours": "We-Th 19:00-25:00; Fr-Sa 19:00-27:00", "outdoor_seating": "no", "phone": "+46 13-4800764", "website": "https://shotluckan.se/linkoping/"}}, {"type": "node", "id": 9169460762, "lat": 58.433303, "lon": 15.5853563, "tags": {"addr:city": "Link\u00f6ping", "addr:country": "SE", "addr:housenumber": "7", "addr:postcode": "581 28", "addr:street": "V\u00e4stra Svedengatan", "amenity": "restaurant", "cuisine": "sushi", "level": "1", "name": "Sushi Yama", "opening_hours": "Mo-Fr 10:00-20:00, Sa-Su 10:00-18:00", "payment:cash": "no", "phone": "+46 13 42001", "takeaway": "yes", "website": "https://www.sushiyama.se"}}, {"type": "node", "id": 9349052763, "lat": 58.4105978, "lon": 15.6221795, "tags": {"addr:city": "Link\u00f6ping", "addr:country": "SE", "addr:housenumber": "10", "addr:postcode": "582 19", "addr:street": "Stora torget", "amenity": "bar", "drink:wine": "yes", "name": "Kamilo Vinbar"}}, {"type": "node", "id": 9407477860, "lat": 58.4341926, "lon": 15.5978496, "tags": {"addr:city": "Link\u00f6ping", "addr:country": "SE", "addr:housenumber": "13", "addr:postcode": "582 73", "addr:street": "Norra Svedengatan", "amenity": "restaurant", "cuisine": "arab", "email": "kontakt@farsansstreetfood.se", "name": "Farsans Streetfood", "opening_hours": "Mo-Su 11:00 - 22:00", "phone": "+46735343746", "website": "https://farsansstreetfood.se/linkoping/"}}, {"type": "node", "id": 9493709143, "lat": 58.4097879, "lon": 15.6227757, "tags": {"addr:city": "Link\u00f6ping", "addr:country": "SE", "addr:housenumber": "29", "addr:street": "Nygatan", "amenity": "restaurant", "email": "info@dahlbomsmat.com", "name": "Dahlboms mat & bar", "opening_hours": "Tu-Sa 17:00+", "website": "https://dahlbomsmat.com/"}}, {"type": "node", "id": 9535198549, "lat": 58.4335745, "lon": 15.5851225, "tags": {"amenity": "restaurant", "cuisine": "regional", "level": "1", "name": "Food & Family"}}, {"type": "node", "id": 9535198550, "lat": 58.4334485, "lon": 15.5850535, "tags": {"amenity": "restaurant", "cuisine": "pasta;pizza", "level": "1", "name": "La Pasta Veloce"}}, {"type": "node", "id": 9535198555, "lat": 58.4336002, "lon": 15.5855374, "tags": {"amenity": "restaurant", "cuisine": "burger", "level": "1", "name": "Flott"}}, {"type": "node", "id": 9535198556, "lat": 58.4334762, "lon": 15.585488, "tags": {"amenity": "restaurant", "level": "1", "name": "\u00c7okNajs"}}, {"type": "node", "id": 9535198560, "lat": 58.4330978, "lon": 15.5859823}, {"type": "node", "id": 9535206053, "lat": 58.4328735, "lon": 15.5860611}, {"type": "node", "id": 9535206062, "lat": 58.4331118, "lon": 15.5860487}, {"type": "node", "id": 9535206063, "lat": 58.433076, "lon": 15.585888}, {"type": "node", "id": 9535206066, "lat": 58.432916, "lon": 15.5860189}, {"type": "node", "id": 9535206067, "lat": 58.4329509, "lon": 15.5861783}, {"type": "node", "id": 9535206127, "lat": 58.4343936, "lon": 15.5853324}, {"type": "node", "id": 9535206128, "lat": 58.4343309, "lon": 15.5856189}, {"type": "node", "id": 9535206129, "lat": 58.4343732, "lon": 15.5854538}, {"type": "node", "id": 9627331724, "lat": 58.4342209, "lon": 15.5975776, "tags": {"addr:city": "Link\u00f6ping", "addr:country": "SE", "addr:housenumber": "13", "addr:postcode": "582 73", "addr:street": "Norra Svedengatan", "amenity": "restaurant", "cuisine": "burger", "name": "Babas", "phone": "+46 13-4620061", "takeaway": "yes", "website": "https://www.babas.nu"}}, {"type": "node", "id": 9720025491, "lat": 58.5868593, "lon": 16.1762403, "tags": {"addr:country": "SE", "addr:housenumber": "76", "addr:street": "Kungsgatan", "amenity": "cafe", "name": "Glokala Haket", "phone": "+46739591459", "website": "https://www.glokalahaket.se/"}}, {"type": "node", "id": 9765011967, "lat": 58.4084061, "lon": 15.5635005, "tags": {"amenity": "cafe", "name": "Linds bageri"}}, {"type": "node", "id": 10020910968, "lat": 58.40638, "lon": 15.5889336, "tags": {"amenity": "cafe", "indoor_seating": "yes", "name": "Sk\u00f6nf\u00e4rgareg\u00e5rden Butik & V\u00e5ffelstuga", "opening_hours": "Tu-Fr 11:00-16:30; Sa,Su 11:00-16:00", "outdoor_seating": "yes"}}, {"type": "node", "id": 10033873816, "lat": 58.4117757, "lon": 15.6324453, "tags": {"amenity": "restaurant", "cuisine": "regional", "email": "info@oksmakochtak.se", "name": "\u00d6K Smak & Tak", "opening_hours": "Mo-Fr 11:00-14:00, Tu-Sa 17:00-22:00", "outdoor_seating": "yes", "phone": "+4613353500", "website": "https://oksmakochtak.se/"}}, {"type": "node", "id": 10126402904, "lat": 58.3926479, "lon": 15.580636, "tags": {"addr:city": "Link\u00f6ping", "addr:country": "SE", "addr:housenumber": "38", "addr:postcode": "58330", "addr:street": "Johannes Magnus v\u00e4g", "amenity": "restaurant", "contact:facebook": "https://www.facebook.com/profile.php?id=100084683482660", "contact:instagram": "https://www.instagram.com/tomi.sushi_vallastaden/", "cuisine": "sushi;japanese", "name": "Tomi Sushi", "opening_hours": "Mo-Fr 11:00-20:00; Sa-Su 12:00-20:00", "phone": "+46 76 093 78 15"}}, {"type": "node", "id": 10219328697, "lat": 58.3930999, "lon": 15.622194, "tags": {"amenity": "restaurant", "check_date": "2022-11-26", "cuisine": "sushi", "name": "SushiMe"}}, {"type": "node", "id": 10621552813, "lat": 58.4108024, "lon": 15.6334777, "tags": {"addr:city": "Link\u00f6ping", "addr:country": "SE", "addr:housenumber": "9", "addr:postcode": "582 52", "addr:street": "Brandmannagatan", "amenity": "restaurant", "cuisine": "japanese", "name": "NoriKa", "opening_hours": "Mo 11:00-13:30; Tu-Th 11:00-13:30, 17:00-20:00; Fr 11:00-13:30, 16:00-20:00; Sa-Su 16:00-20:00", "phone": "+46 13-10 00 03", "website": "https://www.norika.se/"}}, {"type": "node", "id": 10905994713, "lat": 58.5963869, "lon": 16.183214, "tags": {"amenity": "cafe", "brand": "Espresso House", "check_date": "2023-08-08", "cuisine": "coffee_shop", "name": "Espresso House", "opening_hours": "Mo-Fr 05:30-20:30; Sa 07:00-19:00; Su 08:00-20:00", "takeaway": "yes"}}, {"type": "node", "id": 10934053975, "lat": 58.3935249, "lon": 15.5611509, "tags": {"amenity": "restaurant", "cuisine": "regional", "name": "St\u00e5ngs Mj\u00e4rdevi"}}, {"type": "node", "id": 11047166456, "lat": 58.4333651, "lon": 15.5998684, "tags": {"addr:city": "Link\u00f6ping", "addr:country": "SE", "addr:housenumber": "34", "addr:postcode": "582 73", "addr:street": "Norra Svedengatan", "amenity": "restaurant", "cuisine": "turkish", "name": "Malak kolgrill Restaurang & Event", "opening_hours": "Mo-Fr 11:00-20:00; Sa-Su 12:00-20:00", "phone": "+4613171717", "website": "https://www.malakrestaurang.se/"}}, {"type": "node", "id": 11062248452, "lat": 58.4038157, "lon": 15.6048648, "tags": {"addr:city": "Link\u00f6ping", "addr:country": "SE", "addr:housenumber": "3", "addr:street": "Marianne Richters torg", "amenity": "restaurant", "cuisine": "italian", "name": "Don Luigi", "outdoor_seating": "yes", "takeaway": "yes"}}, {"type": "node", "id": 11112344583, "lat": 58.430688, "lon": 15.6668323, "tags": {"amenity": "restaurant", "cuisine": "regional", "email": "info@matkultur.eu", "level": "1", "name": "Matkultur", "opening_hours": "07:00-17:00", "phone": "+46 733452154", "website": "https://www.matkultur.eu/"}}, {"type": "node", "id": 11112448919, "lat": 58.590778, "lon": 16.1820814, "tags": {"addr:city": "Norrk\u00f6ping", "addr:country": "SE", "addr:housenumber": "3", "addr:postcode": "602 21", "addr:street": "Bredgatan", "amenity": "restaurant", "diet:vegan": "yes", "name": "Skrymslet under trappan", "website": "https://www.skrymsletundertrappan.se/"}}, {"type": "node", "id": 11189038266, "lat": 58.5914698, "lon": 16.1783627, "tags": {"amenity": "cafe", "cuisine": "waffle;pancake", "name": "Golden Royale Chocolate Caf\u00e9", "website": "https://www.goldenroyale.se/"}}, {"type": "node", "id": 11229619712, "lat": 58.4090332, "lon": 15.6254429, "tags": {"amenity": "bar", "name": "Palatset"}}, {"type": "node", "id": 11423671517, "lat": 58.4085382, "lon": 15.5720554, "tags": {"addr:housenumber": "56B", "addr:street": "Rydsv\u00e4gen", "amenity": "restaurant", "cuisine": "pizza", "diet:vegetarian": "yes", "name": "68ans pizzeria och restaurang", "opening_hours": "Mo-Th 11:00-21:00; Fr-Sa 11:00-22:00; Su 11:00-21:00", "phone": "013176800", "website": "68an.se"}}, {"type": "node", "id": 11663173214, "lat": 58.4115163, "lon": 15.6206168, "tags": {"amenity": "bar", "name": "\u00c5gatan bar", "outdoor_seating": "yes"}}, {"type": "way", "id": 90893875, "nodes": [1055388855, 1055389002, 1055388842, 1055388919, 1055388996, 1055388973, 1055388936, 1055388902, 1055388855], "tags": {"addr:city": "Link\u00f6ping", "addr:country": "SE", "addr:housenumber": "9", "addr:street": "Lasarettsgatan", "amenity": "cafe", "building": "yes", "building:colour": "yellow", "building:levels": "3", "height": "22", "man_made": "tower", "name": "Belvederen", "opening_hours": "closed \"St\u00e4ngt tillsvidare\"", "roof:colour": "lightgray", "roof:shape": "pyramidal", "start_date": "1881", "tourism": "attraction", "wikidata": "Q4884886", "wikipedia": "en:Belvederen"}}, {"type": "way", "id": 93316925, "nodes": [1081971912, 1081971950, 1081971957, 1081971933, 1081971912], "tags": {"addr:city": "Norrk\u00f6ping", "addr:country": "SE", "addr:housenumber": "30", "addr:postcode": "602 21", "addr:street": "V\u00e4stg\u00f6tegatan", "amenity": "cafe", "building": "yes", "cuisine": "ice_cream", "name": "Sista supen"}}, {"type": "way", "id": 94445008, "nodes": [1097065009, 4640788432, 4640788431, 4640788430, 4640788433, 1097064953, 2930694967, 1097064795, 1097064858, 1097065009], "tags": {"addr:city": "Link\u00f6ping", "addr:country": "SE", "addr:housenumber": "3", "addr:street": "\u00c5gatan", "alt_name": "Emanuelskyrkan", "amenity": "cafe", "building": "yes", "diet:vegetarian": "yes", "name": "Stadsmissionens caf\u00e9", "old_name": "Metodistkyrkan", "opening_hours": "Mo 09:30-14:00; Tu-Fr 09:30-16:00; Sa 11:00-16:00", "operator": "Link\u00f6pings stadmission", "source": "http://www.linkopingsstadsmission.se/StadsmissionensCafe.html#borjan"}}, {"type": "way", "id": 96791241, "nodes": [1121335967, 1121335924, 1121335897, 1121335906, 1121335925, 1121335967], "tags": {"addr:city": "Norrk\u00f6ping", "addr:country": "SE", "addr:housenumber": "8", "addr:street": "V\u00e4rdshusgatan", "amenity": "cafe", "building": "yes", "name": "Caf\u00e9 F\u00e4rgarg\u00e5rden", "opening_hours": "Mo-Su 10:00-19:00", "phone": "+46 11 107641"}}, {"type": "way", "id": 127580701, "nodes": [1411681431, 1411681428, 1411681427, 1411681430, 1411681431], "tags": {"amenity": "restaurant", "building": "yes", "name": "S\u00f6rg\u00e5rdens G\u00e4stgiveri", "website": "http://www.sorgardensgastgiveri.se/"}}, {"type": "way", "id": 156020437, "nodes": [1683372006, 1683372218, 1683372268, 1683371945, 1683372121, 1683372114, 1683372127, 1683371983, 1683371995, 1683372192, 1683371956, 4142636290, 1683371953, 1683372064, 1683372107, 1683372006], "tags": {"addr:city": "Link\u00f6ping", "addr:country": "SE", "addr:housenumber": "3", "addr:postcode": "58254", "addr:street": "Ensbov\u00e4gen", "amenity": "restaurant", "building": "yes", "check_date:opening_hours": "2021-01-13", "cuisine": "pizza;regional", "delivery": "no", "diet:gluten_free": "yes", "diet:lactose_free": "yes", "diet:vegetarian": "yes", "email": "terrassen@eurest.se", "name": "Restaurang Terrassen", "opening_hours": "Mo-Fr 11:00-13:30", "operator": "Eurest", "outdoor_seating": "yes", "payment:cash": "no", "phone": "+46 13-18 10 13", "takeaway": "yes", "website": "https://www.compass-group.se/restauranger/Terrassen/", "wheelchair": "limited"}}, {"type": "way", "id": 192236142, "nodes": [2027955502, 2027955500, 7315913406, 7315913415, 7315913408, 7315913413, 7315913412, 7315913409, 7315913414, 7315913407, 2027955507, 2027955508, 2027955511, 7315913411, 7315913410, 2027955512, 2027955509, 7315913416, 7315913417, 2027955510, 7315913418, 7315913419, 2027955504, 2027955503, 2027955497, 2027955496, 2027955502], "tags": {"amenity": "restaurant", "building": "yes", "name": "Kanalkrogen"}}, {"type": "way", "id": 196958126, "nodes": [2072542108, 2072542107, 2072542099, 2072542102, 2072542108], "tags": {"amenity": "cafe", "building": "yes", "name": "Br\u00e5dtom Sluss"}}, {"type": "way", "id": 200440683, "nodes": [6418223658, 6418223657, 6418223656, 2104303169, 354931825, 2104303164, 2104303161, 6418223655, 6418223658], "tags": {"amenity": "cafe", "building": "yes", "name": "Claudia's Gastrobar & Glass", "name:en": "Car and Boat museum", "website": "https://www.museihuset.se/index.html"}}, {"type": "way", "id": 217807439, "nodes": [2271117262, 3930716971, 2271117277, 2271117281, 4876711816, 4876711817, 2271117268, 3930691584, 2271117262], "tags": {"addr:city": "Link\u00f6ping", "addr:country": "SE", "addr:housenumber": "1", "addr:postcode": "58957", "addr:street": "H\u00e4sslegatan", "amenity": "restaurant", "building": "retail", "cuisine": "kebab;pizza;regional", "name": "Restaurang Vidingsj\u00f6", "opening_hours": "Su-Th 11:00-20:00; Fr-Sa 11:00-21:00", "outdoor_seating": "yes", "phone": "+46 13-20 15 00", "takeaway": "yes", "website": "https://restaurangvidingsj\u00f6.se/"}}, {"type": "way", "id": 218594057, "nodes": [2278289403, 2278289404, 2278289407, 2278289399, 2278289403], "tags": {"amenity": "cafe", "building": "yes", "name": "\u00c5dala Kaffestuga"}}, {"type": "way", "id": 220986329, "nodes": [2300459960, 2300459959, 2300459958, 2300459957, 2300459956, 2300459955, 2300459954, 2300459953, 2300459952, 7626719692, 7626719694, 7626719695, 7626719693, 2300459962, 7626719699, 7626719698, 7626719696, 7626719697, 2300459960], "tags": {"addr:city": "Ljungsbro", "addr:country": "SE", "addr:housenumber": "2", "addr:street": "Centralplan", "amenity": "cafe", "building": "yes", "cuisine": "ice_cream", "name": "Ljungsbro Glass & Caf\u00e9", "outdoor_seating": "yes", "phone": "+46 13-650 50"}}, {"type": "way", "id": 221061507, "nodes": [2301135158, 2301135159, 2301135160, 2301135161, 2301135158], "tags": {"amenity": "restaurant", "building": "retail", "cuisine": "pizza", "name": "Pizzeria Venus", "source": "http://www.pizzakartan.se/0248115/Pizzeria_Venus"}}, {"type": "way", "id": 221725023, "nodes": [2307592219, 4581710258, 4581710257, 2307592220, 2307592221, 2307592222, 2307592219], "tags": {"amenity": "restaurant", "building": "apartments", "building:levels": "3", "cuisine": "pizza", "name": "Ekk\u00e4llan", "opening_hours": "Mo-Fr 11:00-22:00; Sa 12:30-22:00; Su 14:00-22:00", "takeaway": "yes"}}, {"type": "way", "id": 225426514, "nodes": [2342039194, 2342039192, 2342039191, 2342039193, 2342039194], "tags": {"amenity": "cafe", "building": "yes", "building:levels": "1", "building:material": "glass", "name": "Caf\u00e9 Carl Johan", "opening_hours": "Jun-Aug", "roof:colour": "black"}}, {"type": "way", "id": 227494674, "nodes": [2361623626, 2361623622, 2361623631, 2361623633, 2361623626], "tags": {"amenity": "restaurant", "building": "yes", "name": "W\u00e4rdshuset Tuppen", "source": "Bing"}}, {"type": "way", "id": 267064338, "nodes": [2725453552, 2725453553, 2725453554, 2725453555, 2725453556, 2725453557, 2725453558, 2725453559, 2725453552], "tags": {"amenity": "cafe", "building": "house", "name": "\u00c5backa caf\u00e9"}}, {"type": "way", "id": 270851515, "nodes": [2758193367, 2758193368, 2758193369, 2758193370, 2758193367], "tags": {"addr:city": "Norrk\u00f6ping", "addr:country": "SE", "addr:housenumber": "28", "addr:postcode": "602 14", "addr:street": "Breda v\u00e4gen", "amenity": "restaurant", "building": "yes", "cuisine": "pizza", "name": "Haga Pizzeria"}}, {"type": "way", "id": 290629444, "nodes": [2941416440, 2941416441, 2941416442, 3665273039, 2941416443, 2941416440], "tags": {"addr:city": "Link\u00f6ping", "addr:country": "SE", "addr:housenumber": "1", "addr:street": "S\u00f6dra St\u00e5nggatan", "amenity": "restaurant", "building": "yes", "building:levels": "2", "cuisine": "fine_dining", "name": "St\u00e5ngs Magasin", "opening_hours": "Tu-Fr 11:30-14:00, Tu-Th 18:00-24:00, Fr,Sa 17:00-24:00; Sa 11:00-14:00", "roof:shape": "gabled", "website": "https://www.stangsmagasin.se/"}}, {"type": "way", "id": 327341250, "nodes": [3340860142, 3340860143, 3340860144, 3340860145, 3340860142], "tags": {"amenity": "cafe", "building": "yes", "name": "L\u00f6kebo g\u00e5rdsbageri"}}, {"type": "way", "id": 331502826, "nodes": [3385783012, 3385783009, 4645877454, 4645877453, 3385782991, 3385782996, 3385783012], "tags": {"addr:city": "Link\u00f6ping", "addr:country": "SE", "addr:housenumber": "9", "addr:postcode": "58721", "addr:street": "Forshemsgatan", "amenity": "cafe", "building": "yes", "cuisine": "regional", "name": "Caf\u00e9 Tannefors Slussar", "opening_hours": "May-Aug: 11:00-19:00+", "phone": "+46 13-12 15 06", "short_name": "Slusscaf\u00e9t"}}, {"type": "way", "id": 375775097, "nodes": [3791200537, 3791200535, 3791200536, 3791200538, 3791200537], "tags": {"amenity": "cafe", "building": "yes"}}, {"type": "way", "id": 388995374, "nodes": [3921616738, 3921616747, 3921616745, 3921616756, 3921616772, 3921616758, 3921616757, 3921616753, 3921616748, 3921616744, 3921616738], "tags": {"amenity": "restaurant", "building": "commercial", "cuisine": "pizza", "name": "Kevin's"}}, {"type": "way", "id": 405823898, "nodes": [4079773019, 4079773022, 1690994229, 4079773000, 4079772998, 4079772995, 4079773003, 9535206053, 4079773009, 4079773019], "tags": {"amenity": "restaurant", "cuisine": "asian", "indoor": "room", "level": "0", "name": "Chili & Wok", "room": "restaurant", "website": "https://chiliwok.se/restauranger/linkoping-ikano/", "wheelchair": "yes"}}, {"type": "way", "id": 405823970, "nodes": [4079773102, 4079773100, 9535206128, 4079773103, 9535206129, 1049980471, 9535206127, 4079773108, 4079773102], "tags": {"amenity": "cafe", "indoor": "room", "level": "0", "name": "Sannes coffee"}}, {"type": "way", "id": 415357945, "nodes": [4163977557, 4163977541, 4163977549, 4163977560, 1158189685, 4163977557], "tags": {"addr:city": "Norrk\u00f6ping", "addr:country": "SE", "addr:housenumber": "17", "addr:street": "Koppargatan", "amenity": "restaurant", "building": "yes", "cuisine": "italian", "name": "Capri", "website": "https://caprinorrk\u00f6ping.se"}}, {"type": "way", "id": 417337952, "nodes": [4178998991, 4178997173, 312384948, 4178997168, 4178997167, 4178997178, 4178997179, 4178997185, 4178998991], "tags": {"amenity": "restaurant", "building": "retail", "name": "Fr\u00f6ken Jennys"}}, {"type": "way", "id": 434611140, "nodes": [4326135726, 4326135727, 4326135728, 4326135729, 4326135726], "tags": {"addr:city": "Link\u00f6ping", "addr:country": "SE", "addr:housenumber": "15E", "addr:street": "Als\u00e4ttersgatan", "amenity": "cafe", "building": "yes", "delivery": "no", "internet_access": "no", "name": "Kafe Myran", "opening_hours": "We 18:00-22:00; Su 13:00-17:00", "operator": "Kafe Myran", "payment:coins": "yes", "payment:credit_cards": "no", "payment:debit_cards": "no", "payment:notes": "yes", "smoking": "outside", "takeaway": "yes", "wheelchair": "no"}}, {"type": "way", "id": 472377331, "nodes": [4665861232, 4665861231, 4665861230, 4665861229, 4665861228, 4665861227, 4665861226, 4665861225, 4665861224, 4665861223, 4665861222, 3971801914, 4665861221, 4665861220, 4665861219, 4665861232], "tags": {"addr:city": "Link\u00f6ping", "addr:country": "SE", "addr:housenumber": "38", "addr:postcode": "582 23", "addr:street": "Klostergatan", "amenity": "cafe", "building": "yes", "cuisine": "coffee_shop", "name": "Caf\u00e9 Berget", "opening_hours": "Mo-Fr 09:00-18:00, Sa 10:00-16:00", "website": "http://www.cafeberget.com/"}}, {"type": "way", "id": 504530039, "nodes": [4946793228, 1518850216, 4946793229, 4946793227, 3538959412, 3538959416, 1518850218, 4946793228], "tags": {"addr:city": "Link\u00f6ping", "addr:country": "SE", "addr:housenumber": "2B", "addr:postcode": "58273", "addr:street": "V\u00e4stra Svedengatan", "amenity": "restaurant", "building": "commercial", "building:levels": "1", "cuisine": "asian;sushi", "email": "info@kinathai.se", "indoor_seating": "yes", "name": "Kina-Thai", "opening_hours": "Mo-Fr 11:00-14:30, Mo-Th 16:30-20:00, Fr 16:00-21:00, Sa,Su 12:00-20:00", "outdoor_seating": "no", "phone": "+46 13-174747", "roof:levels": "0", "takeaway": "yes", "toilets:wheelchair": "yes", "website": "https://kina-thai.se/", "wheelchair": "yes"}}, {"type": "way", "id": 837369376, "nodes": [9535206063, 7815196629, 9535198560, 9535206062, 9535206067, 9535206066, 9535206063], "tags": {"amenity": "cafe", "brand": "Espresso House", "brand:wikidata": "Q10489162", "brand:wikipedia": "sv:Espresso House", "cuisine": "coffee_shop", "indoor": "room", "internet_access": "wlan", "internet_access:fee": "no", "level": "1", "name": "Espresso House", "opening_hours": "Mo-Fr 09:30-20:00; Sa,Su 09:30-18:00", "smoking": "no", "takeaway": "yes", "toilets": "yes", "website": "https://espressohouse.com"}}, {"type": "way", "id": 904606936, "nodes": [8401096232, 8401076896, 8420427755, 8401096231, 8420427754, 8420427753, 8420427752, 8401096230, 841102422, 4257735698, 8401096232], "tags": {"amenity": "restaurant", "check_date:opening_hours": "2023-11-05", "cuisine": "burger;kebab;pizza;regional", "delivery": "no", "diet:vegetarian": "yes", "indoor": "room", "level": "0", "name": "Venezia", "opening_hours": "Mo-Sa 11:00-22:00; Su 12:00-22:00", "outdoor_seating": "no", "phone": "+46-13150403", "room": "restaurant", "smoking": "no", "takeaway": "yes", "toilets": "yes", "website": "https://pizzeria-venezia.se/"}}, {"type": "way", "id": 982397284, "nodes": [9085518720, 9085518721, 9085518722, 7807274585, 9085518720], "tags": {"amenity": "restaurant", "building": "yes", "name": "Falafel Stugan", "name:ar": "\u0641\u0644\u0627\u0641\u0644 \u0633\u062a\u0648\u06af\u0627\u0646", "name:en": "Falafel rasturant", "name:sv": "Falafel Stugan"}}]}