{"version": 0.6, "generator": "Overpass API 0.7.61.5 4133829e", "osm3s": {"timestamp_osm_base": "2024-03-08T21:11:44Z", "copyright": "The data included in this document is from www.openstreetmap.org. The data is made available under ODbL."}, "elements": [{"type": "node", "id": 244825060, "lat": 60.7007865, "lon": 17.1784696, "tags": {"amenity": "restaurant", "created_by": "JOSM", "name": "G\u00e4vle Golfrestaurang"}}, {"type": "node", "id": 279283221, "lat": 60.665582, "lon": 17.3014588, "tags": {"amenity": "cafe", "name": "V\u00e5rviks servering", "source": "survey"}}, {"type": "node", "id": 279283349, "lat": 60.6758387, "lon": 17.214744, "tags": {"amenity": "cafe", "source": "survey"}}, {"type": "node", "id": 281035429, "lat": 60.7050742, "lon": 17.2398601, "tags": {"amenity": "restaurant", "name": "Engeltofta", "place": "locality"}}, {"type": "node", "id": 309077746, "lat": 60.6717759, "lon": 17.168093, "tags": {"amenity": "restaurant"}}, {"type": "node", "id": 309077748, "lat": 60.6724508, "lon": 17.1678087, "tags": {"amenity": "cafe"}}, {"type": "node", "id": 370024093, "lat": 60.562511, "lon": 17.4361036}, {"type": "node", "id": 370024095, "lat": 60.5623217, "lon": 17.4361036}, {"type": "node", "id": 370024098, "lat": 60.5623217, "lon": 17.4359025}, {"type": "node", "id": 370024132, "lat": 60.5611906, "lon": 17.4358422}, {"type": "node", "id": 370024133, "lat": 60.5611911, "lon": 17.4360548}, {"type": "node", "id": 370024134, "lat": 60.5613149, "lon": 17.4360536}, {"type": "node", "id": 370024136, "lat": 60.5613154, "lon": 17.4362731}, {"type": "node", "id": 370024139, "lat": 60.5614255, "lon": 17.4362721}, {"type": "node", "id": 370024141, "lat": 60.561425, "lon": 17.4360603}, {"type": "node", "id": 370024144, "lat": 60.5614962, "lon": 17.4360596}, {"type": "node", "id": 370024147, "lat": 60.5614957, "lon": 17.4358584}, {"type": "node", "id": 370024148, "lat": 60.5614199, "lon": 17.4358591}, {"type": "node", "id": 370024149, "lat": 60.5614194, "lon": 17.4356284}, {"type": "node", "id": 370024150, "lat": 60.5613234, "lon": 17.4356293}, {"type": "node", "id": 457310542, "lat": 60.644044, "lon": 17.3794473, "tags": {"amenity": "restaurant", "cuisine": "pizza;grill", "name": "Harn\u00e4s Grill och Kiosk"}}, {"type": "node", "id": 750791393, "lat": 60.672614, "lon": 17.1675608, "tags": {"amenity": "restaurant", "name": "Kon Thai"}}, {"type": "node", "id": 810674988, "lat": 60.6531206, "lon": 17.3396412, "tags": {"amenity": "restaurant", "name": "Cirkusrestaurangen"}}, {"type": "node", "id": 810700331, "lat": 60.6527406, "lon": 17.3440946, "tags": {"amenity": "restaurant", "name": "Furuviks Havskrog"}}, {"type": "node", "id": 896876604, "lat": 60.5616589, "lon": 17.4364136, "tags": {"amenity": "restaurant", "name": "Pulshuset"}}, {"type": "node", "id": 1706658631, "lat": 60.6734445, "lon": 17.1683448, "tags": {"amenity": "restaurant", "brand": "Bella Italia", "cuisine": "pizza", "name": "Bella Italia"}}, {"type": "node", "id": 1709799442, "lat": 60.6312546, "lon": 17.4099293, "tags": {"addr:city": "Skutsk\u00e4r", "addr:country": "SE", "addr:housenumber": "28", "addr:street": "G\u00e4vlev\u00e4gen", "amenity": "restaurant", "name": "Tre sm\u00e5 rum"}}, {"type": "node", "id": 1709799445, "lat": 60.6327836, "lon": 17.407953, "tags": {"amenity": "restaurant", "name": "John's K\u00f6k o Bar"}}, {"type": "node", "id": 1831975837, "lat": 60.4625841, "lon": 17.4156549, "tags": {"amenity": "restaurant", "cuisine": "chinese", "fixme": "Fix location of restaurant", "name": "Dragon Gate", "website": "https://www.dragongate.nu"}}, {"type": "node", "id": 1865492350, "lat": 60.6495576, "lon": 17.1687418, "tags": {"amenity": "cafe", "name": "Hemlingbystugan"}}, {"type": "node", "id": 2144851222, "lat": 60.6390457, "lon": 17.4729999}, {"type": "node", "id": 2144851223, "lat": 60.639073, "lon": 17.4725294}, {"type": "node", "id": 2144851248, "lat": 60.639181, "lon": 17.4725554}, {"type": "node", "id": 2144851249, "lat": 60.6391559, "lon": 17.4730265}, {"type": "node", "id": 2355091371, "lat": 60.5767158, "lon": 17.4500196, "tags": {"addr:city": "\u00c4lvkarleby", "addr:country": "SE", "addr:housenumber": "1", "addr:postcode": "814 70", "addr:street": "Campingv\u00e4gen", "amenity": "restaurant", "name": "\u00c4lvkarleby Fiskecamping", "website": "https://www.alvkarlebycamping.se/restaurang/"}}, {"type": "node", "id": 2431396639, "lat": 60.5613238, "lon": 17.4358409}, {"type": "node", "id": 2431426643, "lat": 60.562511, "lon": 17.4359025}, {"type": "node", "id": 2432712686, "lat": 60.5641748, "lon": 17.4484753, "tags": {"amenity": "restaurant", "cuisine": "pizza", "name": "La Fornetto"}}, {"type": "node", "id": 2998903372, "lat": 60.4113103, "lon": 17.8773755, "tags": {"amenity": "cafe", "name": "Caf\u00e9 L\u00f6vstabruk"}}, {"type": "node", "id": 3395062113, "lat": 60.6244856, "lon": 17.4127039, "tags": {"amenity": "restaurant", "name": "Sleven"}}, {"type": "node", "id": 3449585703, "lat": 60.6786077, "lon": 17.1630639, "tags": {"amenity": "cafe", "brand": "Wayne's Coffee", "brand:wikidata": "Q2637272", "brand:wikipedia": "en:Wayne's Coffee", "cuisine": "coffee_shop", "ele": "12.45", "internet_access": "wlan", "name": "Wayne's Coffee", "source": "survey", "takeaway": "yes"}}, {"type": "node", "id": 3579152964, "lat": 60.65618, "lon": 17.3409099, "tags": {"amenity": "cafe"}}, {"type": "node", "id": 4195057797, "lat": 60.6785645, "lon": 17.1626901, "tags": {"alt_name": "Fullriggaren Strand", "amenity": "restaurant", "name": "Strand Restaurang", "source": "survey"}}, {"type": "node", "id": 4690245689, "lat": 60.8165459, "lon": 17.2108722}, {"type": "node", "id": 4690245690, "lat": 60.8165367, "lon": 17.2106906}, {"type": "node", "id": 4690245691, "lat": 60.8167201, "lon": 17.2105656}, {"type": "node", "id": 4690245692, "lat": 60.8167337, "lon": 17.2108321}, {"type": "node", "id": 4838805831, "lat": 60.6983738, "lon": 17.204327, "tags": {"amenity": "restaurant", "name": "Hamnrestaurangen"}}, {"type": "node", "id": 4907271298, "lat": 60.6536998, "lon": 17.3398534}, {"type": "node", "id": 4907271351, "lat": 60.6536682, "lon": 17.3398405}, {"type": "node", "id": 4907271378, "lat": 60.6536809, "lon": 17.3397104}, {"type": "node", "id": 4907271394, "lat": 60.6537126, "lon": 17.3397234}, {"type": "node", "id": 4952474356, "lat": 60.7109425, "lon": 17.3354735, "tags": {"amenity": "cafe", "name": "Cafe Lim\u00f6", "outdoor_seating": "yes", "takeaway": "yes", "website": "https://www.limongavle.se/cafe.html"}}, {"type": "node", "id": 4991315036, "lat": 60.4086965, "lon": 17.8784687}, {"type": "node", "id": 4991315037, "lat": 60.408745, "lon": 17.8788632}, {"type": "node", "id": 4991315038, "lat": 60.4088945, "lon": 17.8787878}, {"type": "node", "id": 4991315039, "lat": 60.4087973, "lon": 17.8784179}, {"type": "node", "id": 5107105245, "lat": 60.7277281, "lon": 17.283416}, {"type": "node", "id": 5107105246, "lat": 60.7277239, "lon": 17.2836825}, {"type": "node", "id": 5107105247, "lat": 60.7276525, "lon": 17.2836567}, {"type": "node", "id": 5107105248, "lat": 60.7274634, "lon": 17.2835364}, {"type": "node", "id": 5107105249, "lat": 60.727476, "lon": 17.2834246}, {"type": "node", "id": 5107105250, "lat": 60.7276483, "lon": 17.2834418}, {"type": "node", "id": 5107105251, "lat": 60.7276523, "lon": 17.2833783}, {"type": "node", "id": 5426449787, "lat": 60.6806755, "lon": 17.1673366, "tags": {"addr:city": "G\u00e4vle", "addr:country": "SE", "addr:housenumber": "57", "addr:postcode": "803 02", "addr:street": "Sj\u00e5aregatan", "amenity": "restaurant", "cuisine": "pizza;italian;regional", "name": "Aktern & F\u00f6ren", "phone": "+46264209337", "website": "https://akternochforen.se/"}}, {"type": "node", "id": 6637272071, "lat": 60.4087795, "lon": 17.8786704, "tags": {"amenity": "restaurant", "diet:vegetarian": "yes", "name": "V\u00e4rdshus", "opening_hours": "Apr-Sep Mo-Su 11:00-17:00"}}, {"type": "node", "id": 6647270640, "lat": 60.4638651, "lon": 17.4162824, "tags": {"addr:city": "\u00c4lvkarleby", "addr:country": "SE", "addr:housenumber": "20", "addr:postcode": "814 95", "addr:street": "dragongate", "amenity": "cafe", "name": "Caf\u00e9 Draken", "phone": "+46 (0)70-2094513"}}, {"type": "node", "id": 6672740471, "lat": 60.6537197, "lon": 17.3396509}, {"type": "node", "id": 6672740472, "lat": 60.6537072, "lon": 17.3396458}, {"type": "node", "id": 6672740473, "lat": 60.6537001, "lon": 17.3397183}, {"type": "node", "id": 7380504920, "lat": 60.7375591, "lon": 17.3093052}, {"type": "node", "id": 7380504921, "lat": 60.7376246, "lon": 17.3097712}, {"type": "node", "id": 7380504922, "lat": 60.7375178, "lon": 17.3098341}, {"type": "node", "id": 7380504923, "lat": 60.7374523, "lon": 17.3093681}, {"type": "node", "id": 7575446447, "lat": 60.8166018, "lon": 17.2105909}, {"type": "node", "id": 7575446448, "lat": 60.8166061, "lon": 17.2106758}, {"type": "node", "id": 7731732320, "lat": 60.6656984, "lon": 17.2283714}, {"type": "node", "id": 7731732321, "lat": 60.6656049, "lon": 17.2283369}, {"type": "node", "id": 7731732322, "lat": 60.6655983, "lon": 17.2284119}, {"type": "node", "id": 7731732323, "lat": 60.6655173, "lon": 17.228382}, {"type": "node", "id": 7731732324, "lat": 60.6655015, "lon": 17.2285608}, {"type": "node", "id": 7731732325, "lat": 60.6656759, "lon": 17.2286252}, {"type": "node", "id": 7761209127, "lat": 60.6732335, "lon": 17.2546744}, {"type": "node", "id": 7761209128, "lat": 60.6731216, "lon": 17.2546375}, {"type": "node", "id": 7761209129, "lat": 60.6730986, "lon": 17.2549281}, {"type": "node", "id": 7761209130, "lat": 60.6732105, "lon": 17.2549651}, {"type": "node", "id": 7769829121, "lat": 60.6817856, "lon": 17.2535976, "tags": {"amenity": "restaurant", "cuisine": "pizza", "name": "Pizzeria Kastet"}}, {"type": "node", "id": 7783821894, "lat": 60.653985, "lon": 17.3370344, "tags": {"amenity": "cafe", "check_date": "2020-08-04", "name": "Classic Caf\u00e9"}}, {"type": "node", "id": 7810617184, "lat": 60.7002528, "lon": 17.16308}, {"type": "node", "id": 7810637285, "lat": 60.7002901, "lon": 17.1633084}, {"type": "node", "id": 7810637287, "lat": 60.7002385, "lon": 17.1629985}, {"type": "node", "id": 7810637288, "lat": 60.7001942, "lon": 17.1633735}, {"type": "node", "id": 7810637289, "lat": 60.7001444, "lon": 17.1630669}, {"type": "node", "id": 7844002461, "lat": 60.7224734, "lon": 17.1709495}, {"type": "node", "id": 7844002462, "lat": 60.7223249, "lon": 17.1709492}, {"type": "node", "id": 7844002463, "lat": 60.7223248, "lon": 17.1711778}, {"type": "node", "id": 7844002464, "lat": 60.7222551, "lon": 17.1711777}, {"type": "node", "id": 7844002465, "lat": 60.7222548, "lon": 17.1716241}, {"type": "node", "id": 7844002466, "lat": 60.722473, "lon": 17.1716246}, {"type": "node", "id": 8933639117, "lat": 60.7580876, "lon": 17.3480557, "tags": {"addr:country": "SE", "addr:housenumber": "16", "addr:postcode": "80595", "addr:street": "R\u00e4nnav\u00e4gen", "amenity": "restaurant", "name": "Sk\u00e4rg\u00e5rdskrogen", "name:sv": "Sk\u00e4rg\u00e5rdskrogen Utvaln\u00e4s", "opening_hours": "Mo-Su 11:00-21:00", "phone": "+46 26 99255", "website": "https://www.skargardskrogenutvalnas.se"}}, {"type": "node", "id": 9862639379, "lat": 60.6736865, "lon": 17.162166, "tags": {"amenity": "restaurant", "name": "Adana Kolgrill"}}, {"type": "node", "id": 9862672900, "lat": 60.6772919, "lon": 17.1622848, "tags": {"amenity": "restaurant", "name": "Tr\u00e4dg\u00e5r'n Kolgrill & Bar"}}, {"type": "node", "id": 11011972657, "lat": 60.6391632, "lon": 17.4728998}, {"type": "node", "id": 11011972658, "lat": 60.6391738, "lon": 17.4726788}, {"type": "node", "id": 11011972659, "lat": 60.6392217, "lon": 17.4729139}, {"type": "node", "id": 11011972660, "lat": 60.6392345, "lon": 17.4726935}, {"type": "node", "id": 11012583223, "lat": 60.6393757, "lon": 17.4728428, "tags": {"amenity": "bar", "outdoor_seating": "yes", "wheelchair": "yes"}}, {"type": "node", "id": 11469160695, "lat": 60.4088703, "lon": 17.8785909}, {"type": "node", "id": 11469160696, "lat": 60.4088215, "lon": 17.8786155}, {"type": "way", "id": 32846715, "nodes": [2431426643, 370024093, 370024095, 370024098, 2431426643], "tags": {"addr:city": "\u00c4lvkarleby", "addr:country": "SE", "addr:housenumber": "3", "addr:postcode": "814 94", "addr:street": "Lax\u00f6n", "amenity": "cafe", "building": "yes", "name": "Cafe Furiren", "outdoor_seating": "yes", "phone": "+46 (0)26-72123", "source": "historical;survey", "source_ref": "ekonomiska kartan anno 1954"}}, {"type": "way", "id": 32846720, "nodes": [2431396639, 370024132, 370024133, 370024134, 370024136, 370024139, 370024141, 370024144, 370024147, 370024148, 370024149, 370024150, 2431396639], "tags": {"addr:city": "\u00c4lvkarleby", "addr:country": "SE", "addr:housenumber": "12", "addr:postcode": "814 94", "addr:street": "Lax\u00f6n", "amenity": "restaurant", "building": "yes", "name": "Kungs\u00e5dran", "phone": "+46 (0)26-822 22", "source": "historical;survey", "source_ref": "ekonomiska kartan anno 1954"}}, {"type": "way", "id": 204484973, "nodes": [2144851222, 2144851223, 2144851248, 11011972658, 11011972660, 11011972659, 11011972657, 2144851249, 2144851222], "tags": {"amenity": "restaurant", "building": "yes"}}, {"type": "way", "id": 475256589, "nodes": [4690245689, 4690245690, 7575446448, 7575446447, 4690245691, 4690245692, 4690245689], "tags": {"addr:city": "G\u00e4vle", "addr:country": "SE", "addr:housenumber": "1", "addr:postcode": "80596", "addr:street": "Tittmyrv\u00e4gen", "amenity": "restaurant", "building": "yes", "cuisine": "pizza", "name": "Tr\u00f6dje restaurang & pizzeria", "outdoor_seating": "yes", "takeaway": "yes"}}, {"type": "way", "id": 499450657, "nodes": [4907271351, 4907271378, 6672740473, 4907271394, 4907271298, 4907271351], "tags": {"amenity": "restaurant", "building": "yes", "name": "Tyrolergrillen", "source": "DigitalGlobe-Premium"}}, {"type": "way", "id": 510024178, "nodes": [4991315039, 11469160696, 11469160695, 4991315038, 4991315037, 4991315036, 4991315039], "tags": {"addr:city": "L\u00f6vstabruk", "addr:housenumber": "33", "addr:postcode": "81966", "addr:street": "Stora gatan", "amenity": "restaurant", "building": "yes"}}, {"type": "way", "id": 524874989, "nodes": [5107105245, 5107105246, 5107105247, 5107105248, 5107105249, 5107105250, 5107105251, 5107105245], "tags": {"addr:city": "G\u00e4vle", "addr:country": "SE", "addr:housenumber": "8", "addr:postcode": "80595", "addr:street": "Husiliiharen", "amenity": "restaurant", "building": "yes", "email": "info@seglarbaren.se", "name": "Husiliharen", "phone": "+46 26 99440", "website": "https://www.seglarbaren.se/"}}, {"type": "way", "id": 709814891, "nodes": [6672740473, 6672740472, 6672740471, 4907271394, 6672740473], "tags": {"amenity": "bar", "name": "Tyrolerbaren"}}, {"type": "way", "id": 789338436, "nodes": [7380504920, 7380504921, 7380504922, 7380504923, 7380504920], "tags": {"addr:city": "G\u00e4vle", "addr:country": "SE", "addr:housenumber": "234", "addr:postcode": "80595", "addr:street": "B\u00f6nav\u00e4gen", "amenity": "cafe", "building": "yes", "cuisine": "sandwich;coffee_shop;ice_cream;cake;coffee_shop;tea", "email": "info@konditorilido.se", "name": "B\u00f6na Cafe", "phone": "+46 26 611942", "website": "https://www.konditorilido.se/bona-cafe"}}, {"type": "way", "id": 828191653, "nodes": [7731732320, 7731732321, 7731732322, 7731732323, 7731732324, 7731732325, 7731732320], "tags": {"addr:city": "G\u00e4vle", "addr:country": "SE", "addr:housenumber": "2a", "addr:postcode": "80432", "addr:street": "H\u00f6vdingav\u00e4gen", "amenity": "restaurant", "building": "yes", "cuisine": "pizza", "name": "Pizzeria Amigo", "opening_hours": "Mo-Su 11:00-22:00"}}, {"type": "way", "id": 831214167, "nodes": [7761209127, 7761209128, 7761209129, 7761209130, 7761209127], "tags": {"addr:city": "G\u00e4vle", "addr:country": "SE", "addr:housenumber": "123", "addr:postcode": "804 24", "addr:street": "Furuviksv\u00e4gen", "amenity": "restaurant", "building": "yes", "name": "Bomhusgrillen"}}, {"type": "way", "id": 836879287, "nodes": [7810617184, 7810637287, 7810637289, 7810637288, 7810637285, 7810617184], "tags": {"addr:country": "SE", "addr:housenumber": "13a", "addr:street": "Fabriksgatan", "amenity": "restaurant", "building": "yes", "cuisine": "pizza", "name": "Emils pizzeria"}}, {"type": "way", "id": 840616024, "nodes": [7844002461, 7844002462, 7844002463, 7844002464, 7844002465, 7844002466, 7844002461], "tags": {"addr:city": "G\u00e4vle", "addr:country": "SE", "addr:housenumber": "92", "addr:postcode": "80649", "addr:street": "Hillev\u00e4gen", "amenity": "restaurant", "building": "yes", "name": "Hillerian Pizzeria & Pub"}}]}