{"version": 0.6, "generator": "Overpass API 0.7.61.5 4133829e", "osm3s": {"timestamp_osm_base": "2024-03-08T21:17:56Z", "copyright": "The data included in this document is from www.openstreetmap.org. The data is made available under ODbL."}, "elements": [{"type": "node", "id": 1401388270, "lat": 59.5199173, "lon": 15.0382019, "tags": {"amenity": "atm", "name": "Bankomat"}}, {"type": "node", "id": 1401388272, "lat": 59.5199806, "lon": 15.0390714, "tags": {"amenity": "atm", "operator": "SEB"}}, {"type": "node", "id": 1636956372, "lat": 59.2590324, "lon": 15.2401008, "tags": {"addr:city": "\u00d6rebro", "addr:country": "SE", "addr:housenumber": "1C", "addr:postcode": "702 19", "addr:street": "Drakenbergsgatan", "amenity": "atm", "cash_in": "no", "currency:SEK": "yes", "drive_through": "no", "name": "Bankomat", "operator": "Bankomat AB"}}, {"type": "node", "id": 1846595463, "lat": 59.3153484, "lon": 14.504813, "tags": {"amenity": "atm", "operator": "Swedbank", "wheelchair": "yes"}}, {"type": "node", "id": 1846595465, "lat": 59.3259524, "lon": 14.5232001, "tags": {"amenity": "atm", "operator": "Swedbank"}}, {"type": "node", "id": 1859365698, "lat": 59.3263091, "lon": 14.522865, "tags": {"amenity": "atm", "operator": "Bankomat"}}, {"type": "node", "id": 1862258405, "lat": 59.2701899, "lon": 15.1880212, "tags": {"amenity": "atm"}}, {"type": "node", "id": 1878289305, "lat": 59.3280037, "lon": 14.5750238, "tags": {"amenity": "atm", "operator": "Bankomat"}}, {"type": "node", "id": 1923573246, "lat": 59.1265228, "lon": 15.1435169, "tags": {"amenity": "bank", "brand": "Swedbank", "brand:wikidata": "Q1145493", "brand:wikipedia": "en:Swedbank", "name": "Swedbank", "wheelchair": "yes"}}, {"type": "node", "id": 1923573247, "lat": 59.126776, "lon": 15.1438173, "tags": {"amenity": "atm", "brand": "Swedbank", "brand:wikidata": "Q1145493", "name": "Swedbank", "operator": "Swedbank", "operator:wikidata": "Q1145493"}}, {"type": "node", "id": 1923573250, "lat": 59.1261374, "lon": 15.1430824, "tags": {"amenity": "bank", "brand": "Nordea", "brand:wikidata": "Q1123823", "brand:wikipedia": "en:Nordea", "name": "Nordea"}}, {"type": "node", "id": 1927100039, "lat": 59.2728963, "lon": 15.1747194, "tags": {"amenity": "atm"}}, {"type": "node", "id": 2053470530, "lat": 59.5194295, "lon": 15.0379468}, {"type": "node", "id": 2053470532, "lat": 59.5194345, "lon": 15.0377779}, {"type": "node", "id": 2053470543, "lat": 59.5198495, "lon": 15.0379846}, {"type": "node", "id": 2053470544, "lat": 59.5198514, "lon": 15.037901}, {"type": "node", "id": 2053470547, "lat": 59.5199201, "lon": 15.0381981}, {"type": "node", "id": 2053470548, "lat": 59.5199267, "lon": 15.0379076}, {"type": "node", "id": 2057429654, "lat": 59.5197495, "lon": 15.0385815}, {"type": "node", "id": 2057429655, "lat": 59.5197539, "lon": 15.0384131}, {"type": "node", "id": 2360919813, "lat": 59.2760656, "lon": 15.2055982, "tags": {"amenity": "atm", "check_date": "2021-04-30", "source": "survey"}}, {"type": "node", "id": 2385860958, "lat": 59.2720059, "lon": 15.2136998, "tags": {"addr:city": "\u00d6rebro", "addr:country": "SE", "addr:housenumber": "5", "addr:postcode": "702 11", "addr:street": "Stortorget", "amenity": "bank", "atm": "yes", "brand": "Handelsbanken", "brand:wikidata": "Q1421630", "brand:wikipedia": "en:Handelsbanken", "name": "Handelsbanken"}}, {"type": "node", "id": 2385860975, "lat": 59.2720164, "lon": 15.2136074, "tags": {"amenity": "atm", "check_date": "2022-05-02"}}, {"type": "node", "id": 2459030563, "lat": 59.2764182, "lon": 15.2152534, "tags": {"amenity": "atm", "check_date": "2023-04-13", "wheelchair": "yes"}}, {"type": "node", "id": 2582056266, "lat": 59.3258926, "lon": 14.5233983, "tags": {"amenity": "bank", "atm": "no", "brand": "Swedbank", "brand:wikidata": "Q1145493", "brand:wikipedia": "en:Swedbank", "name": "Swedbank"}}, {"type": "node", "id": 2684202298, "lat": 59.2686458, "lon": 15.2096907, "tags": {"amenity": "atm"}}, {"type": "node", "id": 2819361416, "lat": 59.2760857, "lon": 15.2111367, "tags": {"amenity": "atm"}}, {"type": "node", "id": 2949859776, "lat": 59.173271, "lon": 14.871745, "tags": {"amenity": "atm", "operator": "Swedbank"}}, {"type": "node", "id": 3684728112, "lat": 59.276192, "lon": 15.205649, "tags": {"amenity": "bank", "atm": "yes", "brand": "Handelsbanken", "brand:wikidata": "Q1421630", "brand:wikipedia": "en:Handelsbanken", "name": "Handelsbanken"}}, {"type": "node", "id": 3827743334, "lat": 59.5196171, "lon": 15.0383992}, {"type": "node", "id": 3827743340, "lat": 59.5197071, "lon": 15.037972}, {"type": "node", "id": 4961558708, "lat": 59.2772622, "lon": 15.2175175, "tags": {"amenity": "atm"}}, {"type": "node", "id": 5807362490, "lat": 59.2715179, "lon": 15.2110471, "tags": {"amenity": "bank", "brand": "Swedbank", "brand:wikidata": "Q1145493", "brand:wikipedia": "en:Swedbank", "name": "Swedbank"}}, {"type": "node", "id": 5807362491, "lat": 59.2710104, "lon": 15.2104419, "tags": {"amenity": "bank", "brand": "Nordea", "brand:wikidata": "Q1123823", "brand:wikipedia": "en:Nordea", "name": "Nordea", "opening_hours": "Mo-Fr 10:00-15:00"}}, {"type": "node", "id": 6512002589, "lat": 59.2677514, "lon": 15.2082408, "tags": {"amenity": "atm"}}, {"type": "node", "id": 7478475720, "lat": 59.2754108, "lon": 15.1645432, "tags": {"amenity": "atm", "opening_hours": "24/7", "operator": "Bankomat"}}, {"type": "node", "id": 8343587382, "lat": 59.2727353, "lon": 15.2120718, "tags": {"addr:city": "\u00d6rebro", "addr:country": "SE", "addr:housenumber": "12", "addr:postcode": "702 10", "addr:street": "Drottninggatan", "amenity": "bank", "atm": "no", "brand": "SEB", "brand:wikidata": "Q975655", "brand:wikipedia": "en:SEB Group", "email": "kontakta5332@seb.se", "name": "SEB", "opening_hours": "Mo-Fr 10:00-13:00", "phone": "+46 19 368 0130", "website": "https://seb.se/hitta-bankkontor/seb-i-orebro"}}, {"type": "node", "id": 8423870180, "lat": 59.2180231, "lon": 15.1386206}, {"type": "node", "id": 8423870181, "lat": 59.2179839, "lon": 15.1386178}, {"type": "node", "id": 8423870182, "lat": 59.2179869, "lon": 15.1383392}, {"type": "node", "id": 8423870183, "lat": 59.2180168, "lon": 15.1383197}, {"type": "node", "id": 8423870198, "lat": 59.2180239, "lon": 15.1385169}, {"type": "node", "id": 8430292123, "lat": 59.2172093, "lon": 15.1376997, "tags": {"amenity": "atm"}}, {"type": "node", "id": 8430292124, "lat": 59.2171826, "lon": 15.1376996, "tags": {"amenity": "atm"}}, {"type": "node", "id": 8850541401, "lat": 59.5196835, "lon": 15.0384851, "tags": {"amenity": "bank", "brand": "Swedbank", "brand:wikidata": "Q1145493", "brand:wikipedia": "en:Swedbank", "name": "Lilla Bergslagens Sparbank"}}, {"type": "node", "id": 8850541408, "lat": 59.5196124, "lon": 15.0385681}, {"type": "node", "id": 9449894582, "lat": 59.2851402, "lon": 15.2324452, "tags": {"amenity": "atm"}}, {"type": "node", "id": 9501706843, "lat": 59.2891577, "lon": 15.2245816, "tags": {"amenity": "atm"}}, {"type": "node", "id": 9559005287, "lat": 59.5193859, "lon": 15.0377723}, {"type": "node", "id": 9559005297, "lat": 59.5196262, "lon": 15.0381723}, {"type": "node", "id": 9559005306, "lat": 59.5197362, "lon": 15.0384113, "tags": {"entrance": "yes", "name": "Entr\u00e9n till Lilla Bergslagens Sparbank"}}, {"type": "node", "id": 9559018220, "lat": 59.5193593, "lon": 15.0381217}, {"type": "node", "id": 9559018242, "lat": 59.5194492, "lon": 15.0385329}, {"type": "node", "id": 9559018243, "lat": 59.5193583, "lon": 15.0381524}, {"type": "node", "id": 9559018250, "lat": 59.5194425, "lon": 15.0381622}, {"type": "node", "id": 9559018254, "lat": 59.5194489, "lon": 15.0379491}, {"type": "node", "id": 9559018275, "lat": 59.5193754, "lon": 15.0381236}, {"type": "node", "id": 9559018278, "lat": 59.5193948, "lon": 15.0385251}, {"type": "node", "id": 9559018292, "lat": 59.5194545, "lon": 15.0383571}, {"type": "node", "id": 9559018294, "lat": 59.5196309, "lon": 15.0379653}, {"type": "node", "id": 9559018295, "lat": 59.5194007, "lon": 15.0383488}, {"type": "node", "id": 9559018302, "lat": 59.5194112, "lon": 15.0379939, "tags": {"amenity": "bank", "brand": "Handelsbanken", "brand:wikidata": "Q1421630", "brand:wikipedia": "en:Handelsbanken", "name": "Handelsbanken Nora"}}, {"type": "node", "id": 9559018309, "lat": 59.5197865, "lon": 15.0380733, "tags": {"amenity": "bank", "brand": "Swedbank", "brand:wikidata": "Q1145493", "brand:wikipedia": "en:Swedbank", "name": "Stora Bergslagens Sparbank"}}, {"type": "node", "id": 10587017128, "lat": 59.3263323, "lon": 14.5227386, "tags": {"amenity": "bank", "name": "Handelsbanken"}}, {"type": "node", "id": 11132963925, "lat": 59.5197298, "lon": 15.0385796}, {"type": "way", "id": 194837238, "nodes": [9559005297, 9559018294, 3827743340, 2053470543, 2053470544, 2053470548, 2053470547, 9559005297], "tags": {"addr:city": "Nora", "addr:country": "SE", "addr:housenumber": "15", "addr:postcode": "713 31", "addr:street": "R\u00e5dmansgatan", "amenity": "bank", "building": "yes"}}, {"type": "way", "id": 907179350, "nodes": [8423870183, 8423870182, 8423870181, 8423870180, 8423870198, 8423870183], "tags": {"amenity": "bank", "brand": "Forex", "indoor": "room", "level": "1", "name": "Forex Bank", "room": "shop", "wheelchair": "yes"}}, {"type": "way", "id": 956316203, "nodes": [3827743334, 8850541408, 11132963925, 2057429654, 2057429655, 9559005306, 3827743334], "tags": {"addr:city": "Nora", "addr:country": "SE", "addr:housenumber": "28A", "addr:postcode": "713 31", "addr:street": "R\u00e5dmansgatan", "amenity": "bank", "building": "yes"}}, {"type": "way", "id": 1037804418, "nodes": [9559018292, 9559018295, 9559018278, 9559018242, 9559018292], "tags": {"amenity": "bank", "building": "yes", "name": "Bankomat"}}, {"type": "way", "id": 1037804419, "nodes": [9559005287, 2053470532, 2053470530, 9559018254, 9559018250, 9559018243, 9559018220, 9559018275, 9559005287], "tags": {"amenity": "bank", "building": "yes"}}]}