{"version": 0.6, "generator": "Overpass API 0.7.61.5 4133829e", "osm3s": {"timestamp_osm_base": "2024-03-08T21:11:44Z", "copyright": "The data included in this document is from www.openstreetmap.org. The data is made available under ODbL."}, "elements": [{"type": "node", "id": 423399977, "lat": 60.2068435, "lon": 16.3064511, "tags": {"amenity": "restaurant", "cuisine": "pizza", "description": "Pizza&Kebab"}}, {"type": "node", "id": 910597126, "lat": 60.0979174, "lon": 16.4366754, "tags": {"amenity": "cafe", "name": "Mats-Pers", "website": "http://www.mats-persgarden.se/gallery_21.html"}}, {"type": "node", "id": 1242058862, "lat": 60.0879476, "lon": 16.5431704}, {"type": "node", "id": 1242058998, "lat": 60.0881713, "lon": 16.54327}, {"type": "node", "id": 1242059074, "lat": 60.0879742, "lon": 16.54293}, {"type": "node", "id": 1242059122, "lat": 60.0881577, "lon": 16.543393}, {"type": "node", "id": 1242059230, "lat": 60.0882604, "lon": 16.5434387}, {"type": "node", "id": 1242059351, "lat": 60.0883006, "lon": 16.5430753}, {"type": "node", "id": 1270749979, "lat": 60.1739843, "lon": 16.7907588}, {"type": "node", "id": 1270750044, "lat": 60.173829, "lon": 16.7910442}, {"type": "node", "id": 1270750710, "lat": 60.1739005, "lon": 16.7912014}, {"type": "node", "id": 1270750882, "lat": 60.1740558, "lon": 16.7909159}, {"type": "node", "id": 1295441156, "lat": 60.2897002, "lon": 16.881175}, {"type": "node", "id": 1295441297, "lat": 60.2895332, "lon": 16.8809316}, {"type": "node", "id": 1295441298, "lat": 60.2897108, "lon": 16.8809689}, {"type": "node", "id": 1295441426, "lat": 60.2895225, "lon": 16.8811377}, {"type": "node", "id": 1295441441, "lat": 60.2895781, "lon": 16.880941}, {"type": "node", "id": 2140648064, "lat": 60.1534496, "lon": 16.9466726, "tags": {"amenity": "restaurant", "name": "56ans grill"}}, {"type": "node", "id": 2311927630, "lat": 60.2868897, "lon": 16.8812639, "tags": {"amenity": "cafe", "email": "info@gysingenyfiket.se", "name": "Caf\u00e9 Udden", "opening_hours": "Mo-Su 10:00-20:00", "phone": "+46 291 73 46 11", "website": "https://gysingeherrgard.se/cafe-udden/"}}, {"type": "node", "id": 2922056590, "lat": 60.3507172, "lon": 17.0196633}, {"type": "node", "id": 2922056593, "lat": 60.3507995, "lon": 17.0200417}, {"type": "node", "id": 2922056599, "lat": 60.3508422, "lon": 17.0195523}, {"type": "node", "id": 2922058803, "lat": 60.3508804, "lon": 17.019728}, {"type": "node", "id": 2922058808, "lat": 60.3509241, "lon": 17.0196892}, {"type": "node", "id": 2922058809, "lat": 60.3509682, "lon": 17.0198918}, {"type": "node", "id": 4930543947, "lat": 60.2938375, "lon": 16.4043608, "tags": {"amenity": "cafe"}}, {"type": "node", "id": 6804075215, "lat": 60.232822, "lon": 16.2943648, "tags": {"amenity": "cafe", "name": "Muddus hjortron", "shop": "farm", "website": "http://www.muddus-hjortron.se"}}, {"type": "node", "id": 8831885106, "lat": 60.1330627, "lon": 16.2552202, "tags": {"amenity": "cafe", "name": "Brunnb\u00e4cks Herrg\u00e5rd"}}, {"type": "node", "id": 11232462083, "lat": 60.2891876, "lon": 16.8818516}, {"type": "node", "id": 11232462084, "lat": 60.289128, "lon": 16.8831113}, {"type": "node", "id": 11232462085, "lat": 60.2890488, "lon": 16.883096}, {"type": "node", "id": 11232462086, "lat": 60.2890867, "lon": 16.8822955}, {"type": "node", "id": 11232462087, "lat": 60.2890434, "lon": 16.8822872}, {"type": "node", "id": 11232462088, "lat": 60.2890602, "lon": 16.8819307}, {"type": "node", "id": 11232462089, "lat": 60.2891081, "lon": 16.8819399}, {"type": "node", "id": 11232462090, "lat": 60.2891129, "lon": 16.8818372}, {"type": "node", "id": 11402897576, "lat": 60.1600324, "lon": 16.9360986}, {"type": "node", "id": 11402897577, "lat": 60.1598956, "lon": 16.9359817}, {"type": "node", "id": 11402897578, "lat": 60.1599152, "lon": 16.9358892}, {"type": "node", "id": 11402897579, "lat": 60.159961, "lon": 16.9359283}, {"type": "node", "id": 11402897580, "lat": 60.1599752, "lon": 16.9358611}, {"type": "node", "id": 11402897581, "lat": 60.1600663, "lon": 16.9359389}, {"type": "way", "id": 108226838, "nodes": [1242059074, 1242058862, 1242058998, 1242059122, 1242059230, 1242059351, 1242059074], "tags": {"amenity": "restaurant", "building": "yes", "name": "Pensionat \u00c5sg\u00e5rden", "tourism": "hostel", "url": "http://www.pensionatasgarden.se/"}}, {"type": "way", "id": 111561298, "nodes": [1270749979, 1270750882, 1270750710, 1270750044, 1270749979], "tags": {"amenity": "restaurant", "building": "yes", "name": "Kolartorpet"}}, {"type": "way", "id": 114343034, "nodes": [1295441298, 1295441156, 1295441426, 1295441297, 1295441441, 1295441298], "tags": {"amenity": "restaurant", "building": "yes", "name": "Gysinge v\u00e4rdshus"}}, {"type": "way", "id": 288653209, "nodes": [2922056590, 2922056599, 2922058803, 2922058808, 2922058809, 2922056593, 2922056590], "tags": {"amenity": "restaurant", "building": "yes", "email": "info@sandsnasbadet.se", "name": "Restaurang Sandsn\u00e4s", "phone": "+46 291 10 859", "website": "https://www.sandsnasbadet.se/"}}, {"type": "way", "id": 1212375449, "nodes": [11232462083, 11232462084, 11232462085, 11232462086, 11232462087, 11232462088, 11232462089, 11232462090, 11232462083], "tags": {"amenity": "restaurant", "building": "yes", "name": "Orangeriet", "website": "https://gysingeherrgard.se/"}}, {"type": "way", "id": 1229645203, "nodes": [11402897576, 11402897577, 11402897578, 11402897579, 11402897580, 11402897581, 11402897576], "tags": {"amenity": "restaurant", "building": "yes", "cuisine": "pizza", "name": "T\u00e4rnsj\u00f6 Pizzeria"}}]}