{"version": 0.6, "generator": "Overpass API 0.7.61.5 4133829e", "osm3s": {"timestamp_osm_base": "2024-03-08T21:11:44Z", "copyright": "The data included in this document is from www.openstreetmap.org. The data is made available under ODbL."}, "elements": [{"type": "node", "id": 254905209, "lat": 57.7716423, "lon": 14.1556444, "tags": {"amenity": "restaurant", "contact:phone": "+46-36-12 42 23", "cuisine": "pizza", "name": "Restaurang Munken"}}, {"type": "node", "id": 286535345, "lat": 57.6787752, "lon": 14.082953, "tags": {"amenity": "restaurant", "name": "Tabergstopp", "opening_hours": "Mo-Su 10:00-21:00", "outdoor_seating": "yes", "smoking": "no", "tourism": "attraction", "website": "https://www.tabergstoppen.se/", "wheelchair": "limited"}}, {"type": "node", "id": 314410265, "lat": 57.7518759, "lon": 13.9589261, "tags": {"amenity": "restaurant", "name": "VIP J\u00e4ra"}}, {"type": "node", "id": 603670662, "lat": 57.5124716, "lon": 14.2782366, "tags": {"addr:city": "Hok", "addr:country": "SE", "addr:housenumber": "15", "addr:street": "Lindegatan", "amenity": "restaurant", "cuisine": "pizza;kebab;ice_cream;burger", "name": "Pizzeria Alexandra", "opening_hours": "Mo-Fr 11:00-21:00; Sa 12:00-21:00; Su 12:00-21:00", "phone": "+45 393 215 40"}}, {"type": "node", "id": 670216772, "lat": 57.7652433, "lon": 14.1860471, "tags": {"amenity": "restaurant", "cuisine": "regional", "name": "Raggmunken"}}, {"type": "node", "id": 848956427, "lat": 57.7756051, "lon": 14.154407, "tags": {"amenity": "cafe", "name": "Sand\u00e9ns Konditori"}}, {"type": "node", "id": 1198636942, "lat": 57.7696322, "lon": 14.1732649, "tags": {"amenity": "restaurant", "cuisine": "thai", "name": "Na Thrang"}}, {"type": "node", "id": 1588310536, "lat": 57.763354, "lon": 14.1355011, "tags": {"amenity": "restaurant", "cuisine": "pizza", "name": "La Mia Pizzeria"}}, {"type": "node", "id": 1710244404, "lat": 57.6663448, "lon": 14.181766, "tags": {"amenity": "restaurant"}}, {"type": "node", "id": 1759599332, "lat": 57.6776979, "lon": 14.089982, "tags": {"addr:city": "Taberg", "addr:country": "SE", "addr:housenumber": "6", "addr:postcode": "56242", "addr:street": "Tahev\u00e4gen", "amenity": "cafe", "name": "Konditori Rosetten", "outdoor_seating": "yes", "smoking": "outside"}}, {"type": "node", "id": 1759600126, "lat": 57.678531, "lon": 14.0879011, "tags": {"addr:city": "Taberg", "addr:country": "SE", "addr:housenumber": "1", "addr:postcode": "56241", "addr:street": "\u00d6stra J\u00e4rnv\u00e4gsgatan", "amenity": "restaurant", "delivery": "yes", "name": "Hotel Taberg", "outdoor_seating": "yes", "smoking": "outside", "takeaway": "yes", "website": "http://www.hotelltaberg.se/"}}, {"type": "node", "id": 1886693083, "lat": 57.4985641, "lon": 14.1477932, "tags": {"amenity": "restaurant"}}, {"type": "node", "id": 2271833835, "lat": 57.7512008, "lon": 14.1406658, "tags": {"amenity": "restaurant", "cuisine": "regional", "name": "J\u00f6nk\u00f6pings GK Golfresturang"}}, {"type": "node", "id": 2324461604, "lat": 57.4291833, "lon": 14.094218, "tags": {"amenity": "restaurant", "name": "Teds sm\u00f6rg\u00e5sbutik"}}, {"type": "node", "id": 2503103625, "lat": 57.3562452, "lon": 14.4782365, "tags": {"addr:city": "Vrigstad", "addr:country": "SE", "addr:housenumber": "7", "addr:postcode": "57003", "addr:street": "S\u00e4vsj\u00f6v\u00e4gen", "amenity": "cafe", "name": "\u00c4nglastugan kaf\u00e9"}}, {"type": "node", "id": 2503124713, "lat": 57.3567998, "lon": 14.4764985, "tags": {"addr:city": "Vrigstad", "addr:country": "SE", "addr:housenumber": "4", "addr:postcode": "57003", "addr:street": "G\u00e4stgivaregatan", "amenity": "cafe", "name": "Erikshj\u00e4lpen Second Hand Kaf\u00e9", "opening_hours": "Fr 14:00-18:00; Sa 10:00-13:00", "phone": "+46 382-30510", "website": "https://erikshjalpen.se/secondhand/vaara-butiker/vrigstad"}}, {"type": "node", "id": 2555529808, "lat": 57.5394014, "lon": 14.271027, "tags": {"addr:city": "Hok", "addr:postcode": "56013", "amenity": "restaurant", "name": "Hooks Herrg\u00e5rd", "phone": "+46039321080", "tourism": "hotel"}}, {"type": "node", "id": 2613364727, "lat": 57.5828877, "lon": 14.1322281}, {"type": "node", "id": 2613364730, "lat": 57.5826222, "lon": 14.1322651}, {"type": "node", "id": 2613365474, "lat": 57.5828951, "lon": 14.1324203}, {"type": "node", "id": 2613365475, "lat": 57.5826298, "lon": 14.1324567}, {"type": "node", "id": 2755158246, "lat": 57.3586413, "lon": 13.7327802, "tags": {"addr:city": "Gnosj\u00f6", "addr:country": "SE", "addr:housenumber": "1", "addr:postcode": "33530", "addr:street": "K\u00f6pmansgatan", "amenity": "cafe", "name": "Bernts Konditori", "smoking": "no"}}, {"type": "node", "id": 2755166329, "lat": 57.3576229, "lon": 13.7334114, "tags": {"addr:city": "Gnosj\u00f6", "addr:country": "SE", "addr:housenumber": "8", "addr:postcode": "33530", "addr:street": "Storgatan", "amenity": "restaurant", "name": "K\u00f6ket i Gnosj\u00f6"}}, {"type": "node", "id": 2759662701, "lat": 57.3574303, "lon": 13.7353241, "tags": {"amenity": "restaurant", "cuisine": "pizza", "name": "Gnosj\u00f6 Krogen"}}, {"type": "node", "id": 2831921168, "lat": 57.6725621, "lon": 14.1634757}, {"type": "node", "id": 2831921169, "lat": 57.6724707, "lon": 14.1635938}, {"type": "node", "id": 2831921170, "lat": 57.6723444, "lon": 14.1632315}, {"type": "node", "id": 2831921171, "lat": 57.6724358, "lon": 14.1631134}, {"type": "node", "id": 2903086401, "lat": 57.361187, "lon": 13.73188, "tags": {"amenity": "restaurant", "cuisine": "thai", "name": "V\u00e5rrullar"}}, {"type": "node", "id": 2934886965, "lat": 57.3500059, "lon": 14.0981197, "tags": {"addr:country": "SE", "addr:housenumber": "1", "addr:street": "\u00c5karegatan", "amenity": "restaurant", "name": "Rasta Klevshult", "opening_hours": "Su-Fr 06:00-24:00; Sa 06:00-22:00", "phone": "+46-370-300510", "website": "https://www.rasta.se/"}}, {"type": "node", "id": 4382258089, "lat": 57.7724372, "lon": 14.1968144, "tags": {"amenity": "restaurant", "brand": "Pizza Hut", "brand:wikidata": "Q191615", "brand:wikipedia": "en:Pizza Hut", "cuisine": "italian_pizza;pizza", "name": "Pizza Hut", "name:sv": "Pizza Hut"}}, {"type": "node", "id": 4394293270, "lat": 57.6988229, "lon": 14.4748444, "tags": {"amenity": "restaurant", "cuisine": "pizza"}}, {"type": "node", "id": 4394313800, "lat": 57.6994678, "lon": 14.4757156, "tags": {"amenity": "cafe"}}, {"type": "node", "id": 5352258913, "lat": 57.7003559, "lon": 14.1168292, "tags": {"addr:city": "Norrahammar", "addr:country": "SE", "addr:housenumber": "64", "addr:postcode": "56232", "addr:street": "Hammarv\u00e4gen", "amenity": "restaurant", "cuisine": "pizza", "name": "Pizzabruket", "opening_hours": "Mo-Fr 11:00-21:00; Sa 12:00-22:00; Su 12:00-21:00", "outdoor_seating": "yes", "smoking": "outside", "takeaway": "yes", "wheelchair": "yes"}}, {"type": "node", "id": 5366675298, "lat": 57.7079082, "lon": 14.3227505}, {"type": "node", "id": 5366675299, "lat": 57.707774, "lon": 14.3230102}, {"type": "node", "id": 5366675300, "lat": 57.7078423, "lon": 14.3231422}, {"type": "node", "id": 5366675301, "lat": 57.7079833, "lon": 14.322891}, {"type": "node", "id": 5777450550, "lat": 57.6994295, "lon": 14.1142096, "tags": {"addr:city": "Norrahammar", "addr:country": "SE", "addr:housenumber": "52", "addr:postcode": "56232", "addr:street": "Hammarv\u00e4gen", "amenity": "restaurant", "cuisine": "pizza", "name": "Pizzeria Nova", "opening_hours": "Mo-Fr 11:00-21:00; Sa 12:00-22:00; Su 12:00-22:00", "smoking": "no", "takeaway": "yes", "wheelchair": "limited"}}, {"type": "node", "id": 7197148131, "lat": 57.7731067, "lon": 14.2055889, "tags": {"addr:city": "J\u00f6nk\u00f6ping", "addr:country": "SE", "addr:housenumber": "16", "addr:postcode": "55305", "addr:street": "Kompanigatan", "amenity": "restaurant", "cuisine": "sushi", "name": "Sushi Yama", "opening_hours": "Mo-Fr 10:00-20:00, Sa 10:00-18:00, Su 11:00-17:00", "phone": "+4636-860 04 54", "website": "https://www.sushiyama.se/"}}, {"type": "node", "id": 8238207269, "lat": 57.7715988, "lon": 14.1584214, "tags": {"addr:city": "J\u00f6nk\u00f6ping", "addr:country": "SE", "addr:housenumber": "12", "addr:postcode": "55320", "addr:street": "S\u00f6dra Strandgatan", "amenity": "restaurant", "cuisine": "pizza", "name": "Ciro", "website": "https://pizzadiciro.se/"}}, {"type": "node", "id": 8450042351, "lat": 57.6790384, "lon": 14.0820819}, {"type": "node", "id": 8450042352, "lat": 57.6790758, "lon": 14.0823291}, {"type": "node", "id": 8450042353, "lat": 57.6789237, "lon": 14.0824096}, {"type": "node", "id": 8450042354, "lat": 57.6788863, "lon": 14.0821623}, {"type": "node", "id": 8497793959, "lat": 57.6900057, "lon": 14.1491514, "tags": {"amenity": "restaurant", "name": "Annes Husman", "opening_hours": "Mo-Fr 07:00-14:30", "takeaway": "yes"}}, {"type": "node", "id": 8997611850, "lat": 57.6790061, "lon": 14.082366}, {"type": "node", "id": 8997611867, "lat": 57.6789128, "lon": 14.0823381}, {"type": "node", "id": 8997611868, "lat": 57.6789105, "lon": 14.0823228}, {"type": "node", "id": 9460771448, "lat": 57.7611572, "lon": 14.1758794, "tags": {"amenity": "restaurant", "cuisine": "kebab;burger;regional", "name": "Restaurang Dragon"}}, {"type": "node", "id": 9462323536, "lat": 57.7479408, "lon": 14.1253012, "tags": {"amenity": "cafe", "cuisine": "regional", "name": "Choklad Verkstaden"}}, {"type": "node", "id": 9465885210, "lat": 57.7610133, "lon": 14.173339, "tags": {"amenity": "restaurant", "cuisine": "burger", "name": "Br\u00f6dernas", "outdoor_seating": "yes", "payment:cash": "no", "takeaway": "yes"}}, {"type": "node", "id": 9603091095, "lat": 57.7713519, "lon": 14.1330824, "tags": {"amenity": "restaurant", "cuisine": "pizza", "name": "Mariebo Pizza"}}, {"type": "node", "id": 9833953825, "lat": 57.7747488, "lon": 14.2036519, "tags": {"amenity": "cafe", "name": "Espresso House"}}, {"type": "node", "id": 10983811355, "lat": 57.7726572, "lon": 14.1966979, "tags": {"amenity": "restaurant", "name": "Mangal bbq"}}, {"type": "node", "id": 11203091937, "lat": 57.4286053, "lon": 14.0925965}, {"type": "node", "id": 11203091938, "lat": 57.4286032, "lon": 14.0929583}, {"type": "node", "id": 11203091939, "lat": 57.4287093, "lon": 14.0929604}, {"type": "node", "id": 11203091940, "lat": 57.4287114, "lon": 14.0925986}, {"type": "way", "id": 255665944, "nodes": [2613364727, 2613365474, 2613365475, 2613364730, 2613364727], "tags": {"amenity": "cafe", "name": "Cafeteria"}}, {"type": "way", "id": 278901970, "nodes": [2831921168, 2831921169, 2831921170, 2831921171, 2831921168], "tags": {"addr:country": "SE", "addr:housenumber": "2", "addr:street": "Sk\u00e5pv\u00e4gen", "amenity": "restaurant", "building": "yes", "name": "Spiskroken"}}, {"type": "way", "id": 556333735, "nodes": [5366675298, 5366675299, 5366675300, 5366675301, 5366675298], "tags": {"amenity": "restaurant", "building": "yes", "name": "Tenhultskrogen"}}, {"type": "way", "id": 910069110, "nodes": [8450042351, 8450042352, 8997611850, 8450042353, 8997611867, 8997611868, 8450042354, 8450042351], "tags": {"amenity": "cafe", "building": "yes", "name": "Tabergstoppen", "website": "https://www.tabergstoppen.se/"}}, {"type": "way", "id": 1209137223, "nodes": [11203091937, 11203091938, 11203091939, 11203091940, 11203091937], "tags": {"addr:city": "Skillingaryd", "addr:country": "SE", "addr:housenumber": "6", "addr:postcode": "56830", "addr:street": "Stationsgatan", "amenity": "cafe", "building": "yes", "cuisine": "cake;ice_cream", "name": "Ditt Caf\u00e9 Jonssons Konditori", "outdoor_seating": "yes", "phone": "0370-910 96"}}]}