{"version": 0.6, "generator": "Overpass API 0.7.61.5 4133829e", "osm3s": {"timestamp_osm_base": "2024-03-08T21:11:44Z", "copyright": "The data included in this document is from www.openstreetmap.org. The data is made available under ODbL."}, "elements": [{"type": "node", "id": 288601586, "lat": 56.3921693, "lon": 13.3114368, "tags": {"amenity": "cafe", "name": "Holmana"}}, {"type": "node", "id": 472381064, "lat": 56.0027651, "lon": 13.290696, "tags": {"addr:city": "R\u00f6st\u00e5nga", "addr:country": "SE", "addr:housenumber": "1", "addr:postcode": "26024", "addr:street": "Marieholmsv\u00e4gen", "amenity": "cafe", "contact:phone": "+46 435 910 05", "diet:vegetarian": "yes", "name": "Fenix"}}, {"type": "node", "id": 606334177, "lat": 55.998666, "lon": 13.0888826, "tags": {"amenity": "restaurant", "name": "Tre Stj\u00e4rnor"}}, {"type": "node", "id": 778527801, "lat": 56.2596255, "lon": 12.972268, "tags": {"amenity": "restaurant", "cuisine": "pizza", "name": "Pizzeria Aleppo"}}, {"type": "node", "id": 789547067, "lat": 56.2589058, "lon": 12.9665116, "tags": {"addr:city": "Munka-Ljungby", "addr:country": "SE", "addr:housenumber": "20", "addr:postcode": "26632", "addr:street": "\u00d6stra Storgatan", "amenity": "restaurant", "cuisine": "pizza", "name": "Restaurang Pizzeria Munka", "phone": "+46 431 431702"}}, {"type": "node", "id": 907175662, "lat": 55.9994638, "lon": 12.9745043, "tags": {"amenity": "restaurant", "name": "Sitt In"}}, {"type": "node", "id": 1094442526, "lat": 56.3429059, "lon": 13.6643765, "tags": {"amenity": "restaurant", "name": "Vittsj\u00f6 Pizzeria"}}, {"type": "node", "id": 1550879982, "lat": 56.1894512, "lon": 13.0629693, "tags": {"amenity": "restaurant", "cuisine": "pizza", "name": "Dennis pizzeria"}}, {"type": "node", "id": 1761869582, "lat": 56.0388441, "lon": 13.251088, "tags": {"amenity": "restaurant", "name": "Sk\u00e4ralids Restaurang"}}, {"type": "node", "id": 1841157062, "lat": 56.3434271, "lon": 13.6655709, "tags": {"amenity": "cafe", "name": "Sj\u00f6stugan"}}, {"type": "node", "id": 2184442590, "lat": 56.162496, "lon": 13.5973417, "tags": {"amenity": "cafe", "name": "Cafe 21"}}, {"type": "node", "id": 2184464426, "lat": 56.1619056, "lon": 13.6072748, "tags": {"amenity": "restaurant", "check_date": "2024-02-17", "cuisine": "pizza", "name": "Restaurang och Pizzeria Gondolen", "opening_hours": "Mo-Th 11:00-21:00; Fr 11:00-22:00; Sa 12:00-22:00; Su 12:00-21:00", "payment:cash": "yes", "payment:credit_cards": "yes", "payment:debit_cards": "yes", "phone": "+46 451 56 38 6", "wheelchair": "yes"}}, {"type": "node", "id": 2269261964, "lat": 56.0523151, "lon": 13.2082003, "tags": {"addr:city": "Ljungbyhed", "addr:country": "SE", "addr:housenumber": "920", "addr:postcode": "26070", "addr:street": "Sl\u00e4tt\u00e5kra", "amenity": "cafe", "contact:phone": "+46 (0)43 544 1169", "contact:website": "http://www.lottapaasen.se/", "name": "Lotta p\u00e5 \u00c5sen", "opening_hours": "Sa,Su 11:00-17:00"}}, {"type": "node", "id": 2313444777, "lat": 56.2858685, "lon": 13.3372554, "tags": {"amenity": "restaurant", "cuisine": "american;burger;grill;salad", "diet:vegan": "yes", "diet:vegetarian": "yes", "name": "Old Mike's Diner", "outdoor_seating": "yes", "takeaway": "yes"}}, {"type": "node", "id": 2313444779, "lat": 56.283574, "lon": 13.2794451, "tags": {"amenity": "cafe", "name": "Nya Conditoriet"}}, {"type": "node", "id": 2313674006, "lat": 56.4181934, "lon": 13.1179744, "tags": {"amenity": "restaurant"}}, {"type": "node", "id": 2421924208, "lat": 56.0736125, "lon": 13.2331224, "tags": {"addr:country": "SE", "addr:housenumber": "1", "addr:street": "Ljungbygatan", "amenity": "restaurant", "name": "Pizzeria & Restaurang Oregano", "website": "https://restaurangoreganoiljungbyhed.com/"}}, {"type": "node", "id": 2422184177, "lat": 56.0759755, "lon": 13.2612434, "tags": {"amenity": "restaurant", "cuisine": "regional", "name": "Sp\u00e5ngens G\u00e4stgiveri"}}, {"type": "node", "id": 2755957141, "lat": 56.0491813, "lon": 13.7205335}, {"type": "node", "id": 2755957145, "lat": 56.0490635, "lon": 13.720405}, {"type": "node", "id": 2755957147, "lat": 56.0490286, "lon": 13.720176}, {"type": "node", "id": 2755957148, "lat": 56.0490352, "lon": 13.7202234}, {"type": "node", "id": 2755957149, "lat": 56.0489361, "lon": 13.7202676}, {"type": "node", "id": 2755957154, "lat": 56.0490111, "lon": 13.7204283}, {"type": "node", "id": 2755957156, "lat": 56.0489521, "lon": 13.7203825}, {"type": "node", "id": 2755957160, "lat": 56.0490858, "lon": 13.7201506}, {"type": "node", "id": 2755957177, "lat": 56.0490348, "lon": 13.7205988}, {"type": "node", "id": 2755957183, "lat": 56.0490541, "lon": 13.7203371}, {"type": "node", "id": 3054183084, "lat": 56.2892699, "lon": 13.1741729, "tags": {"addr:city": "Munka-Ljungby", "addr:country": "SE", "addr:housenumber": "344", "addr:postcode": "26695", "addr:street": "Eker\u00f6dsv\u00e4gen", "amenity": "restaurant", "cuisine": "regional", "name": "Under Linden", "phone": "+46 (0)431-441117", "website": "https://www.underlinden.se/"}}, {"type": "node", "id": 3071850242, "lat": 56.0026896, "lon": 13.2899145}, {"type": "node", "id": 4140649489, "lat": 56.3612529, "lon": 13.475016, "tags": {"amenity": "restaurant", "cuisine": "barbecue", "name": "Angus grill - Sjuttio 3an"}}, {"type": "node", "id": 4797349729, "lat": 56.0735625, "lon": 13.2344266}, {"type": "node", "id": 4797349730, "lat": 56.0735542, "lon": 13.234719}, {"type": "node", "id": 4797349731, "lat": 56.0734472, "lon": 13.2347093}, {"type": "node", "id": 4797349732, "lat": 56.0734555, "lon": 13.2344169}, {"type": "node", "id": 5165847913, "lat": 56.1492281, "lon": 13.0614406, "tags": {"amenity": "cafe", "outdoor_seating": "yes", "website": "https://tomarps-kungsgard.se/"}}, {"type": "node", "id": 5247628317, "lat": 56.1040148, "lon": 13.7137955, "tags": {"amenity": "restaurant", "toilets:wheelchair": "yes", "wheelchair": "yes"}}, {"type": "node", "id": 5247683823, "lat": 56.04912, "lon": 13.7203966}, {"type": "node", "id": 5247683824, "lat": 56.0491598, "lon": 13.7203789}, {"type": "node", "id": 5446115515, "lat": 56.1475981, "lon": 13.0364673, "tags": {"addr:city": "Kvidinge", "addr:country": "SE", "addr:housenumber": "35", "addr:postcode": "26572", "addr:street": "S\u00e5nnabyv\u00e4g", "amenity": "cafe", "contact:email": "maria@sannagarden.se", "cuisine": "cake", "internet_access": "no", "name": "S\u00e5nnag\u00e5rden", "opening_hours": "Mo-Su 13:00-17:00", "shop": "farm"}}, {"type": "node", "id": 5534668679, "lat": 56.0500858, "lon": 12.963559}, {"type": "node", "id": 5534668680, "lat": 56.0500535, "lon": 12.9635828}, {"type": "node", "id": 5534668681, "lat": 56.0500045, "lon": 12.9633694}, {"type": "node", "id": 5534668682, "lat": 56.0498925, "lon": 12.9634518}, {"type": "node", "id": 5534668683, "lat": 56.0499518, "lon": 12.9637098}, {"type": "node", "id": 5534668684, "lat": 56.0498737, "lon": 12.9637672}, {"type": "node", "id": 5534668685, "lat": 56.0499125, "lon": 12.9639361}, {"type": "node", "id": 5534668686, "lat": 56.0501349, "lon": 12.9637724}, {"type": "node", "id": 5589796181, "lat": 56.0089421, "lon": 13.6562548, "tags": {"amenity": "restaurant", "name": "Custon v\u00e4gkrog", "website": "https://www.custon.se/"}}, {"type": "node", "id": 5590596197, "lat": 56.0172275, "lon": 13.6690556}, {"type": "node", "id": 5590596198, "lat": 56.0172733, "lon": 13.6691393}, {"type": "node", "id": 5590596199, "lat": 56.0171726, "lon": 13.6693103}, {"type": "node", "id": 5590596200, "lat": 56.0170536, "lon": 13.6691211}, {"type": "node", "id": 5590596201, "lat": 56.0171045, "lon": 13.6690301}, {"type": "node", "id": 5590596202, "lat": 56.0171767, "lon": 13.6691484}, {"type": "node", "id": 5730997073, "lat": 56.0024355, "lon": 13.2901358}, {"type": "node", "id": 5730997074, "lat": 56.0026902, "lon": 13.2901339}, {"type": "node", "id": 5731225540, "lat": 56.0023794, "lon": 13.289846}, {"type": "node", "id": 5731225541, "lat": 56.002437, "lon": 13.2898405}, {"type": "node", "id": 5731225542, "lat": 56.0024353, "lon": 13.2900581}, {"type": "node", "id": 5731225543, "lat": 56.0026365, "lon": 13.2899149}, {"type": "node", "id": 5731225544, "lat": 56.0023794, "lon": 13.289841}, {"type": "node", "id": 5731225545, "lat": 56.0025073, "lon": 13.28984}, {"type": "node", "id": 5731225546, "lat": 56.0025075, "lon": 13.2899159}, {"type": "node", "id": 5731225547, "lat": 56.0023592, "lon": 13.2900587}, {"type": "node", "id": 5731225551, "lat": 56.0023587, "lon": 13.2898459}, {"type": "node", "id": 5786443170, "lat": 56.0513278, "lon": 12.9735769, "tags": {"amenity": "restaurant", "name": "Smedjan"}}, {"type": "node", "id": 5786443171, "lat": 56.055598, "lon": 12.9743854, "tags": {"amenity": "restaurant", "name": "Bellman Bistro"}}, {"type": "node", "id": 5786443172, "lat": 56.0557232, "lon": 12.9748617, "tags": {"amenity": "restaurant", "cuisine": "pizza", "name": "Billesholms Pizzeria"}}, {"type": "node", "id": 5810149999, "lat": 56.136632, "lon": 13.3952761, "tags": {"amenity": "restaurant", "cuisine": "pizza", "name": "Pizzeria H\u00f6rnan"}}, {"type": "node", "id": 5810150000, "lat": 56.1367158, "lon": 13.3949163, "tags": {"amenity": "restaurant", "cuisine": "vietnamese", "name": "C\u00f6m Viet"}}, {"type": "node", "id": 5810150001, "lat": 56.1365051, "lon": 13.3969223, "tags": {"amenity": "restaurant", "check_date": "2023-06-21", "cuisine": "chinese", "name": "Perstorp stationen Caf\u00e9 och K\u00f6k", "opening_hours": "Tu-Th 11:15-21:00; Fr 11:15-22:00; Sa 11:30-22:00; Su 12:00-21:00", "wheelchair": "yes"}}, {"type": "node", "id": 5810150002, "lat": 56.1368022, "lon": 13.3948799, "tags": {"amenity": "restaurant", "cuisine": "pizza", "name": "Mamma Mia"}}, {"type": "node", "id": 5810150515, "lat": 56.1373272, "lon": 13.3965974, "tags": {"amenity": "restaurant", "cuisine": "pizza", "name": "Sant Angelo"}}, {"type": "node", "id": 5810152282, "lat": 56.138723, "lon": 13.3940035, "tags": {"amenity": "cafe", "name": "Vipp"}}, {"type": "node", "id": 5874334688, "lat": 56.291656, "lon": 13.7128733}, {"type": "node", "id": 5874334689, "lat": 56.2914219, "lon": 13.7130571}, {"type": "node", "id": 5874334690, "lat": 56.2915106, "lon": 13.7134243}, {"type": "node", "id": 5874334691, "lat": 56.2916245, "lon": 13.713335}, {"type": "node", "id": 5874334692, "lat": 56.2916508, "lon": 13.7134441}, {"type": "node", "id": 5874334693, "lat": 56.2917253, "lon": 13.7133856}, {"type": "node", "id": 5874334694, "lat": 56.2917068, "lon": 13.7133089}, {"type": "node", "id": 5874334695, "lat": 56.2917526, "lon": 13.7132729}, {"type": "node", "id": 5891758425, "lat": 56.2901308, "lon": 13.7112674, "tags": {"amenity": "restaurant", "cuisine": "pizza", "name": "Pizzeria Valeron", "phone": "+4645121610", "takeaway": "yes"}}, {"type": "node", "id": 6484260216, "lat": 56.0018397, "lon": 13.2903671, "tags": {"amenity": "restaurant", "cuisine": "pizza", "name": "R\u00f6st\u00e5nga Pizzeria & Restaurang"}}, {"type": "node", "id": 6601252509, "lat": 56.2064718, "lon": 13.5959829, "tags": {"addr:city": "H\u00f6rja", "addr:country": "SE", "addr:housenumber": "19", "addr:postcode": "28294", "addr:street": "\u00d6rkelljungav\u00e4gen", "amenity": "cafe", "name": "H\u00f6rja Caf\u00e9"}}, {"type": "node", "id": 6697985175, "lat": 56.2815213, "lon": 13.2777393, "tags": {"amenity": "cafe", "name": "Sackeus", "shop": "second_hand"}}, {"type": "node", "id": 6698005139, "lat": 56.2835596, "lon": 13.281076, "tags": {"amenity": "restaurant", "name": "Stationen Restaurang Bar", "outdoor_seating": "yes"}}, {"type": "node", "id": 6698005142, "lat": 56.2837844, "lon": 13.2811108, "tags": {"amenity": "restaurant", "cuisine": "pizza", "name": "Pizza Corner", "outdoor_seating": "yes"}}, {"type": "node", "id": 6698005154, "lat": 56.2843486, "lon": 13.277868, "tags": {"amenity": "restaurant", "name": "The Difference"}}, {"type": "node", "id": 6770566605, "lat": 56.2589082, "lon": 12.9698539, "tags": {"amenity": "restaurant", "name": "Gr\u00f6n grill"}}, {"type": "node", "id": 6770566608, "lat": 56.2599153, "lon": 12.9723591, "tags": {"amenity": "restaurant", "cuisine": "thai", "name": "Annie's Thai Food"}}, {"type": "node", "id": 6885813285, "lat": 56.1376721, "lon": 13.3956926, "tags": {"amenity": "restaurant", "cuisine": "asian", "name": "Mai Thai", "name:en": "Mai Thai", "opening_hours": "Mo 11:00-15:00; Tu-Th 11:00-21:00; Fr 11:00-22:00; Sa 12:00-22:00; Su 12:00-21:00"}}, {"type": "node", "id": 7997205789, "lat": 56.1134064, "lon": 13.3620029, "tags": {"amenity": "restaurant", "name:en": "Ecoforia", "website": "http://ecoforia.se"}}, {"type": "node", "id": 8503565357, "lat": 56.1593686, "lon": 13.5992013, "tags": {"amenity": "restaurant", "check_date": "2023-02-12", "cuisine": "asian", "name": "Yummy Yummy", "opening_hours": "Tu-Th 15:00-21:00; Fr 15:00-22:00; Sa 12:00-22:00; Su 13:00-21:00"}}, {"type": "node", "id": 8503565358, "lat": 56.1593731, "lon": 13.5994319, "tags": {"amenity": "restaurant", "check_date": "2023-02-12", "cuisine": "pizza;kebab", "name": "Tyringe Pizzeria", "opening_hours": "Mo-Su 11:30-21:00"}}, {"type": "node", "id": 8503565360, "lat": 56.1593716, "lon": 13.5998503, "tags": {"amenity": "restaurant", "check_date": "2023-11-06", "name": "Riviera", "opening_hours": "Su-Th 16:00-22:00; Fr,Sa 16:00-23:00"}}, {"type": "node", "id": 8614410823, "lat": 56.1595421, "lon": 13.6012787, "tags": {"amenity": "cafe", "check_date": "2023-11-06", "name": "Ljus 1", "opening_hours": "Mo-Fr 10:00-17:00", "outdoor_seating": "no", "payment:cash": "no", "payment:mastercard": "yes", "payment:visa": "yes", "wheelchair": "no"}}, {"type": "node", "id": 8808833181, "lat": 56.1611085, "lon": 13.6010698, "tags": {"amenity": "restaurant", "cuisine": "pizza;kebab;grill", "name": "Valentino", "opening_hours": "Mo-Fr 11:00-21:00; Sa-Su 12:00-21:00", "phone": "+46 451 563 66"}}, {"type": "node", "id": 8989689717, "lat": 56.1570784, "lon": 13.6798137, "tags": {"amenity": "restaurant", "check_date": "2022-10-23", "cuisine": "local", "name": "Boevas Bondg\u00e5rd", "opening_hours": "Fr 13:00-17:00; Sa-Su 11:00-17:00", "payment:mastercard": "yes", "payment:visa": "yes", "wheelchair": "yes"}}, {"type": "node", "id": 9024712505, "lat": 56.2882845, "lon": 13.2977883, "tags": {"amenity": "restaurant", "cuisine": "Burger, Regional, Korv", "name": "Maggans", "outdoor_seating": "yes", "takeaway": "yes"}}, {"type": "node", "id": 9081955319, "lat": 56.1135055, "lon": 13.0943788, "tags": {"amenity": "restaurant", "cuisine": "fish", "name": "Dym\u00f6llans \u00c5lr\u00f6keri", "website": "http://www.dymollansalrokeri.se/"}}, {"type": "node", "id": 9939619608, "lat": 56.2811326, "lon": 13.2770415, "tags": {"amenity": "restaurant", "cuisine": "spanish", "name": "Pipo & Mima", "outdoor_seating": "yes", "website": "https://pipo-mima.negocio.site/"}}, {"type": "node", "id": 10050748548, "lat": 56.1633593, "lon": 13.5773208, "tags": {"amenity": "restaurant", "check_date": "2022-09-25", "name": "Tyringe Mat & Catering", "payment:mastercard": "yes", "payment:visa": "yes", "wheelchair": "yes"}}, {"type": "node", "id": 10616253422, "lat": 56.002397, "lon": 13.2898408}, {"type": "node", "id": 11085831311, "lat": 56.2836906, "lon": 13.2805271, "tags": {"amenity": "cafe", "name": "Gattino"}}, {"type": "node", "id": 11116593272, "lat": 56.2895666, "lon": 13.2907104, "tags": {"amenity": "restaurant", "cuisine": "regional", "name": "KB Restaurangen", "outdoor_seating": "yes"}}, {"type": "node", "id": 11422670812, "lat": 56.1610391, "lon": 13.6075656, "tags": {"amenity": "restaurant", "check_date": "2023-12-16", "cuisine": "asian", "name": "Asian Fusion", "opening_hours": "Mo-Sa 11:00-21:00; Su 15:00-20:00", "phone": "+46 70 033 33 69"}}, {"type": "node", "id": 11442890642, "lat": 56.1342321, "lon": 13.1293305, "tags": {"addr:city": "Klippan", "addr:housenumber": "1", "addr:postcode": "264 33", "addr:street": "\u00d6stra Nygatan", "amenity": "restaurant", "cuisine": "lunch;husmanskost;salad;catering", "name": "Restaurang Senioren", "opening_hours": "Mo-Fr 11:30-14:00", "phone": "0435-543 60"}}, {"type": "node", "id": 11491187562, "lat": 56.1438792, "lon": 13.7406972}, {"type": "node", "id": 11491187918, "lat": 56.1438535, "lon": 13.7407702}, {"type": "node", "id": 11491189258, "lat": 56.1438973, "lon": 13.7408212}, {"type": "node", "id": 11491189335, "lat": 56.1439602, "lon": 13.7406429}, {"type": "node", "id": 11491190600, "lat": 56.1438561, "lon": 13.740671}, {"type": "node", "id": 11491190674, "lat": 56.1438933, "lon": 13.7405671}, {"type": "node", "id": 11491191633, "lat": 56.1439453, "lon": 13.7406851}, {"type": "node", "id": 11552162388, "lat": 56.2859303, "lon": 13.3373396, "tags": {"amenity": "restaurant", "name": "Old Mike's Diner"}}, {"type": "way", "id": 270574909, "nodes": [2755957141, 5247683824, 5247683823, 2755957160, 2755957147, 2755957148, 2755957149, 2755957156, 2755957183, 2755957145, 2755957154, 2755957177, 2755957141], "tags": {"amenity": "cafe", "building": "yes", "name": "Klockareg\u00e5rden Norra Mellby"}}, {"type": "way", "id": 487224758, "nodes": [4797349732, 4797349729, 4797349730, 4797349731, 4797349732], "tags": {"amenity": "cafe", "building": "yes", "name": "Dagnys Cafe & Diner"}}, {"type": "way", "id": 577300368, "nodes": [5534668686, 5534668685, 5534668684, 5534668683, 5534668682, 5534668681, 5534668680, 5534668679, 5534668686], "tags": {"amenity": "restaurant", "building": "yes", "name": "S\u00f6der\u00e5sens W\u00e4rdshus"}}, {"type": "way", "id": 584929648, "nodes": [5590596197, 5590596198, 5590596199, 5590596200, 5590596201, 5590596202, 5590596197], "tags": {"amenity": "cafe", "building": "yes", "name": "Cafe", "outdoor_seating": "yes"}}, {"type": "way", "id": 603878265, "nodes": [5731225543, 3071850242, 5730997074, 5730997073, 5731225542, 5731225547, 5731225551, 5731225540, 5731225544, 10616253422, 5731225541, 5731225545, 5731225546, 5731225543], "tags": {"amenity": "restaurant", "building": "retail", "name": "R\u00f6st\u00e5nga G\u00e4stgiveri", "tourism": "hotel"}}, {"type": "way", "id": 621835365, "nodes": [5874334695, 5874334694, 5874334693, 5874334692, 5874334691, 5874334690, 5874334689, 5874334688, 5874334695], "tags": {"addr:city": "Bj\u00e4rnum", "addr:country": "SE", "addr:housenumber": "14", "addr:street": "Verumsv\u00e4gen", "amenity": "restaurant", "building": "retail", "cuisine": "pizza;regional", "name": "Tre Hammare", "opening_hours": "Mo-Th 11:30-14:00; Fr,Sa 16:45-24:00", "phone": "+4645120850", "website": "https://trehammare.se/"}}, {"type": "way", "id": 1237214233, "nodes": [11491189258, 11491187918, 11491187562, 11491190600, 11491190674, 11491189335, 11491191633, 11491189258], "tags": {"amenity": "restaurant", "building": "commercial", "name": "Sj\u00f6rr\u00f6dskiosken"}}]}