{"version": 0.6, "generator": "Overpass API 0.7.61.5 4133829e", "osm3s": {"timestamp_osm_base": "2024-03-08T20:57:30Z", "copyright": "The data included in this document is from www.openstreetmap.org. The data is made available under ODbL."}, "elements": [{"type": "node", "id": 310800239, "lat": 58.4277362, "lon": 15.5838278, "tags": {"addr:country": "SE", "addr:housenumber": "2", "addr:postcode": "586 44", "addr:street": "Sk\u00e4ggetorps centrum", "amenity": "clinic", "name": "Sk\u00e4ggetorps v\u00e5rdcentral", "opening_hours": "Mo-Fr 08:00-17:00", "phone": "+46 10-105 92 10", "wheelchair": "yes"}}, {"type": "node", "id": 314004611, "lat": 58.4271726, "lon": 15.7823583, "tags": {"addr:country": "SE", "addr:housenumber": "153", "addr:street": "Himnav\u00e4gen", "amenity": "pharmacy", "app:apple": "https://itunes.apple.com/se/app/apotek-hj%C3%A4rtat-n%C3%A4ra-dig/id1150817089", "app:google": "https://play.google.com/store/apps/details?id=com.presencekit.apotek.se&hl=en_US", "brand": "Apotek Hj\u00e4rtat", "contact:website": "http://www.apotekhjartat.se/", "dispensing": "yes", "name": "Apotek Hj\u00e4rtat", "opening_hours": "Mo-Fr 09:00-12:15,13:00-17:00", "operator": "Apotek Hj\u00e4rtat Retail AB", "owner": "ICA Gruppen AB", "ownership": "private", "phone": "+46771405405", "website:stock": "https://www.fass.se/"}}, {"type": "node", "id": 314004614, "lat": 58.4272301, "lon": 15.7824264, "tags": {"amenity": "clinic", "contact:phone": "+46 10-105 96 30", "contact:website": "https://www.1177.se/Ostergotland/Hitta-vard/Ostergotland/Kontakt/Vardcentralen-Linghem-Linghem/", "emergency": "no", "name": "Linghems v\u00e5rdcentral", "opening_hours": "Mo-Th 07:45-16:45; Fr 07:45-12:30"}}, {"type": "node", "id": 452268572, "lat": 58.4057091, "lon": 15.6424172, "tags": {"addr:city": "Link\u00f6ping", "addr:country": "SE", "addr:housenumber": "60", "addr:street": "Nya Tanneforsv\u00e4gen", "amenity": "pharmacy", "brand": "Apoteksgruppen", "brand:wikidata": "Q10416129", "name": "Gyllene Axet", "opening_hours": "Mo-Fr 09:00-18:00; Sa 10:00-13:00", "operator": "Apoteksgruppen", "website:stock": "https://www.fass.se/"}}, {"type": "node", "id": 536762575, "lat": 58.4004446, "lon": 15.6179054}, {"type": "node", "id": 536762576, "lat": 58.4001597, "lon": 15.6181669}, {"type": "node", "id": 536762577, "lat": 58.3999893, "lon": 15.6185494}, {"type": "node", "id": 536762578, "lat": 58.3996078, "lon": 15.6206899}, {"type": "node", "id": 536762579, "lat": 58.399628, "lon": 15.6210205}, {"type": "node", "id": 536762581, "lat": 58.3995438, "lon": 15.6212747}, {"type": "node", "id": 536762583, "lat": 58.4011048, "lon": 15.6183756}, {"type": "node", "id": 536762584, "lat": 58.4024009, "lon": 15.6181694}, {"type": "node", "id": 536762585, "lat": 58.4024273, "lon": 15.6183099}, {"type": "node", "id": 536762586, "lat": 58.4034641, "lon": 15.6210447}, {"type": "node", "id": 536762592, "lat": 58.4002105, "lon": 15.6245181}, {"type": "node", "id": 536762599, "lat": 58.4010735, "lon": 15.6247701}, {"type": "node", "id": 536762602, "lat": 58.4013071, "lon": 15.6247446}, {"type": "node", "id": 536762604, "lat": 58.401522, "lon": 15.6248499}, {"type": "node", "id": 536762606, "lat": 58.4020149, "lon": 15.6246456}, {"type": "node", "id": 536762608, "lat": 58.4024917, "lon": 15.6247557}, {"type": "node", "id": 536762610, "lat": 58.4026813, "lon": 15.6250195}, {"type": "node", "id": 536762612, "lat": 58.4029868, "lon": 15.6250631}, {"type": "node", "id": 536762614, "lat": 58.4038044, "lon": 15.6221738}, {"type": "node", "id": 536762616, "lat": 58.4040495, "lon": 15.6230922}, {"type": "node", "id": 536762618, "lat": 58.4040164, "lon": 15.6238073}, {"type": "node", "id": 536762621, "lat": 58.4040527, "lon": 15.6233077}, {"type": "node", "id": 538729423, "lat": 58.4025586, "lon": 15.604134}, {"type": "node", "id": 538729425, "lat": 58.4027686, "lon": 15.6038563}, {"type": "node", "id": 538729427, "lat": 58.4026117, "lon": 15.604198, "tags": {"addr:city": "Link\u00f6ping", "addr:country": "SE", "addr:housenumber": "25", "addr:postcode": "58216", "addr:street": "Westmansgatan", "amenity": "pharmacy", "app:apple": "https://itunes.apple.com/se/app/apotek-hj%C3%A4rtat-n%C3%A4ra-dig/id1150817089", "app:google": "https://play.google.com/store/apps/details?id=com.presencekit.apotek.se&hl=en_US", "brand": "Apotek Hj\u00e4rtat", "check_date:opening_hours": "2022-01-06", "dispensing": "yes", "health_facility:type": "pharmacy", "medical_system:western": "yes", "name": "Apotek Hj\u00e4rtat", "opening_hours": "Mo-Fr 08:30-17:00", "operator": "Apotek Hj\u00e4rtat Retail AB", "owner": "ICA Gruppen AB", "ownership": "private", "phone": "+46771405405", "website:stock": "https://www.fass.se/", "wheelchair": "yes"}}, {"type": "node", "id": 538729428, "lat": 58.403141, "lon": 15.6048937}, {"type": "node", "id": 538729429, "lat": 58.4029527, "lon": 15.6051367}, {"type": "node", "id": 618687819, "lat": 58.4129228, "lon": 15.6199033, "tags": {"addr:city": "Link\u00f6ping", "addr:country": "SE", "addr:housenumber": "39A", "addr:street": "Kungsgatan", "amenity": "clinic", "name": "V\u00e5rdcentralen Kungsgatan"}}, {"type": "node", "id": 837418650, "lat": 58.4071061, "lon": 15.6421746}, {"type": "node", "id": 837418651, "lat": 58.4069849, "lon": 15.6418296}, {"type": "node", "id": 837418652, "lat": 58.4070468, "lon": 15.6417482}, {"type": "node", "id": 837418653, "lat": 58.4068852, "lon": 15.6413542}, {"type": "node", "id": 837418654, "lat": 58.4069632, "lon": 15.6412365}, {"type": "node", "id": 837418656, "lat": 58.4071405, "lon": 15.6416673}, {"type": "node", "id": 837418657, "lat": 58.4071121, "lon": 15.6417113}, {"type": "node", "id": 837418659, "lat": 58.4072239, "lon": 15.6420293}, {"type": "node", "id": 841102418, "lat": 58.3808668, "lon": 15.6791307}, {"type": "node", "id": 914809273, "lat": 58.4105261, "lon": 15.6271731, "tags": {"amenity": "dentist", "name": "Folktandv\u00e5rden Lilla torget", "opening_hours": "Mo-Th 07:00-19:00, Fr 07:00-17:00, Sa 08:00-14:00"}}, {"type": "node", "id": 914809301, "lat": 58.4104247, "lon": 15.6272101, "tags": {"addr:city": "Link\u00f6ping", "addr:country": "SE", "addr:housenumber": "25", "addr:street": "Repslagaregatan", "amenity": "pharmacy", "app:apk": "se.apoteket.recept", "app:apple": "https://itunes.apple.com/se/app/mitt-apotek/id1053398061", "brand": "Apoteket", "dispensing": "yes", "name": "Apoteket Kronan", "opening_hours": "Mo-Fr 09:00-19:00; Sa 10:00-17:00; Su 12:00-16:00", "operator": "Apoteket AB (556138-6532)", "owner": "Svenska Staten", "ownership": "national", "phone": "+46771450450", "website:stock": "https://www.fass.se/"}}, {"type": "node", "id": 966044374, "lat": 58.4108348, "lon": 15.6220942, "tags": {"addr:city": "Link\u00f6ping", "addr:country": "SE", "addr:housenumber": "9", "addr:street": "Stora torget", "amenity": "pharmacy", "brand": "Apoteksgruppen", "brand:wikidata": "Q10416129", "dispensing": "yes", "name": "Apoteksgruppen", "opening_hours": "Mo-Fr 09:30-18:30; Sa 10:00-16:00", "operator": "Apoteksgruppen", "phone": "+46 13 10 04 04", "website": "https://www.apoteksgruppen.se/apotek/linkoping/apoteksgruppen-linkoping-stora-torget/", "website:stock": "https://www.fass.se/", "wheelchair": "yes"}}, {"type": "node", "id": 966044375, "lat": 58.4103936, "lon": 15.622522, "tags": {"addr:city": "Link\u00f6ping", "addr:country": "SE", "addr:housenumber": "11", "addr:street": "Tanneforsgatan", "amenity": "pharmacy", "app:apple": "https://itunes.apple.com/se/app/apotek-hj%C3%A4rtat-n%C3%A4ra-dig/id1150817089", "app:google": "https://play.google.com/store/apps/details?id=com.presencekit.apotek.se&hl=en_US", "brand": "Apotek Hj\u00e4rtat", "brand:wikidata": "Q10416114", "brand:wikipedia": "sv:Apotek Hj\u00e4rtat", "dispensing": "yes", "healthcare": "pharmacy", "name": "Apotek Hj\u00e4rtat", "opening_hours": "Mo-Fr 09:00-19:00; Sa 10:00-17:00; Su 12:00-16:00", "operator": "Apotek Hj\u00e4rtat Retail AB", "owner": "ICA Gruppen AB", "ownership": "private", "phone": "+46771405405", "website:stock": "https://www.fass.se/", "wheelchair": "yes"}}, {"type": "node", "id": 1035328707, "lat": 58.3876927, "lon": 15.5637126, "tags": {"amenity": "clinic", "check_date:opening_hours": "2023-04-16", "name": "V\u00e5rdcentralen Lambohov", "opening_hours": "Mo-Fr 07:45-17:00", "wheelchair": "yes"}}, {"type": "node", "id": 1035328723, "lat": 58.3877278, "lon": 15.5639345, "tags": {"amenity": "pharmacy", "app:apk": "se.apoteket.recept", "app:apple": "https://itunes.apple.com/se/app/mitt-apotek/id1053398061", "brand": "Apoteket", "check_date:opening_hours": "2023-04-16", "fixme": "branch - vad heter detta apotek mera \u00e4n apoteket?", "name": "Apoteket", "opening_hours": "Mo-Fr 08:30-17:30", "operator": "Apoteket AB (556138-6532)", "owner": "Svenska Staten", "ownership": "national", "phone": "+46771450450", "website:stock": "https://www.fass.se/", "wheelchair": "yes"}}, {"type": "node", "id": 1049692063, "lat": 58.4016275, "lon": 15.5515654}, {"type": "node", "id": 1049692084, "lat": 58.4013822, "lon": 15.5516268}, {"type": "node", "id": 1049692093, "lat": 58.4012262, "lon": 15.5512885}, {"type": "node", "id": 1049692098, "lat": 58.4015789, "lon": 15.5514069}, {"type": "node", "id": 1049692100, "lat": 58.4013193, "lon": 15.5511789}, {"type": "node", "id": 1049692103, "lat": 58.4014363, "lon": 15.5515409}, {"type": "node", "id": 1049692116, "lat": 58.4016551, "lon": 15.5514644}, {"type": "node", "id": 1049692119, "lat": 58.401235, "lon": 15.5511566}, {"type": "node", "id": 1049692136, "lat": 58.4015198, "lon": 15.5511483}, {"type": "node", "id": 1049692153, "lat": 58.4012633, "lon": 15.5512449}, {"type": "node", "id": 1049692156, "lat": 58.4013432, "lon": 15.5516505}, {"type": "node", "id": 1049692160, "lat": 58.4015488, "lon": 15.551116}, {"type": "node", "id": 1049692163, "lat": 58.4012913, "lon": 15.5510912}, {"type": "node", "id": 1049692172, "lat": 58.4014308, "lon": 15.5517853}, {"type": "node", "id": 1049692174, "lat": 58.4016261, "lon": 15.5514967}, {"type": "node", "id": 1049980532, "lat": 58.4340663, "lon": 15.5861632}, {"type": "node", "id": 1054593802, "lat": 58.3997805, "lon": 15.6198363}, {"type": "node", "id": 1054593988, "lat": 58.4000691, "lon": 15.6182368}, {"type": "node", "id": 1057325140, "lat": 58.3921274, "lon": 15.6425575, "tags": {"amenity": "clinic", "name": "V\u00e5rdcentralen Berga", "opening_hours": "Mo-Fr 07:30-17:00", "operator": "Capio"}}, {"type": "node", "id": 1084466720, "lat": 58.42689, "lon": 15.7826624, "tags": {"amenity": "clinic", "emergency": "no", "name": "Barnav\u00e5rdscentral", "opening_hours": "Mo-Fr 08:00-17:00"}}, {"type": "node", "id": 1181400413, "lat": 58.6036818, "lon": 16.1436961, "tags": {"addr:city": "Norrk\u00f6ping", "addr:country": "SE", "addr:housenumber": "100", "addr:street": "Sl\u00e5ttergatan", "amenity": "pharmacy", "app:apple": "https://itunes.apple.com/se/app/kronans-apotek/id1129771604?l=en", "app:google": "https://play.google.com/store/apps/details?id=se.kronansapotek.kronan", "brand": "Kronans apotek", "dispensing": "yes", "name": "Kronans Apotek", "old_name": "Apoteket Vesslan", "operator": "Kronans Droghandel Apotek AB", "phone": "+46771612612", "website": "http://www.kronansdroghandel.se/Valj-Apotek/Ostergotlands-lan/Vesslan/", "website:stock": "https://www.fass.se/"}}, {"type": "node", "id": 1387614600, "lat": 58.3955128, "lon": 15.6620817, "tags": {"addr:city": "Link\u00f6ping", "addr:country": "SE", "addr:housenumber": "7", "addr:postcode": "582 27", "addr:street": "Skogslyckegatan", "alt_name": "L\u00e4rkan", "amenity": "pharmacy", "app:apple": "https://itunes.apple.com/se/app/kronans-apotek/id1129771604?l=en", "app:google": "https://play.google.com/store/apps/details?id=se.kronansapotek.kronan", "brand": "Kronans Apotek", "brand:wikidata": "Q10549422", "brand:wikipedia": "sv:Kronans Droghandel", "dispensing": "yes", "drive_through": "no", "healthcare": "pharmacy", "level": "0", "name": "Kronans Apotek", "opening_hours": "Mo-Fr 09:30-18:00; Sa-Su closed", "operator": "Kronans Droghandel Apotek AB", "phone": "+46771612612", "website": "https://www.kronansapotek.se/", "website:stock": "https://www.fass.se/"}}, {"type": "node", "id": 1390150963, "lat": 58.3954818, "lon": 15.6629925, "tags": {"amenity": "clinic", "emergency": "no", "healthcare": "clinic", "level": "0", "name": "Johannelunds v\u00e5rdcentral", "opening_hours": "Mo-Fr 08:00-17:00"}}, {"type": "node", "id": 1397524189, "lat": 58.4203583, "lon": 15.5085299, "tags": {"amenity": "clinic", "check_date:opening_hours": "2023-05-12", "name": "K\u00e4rna V\u00e5rdcentral", "opening_hours": "Mo-Fr 08:00-17:00", "wheelchair": "yes"}}, {"type": "node", "id": 1397524192, "lat": 58.4203022, "lon": 15.508487, "tags": {"addr:city": "Link\u00f6ping", "addr:country": "SE", "addr:housenumber": "10", "addr:street": "K\u00e4rnabrunnsgatan", "amenity": "pharmacy", "app:apk": "se.apoteket.recept", "app:apple": "https://itunes.apple.com/se/app/mitt-apotek/id1053398061", "branch": "Apoteket Humlan", "brand": "Apoteket", "name": "Apoteket", "opening_hours": "Mo-Fr 09:00-17:00", "operator": "Apoteket AB (556138-6532)", "owner": "Svenska Staten", "ownership": "national", "phone": "+46771450450", "website:stock": "https://www.fass.se/", "wheelchair": "yes"}}, {"type": "node", "id": 1414008948, "lat": 58.4093894, "lon": 15.5611496}, {"type": "node", "id": 1414008963, "lat": 58.4094647, "lon": 15.5614353}, {"type": "node", "id": 1414008988, "lat": 58.4096265, "lon": 15.5609226}, {"type": "node", "id": 1414008991, "lat": 58.4096412, "lon": 15.5609781}, {"type": "node", "id": 1414009024, "lat": 58.4098262, "lon": 15.5607287}, {"type": "node", "id": 1414009025, "lat": 58.4098414, "lon": 15.5607864}, {"type": "node", "id": 1414009031, "lat": 58.4100127, "lon": 15.5605501}, {"type": "node", "id": 1414009038, "lat": 58.410089, "lon": 15.5608392}, {"type": "node", "id": 1454845589, "lat": 58.4097808, "lon": 15.5611344}, {"type": "node", "id": 1454845599, "lat": 58.4097266, "lon": 15.5611846}, {"type": "node", "id": 1454845603, "lat": 58.4096148, "lon": 15.5612917, "tags": {"entrance": "yes"}}, {"type": "node", "id": 1454845604, "lat": 58.4097306, "lon": 15.5611998}, {"type": "node", "id": 1454845606, "lat": 58.4097844, "lon": 15.5611483}, {"type": "node", "id": 1454845611, "lat": 58.4087831, "lon": 15.5630322, "tags": {"amenity": "pharmacy", "app:apple": "https://itunes.apple.com/se/app/kronans-apotek/id1129771604?l=en", "app:google": "https://play.google.com/store/apps/details?id=se.kronansapotek.kronan", "brand": "Kronans Apotek", "brand:wikidata": "Q10549422", "dispensing": "yes", "healthcare": "pharmacy", "name": "Kronans Apotek", "opening_hours": "Mo-Fr 09:00-18:00; Sa 10:00-14:00; Su off", "operator": "Kronans Droghandel Apotek AB", "phone": "+46771612612", "website:stock": "https://www.fass.se/", "wheelchair": "yes"}}, {"type": "node", "id": 1516412763, "lat": 58.377188, "lon": 15.6802911}, {"type": "node", "id": 1516412764, "lat": 58.3774191, "lon": 15.6804277}, {"type": "node", "id": 1516412765, "lat": 58.377466, "lon": 15.6813062}, {"type": "node", "id": 1516412766, "lat": 58.3774823, "lon": 15.6799989}, {"type": "node", "id": 1516412767, "lat": 58.3775612, "lon": 15.6802867}, {"type": "node", "id": 1516412776, "lat": 58.3776183, "lon": 15.681155}, {"type": "node", "id": 1593014479, "lat": 58.403652, "lon": 15.6042276}, {"type": "node", "id": 1593014494, "lat": 58.4035093, "lon": 15.6044135}, {"type": "node", "id": 1593014604, "lat": 58.40328, "lon": 15.6031918}, {"type": "node", "id": 1634120388, "lat": 58.3803376, "lon": 15.6781393}, {"type": "node", "id": 1634120389, "lat": 58.3804138, "lon": 15.6785027}, {"type": "node", "id": 1634120391, "lat": 58.3805269, "lon": 15.6779949}, {"type": "node", "id": 1634120392, "lat": 58.3806031, "lon": 15.6783584}, {"type": "node", "id": 1913822366, "lat": 58.5087175, "lon": 15.5037642, "tags": {"amenity": "pharmacy", "app:apk": "se.apoteket.recept", "app:apple": "https://itunes.apple.com/se/app/mitt-apotek/id1053398061", "branch": "Apoteket Svalan", "brand": "Apoteket", "name": "Apoteket", "opening_hours": "Mo-Fr 09:00-18:00; Sa 10:00-13:00", "operator": "Apoteket AB (556138-6532)", "owner": "Svenska Staten", "ownership": "national", "phone": "+46771450450", "source": "http://www.lio.se/Narsjukvard/Vardcentralen-Ljungsbro-/-Adress-och-karta/Apotek-i-narheten/", "website": "http://www.lio.se/Narsjukvard/Vardcentralen-Ljungsbro-/-Adress-och-karta/Apotek-i-narheten/", "website:stock": "https://www.fass.se/"}}, {"type": "node", "id": 2131868358, "lat": 58.406095, "lon": 15.6264856}, {"type": "node", "id": 2131868371, "lat": 58.4058969, "lon": 15.6265022}, {"type": "node", "id": 2131868382, "lat": 58.4060987, "lon": 15.6267125}, {"type": "node", "id": 2131868389, "lat": 58.4060887, "lon": 15.6264276}, {"type": "node", "id": 2131868391, "lat": 58.4064429, "lon": 15.6263504}, {"type": "node", "id": 2131868402, "lat": 58.4064664, "lon": 15.6265697}, {"type": "node", "id": 2131868425, "lat": 58.4060961, "lon": 15.6266881}, {"type": "node", "id": 2131868478, "lat": 58.4059239, "lon": 15.626755}, {"type": "node", "id": 2307592446, "lat": 58.3995757, "lon": 15.6243104}, {"type": "node", "id": 2307592477, "lat": 58.4005663, "lon": 15.6249347}, {"type": "node", "id": 2681952403, "lat": 58.5843388, "lon": 16.1423597, "tags": {"amenity": "veterinary", "name": "Bengt R\u00f6kens Veterin\u00e4rmottagning"}}, {"type": "node", "id": 3285067892, "lat": 58.402714, "lon": 15.619409}, {"type": "node", "id": 3285067914, "lat": 58.4031193, "lon": 15.6196504}, {"type": "node", "id": 3376821305, "lat": 58.3868414, "lon": 15.5883407, "tags": {"addr:city": "Link\u00f6ping", "addr:country": "SE", "addr:housenumber": "10", "addr:postcode": "583 38", "addr:street": "\u00c5smestadsgatan", "amenity": "pharmacy", "app:apple": "https://itunes.apple.com/se/app/apotek-hj%C3%A4rtat-n%C3%A4ra-dig/id1150817089", "app:google": "https://play.google.com/store/apps/details?id=com.presencekit.apotek.se&hl=en_US", "brand": "Apotek Hj\u00e4rtat", "name": "Apotek Hj\u00e4rtat", "opening_hours": "Mo-Fr 10:00-19:00; Sa 10:00-16:00; Su 11:00-16:00", "operator": "Apotek Hj\u00e4rtat Retail AB", "owner": "ICA Gruppen AB", "ownership": "private", "phone": "+46771405405", "website": "https://apotekhjartat.se/", "website:stock": "https://www.fass.se/", "wheelchair": "yes"}}, {"type": "node", "id": 3542707892, "lat": 58.4025593, "lon": 15.6042503}, {"type": "node", "id": 3542708597, "lat": 58.4026141, "lon": 15.6044031}, {"type": "node", "id": 3542708598, "lat": 58.4026646, "lon": 15.6043346}, {"type": "node", "id": 4053827595, "lat": 58.3999308, "lon": 15.6191317}, {"type": "node", "id": 4079773079, "lat": 58.4339848, "lon": 15.5857456}, {"type": "node", "id": 4079773081, "lat": 58.4340042, "lon": 15.5856017}, {"type": "node", "id": 4079773087, "lat": 58.4341053, "lon": 15.5857719}, {"type": "node", "id": 4079773089, "lat": 58.4340761, "lon": 15.5856373}, {"type": "node", "id": 4090288636, "lat": 58.4027544, "lon": 15.6190826}, {"type": "node", "id": 4090288640, "lat": 58.4031953, "lon": 15.6197615}, {"type": "node", "id": 4090288643, "lat": 58.4033106, "lon": 15.6204857}, {"type": "node", "id": 4092236445, "lat": 58.4061509, "lon": 15.627645, "tags": {"amenity": "dentist", "name": "Folktandv\u00e5rden Torkelbergsgatan"}}, {"type": "node", "id": 4092236446, "lat": 58.4061855, "lon": 15.6270509, "tags": {"amenity": "clinic", "name": "Landstinget Torkelbergsgatan"}}, {"type": "node", "id": 4319359257, "lat": 58.4261465, "lon": 15.5800339, "tags": {"amenity": "pharmacy", "app:apple": "https://itunes.apple.com/se/app/kronans-apotek/id1129771604?l=en", "app:google": "https://play.google.com/store/apps/details?id=se.kronansapotek.kronan", "brand": "Kronans apotek Sk\u00e4ggetorp centrum", "dispensing": "yes", "email": "rahman.mokhtari@kronansdroghandel.se", "name": "Kronans Apotek", "opening_hours": "Mo-Fr 09:00-18:00; Sa 10:00-14:00; Su off", "operator": "Kronans Droghandel Apotek AB", "phone": "+46771612612", "website": "http://www.kdapotek.se/", "website:stock": "https://www.fass.se/", "wheelchair": "yes"}}, {"type": "node", "id": 4321260696, "lat": 58.3662705, "lon": 15.2944204, "tags": {"addr:city": "Mantorp", "addr:country": "SE", "addr:housenumber": "2", "addr:postcode": "59017", "addr:street": "Runv\u00e4gen", "amenity": "pharmacy", "app:apple": "https://itunes.apple.com/se/app/kronans-apotek/id1129771604?l=en", "app:google": "https://play.google.com/store/apps/details?id=se.kronansapotek.kronan", "brand": "Kronans apotek", "dispensing": "yes", "name": "Kronans Apotek", "opening_hours": "Mo-Fr 10:00-19:00; Sa 10:00-17:00; Su 11:00-17:00", "operator": "Kronans Droghandel Apotek AB", "phone": "+46771612612", "website": "https://www.kronansapotek.se/", "website:stock": "https://www.fass.se/", "wheelchair": "yes"}}, {"type": "node", "id": 4386706838, "lat": 58.4321745, "lon": 15.5917979, "tags": {"addr:city": "Link\u00f6ping", "addr:country": "SE", "addr:housenumber": "12", "addr:postcode": "582 73", "addr:street": "V\u00e4stra Svedengatan", "amenity": "pharmacy", "app:apple": "https://itunes.apple.com/se/app/apotek-hj%C3%A4rtat-n%C3%A4ra-dig/id1150817089", "app:google": "https://play.google.com/store/apps/details?id=com.presencekit.apotek.se&hl=en_US", "brand": "Apotek Hj\u00e4rtat", "check_date:opening_hours": "2021-08-08", "drive_through": "no", "name": "Apotek Hj\u00e4rtat", "opening_hours": "07:00-22:00", "operator": "Apotek Hj\u00e4rtat Retail AB", "owner": "ICA Gruppen AB", "ownership": "private", "phone": "+46771405405", "website": "https://www.apotekhjartat.se/", "website:stock": "https://www.fass.se/"}}, {"type": "node", "id": 4685929602, "lat": 58.4070701, "lon": 15.6414962, "tags": {"addr:city": "Link\u00f6ping", "addr:country": "SE", "addr:housenumber": "16", "addr:street": "Vetegatan"}}, {"type": "node", "id": 4712346094, "lat": 58.406366, "lon": 15.6263803, "tags": {"addr:city": "Link\u00f6ping", "addr:country": "SE", "addr:housenumber": "49A", "addr:street": "Sankt Larsgatan"}}, {"type": "node", "id": 4712346095, "lat": 58.4060436, "lon": 15.6264452, "tags": {"addr:city": "Link\u00f6ping", "addr:country": "SE", "addr:housenumber": "49B", "addr:street": "Sankt Larsgatan"}}, {"type": "node", "id": 4718737057, "lat": 58.4040147, "lon": 15.6228256}, {"type": "node", "id": 4718737058, "lat": 58.4028739, "lon": 15.6251143}, {"type": "node", "id": 4718737059, "lat": 58.402782, "lon": 15.6250912}, {"type": "node", "id": 4718737080, "lat": 58.3995264, "lon": 15.6235721}, {"type": "node", "id": 4728447189, "lat": 58.4032892, "lon": 15.6038007}, {"type": "node", "id": 4728447190, "lat": 58.4032447, "lon": 15.603832}, {"type": "node", "id": 4728447191, "lat": 58.4032549, "lon": 15.6037051}, {"type": "node", "id": 4728447192, "lat": 58.4032224, "lon": 15.6038291}, {"type": "node", "id": 4728447193, "lat": 58.4033519, "lon": 15.6033919}, {"type": "node", "id": 4728447194, "lat": 58.4033699, "lon": 15.6034421}, {"type": "node", "id": 4728447195, "lat": 58.4031807, "lon": 15.6034984}, {"type": "node", "id": 4728447196, "lat": 58.4031639, "lon": 15.6035194}, {"type": "node", "id": 4728447197, "lat": 58.4031398, "lon": 15.6035497}, {"type": "node", "id": 4728447198, "lat": 58.4031707, "lon": 15.6035376}, {"type": "node", "id": 4728447199, "lat": 58.4031473, "lon": 15.6035695}, {"type": "node", "id": 4728447200, "lat": 58.4031373, "lon": 15.6035528}, {"type": "node", "id": 4728447201, "lat": 58.4031132, "lon": 15.6034081}, {"type": "node", "id": 4728447202, "lat": 58.4033804, "lon": 15.6034277}, {"type": "node", "id": 4728447203, "lat": 58.4033618, "lon": 15.6033783}, {"type": "node", "id": 4728447208, "lat": 58.403251, "lon": 15.6038498}, {"type": "node", "id": 4728447209, "lat": 58.4032302, "lon": 15.6038509}, {"type": "node", "id": 4728447210, "lat": 58.4032106, "lon": 15.6038444}, {"type": "node", "id": 4728447211, "lat": 58.4031906, "lon": 15.6037884}, {"type": "node", "id": 4728447216, "lat": 58.4029898, "lon": 15.6050888}, {"type": "node", "id": 4728447217, "lat": 58.4029544, "lon": 15.6051345}, {"type": "node", "id": 4728447218, "lat": 58.4030052, "lon": 15.6051317}, {"type": "node", "id": 4728447219, "lat": 58.40297, "lon": 15.6051778}, {"type": "node", "id": 4737498866, "lat": 58.3994558, "lon": 15.6215118}, {"type": "node", "id": 4821043369, "lat": 58.3963978, "lon": 15.6609889, "tags": {"amenity": "veterinary", "name": "ER Veterin\u00e4r", "opening_hours": "Mo-Fr 08:00-17:00"}}, {"type": "node", "id": 5530052803, "lat": 58.4137955, "lon": 15.6256914, "tags": {"addr:country": "SE", "addr:housenumber": "6", "addr:street": "Repslagaregatan", "amenity": "clinic", "name": "Psykiatriska mottagningen", "phone": "+46101059006"}}, {"type": "node", "id": 5552252121, "lat": 58.3921347, "lon": 15.6430533, "tags": {"addr:city": "Link\u00f6ping", "addr:country": "SE", "addr:housenumber": "33", "addr:street": "S\u00f6derleden", "amenity": "pharmacy", "brand": "Apoteksgruppen", "brand:wikidata": "Q10416129", "dispensing": "yes", "name": "Apoteksgruppen", "opening_hours": "Mo-Fr 09:00-18:00; Sa 10:00-14:00", "payment:cash": "yes", "website": "https://www.apoteksgruppen.se/", "website:stock": "https://www.fass.se/"}}, {"type": "node", "id": 5552536123, "lat": 58.4005104, "lon": 15.620522, "tags": {"amenity": "pharmacy", "app:apple": "https://itunes.apple.com/se/app/apotek-hj%C3%A4rtat-n%C3%A4ra-dig/id1150817089", "app:google": "https://play.google.com/store/apps/details?id=com.presencekit.apotek.se&hl=en_US", "brand": "Apotek Hj\u00e4rtat", "dispensing": "yes", "name": "Apotek Hj\u00e4rtat", "opening_hours": "Mo-Fr 09:00-18:00", "operator": "Apotek Hj\u00e4rtat Retail AB", "owner": "ICA Gruppen AB", "ownership": "private", "phone": "+46771405405", "website": "https://www.apotekhjartat.se/hitta-apotek-hjartat/ostergotland/apotek_hjartat_universitetssjukhuset_sodra_entren_linkoping/", "website:stock": "https://www.fass.se/"}}, {"type": "node", "id": 6037382021, "lat": 58.400501, "lon": 15.6247353}, {"type": "node", "id": 6037382022, "lat": 58.4004956, "lon": 15.6246936}, {"type": "node", "id": 6037382023, "lat": 58.4004701, "lon": 15.6245461}, {"type": "node", "id": 6037382024, "lat": 58.4004571, "lon": 15.6244953}, {"type": "node", "id": 6037382025, "lat": 58.400426, "lon": 15.6244222}, {"type": "node", "id": 6037382026, "lat": 58.4004079, "lon": 15.6243941}, {"type": "node", "id": 6037382027, "lat": 58.4003808, "lon": 15.6243905}, {"type": "node", "id": 6037382028, "lat": 58.4003572, "lon": 15.6243982}, {"type": "node", "id": 6037382029, "lat": 58.4003143, "lon": 15.6244234}, {"type": "node", "id": 6037382030, "lat": 58.4002388, "lon": 15.6244852}, {"type": "node", "id": 6135866833, "lat": 58.399575, "lon": 15.6242073}, {"type": "node", "id": 6757827025, "lat": 58.367004, "lon": 15.6929908, "tags": {"amenity": "pharmacy", "dispensing": "yes", "name": "Apoteksgruppen", "opening_hours": "Mo-Fr 09:30-18:00; Sa 10:00-14:00; Su off", "wheelchair": "yes"}}, {"type": "node", "id": 7058048376, "lat": 58.4108693, "lon": 15.6208589, "tags": {"addr:city": "Link\u00f6ping", "addr:country": "SE", "addr:housenumber": "5", "addr:street": "Stora torget", "amenity": "pharmacy", "app:apk": "se.apoteket.recept", "app:apple": "https://itunes.apple.com/se/app/mitt-apotek/id1053398061", "brand": "Apoteket", "dispensing": "yes", "level": "-1", "name": "Apoteket Filbyter", "opening_hours": "Mo-Fr 08:00-19:00; Sa 10:00-17:00; Su 10:00-15:00", "operator": "Apoteket AB (556138-6532)", "owner": "Svenska Staten", "ownership": "national", "phone": "+46771450450", "website": "https://www.apoteket.se/apotek/apoteket-filbyter-linkoping/", "website:stock": "https://www.fass.se/"}}, {"type": "node", "id": 7058151308, "lat": 58.4020977, "lon": 15.6220021, "tags": {"amenity": "pharmacy", "app:apple": "https://itunes.apple.com/se/app/apotek-hj%C3%A4rtat-n%C3%A4ra-dig/id1150817089", "app:google": "https://play.google.com/store/apps/details?id=com.presencekit.apotek.se&hl=en_US", "brand": "Apotek Hj\u00e4rtat", "dispensing": "yes", "name": "Apotek Hj\u00e4rtat", "opening_hours": "Mo-Fr 08:00-19:30; Sa-Su 10:00-18:00", "operator": "Apotek Hj\u00e4rtat Retail AB", "owner": "ICA Gruppen AB", "ownership": "private", "phone": "+46771405405", "website": "https://www.apotekhjartat.se/hitta-apotek-hjartat/ostergotland/apotek_hjartat_universitetssjukhuset_norra_entren_linkoping/", "website:stock": "https://www.fass.se/"}}, {"type": "node", "id": 7112396426, "lat": 58.4029117, "lon": 15.6195569}, {"type": "node", "id": 7160676418, "lat": 58.4095782, "lon": 15.6209467, "tags": {"addr:city": "Link\u00f6ping", "addr:country": "SE", "addr:housenumber": "35", "addr:street": "Nygatan", "amenity": "clinic", "healthcare": "clinic", "name": "V\u00e5rdcentralen Nygatan", "opening_hours": "Mo-Fr 08:00-17:00", "operator": "Region \u00d6sterg\u00f6tland", "phone": "+46101059650", "website": "https://www.1177.se/Ostergotland/hitta-vard/kontaktkort/Vardcentralen-Nygatan-Linkoping/"}}, {"type": "node", "id": 8401076898, "lat": 58.3808628, "lon": 15.6793666}, {"type": "node", "id": 8401096222, "lat": 58.3806954, "lon": 15.6792575}, {"type": "node", "id": 8401096223, "lat": 58.3807364, "lon": 15.6794582}, {"type": "node", "id": 8401096293, "lat": 58.3809081, "lon": 15.6793331}, {"type": "node", "id": 8426742929, "lat": 58.3807738, "lon": 15.6794582}, {"type": "node", "id": 8426742930, "lat": 58.3807728, "lon": 15.6794318}, {"type": "node", "id": 9006816057, "lat": 58.4129416, "lon": 15.6200272, "tags": {"amenity": "clinic", "name": "Ungdomsmottagningen"}}, {"type": "node", "id": 9007162814, "lat": 58.4130004, "lon": 15.622978, "tags": {"amenity": "clinic", "name": "Audika H\u00f6rselklinik", "opening_hours": "Mo-Th 08:15-16:30; Fr 08:15-15:00"}}, {"type": "node", "id": 9024597319, "lat": 58.4165392, "lon": 15.6233354, "tags": {"amenity": "dentist", "name": "Smile Tandv\u00e5rd"}}, {"type": "node", "id": 9130405293, "lat": 58.4307974, "lon": 15.6006676, "tags": {"addr:city": "Link\u00f6ping", "addr:country": "SE", "addr:housenumber": "2", "addr:postcode": "58273", "addr:street": "Bonnorpsgatan", "amenity": "veterinary", "email": "djurdoktorn@anicura.se", "name": "AniCura Djurdoktorn", "opening_hours": "Mo-Fr 08:00-17:00", "phone": "+46 13-27 08 97", "website": "https://www.anicura.se/"}}, {"type": "node", "id": 9535206097, "lat": 58.4338457, "lon": 15.5861257}, {"type": "node", "id": 9535206100, "lat": 58.4341031, "lon": 15.5860085}, {"type": "node", "id": 9535206101, "lat": 58.4340421, "lon": 15.5860587}, {"type": "node", "id": 9535206102, "lat": 58.4338864, "lon": 15.5863064}, {"type": "node", "id": 9535206103, "lat": 58.434035, "lon": 15.5859698}, {"type": "node", "id": 9535206105, "lat": 58.4341151, "lon": 15.5858937}, {"type": "node", "id": 9535206106, "lat": 58.4341298, "lon": 15.5858818}, {"type": "node", "id": 9607584917, "lat": 58.4195408, "lon": 15.6089228, "tags": {"addr:city": "Link\u00f6ping", "addr:country": "SE", "addr:housenumber": "47-49", "addr:postcode": "582 56", "addr:street": "Nordengatan", "amenity": "clinic", "healthcare": "clinic", "name": "Capio V\u00e5rdcentral Vasastaden", "opening_hours": "Mo-Fr 08:00-17:00", "website": "https://capio.se/hitta-mottagning/primarvard/vardcentraler/vasastaden/"}}, {"type": "node", "id": 9765011968, "lat": 58.4085517, "lon": 15.5632594, "tags": {"amenity": "dentist", "branch": "Ryd", "brand": "Folktandv\u00e5rden", "brand:wikidata": "Q10497476", "healthcare": "dentist", "name": "Folktandv\u00e5rden"}}, {"type": "node", "id": 9987982479, "lat": 58.4014736, "lon": 15.6185093}, {"type": "node", "id": 9987982480, "lat": 58.4020027, "lon": 15.6183185}, {"type": "node", "id": 9987982481, "lat": 58.4025478, "lon": 15.6182825}, {"type": "node", "id": 10006921729, "lat": 58.392318, "lon": 15.642413, "tags": {"amenity": "dentist", "healthcare": "dentist", "name": "Folktandv\u00e5rden Berga", "opening_hours": "Mo-Th 07:30-17:00; Fr 07:30-16:00", "operator": "Folktandv\u00e5rden"}}, {"type": "node", "id": 10106026996, "lat": 58.5807884, "lon": 15.9140207}, {"type": "node", "id": 10106026997, "lat": 58.5806416, "lon": 15.9140683}, {"type": "node", "id": 10106026998, "lat": 58.5806251, "lon": 15.9138472}, {"type": "node", "id": 10106026999, "lat": 58.5803775, "lon": 15.9139483}, {"type": "node", "id": 10106027000, "lat": 58.5803516, "lon": 15.9136385}, {"type": "node", "id": 10106027001, "lat": 58.5805957, "lon": 15.9135555}, {"type": "node", "id": 10106027002, "lat": 58.5807202, "lon": 15.9132203}, {"type": "node", "id": 10106027003, "lat": 58.5805758, "lon": 15.9132821}, {"type": "node", "id": 10106072413, "lat": 58.5805854, "lon": 15.9138311, "tags": {"addr:city": "Sk\u00e4rblacka", "addr:country": "SE", "addr:housenumber": "2", "addr:postcode": "61732", "addr:street": "Stationsv\u00e4gen", "amenity": "dentist", "branch": "Sk\u00e4rblacka", "brand": "Folktandv\u00e5rden", "brand:wikidata": "Q10497476", "healthcare": "dentist", "name": "Folktandv\u00e5rden", "opening_hours": "Mo 07:30-18:00; Tu-We 07:30-17:00; Th 07:30-16:00; Fr 07:30-15:00", "operator": "Region \u00d6sterg\u00f6tland"}}, {"type": "node", "id": 11132145770, "lat": 58.3999656, "lon": 15.618719}, {"type": "way", "id": 42877273, "nodes": [536762592, 6037382030, 6037382029, 6037382028, 6037382027, 6037382026, 6037382025, 6037382024, 6037382023, 6037382022, 6037382021, 2307592477, 536762599, 536762602, 536762604, 536762606, 536762608, 536762610, 4718737059, 4718737058, 536762612, 536762618, 536762621, 536762616, 4718737057, 536762614, 536762586, 4090288643, 4090288640, 3285067914, 7112396426, 3285067892, 4090288636, 9987982481, 536762585, 536762584, 9987982480, 9987982479, 536762583, 536762575, 536762576, 1054593988, 536762577, 11132145770, 4053827595, 1054593802, 536762578, 536762579, 536762581, 4737498866, 4718737080, 6135866833, 2307592446, 536762592], "tags": {"amenity": "hospital", "emergency": "yes", "health_specialty:cardiothoracic_surgery": "yes", "health_specialty:emergency_medicine": "yes", "health_specialty:family_medicine": "yes", "health_specialty:intensive_care_medicine": "yes", "health_specialty:neurosurgery": "yes", "health_specialty:surgery": "yes", "health_specialty:vascular_surgery": "yes", "healthcare": "hospital", "name": "Universitetssjukhuset i Link\u00f6ping", "opening_hours": "24/7", "operator": "Region \u00d6sterg\u00f6tland", "wikidata": "Q6554447", "wikipedia": "sv:Universitetssjukhuset i Link\u00f6ping"}}, {"type": "way", "id": 43008359, "nodes": [4728447219, 4728447217, 538729429, 3542708598, 3542708597, 3542707892, 538729423, 538729425, 538729428, 4728447216, 4728447218, 4728447219], "tags": {"addr:city": "Link\u00f6ping", "addr:country": "SE", "addr:housenumber": "25", "addr:postcode": "58213", "addr:street": "Westmansgatan", "amenity": "clinic", "building": "hospital", "building:levels": "2", "check_date:opening_hours": "2022-01-06", "name": "Valla v\u00e5rdcentral", "opening_hours": "Mo-Fr 08:00-17:00", "wheelchair": "yes"}}, {"type": "way", "id": 70107773, "nodes": [837418650, 837418651, 837418652, 837418653, 837418654, 4685929602, 837418656, 837418657, 837418659, 837418650], "tags": {"addr:city": "Link\u00f6ping", "addr:country": "SE", "addr:housenumber": "43C", "addr:street": "Nya Tanneforsv\u00e4gen", "amenity": "clinic", "building": "hospital", "building:levels": "4", "name": "Tannefors v\u00e5rdcentral"}}, {"type": "way", "id": 90469518, "nodes": [1049692160, 1049692116, 1049692174, 1049692136, 1049692160], "tags": {"amenity": "veterinary", "building": "yes", "building:levels": "1", "name": "AniCura J\u00e4garvallens Djursjukhus", "opening_hours": "Mo-Fr 08:30-20:00, Sa-Su 09:00-16:00", "source": "Bing", "website": "https://www.anicura.se/jagarvallens-djursjukhus/"}}, {"type": "way", "id": 90469530, "nodes": [1049692098, 1049692063, 1049692172, 1049692084, 1049692098], "tags": {"amenity": "veterinary", "building": "yes", "building:levels": "1", "name": "AniCura J\u00e4garvallens Djursjukhus", "opening_hours": "Mo-Fr 08:30-20:00, Sa-Su 09:00-16:00", "source": "Bing", "website": "https://www.anicura.se/jagarvallens-djursjukhus/"}}, {"type": "way", "id": 90469533, "nodes": [1049692093, 1049692153, 1049692119, 1049692163, 1049692100, 1049692103, 1049692156, 1049692093], "tags": {"amenity": "veterinary", "building": "yes", "building:levels": "1", "name": "AniCura J\u00e4garvallens Djursjukhus", "opening_hours": "Mo-Fr 08:30-20:00, Sa-Su 09:00-16:00", "source": "Bing", "website": "https://www.anicura.se/jagarvallens-djursjukhus/"}}, {"type": "way", "id": 127841628, "nodes": [1414008948, 1414008963, 1454845603, 1454845599, 1454845604, 1454845606, 1454845589, 1414009038, 1414009031, 1414009024, 1414009025, 1414008991, 1414008988, 1414008948], "tags": {"addr:city": "Link\u00f6ping", "addr:country": "SE", "addr:housenumber": "40 A", "addr:postcode": "584 32", "addr:street": "Als\u00e4ttersgatan", "amenity": "clinic", "building": "hospital", "name": "V\u00e5rdcentralen Ryd", "opening_hours": "Mo-Fr 08:00-17:00", "operator": "Region \u00d6sterg\u00f6tland", "phone": "+46 10-105 96 60", "website": "http://www.lio.se/vc/ryd", "wheelchair": "yes"}}, {"type": "way", "id": 138313166, "nodes": [1516412763, 1516412765, 1516412776, 1516412764, 1516412767, 1516412766, 1516412763], "tags": {"addr:city": "Link\u00f6ping", "addr:country": "SE", "addr:housenumber": "7", "addr:street": "Ekholmsv\u00e4gen", "amenity": "clinic", "building": "hospital", "name": "Ekholmens v\u00e5rdcentral", "opening_hours": "Mo-Fr 07:30-17:00"}}, {"type": "way", "id": 145989430, "nodes": [4728447193, 4728447203, 4728447202, 4728447194, 1593014479, 1593014494, 4728447189, 4728447208, 4728447190, 4728447209, 4728447192, 4728447210, 4728447211, 4728447191, 4728447195, 4728447196, 4728447198, 4728447199, 4728447197, 4728447200, 4728447201, 1593014604, 4728447193], "tags": {"addr:city": "Link\u00f6ping", "addr:country": "SE", "addr:housenumber": "21", "addr:postcode": "58213", "addr:street": "Westmansgatan", "amenity": "veterinary", "building": "commercial", "building:levels": "2", "name": "Valla djursjukhus", "opening_hours": "Mo-Fr 07:30-21:30; Sa-Su 09:00-19:30", "opening_hours:reception": "Mo-Th 07:30-19:00; Fr 07:30-18:00", "operator": "Evidensia", "source": "bing"}}, {"type": "way", "id": 150508765, "nodes": [1634120391, 1634120392, 1634120389, 1634120388, 1634120391], "tags": {"addr:city": "Link\u00f6ping", "addr:country": "SE", "addr:housenumber": "6", "addr:postcode": "589 25", "addr:street": "Ekholmens centrum", "amenity": "dentist", "building": "yes", "healthcare": "dentist", "name": "Folktandv\u00e5rden Ekholmen", "opening_hours": "Mo-Th 07:30-16:30; Fr 07:30-13:30"}}, {"type": "way", "id": 203207245, "nodes": [2131868391, 2131868402, 2131868382, 2131868425, 2131868478, 2131868371, 4712346095, 2131868389, 2131868358, 4712346094, 2131868391], "tags": {"addr:country": "SE", "addr:housenumber": "49", "addr:street": "Sankt Larsgatan", "amenity": "clinic", "building": "hospital", "building:levels": "6", "name": "Landstinget Torkelbergsgatan", "source": "Bing"}}, {"type": "way", "id": 405823889, "nodes": [4079773081, 4079773089, 4079773087, 9535206106, 9535206105, 9535206100, 9535206101, 1049980532, 9535206102, 9535206097, 9535206103, 4079773079, 4079773081], "tags": {"amenity": "pharmacy", "app:apple": "https://itunes.apple.com/se/app/apotek-hj%C3%A4rtat-n%C3%A4ra-dig/id1150817089", "app:google": "https://play.google.com/store/apps/details?id=com.presencekit.apotek.se&hl=en_US", "brand": "Apotek Hj\u00e4rtat", "brand:wikidata": "Q10416114", "brand:wikipedia": "sv:Apotek Hj\u00e4rtat", "dispensing": "yes", "healthcare": "pharmacy", "indoor": "room", "level": "0", "name": "Apotek Hj\u00e4rtat", "opening_hours": "Mo-Fr 11:00-19:00; Sa,Su 11:00-17:00", "operator": "Apotek Hj\u00e4rtat Retail AB", "owner": "ICA Gruppen AB", "ownership": "private", "phone": "+46771405405", "room": "shop", "website:stock": "https://www.fass.se/"}}, {"type": "way", "id": 904606932, "nodes": [8401096223, 8426742929, 8426742930, 8401076898, 8401096293, 841102418, 8401096222, 8401096223], "tags": {"amenity": "pharmacy", "app:apk": "se.apoteket.recept", "app:apple": "https://itunes.apple.com/se/app/mitt-apotek/id1053398061", "branch": "Apoteket Viggen", "brand": "Apoteket", "check_date:opening_hours": "2022-09-18", "indoor": "room", "level": "0", "name": "Apoteket", "opening_hours": "Mo-Fr 09:00-19:00; Sa 10:00-15:00", "operator": "Apoteket AB (556138-6532)", "owner": "Svenska Staten", "ownership": "national", "phone": "+46771450450", "room": "shop", "website:stock": "https://www.fass.se/", "wheelchair": "yes"}}, {"type": "way", "id": 1104378267, "nodes": [10106026996, 10106026997, 10106026998, 10106026999, 10106027000, 10106027001, 10106027003, 10106027002, 10106026996], "tags": {"addr:city": "Sk\u00e4rblacka", "addr:country": "SE", "addr:housenumber": "2", "addr:postcode": "617 22", "addr:street": "Stationsv\u00e4gen", "amenity": "clinic", "building": "yes", "healthcare": "clinic", "layer": "1", "name": "V\u00e5rdcentralen Sk\u00e4rblacka", "opening_hours": "Mo-Fr 08:00-17:00", "operator": "Region \u00d6sterg\u00f6tland", "operator:type": "public"}}]}