{"version": 0.6, "generator": "Overpass API 0.7.61.5 4133829e", "osm3s": {"timestamp_osm_base": "2024-03-14T21:59:00Z", "copyright": "The data included in this document is from www.openstreetmap.org. The data is made available under ODbL."}, "elements": [{"type": "node", "id": 270664018, "lat": 58.7490345, "lon": 16.9214546, "tags": {"amenity": "restaurant", "layer": "1", "name": "Rasta Nyk\u00f6pingsbro", "operator": "Rasta", "payment:cash": "yes"}}, {"type": "node", "id": 270665190, "lat": 58.7298443, "lon": 16.4097011, "tags": {"amenity": "restaurant", "name": "Stavsj\u00f6 krog och kafe"}}, {"type": "node", "id": 458192478, "lat": 59.0639426, "lon": 16.7137809, "tags": {"amenity": "cafe"}}, {"type": "node", "id": 458192649, "lat": 59.0789547, "lon": 17.012492, "tags": {"amenity": "restaurant", "name": "57:an", "wheelchair": "limited", "wheelchair:description": "Ganska funkisv\u00e4nlig toalett."}}, {"type": "node", "id": 473186974, "lat": 58.7475964, "lon": 17.016879, "tags": {"amenity": "restaurant", "name": "R\u00f6keriet"}}, {"type": "node", "id": 473186978, "lat": 58.7469207, "lon": 17.0173557, "tags": {"amenity": "restaurant", "name": "Hamnmagasinet"}}, {"type": "node", "id": 473186981, "lat": 58.7467507, "lon": 17.0173721, "tags": {"amenity": "restaurant", "name": "Caf\u00e9 Krogen"}}, {"type": "node", "id": 473495045, "lat": 58.7698516, "lon": 16.9853059, "tags": {"addr:city": "Nyk\u00f6ping", "addr:country": "SE", "addr:housenumber": "1", "addr:postcode": "61156", "addr:street": "Regeringsv\u00e4gen", "amenity": "cafe", "name": "Mekka konditori", "payment:cash": "yes", "payment:credit_cards": "yes", "payment:mastercard": "yes", "payment:visa": "yes"}}, {"type": "node", "id": 483582377, "lat": 58.6706063, "lon": 16.3268042, "tags": {"amenity": "cafe", "name": "Oskarsh\u00e4llsbacken", "website": "http://www.oscarshall.se/text1_9.html"}}, {"type": "node", "id": 555019987, "lat": 58.7441677, "lon": 17.0230622}, {"type": "node", "id": 555019990, "lat": 58.7440207, "lon": 17.022973}, {"type": "node", "id": 555020019, "lat": 58.7439268, "lon": 17.0235484}, {"type": "node", "id": 555020020, "lat": 58.7441374, "lon": 17.0236761}, {"type": "node", "id": 555020022, "lat": 58.7441801, "lon": 17.0234145}, {"type": "node", "id": 555020023, "lat": 58.7441165, "lon": 17.0233759}, {"type": "node", "id": 559949934, "lat": 58.7541279, "lon": 17.0033044, "tags": {"amenity": "restaurant", "name": "Crazy Cow", "website": "http://www.crazycow.se"}}, {"type": "node", "id": 691643338, "lat": 58.7525865, "lon": 17.0080139, "tags": {"addr:country": "SE", "addr:housenumber": "2", "addr:postcode": "61132", "addr:street": "Stora Torget", "amenity": "cafe", "email": "kumlins@telia.com", "name": "Kumlins Konditori", "opening_hours": "Mo-Fr 08:00-17:00; Sa 10:00-16:00; Su 11:30-15:00", "phone": "+46155210075", "source": "survey", "website": "http://www.kumlinscaf\u00e9.se/startsida"}}, {"type": "node", "id": 691870066, "lat": 58.754526, "lon": 17.0049508, "tags": {"amenity": "restaurant", "cuisine": "greek", "name": "Athena Kolgrill", "source": "survey"}}, {"type": "node", "id": 729024536, "lat": 58.6642562, "lon": 16.2642177, "tags": {"amenity": "restaurant", "name": "Fredgag\u00e5rden"}}, {"type": "node", "id": 920883285, "lat": 58.6605203, "lon": 16.4544469, "tags": {"amenity": "restaurant", "name": "Safari"}}, {"type": "node", "id": 1289402546, "lat": 58.6609368, "lon": 16.4534006, "tags": {"amenity": "restaurant", "cuisine": "asian", "name": "Nham-Nham"}}, {"type": "node", "id": 1388313047, "lat": 58.6856376, "lon": 16.2295178, "tags": {"amenity": "cafe", "name": "Ingelstorp"}}, {"type": "node", "id": 1418917296, "lat": 58.7690232, "lon": 16.9805713, "tags": {"addr:country": "SE", "addr:housenumber": "21", "addr:street": "Regeringsv\u00e4gen", "amenity": "restaurant", "cuisine": "pizza", "name": "Pizzeria Mamma Mia"}}, {"type": "node", "id": 1420079562, "lat": 58.6751875, "lon": 16.3641672, "tags": {"amenity": "restaurant", "name": "Don Luigi", "website": "https://www.donluigi.se/"}}, {"type": "node", "id": 1483304448, "lat": 58.785105, "lon": 16.921693, "tags": {"amenity": "bar", "description": "Both before and after customs", "name": "HMSHost Bar", "wheelchair": "yes"}}, {"type": "node", "id": 1862321629, "lat": 58.8005958, "lon": 16.7871696, "tags": {"amenity": "cafe", "name": "Caf\u00e9 Pottan", "website": "https://m.facebook.com/Caf\u00e9-Pottan-K\u00f6k-o-Catering-132280976883204/"}}, {"type": "node", "id": 1918679786, "lat": 58.7697272, "lon": 16.980678, "tags": {"addr:city": "Nyk\u00f6ping", "addr:country": "SE", "addr:housenumber": "2 A", "addr:postcode": "61156", "addr:street": "Oppeby Torg", "amenity": "cafe", "cuisine": "sandwich;coffee", "name": "Puttes Sm\u00f6rg\u00e5sbar", "opening_hours": "Mo-Fr 06:00-14:00", "phone": "+46155 - 28 49 55", "website": "http://www.puttes.se"}}, {"type": "node", "id": 2032359230, "lat": 58.7563258, "lon": 17.0086572, "tags": {"addr:country": "SE", "addr:housenumber": "14", "addr:postcode": "61132", "addr:street": "Forsgr\u00e4nd", "amenity": "restaurant", "name": "The Kitchen", "website": "https://www.thekitchenbistro.se"}}, {"type": "node", "id": 2340402270, "lat": 58.7614249, "lon": 17.0050832, "tags": {"amenity": "cafe", "cuisine": "coffee_shop", "name": "F\u00e5f\u00e4ngan", "website": "https://www.fafangan.com/"}}, {"type": "node", "id": 2340408147, "lat": 58.7710966, "lon": 17.0039083, "tags": {"addr:housename": "Stenbrog\u00e5rden", "amenity": "restaurant", "cuisine": "regional", "name": "Stenbro Salonger", "website": "https://www.stenbrosalonger.se/"}}, {"type": "node", "id": 2357457252, "lat": 58.746176, "lon": 17.017962, "tags": {"amenity": "cafe", "name": "Cafe aktersnurran"}}, {"type": "node", "id": 2398912757, "lat": 58.7526271, "lon": 16.9896369}, {"type": "node", "id": 2589844245, "lat": 58.7547949, "lon": 16.9984663, "tags": {"amenity": "restaurant", "cuisine": "pizza", "name": "Pizzeria &Bar 12:an", "opening_hours": "Mo-Fr 11:00-21:00; Sa-Su 12:00-21:00", "phone": "+46 155 282012"}}, {"type": "node", "id": 2985091591, "lat": 59.0017489, "lon": 16.2253348}, {"type": "node", "id": 2985091592, "lat": 59.0014218, "lon": 16.2263721, "tags": {"amenity": "restaurant", "name": "Tasty Grill"}}, {"type": "node", "id": 3006512100, "lat": 58.971519, "lon": 16.21494, "tags": {"amenity": "cafe", "name": "Stora Djul\u00f6"}}, {"type": "node", "id": 3056102025, "lat": 58.7523254, "lon": 17.0069291, "tags": {"amenity": "cafe", "name": "Hellmanska G\u00e5rden", "website": "https://www.hellmanskagarden.se/"}}, {"type": "node", "id": 3057400623, "lat": 58.9970391, "lon": 16.2091112}, {"type": "node", "id": 3057400625, "lat": 58.9970784, "lon": 16.2095621}, {"type": "node", "id": 3057400626, "lat": 58.9970882, "lon": 16.2084922}, {"type": "node", "id": 3057400627, "lat": 58.9971941, "lon": 16.2101241}, {"type": "node", "id": 3057400631, "lat": 58.9973182, "lon": 16.208561}, {"type": "node", "id": 3268848928, "lat": 58.9971124, "lon": 16.2091331}, {"type": "node", "id": 3366611872, "lat": 58.65958, "lon": 16.3968224}, {"type": "node", "id": 3366611873, "lat": 58.6595836, "lon": 16.3971291}, {"type": "node", "id": 3366611874, "lat": 58.6596733, "lon": 16.3968137}, {"type": "node", "id": 3366611875, "lat": 58.659677, "lon": 16.3971251}, {"type": "node", "id": 3645608949, "lat": 58.6634102, "lon": 16.4600844, "tags": {"amenity": "cafe", "name": "Pingos caf\u00e9"}}, {"type": "node", "id": 3801915484, "lat": 58.7526891, "lon": 16.9896631}, {"type": "node", "id": 3801915485, "lat": 58.7526141, "lon": 16.9896314}, {"type": "node", "id": 3801915486, "lat": 58.7525707, "lon": 16.9900122}, {"type": "node", "id": 3801915487, "lat": 58.7526457, "lon": 16.990044}, {"type": "node", "id": 3801917849, "lat": 58.9952704, "lon": 16.20572, "tags": {"amenity": "cafe", "name": "Sultans Konditori City"}}, {"type": "node", "id": 4170937132, "lat": 58.6596501, "lon": 16.3966542}, {"type": "node", "id": 4170937133, "lat": 58.659652, "lon": 16.3968193}, {"type": "node", "id": 4170937151, "lat": 58.6597726, "lon": 16.3966489}, {"type": "node", "id": 4170937152, "lat": 58.6597745, "lon": 16.3968093}, {"type": "node", "id": 4186986009, "lat": 58.6610826, "lon": 16.4474076}, {"type": "node", "id": 4186986011, "lat": 58.6611188, "lon": 16.4476295}, {"type": "node", "id": 4186986013, "lat": 58.6611588, "lon": 16.4474864}, {"type": "node", "id": 4216214415, "lat": 58.6610426, "lon": 16.4475507}, {"type": "node", "id": 4315668713, "lat": 58.7517118, "lon": 17.0255484, "tags": {"addr:city": "Nyk\u00f6ping", "addr:country": "SE", "addr:housenumber": "23", "addr:street": "Ringv\u00e4gen", "amenity": "restaurant", "cuisine": "thai", "name": "Aroih Kitchen", "phone": "+46155-215959", "takeaway": "yes"}}, {"type": "node", "id": 4329371190, "lat": 58.7539688, "lon": 17.0133235, "tags": {"addr:city": "Nyk\u00f6ping", "addr:country": "SE", "addr:housenumber": "2", "addr:postcode": "61134", "addr:street": "\u00d6stra Storgatan", "amenity": "bar", "internet_access": "wlan", "name": "O'Learys", "outdoor_seating": "yes"}}, {"type": "node", "id": 4367745447, "lat": 58.7515163, "lon": 17.0047424, "tags": {"amenity": "cafe", "name": "Var Dags Rum"}}, {"type": "node", "id": 4369454895, "lat": 58.7519963, "lon": 17.0042069, "tags": {"addr:city": "Nyk\u00f6ping", "addr:country": "SE", "addr:housenumber": "13", "addr:postcode": "611 30", "addr:street": "V\u00e4stra Storgatan", "amenity": "restaurant", "cuisine": "sushi", "name": "Sushi Yama", "opening_hours": "Mo-Fr 10:00-20:00; Sa 11:00-20:00; Su 12:00-19:00", "phone": "+460 55 26 91 00", "website": "https://www.sushiyama.se/"}}, {"type": "node", "id": 4383332389, "lat": 58.9948039, "lon": 16.2084235, "tags": {"addr:city": "Katrineholm", "addr:country": "SE", "addr:housenumber": "22", "addr:postcode": "641 30", "addr:street": "K\u00f6pmannagatan", "amenity": "cafe", "name": "Hembagarns Konditori"}}, {"type": "node", "id": 4736402656, "lat": 58.751298, "lon": 17.0061786, "tags": {"addr:city": "Nyk\u00f6ping", "addr:country": "SE", "addr:housenumber": "34", "addr:postcode": "61132", "addr:street": "Brunnsgatan", "amenity": "restaurant", "cuisine": "mexican", "name": "Taco Bar", "opening_hours": "11:00-21:00", "outdoor_seating": "no", "phone": "+46155219088", "takeaway": "yes"}}, {"type": "node", "id": 4736402657, "lat": 58.7512393, "lon": 17.0058525, "tags": {"addr:city": "Nyk\u00f6ping", "addr:country": "SE", "addr:housenumber": "23", "addr:postcode": "61132", "addr:street": "Brunnsgatan", "amenity": "restaurant", "cuisine": "african", "name": "Be My Guest", "outdoor_seating": "yes", "takeaway": "yes", "website": "http://bemyguestnyk.se/"}}, {"type": "node", "id": 4851803212, "lat": 59.0342682, "lon": 16.438639}, {"type": "node", "id": 4851803213, "lat": 59.0341923, "lon": 16.4387645}, {"type": "node", "id": 4851803214, "lat": 59.0342371, "lon": 16.4388666}, {"type": "node", "id": 4851803215, "lat": 59.0343129, "lon": 16.4387411}, {"type": "node", "id": 4920941216, "lat": 58.9492594, "lon": 16.2706506}, {"type": "node", "id": 4920941217, "lat": 58.9490955, "lon": 16.2705982}, {"type": "node", "id": 4920941218, "lat": 58.9491095, "lon": 16.2704342}, {"type": "node", "id": 4920941219, "lat": 58.9492734, "lon": 16.2704867}, {"type": "node", "id": 5323874492, "lat": 58.9939842, "lon": 16.2124771, "tags": {"amenity": "restaurant", "capacity": "100", "cuisine": "steak_house;pizza", "name": "Olympos"}}, {"type": "node", "id": 5336932222, "lat": 58.760299, "lon": 17.0198594, "tags": {"addr:country": "SE", "addr:housenumber": "2", "addr:postcode": "61137", "addr:street": "H\u00f6glundav\u00e4gen", "amenity": "restaurant", "name": "Pizzeria Afrodite", "opening_hours": "Tu-Fr 11:00-21:00; Sa-Su 12:00-21:00", "phone": "+46155219394"}}, {"type": "node", "id": 5435113323, "lat": 58.7551994, "lon": 17.0175063, "tags": {"amenity": "restaurant", "cuisine": "indian", "name": "Tandoori House", "opening_hours": "Mo-Th 11:00-21:00; Fr 11:00-22:00; Sa 13:00-22:00; Su 13:00-21:00"}}, {"type": "node", "id": 5820456061, "lat": 58.6608965, "lon": 16.4239557, "tags": {"amenity": "cafe", "name": "Marmorbrukets caf\u00e9"}}, {"type": "node", "id": 6617200744, "lat": 59.0827157, "lon": 16.8273301, "tags": {"amenity": "cafe"}}, {"type": "node", "id": 6632318620, "lat": 58.994727, "lon": 16.2069227, "tags": {"addr:country": "SE", "addr:housenumber": "6", "addr:street": "Hantverkaregatan", "amenity": "restaurant", "cuisine": "pizza", "diet:non-vegetarian": "yes", "diet:vegan": "yes", "diet:vegetarian": "yes", "name": "Gustoso Pizzeria"}}, {"type": "node", "id": 6634343091, "lat": 58.9952962, "lon": 16.2071428, "tags": {"amenity": "restaurant", "name": "Pinchos"}}, {"type": "node", "id": 6648151418, "lat": 58.9941949, "lon": 16.2067052, "tags": {"amenity": "restaurant", "name": "Kungens H\u00f6rna"}}, {"type": "node", "id": 6720633342, "lat": 58.7444383, "lon": 16.7219034, "tags": {"amenity": "restaurant", "cuisine": "burger;pizza", "diet:vegetarian": "yes", "internet_access:fee": "no", "name": "J\u00f6n\u00e5kers Pizza", "outdoor_seating": "yes", "self_service": "yes", "smoking": "no", "takeaway": "yes", "wheelchair": "no"}}, {"type": "node", "id": 6857996461, "lat": 58.9925252, "lon": 16.2074967}, {"type": "node", "id": 6857996462, "lat": 58.9925081, "lon": 16.2076918}, {"type": "node", "id": 6857996463, "lat": 58.992392, "lon": 16.2076533}, {"type": "node", "id": 6857996464, "lat": 58.9924027, "lon": 16.2075307}, {"type": "node", "id": 6857996465, "lat": 58.9923795, "lon": 16.207523}, {"type": "node", "id": 6857996466, "lat": 58.9923971, "lon": 16.2073236}, {"type": "node", "id": 6857996467, "lat": 58.9924109, "lon": 16.2073271}, {"type": "node", "id": 6857996468, "lat": 58.9924506, "lon": 16.2069637}, {"type": "node", "id": 6857996469, "lat": 58.9925119, "lon": 16.2070169}, {"type": "node", "id": 6857996470, "lat": 58.9924788, "lon": 16.2073527}, {"type": "node", "id": 6857996471, "lat": 58.9924863, "lon": 16.2073565}, {"type": "node", "id": 6857996472, "lat": 58.9924754, "lon": 16.2074802}, {"type": "node", "id": 6858005738, "lat": 58.9925054, "lon": 16.2069914}, {"type": "node", "id": 6879542606, "lat": 58.9971095, "lon": 16.2100869}, {"type": "node", "id": 6879740415, "lat": 58.9978372, "lon": 16.2162423}, {"type": "node", "id": 6879740416, "lat": 58.9977589, "lon": 16.2162613}, {"type": "node", "id": 6879740417, "lat": 58.9977681, "lon": 16.2164048}, {"type": "node", "id": 6879740418, "lat": 58.9978465, "lon": 16.2163858}, {"type": "node", "id": 7692599168, "lat": 58.753169, "lon": 17.0101552, "tags": {"amenity": "restaurant", "description": "Large selection of beers", "diet:vegetarian": "yes", "name": "M\u00e5rtens hus"}}, {"type": "node", "id": 8268428677, "lat": 59.001482, "lon": 16.2251022}, {"type": "node", "id": 8268428678, "lat": 59.0018481, "lon": 16.2249071}, {"type": "node", "id": 8268428679, "lat": 59.0015812, "lon": 16.2246745}, {"type": "node", "id": 8696742503, "lat": 59.0594779, "lon": 16.5894773, "tags": {"amenity": "restaurant", "cuisine": "sushi", "indoor_seating": "yes", "name": "Kaen Sushi", "outdoor_seating": "no"}}, {"type": "node", "id": 8709220648, "lat": 59.0585834, "lon": 16.590982, "tags": {"amenity": "restaurant", "name": "Biliwi"}}, {"type": "node", "id": 8882739217, "lat": 58.9948532, "lon": 16.8142355, "tags": {"amenity": "cafe", "internet_access": "wlan", "name": "Sigridslunds caf\u00e9"}}, {"type": "node", "id": 8910401868, "lat": 58.661151, "lon": 16.4591458, "tags": {"amenity": "cafe", "name": "Barnens Kiosk"}}, {"type": "node", "id": 8911435450, "lat": 58.662477, "lon": 16.4589139, "tags": {"amenity": "cafe", "name": "Fiket"}}, {"type": "node", "id": 8918869541, "lat": 59.0410721, "lon": 16.5712494, "tags": {"amenity": "restaurant", "name": "Lida G\u00e5rd", "website": "https://www.lidagardflen.se/"}}, {"type": "node", "id": 8943797933, "lat": 59.0597401, "lon": 16.5915081}, {"type": "node", "id": 8943797934, "lat": 59.0595463, "lon": 16.5915575}, {"type": "node", "id": 8943797935, "lat": 59.0595822, "lon": 16.5920905}, {"type": "node", "id": 8943797936, "lat": 59.0597284, "lon": 16.5920533}, {"type": "node", "id": 8943797937, "lat": 59.0597088, "lon": 16.591761}, {"type": "node", "id": 8943797938, "lat": 59.0597563, "lon": 16.5917489}, {"type": "node", "id": 8960378332, "lat": 59.0787135, "lon": 16.831398, "tags": {"amenity": "cafe", "name": "Sparreholms Strandcaf\u00e9"}}, {"type": "node", "id": 8960385367, "lat": 59.0789223, "lon": 16.8286139, "tags": {"amenity": "restaurant", "name": "Restaurang Fabriken", "website": "https://www.fabrikenisparreholm.se/dagens-lunch"}}, {"type": "node", "id": 9785311693, "lat": 59.0089342, "lon": 16.206963, "tags": {"amenity": "cafe", "opening_hours": "We-Fr 09:00-18:00; Sa 11:00-15:00"}}, {"type": "node", "id": 9909711303, "lat": 58.9943071, "lon": 16.2096123, "tags": {"amenity": "cafe", "name": "Espresso House"}}, {"type": "node", "id": 9942809845, "lat": 58.8589731, "lon": 16.6985068, "tags": {"amenity": "cafe", "name": "Munter"}}, {"type": "node", "id": 9954308820, "lat": 58.6629074, "lon": 16.4636113, "tags": {"amenity": "cafe"}}, {"type": "node", "id": 9988047866, "lat": 59.0577848, "lon": 16.5925357, "tags": {"amenity": "restaurant", "cuisine": "asian", "name": "JixianRuyi"}}, {"type": "node", "id": 9988047873, "lat": 59.0570924, "lon": 16.5941853, "tags": {"amenity": "restaurant", "cuisine": "vietnamese", "name": "DAO"}}, {"type": "node", "id": 10011307842, "lat": 58.9971209, "lon": 16.2098245}, {"type": "node", "id": 10738246989, "lat": 58.7525645, "lon": 17.0142514, "tags": {"addr:city": "Nyk\u00f6ping", "addr:housenumber": "64", "addr:street": "V\u00e4stra Kvarngatan", "amenity": "restaurant", "contact:email": "info@espanatapas.se", "contact:phone": "+46 155-28 28 22", "cuisine": "tapas", "name": "Espa\u00f1a Tapasbar", "opening_hours": "Tu-Sa 16:00+", "payment:cash": "no", "payment:mastercard": "yes", "payment:visa": "yes", "website": "https://www.espanatapas.se/"}}, {"type": "node", "id": 11071066028, "lat": 58.7547293, "lon": 17.0163939, "tags": {"amenity": "restaurant", "cuisine": "greek", "name": "Rhodos"}}, {"type": "node", "id": 11071066029, "lat": 58.7547402, "lon": 17.0155382, "tags": {"amenity": "cafe", "name": "Mekka"}}, {"type": "way", "id": 43793464, "nodes": [555020019, 555020020, 555020022, 555020023, 555019987, 555019990, 555020019], "tags": {"amenity": "restaurant", "building": "yes", "cuisine": "regional", "name": "Seaside"}}, {"type": "way", "id": 301655858, "nodes": [3057400631, 3057400626, 3057400623, 3268848928, 3057400625, 10011307842, 6879542606, 3057400627, 3057400631], "tags": {"amenity": "restaurant", "building": "yes", "building:levels": "6", "name": "Best Western Hotel Statt i Katrineholm", "tourism": "hotel"}}, {"type": "way", "id": 329732490, "nodes": [3366611873, 3366611872, 4170937133, 4170937132, 4170937151, 4170937152, 3366611874, 3366611875, 3366611873], "tags": {"amenity": "restaurant", "building": "commercial", "cuisine": "regional", "name": "Sj\u00f6stugan", "phone": "+46 11 39 11 52", "website": "http://www.sjostugankolmarden.se/"}}, {"type": "way", "id": 376805016, "nodes": [3801915484, 2398912757, 3801915485, 3801915486, 3801915487, 3801915484], "tags": {"amenity": "restaurant", "building": "yes", "cuisine": "pizza", "name": "Akropol"}}, {"type": "way", "id": 418260823, "nodes": [4216214415, 4186986009, 4186986013, 4186986011, 4216214415], "tags": {"amenity": "cafe", "building": "yes", "name": "Key West Caf\u00e9"}}, {"type": "way", "id": 493251924, "nodes": [4851803212, 4851803213, 4851803214, 4851803215, 4851803212], "tags": {"amenity": "cafe", "building": "yes", "cuisine": "coffee_shop;breakfast", "name": "Fridhem"}}, {"type": "way", "id": 501226531, "nodes": [4920941219, 4920941216, 4920941217, 4920941218, 4920941219], "tags": {"amenity": "cafe", "building": "yes", "description": "V\u00e4rmestuga"}}, {"type": "way", "id": 732367793, "nodes": [6857996461, 6857996462, 6857996463, 6857996464, 6857996465, 6857996466, 6857996467, 6857996468, 6858005738, 6857996469, 6857996470, 6857996471, 6857996472, 6857996461], "tags": {"addr:city": "Katrineholm", "addr:country": "SE", "addr:housenumber": "25", "addr:postcode": "641 30", "addr:street": "Tegn\u00e9rv\u00e4gen", "amenity": "restaurant", "building": "yes", "name": "Restaurang Parken", "phone": "+46 150 401150"}}, {"type": "way", "id": 734604320, "nodes": [6879740415, 6879740416, 6879740417, 6879740418, 6879740415], "tags": {"amenity": "restaurant", "building": "yes", "cuisine": "pizza", "name": "Pizzeria Norr"}}, {"type": "way", "id": 889389687, "nodes": [8268428679, 8268428678, 2985091591, 8268428677, 8268428679], "tags": {"amenity": "restaurant", "building": "yes", "cuisine": "pizza", "name": "Restaurang Barken"}}, {"type": "way", "id": 966703666, "nodes": [8943797933, 8943797934, 8943797935, 8943797936, 8943797937, 8943797938, 8943797933], "tags": {"amenity": "restaurant", "building": "yes", "indoor_seating": "yes", "name": "Simons", "outdoor_seating": "no"}}]}