{"version": 0.6, "generator": "Overpass API 0.7.61.5 4133829e", "osm3s": {"timestamp_osm_base": "2024-03-14T21:59:00Z", "copyright": "The data included in this document is from www.openstreetmap.org. The data is made available under ODbL."}, "elements": [{"type": "node", "id": 448885850, "lat": 59.3913291, "lon": 13.852531, "tags": {"amenity": "restaurant", "name": "V\u00e4rmlands-Rasta"}}, {"type": "node", "id": 858263599, "lat": 59.116723, "lon": 14.3661466, "tags": {"addr:city": "\u00c5torp", "amenity": "cafe", "contact:address": "www.cafekaffebonan.se", "contact:phone": "+46 70 327 2798", "name": "Caf\u00e9 Kaffeb\u00f6nan", "opening_hours": "We-Fr 13:00-18:00; Sa-Su 13:00-17:00"}}, {"type": "node", "id": 1365427104, "lat": 59.3239895, "lon": 14.4865712, "tags": {"amenity": "restaurant", "cuisine": "mexican", "email": "karlskoga@bodaborg.se", "name": "Boda borg", "operator": "Boda borg", "phone": "+46-586-771130", "smoking": "no", "website": "https://bodaborg.se/"}}, {"type": "node", "id": 1678106310, "lat": 59.2374431, "lon": 14.4330677, "tags": {"addr:country": "SE", "addr:housenumber": "12", "addr:postcode": "69330", "addr:street": "Medborgargatan", "amenity": "cafe", "cuisine": "regional", "name": "M\u00e4rtas Konditori", "source": "local_knowledge", "website": "http://www.martaskonditori.se", "wheelchair": "yes", "wifi": "no"}}, {"type": "node", "id": 1784947543, "lat": 59.3056376, "lon": 14.0701664, "tags": {"alt_name": "Hotell- och restaurangprogrammet", "amenity": "restaurant", "website": "http://web.kristinehamn.se/restaurang/"}}, {"type": "node", "id": 1786339339, "lat": 59.3168232, "lon": 14.107679, "tags": {"amenity": "restaurant", "cuisine": "thai", "name": "Kookies corner", "website": "https://kookiescorner.n.nu/"}}, {"type": "node", "id": 1792077966, "lat": 59.3077914, "lon": 14.1089903, "tags": {"amenity": "cafe", "name": "Caf\u00e9 Borgen", "operator": "Fr\u00e4lsningsarm\u00e9n"}}, {"type": "node", "id": 1792077980, "lat": 59.3076228, "lon": 14.1087148, "tags": {"amenity": "restaurant", "name": "La Cucina"}}, {"type": "node", "id": 1792078549, "lat": 59.308535, "lon": 14.1086563, "tags": {"amenity": "cafe", "name": "Bokcaf\u00e9"}}, {"type": "node", "id": 1808143247, "lat": 59.3270679, "lon": 14.0856921, "tags": {"amenity": "restaurant", "name": "Panncentralen restaurang & caf\u00e9"}}, {"type": "node", "id": 1808257801, "lat": 59.3207239, "lon": 14.0969945, "tags": {"amenity": "restaurant", "cuisine": "pizza", "name": "Oden", "shop": "convenience"}}, {"type": "node", "id": 1825571350, "lat": 59.3054853, "lon": 14.0987911, "tags": {"amenity": "restaurant", "name": "Restaurang & Caf\u00e9 Solrosen", "phone": "+46-550-86080", "website": "http://www.restaurangsolrosen.com/"}}, {"type": "node", "id": 1826893406, "lat": 59.3295686, "lon": 14.094903, "tags": {"amenity": "restaurant", "name": "Nya Matlaget"}}, {"type": "node", "id": 1888651220, "lat": 59.4027347, "lon": 14.4201107, "tags": {"amenity": "restaurant"}}, {"type": "node", "id": 3069868768, "lat": 59.4112321, "lon": 13.6647639, "tags": {"addr:city": "Skattk\u00e4rr", "addr:country": "SE", "addr:housenumber": "4", "addr:postcode": "656 71", "addr:street": "Tallstigen", "amenity": "restaurant", "contact:phone": "+46 54 86 02 10", "contact:website": "http://skattkarrspizza.se/", "cuisine": "pizza", "name": "Skattk\u00e4rrs pizzeria", "opening_hours": "Mo-Fr 12:00-22:00; Sa-Su 13:00-22:00"}}, {"type": "node", "id": 3583383521, "lat": 59.310683, "lon": 14.0964916}, {"type": "node", "id": 3583383522, "lat": 59.3108204, "lon": 14.0966454}, {"type": "node", "id": 3583383523, "lat": 59.3108357, "lon": 14.0959679}, {"type": "node", "id": 3583383524, "lat": 59.3108901, "lon": 14.0964064}, {"type": "node", "id": 3583383525, "lat": 59.3109483, "lon": 14.0964716}, {"type": "node", "id": 3583383527, "lat": 59.3109512, "lon": 14.0961969}, {"type": "node", "id": 3583383528, "lat": 59.3109731, "lon": 14.0961217}, {"type": "node", "id": 3583383529, "lat": 59.3110094, "lon": 14.0962621}, {"type": "node", "id": 3611253022, "lat": 59.2739156, "lon": 14.0529343}, {"type": "node", "id": 3611253023, "lat": 59.2739161, "lon": 14.0527138}, {"type": "node", "id": 3611253024, "lat": 59.2739483, "lon": 14.052714}, {"type": "node", "id": 3611253025, "lat": 59.2739485, "lon": 14.0526464}, {"type": "node", "id": 3611253026, "lat": 59.2739518, "lon": 14.0529883}, {"type": "node", "id": 3611253027, "lat": 59.2739519, "lon": 14.0529345}, {"type": "node", "id": 3611253029, "lat": 59.2740256, "lon": 14.0529889}, {"type": "node", "id": 3611253030, "lat": 59.2740231, "lon": 14.052647}, {"type": "node", "id": 3611253031, "lat": 59.2740229, "lon": 14.0527175}, {"type": "node", "id": 3611253032, "lat": 59.2740472, "lon": 14.0529477}, {"type": "node", "id": 3611253033, "lat": 59.2740474, "lon": 14.0528682}, {"type": "node", "id": 3611253035, "lat": 59.2740678, "lon": 14.0527179}, {"type": "node", "id": 3611253036, "lat": 59.2740675, "lon": 14.0528196}, {"type": "node", "id": 3611253037, "lat": 59.2740799, "lon": 14.0528685}, {"type": "node", "id": 3611253038, "lat": 59.27408, "lon": 14.0528198}, {"type": "node", "id": 3771570369, "lat": 59.3117077, "lon": 14.1073015, "tags": {"amenity": "restaurant", "cuisine": "regional", "name": "Lion Bar", "phone": "+46 550 100 72"}}, {"type": "node", "id": 4110054189, "lat": 59.3117358, "lon": 14.1075871, "tags": {"addr:city": "Kristinehamn", "addr:country": "SE", "addr:housenumber": "21", "addr:street": "Kungsgatan", "amenity": "restaurant", "cuisine": "chinese", "internet_access": "no", "name": "China Garden", "opening_hours": "Mo off; Tu-Th 11:00-22:00; Fr 11:00-23:00; Sa 12:00-23:00; Su 12:00-22:00", "phone": "+46 55016822"}}, {"type": "node", "id": 4294981790, "lat": 59.3103859, "lon": 14.1277131, "tags": {"amenity": "restaurant", "cuisine": "pizza", "name": "Alanya"}}, {"type": "node", "id": 4295001989, "lat": 59.3040238, "lon": 14.1132117, "tags": {"amenity": "cafe"}}, {"type": "node", "id": 4304975792, "lat": 59.3042647, "lon": 14.1114411, "tags": {"amenity": "restaurant", "cuisine": "pizza", "name": "Roma"}}, {"type": "node", "id": 4305049081, "lat": 59.3098762, "lon": 14.1035238, "tags": {"amenity": "restaurant"}}, {"type": "node", "id": 4305116089, "lat": 59.305803, "lon": 14.1188387, "tags": {"amenity": "restaurant", "cuisine": "pizza"}}, {"type": "node", "id": 4306338691, "lat": 59.3148612, "lon": 14.1017589, "tags": {"amenity": "restaurant", "name": "Pizza Akos"}}, {"type": "node", "id": 5191656787, "lat": 59.5356016, "lon": 14.2810474}, {"type": "node", "id": 5191656788, "lat": 59.5357453, "lon": 14.2809424}, {"type": "node", "id": 5191656795, "lat": 59.5358419, "lon": 14.2814566}, {"type": "node", "id": 5191656796, "lat": 59.5357283, "lon": 14.2815396}, {"type": "node", "id": 5191656798, "lat": 59.5357019, "lon": 14.281399}, {"type": "node", "id": 6050601978, "lat": 59.3139592, "lon": 14.1083864, "tags": {"amenity": "restaurant", "contact:phone": "+46 550-10210", "email": "traslottet@live.com", "name": "Tr\u00e4slottet", "opening_hours": "Mo-Th 11:00-22:00; Fr 11:00-23:00; Sa 12:00-23:00; Su 12:00-22:00", "website": "https://restaurangtraslottet.se/"}}, {"type": "node", "id": 6174665047, "lat": 59.2758344, "lon": 14.0518524}, {"type": "node", "id": 6174665048, "lat": 59.2758346, "lon": 14.0520469}, {"type": "node", "id": 6174665049, "lat": 59.2760528, "lon": 14.0520461}, {"type": "node", "id": 6174665050, "lat": 59.2760526, "lon": 14.0518516}, {"type": "node", "id": 6588780565, "lat": 59.3145447, "lon": 14.1296779, "tags": {"amenity": "cafe", "name": "Norrg\u00e5rdens caf\u00e9"}}, {"type": "node", "id": 6645503879, "lat": 59.3118298, "lon": 14.0875412, "tags": {"amenity": "cafe"}}, {"type": "node", "id": 6645553917, "lat": 59.3051641, "lon": 14.0637084, "tags": {"amenity": "restaurant"}}, {"type": "node", "id": 6694219055, "lat": 59.3822786, "lon": 13.8507383, "tags": {"amenity": "restaurant", "name": "R\u00e4vens Bistro"}}, {"type": "node", "id": 6707608829, "lat": 59.3070775, "lon": 14.108868, "tags": {"amenity": "restaurant", "name": "Tre Kronor"}}, {"type": "node", "id": 6720196962, "lat": 59.3106705, "lon": 14.1047248, "tags": {"amenity": "restaurant", "name": "Charlies"}}, {"type": "node", "id": 6722563670, "lat": 59.3038966, "lon": 14.1134141, "tags": {"amenity": "restaurant", "name": "Super Thai"}}, {"type": "node", "id": 8235869623, "lat": 59.2349849, "lon": 14.4297829, "tags": {"amenity": "restaurant", "name": "Torgk\u00e4llaren"}}, {"type": "node", "id": 8615010704, "lat": 59.4963095, "lon": 14.1649012}, {"type": "node", "id": 8615010705, "lat": 59.4964002, "lon": 14.1649973}, {"type": "node", "id": 8615010706, "lat": 59.496394, "lon": 14.1650199}, {"type": "node", "id": 8615010707, "lat": 59.4965059, "lon": 14.1651385}, {"type": "node", "id": 8615010708, "lat": 59.4964548, "lon": 14.1653256}, {"type": "node", "id": 8615010709, "lat": 59.496334, "lon": 14.1651977}, {"type": "node", "id": 8615010710, "lat": 59.4963279, "lon": 14.1652203}, {"type": "node", "id": 8615010711, "lat": 59.496246, "lon": 14.1651336}, {"type": "node", "id": 8626506885, "lat": 59.5225786, "lon": 14.191895, "tags": {"amenity": "restaurant"}}, {"type": "node", "id": 8665234932, "lat": 59.3085572, "lon": 14.1064259, "tags": {"addr:city": "Kristinehamn", "addr:housenumber": "41", "addr:postcode": "681 31", "addr:street": "V\u00e4sterl\u00e5nggatan", "amenity": "cafe", "name": "Bageri h\u00f6ghuset", "opening_hours": "Mo-Fr 06:00-17:00, Sa 07:00-15:00", "phone": "+46 550 823 48", "website": "https://bagerihoghuset.se/"}}, {"type": "node", "id": 8694424051, "lat": 59.4949516, "lon": 14.1715964}, {"type": "node", "id": 8694424052, "lat": 59.4949806, "lon": 14.171755}, {"type": "node", "id": 8694424053, "lat": 59.4951448, "lon": 14.1716386}, {"type": "node", "id": 8694424055, "lat": 59.4951158, "lon": 14.1714799}, {"type": "node", "id": 9074033751, "lat": 59.2964673, "lon": 14.4897603, "tags": {"amenity": "restaurant", "name": "Biltema Bistro", "opening_hours": "Mo-Fr 08:00-19:00; Sa,Su 10:00-17:00"}}, {"type": "node", "id": 9109393925, "lat": 59.310989, "lon": 14.1075199, "tags": {"addr:country": "SE", "addr:housenumber": "38", "addr:street": "Kungsgatan", "amenity": "restaurant", "cuisine": "japanese", "name": "Akira Sushi"}}, {"type": "node", "id": 9227350695, "lat": 59.3082837, "lon": 14.1084748, "tags": {"addr:city": "Kristinehamn", "addr:country": "SE", "addr:housenumber": "48", "addr:postcode": "68131", "addr:street": "Kungsgatan", "amenity": "restaurant", "cuisine": "italian", "diet:gluten_free": "yes", "diet:vegan": "yes", "diet:vegetarian": "yes", "name": "Oliveriet", "phone": "+46 550501500", "website": "https://oliveriet.se/"}}, {"type": "node", "id": 9512986887, "lat": 59.2422082, "lon": 14.4338897, "tags": {"amenity": "restaurant", "cuisine": "pizza", "name": "Agen Restaurang & Pizzeria"}}, {"type": "node", "id": 9512986888, "lat": 59.236302, "lon": 14.4292765, "tags": {"amenity": "restaurant", "cuisine": "pizza", "name": "Empoli Pizzeria"}}, {"type": "node", "id": 9833884316, "lat": 59.3113527, "lon": 14.1077124, "tags": {"amenity": "restaurant", "cuisine": "italian", "name": "Parma"}}, {"type": "node", "id": 9833917617, "lat": 59.3115731, "lon": 14.1076274, "tags": {"amenity": "restaurant", "cuisine": "pizza", "name": "Pizza House"}}, {"type": "node", "id": 9895742302, "lat": 59.1149164, "lon": 14.3692222}, {"type": "node", "id": 9895742312, "lat": 59.1149619, "lon": 14.369256}, {"type": "node", "id": 9895742314, "lat": 59.1149387, "lon": 14.3691081}, {"type": "node", "id": 9895742315, "lat": 59.1148689, "lon": 14.3690562}, {"type": "node", "id": 9895744521, "lat": 59.1148144, "lon": 14.3693348}, {"type": "node", "id": 9895744529, "lat": 59.1149297, "lon": 14.3694204}, {"type": "node", "id": 11050861799, "lat": 59.2815321, "lon": 14.0513968}, {"type": "node", "id": 11050861800, "lat": 59.2814013, "lon": 14.0513788}, {"type": "node", "id": 11050861801, "lat": 59.2813985, "lon": 14.051457}, {"type": "node", "id": 11050861802, "lat": 59.281258, "lon": 14.0514376}, {"type": "node", "id": 11050861803, "lat": 59.281253, "lon": 14.0515779}, {"type": "node", "id": 11050861804, "lat": 59.2813957, "lon": 14.0515976}, {"type": "node", "id": 11050914105, "lat": 59.2813972, "lon": 14.0515563}, {"type": "node", "id": 11050914106, "lat": 59.2815257, "lon": 14.051574}, {"type": "node", "id": 11516455818, "lat": 59.5357944, "lon": 14.2812035}, {"type": "node", "id": 11516455821, "lat": 59.5357695, "lon": 14.2810713}, {"type": "node", "id": 11516455822, "lat": 59.5356718, "lon": 14.281421}, {"type": "way", "id": 352581051, "nodes": [3583383523, 3583383528, 3583383527, 3583383529, 3583383525, 3583383524, 3583383522, 3583383521, 3583383523], "tags": {"addr:city": "Kristinehamn", "addr:country": "SE", "addr:housenumber": "7", "addr:postcode": "681 30", "addr:street": "Hamnv\u00e4gen", "amenity": "restaurant", "building": "yes", "cuisine": "thai", "name": "Thanh thai palace"}}, {"type": "way", "id": 355534197, "nodes": [3611253023, 3611253022, 3611253027, 3611253026, 3611253029, 3611253032, 3611253033, 3611253037, 3611253038, 3611253036, 3611253035, 3611253031, 3611253030, 3611253025, 3611253024, 3611253023], "tags": {"addr:city": "Kristinehamn", "addr:country": "SE", "addr:housenumber": "161", "addr:postcode": "681 52", "addr:street": "V\u00e5l\u00f6sundsv\u00e4gen", "amenity": "cafe", "building": "yes", "email": "info@picassosveranda.se", "name": "Picassos Veranda", "opening_hours": "Mo-Su 10:00-21:00", "phone": "+46 72 240 64 35", "website": "https://picassosveranda.se"}}, {"type": "way", "id": 535709003, "nodes": [5191656787, 5191656788, 11516455821, 11516455818, 5191656795, 5191656796, 5191656798, 11516455822, 5191656787], "tags": {"amenity": "restaurant", "building": "yes", "cuisine": "pizza", "name": "Taverna", "takeaway": "yes"}}, {"type": "way", "id": 659499271, "nodes": [6174665047, 6174665048, 6174665049, 6174665050, 6174665047], "tags": {"addr:city": "Kristinehamn", "addr:country": "SE", "addr:housenumber": "156", "addr:postcode": "681 54", "addr:street": "V\u00e5lesundsv\u00e4gen", "amenity": "cafe", "building": "yes", "ele": "50.97", "name": "Caf\u00e9 P\u00e4rlan", "source": "survey"}}, {"type": "way", "id": 928876253, "nodes": [8615010704, 8615010705, 8615010706, 8615010707, 8615010708, 8615010709, 8615010710, 8615010711, 8615010704], "tags": {"addr:city": "Storfors", "addr:postcode": "68891", "addr:street": "Lundsbergs Skola", "amenity": "restaurant", "building": "yes", "name": "Centralk\u00f6ket"}}, {"type": "way", "id": 938507973, "nodes": [8694424051, 8694424052, 8694424053, 8694424055, 8694424051], "tags": {"amenity": "cafe", "building": "yes", "layer": "1", "name": "Caf\u00e9 Str\u00f6mstaren"}}, {"type": "way", "id": 1079527241, "nodes": [9895742315, 9895744521, 9895744529, 9895742312, 9895742302, 9895742314, 9895742315], "tags": {"amenity": "restaurant", "building": "yes", "cuisine": "pizza", "name": "\u00c5torps Pizzeria M"}}, {"type": "way", "id": 1190155721, "nodes": [11050861799, 11050861800, 11050861801, 11050861802, 11050861803, 11050861804, 11050914105, 11050914106, 11050861799], "tags": {"amenity": "restaurant", "building": "yes", "name": "Gattet Restaurang & G\u00e4sthamn"}}]}