{"version": 0.6, "generator": "Overpass API 0.7.61.5 4133829e", "osm3s": {"timestamp_osm_base": "2024-03-14T21:59:00Z", "copyright": "The data included in this document is from www.openstreetmap.org. The data is made available under ODbL."}, "elements": [{"type": "node", "id": 434200843, "lat": 58.4819178, "lon": 16.325191, "tags": {"amenity": "cafe", "cuisine": "ice_cream", "email": "sommar@smultronstallet.se", "mobile": "+46 70-8553585", "name": "Smultronst\u00e4llet", "opening_hours": "Apr 30-May 28: 10:00-18:00; May 29-Jun 24: 10:00-19:00; Jun 25: 10:00-18:00; Jun 26-Aug 15: 10:00-20:00; Aug 16-Aug 29: 10:00-19:00", "outdoor_seating": "yes", "phone": "+46 121-216 11", "smoking": "no", "start_date": "1982", "website": "https://www.smultronstallet.se/", "wheelchair": "yes"}}, {"type": "node", "id": 457910702, "lat": 58.482581, "lon": 16.3228931, "tags": {"amenity": "restaurant", "name": "Kanalkrogen"}}, {"type": "node", "id": 498114398, "lat": 58.4798956, "lon": 16.3256749, "tags": {"amenity": "restaurant", "name": "Pizzeria Vi & Ni"}}, {"type": "node", "id": 899389073, "lat": 58.4416645, "lon": 16.6003191, "tags": {"amenity": "restaurant", "cuisine": "burger;regional;ice_cream", "name": "Stegeborgs hamnkrog", "website": "https://www.stegeborg.se/mat-dryck/stegeborgs-hamnkrog/"}}, {"type": "node", "id": 1123862423, "lat": 58.5955687, "lon": 16.1890974, "tags": {"addr:city": "Norrk\u00f6ping", "addr:country": "SE", "addr:housenumber": "77-79", "addr:street": "Slottsgatan", "amenity": "restaurant", "name": "Remmaren", "phone": "+46 11 133667"}}, {"type": "node", "id": 1123891120, "lat": 58.5949094, "lon": 16.1890741, "tags": {"addr:city": "Norrk\u00f6ping", "addr:country": "SE", "addr:housenumber": "15", "addr:street": "Salt\u00e4ngsgatan", "amenity": "cafe", "name": "Gubbens tr\u00e4dg\u00e5rd"}}, {"type": "node", "id": 1178048644, "lat": 58.5856342, "lon": 16.1894139, "tags": {"addr:city": "Norrk\u00f6ping", "addr:country": "SE", "addr:housenumber": "66", "addr:street": "Drottninggatan", "amenity": "cafe", "name": "\u00c5by konditori", "opening_hours": "Mo-Fr 07:00-18:00; Sa 10:30-14:30; Su off"}}, {"type": "node", "id": 1185190503, "lat": 58.5856502, "lon": 16.1898231, "tags": {"addr:city": "Norrk\u00f6ping", "addr:country": "SE", "addr:housenumber": "63A", "addr:street": "Drottninggatan", "amenity": "restaurant", "cuisine": "asian", "name": "Rosegarden", "opening_hours": "Mo-Th 11:30-14:30,17:30-21:00; Sa 12:00-15:00,17:00-22:00; Fr 11:30-14:30,17:00-22:00; Su 13:00-15:00,17:30-21:00", "website": "http://norrkoping.harryspubar.se/"}}, {"type": "node", "id": 1185190539, "lat": 58.5862738, "lon": 16.1905678, "tags": {"addr:city": "Norrk\u00f6ping", "addr:country": "SE", "addr:housenumber": "55", "addr:street": "Drottninggatan", "amenity": "restaurant", "name": "Matcompagniet"}}, {"type": "node", "id": 1193963902, "lat": 58.5893902, "lon": 16.1931003, "tags": {"addr:city": "Norrk\u00f6ping", "addr:country": "SE", "addr:housenumber": "23", "addr:postcode": "602 25", "addr:street": "Repslagaregatan", "amenity": "cafe", "name": "Hasibas"}}, {"type": "node", "id": 1193978800, "lat": 58.5894423, "lon": 16.1935045, "tags": {"addr:city": "Norrk\u00f6ping", "addr:country": "SE", "addr:housenumber": "27", "addr:postcode": "602 25", "addr:street": "Repslagaregatan", "amenity": "restaurant", "name": "Selims kolgrill"}}, {"type": "node", "id": 1313912280, "lat": 58.5887792, "lon": 16.1885386, "tags": {"amenity": "restaurant", "name": "S:t George", "wheelchair": "limited"}}, {"type": "node", "id": 1313912281, "lat": 58.5916158, "lon": 16.1908645, "tags": {"addr:city": "Norrk\u00f6ping", "addr:country": "SE", "addr:housenumber": "12", "addr:street": "Kristinagatan", "amenity": "restaurant", "cuisine": "chinese", "name": "Restaurang China", "opening_hours": "Mo-Th 11:00-21:00; Fr 11:00-22:00; Sa 12:00-22:00; PH,Su 12:00-21:00"}}, {"type": "node", "id": 1350189240, "lat": 58.5879916, "lon": 16.1912544, "tags": {"addr:city": "Norrk\u00f6ping", "addr:country": "SE", "addr:housenumber": "29", "addr:postcode": "602 32", "addr:street": "Olai Kyrkogata", "amenity": "restaurant", "cuisine": "italian", "name": "Il Cibo", "opening_hours": "Mo-Th 11:00-14:00,16:00-21:00; Fr 11:00-22:00; Sa 12:00-22:00; Su off", "website": "https://www.ilcibo.se/"}}, {"type": "node", "id": 1366982203, "lat": 58.5701614, "lon": 16.1883325, "tags": {"amenity": "cafe", "name": "Cafe och minigolf"}}, {"type": "node", "id": 1416514173, "lat": 58.6382764, "lon": 16.6336336, "tags": {"amenity": "cafe", "name": "Qvarsebo Caf\u00e9", "website": "https://www.qvarsebokaffe.se/"}}, {"type": "node", "id": 1626616167, "lat": 58.5875334, "lon": 16.1914782, "tags": {"addr:city": "Norrk\u00f6ping", "addr:country": "SE", "addr:housenumber": "37", "addr:postcode": "602 32", "addr:street": "Olai Kyrkogata", "amenity": "restaurant", "name": "Lingonfabriken", "opening_hours": "Mo-Fr 08:00-19:00; Sa,Su 11:00-16:00"}}, {"type": "node", "id": 1760594410, "lat": 58.6095001, "lon": 16.256755}, {"type": "node", "id": 1798785997, "lat": 58.3343956, "lon": 16.4540781, "tags": {"amenity": "restaurant", "name": "Rasta", "opening_hours": "Mo-Fr 07:00-21:00; Sa 08:00-20:00; Su 08:00-21:00", "source": "survey", "wheelchair": "yes"}}, {"type": "node", "id": 1806393574, "lat": 58.4807445, "lon": 16.3226602, "tags": {"amenity": "cafe", "name": "Jannes Hembageri", "opening_hours": "Mo-Fr 07:30-18:00; Sa 08:00-15:00; Su 10:00-16:00"}}, {"type": "node", "id": 1855675844, "lat": 58.4818104, "lon": 16.3202384, "tags": {"amenity": "restaurant", "cuisine": "regional", "name": "Radhuset"}}, {"type": "node", "id": 2034323292, "lat": 58.5805266, "lon": 16.1977501, "tags": {"amenity": "restaurant", "cuisine": "pizza", "name": "Ljura Pizza"}}, {"type": "node", "id": 2096504863, "lat": 58.5876602, "lon": 16.188735, "tags": {"addr:city": "Norrk\u00f6ping", "addr:country": "SE", "addr:housenumber": "41", "addr:postcode": "602 32", "addr:street": "Drottninggatan", "amenity": "restaurant", "cuisine": "sushi", "name": "Sushi Yama Dim Sum", "opening_hours": "Mo-Fr 10:00-19:00; Sa 10:00-17:00; Su 11:00-17:00", "phone": "+46 11 14 10 10", "website": "https://www.sushiyama.se/"}}, {"type": "node", "id": 2341946611, "lat": 58.5867985, "lon": 16.1919155, "tags": {"amenity": "cafe", "name": "Nelins konditori city", "opening_hours": "Mo-Fr 07:30-18:00; Sa 09:00-17:00; Su 11:00-17:00"}}, {"type": "node", "id": 2341946793, "lat": 58.5870255, "lon": 16.1891568, "tags": {"amenity": "cafe", "brand": "Wayne's Coffee", "brand:wikidata": "Q2637272", "cuisine": "coffee_shop", "name": "Waynes Coffee", "opening_hours": "Mo-Th 08:30-19:30; Fr 08:30-19:00; Sa 10:00-17:30; Su 10:30-17:30", "takeaway": "yes"}}, {"type": "node", "id": 2341949683, "lat": 58.5847537, "lon": 16.191662, "tags": {"amenity": "cafe", "name": "Caf\u00e9 Swartz", "opening_hours": "Mo-Fr 09:00-16:00", "phone": "+46 11-182405", "website": "https://www.nsb.norrkoping.se/web/norrkoping/ombiblioteket/cafeswartz"}}, {"type": "node", "id": 2342004146, "lat": 58.5894747, "lon": 16.1902297, "tags": {"amenity": "restaurant", "cuisine": "steak_house", "name": "Titans Sportsbar"}}, {"type": "node", "id": 2342004851, "lat": 58.5890399, "lon": 16.1906803, "tags": {"amenity": "restaurant", "cuisine": "asian", "name": "Spicy Hot City", "opening_hours": "Mo-Fr 11:00-21:00; Sa,Su 12:00-21:00"}}, {"type": "node", "id": 2342007391, "lat": 58.5863097, "lon": 16.1899775, "tags": {"amenity": "cafe", "name": "Br\u00f6dernas", "opening_hours": "Mo-Th 08:30-19:30; Fr 08:00-19:00; Sa 09:00-18:00; Su 10:00-18:00"}}, {"type": "node", "id": 2342008324, "lat": 58.5866368, "lon": 16.1916834, "tags": {"amenity": "cafe", "name": "Caf\u00e9 Vetekornet", "opening_hours": "Mo-Fr 10:00-16:00; Sa,Su off"}}, {"type": "node", "id": 2350621231, "lat": 58.5913494, "lon": 16.1918577, "tags": {"amenity": "restaurant", "name": "Asian Garden", "opening_hours": "Mo 11:00-21:00, Tu-Th 11:00-22:00, Fr 11:00-23:00, Sa 12:00-23:00, Su 12:00-21:00"}}, {"type": "node", "id": 2350621549, "lat": 58.5923569, "lon": 16.1922596, "tags": {"amenity": "cafe", "name": "Caf\u00e9 12:an", "opening_hours": "Mo-Th 06:00-15:00, Fr 06:00-13:30, Sa 09:00-13:00"}}, {"type": "node", "id": 2395379384, "lat": 58.5756857, "lon": 16.5652955, "tags": {"amenity": "restaurant"}}, {"type": "node", "id": 2395379390, "lat": 58.6271114, "lon": 16.7997491, "tags": {"amenity": "cafe", "name": "Systrarna Br\u00e5dhes caf\u00e9"}}, {"type": "node", "id": 2395379396, "lat": 58.6384069, "lon": 16.5959131, "tags": {"amenity": "cafe", "name": "S\u00e4terdalen"}}, {"type": "node", "id": 2459512203, "lat": 58.476111, "lon": 16.9405896, "tags": {"amenity": "cafe", "cuisine": "ice_cream", "name": "Strandcaf\u00e9", "operator": "STF Vandrarhem Ark\u00f6sund"}}, {"type": "node", "id": 3026618163, "lat": 58.4775378, "lon": 16.3339001, "tags": {"amenity": "cafe"}}, {"type": "node", "id": 3172475463, "lat": 58.5735929, "lon": 16.2105653, "tags": {"amenity": "restaurant", "cuisine": "pizza", "name": "Hageby Grillen"}}, {"type": "node", "id": 3172475468, "lat": 58.5726088, "lon": 16.2072987, "tags": {"amenity": "restaurant", "cuisine": "steak_house", "name": "Stars & Stripes", "opening_hours": "Mo 10:00-22:00; Tu-Th 10:00-23:00; Fr 10:00-24:00; Sa 00:00-01:00,10:00-24:00; Su 00:00-01:00,10:00-22:00"}}, {"type": "node", "id": 4136463691, "lat": 58.5876242, "lon": 16.188445, "tags": {"amenity": "cafe", "brand": "Espresso House", "brand:wikidata": "Q10489162", "brand:wikipedia": "sv:Espresso House", "cuisine": "coffee_shop", "diet:vegan": "yes", "diet:vegetarian": "yes", "internet_access": "wlan", "name": "Espresso house", "opening_hours": "Mo-Fr 09:00-20:00; Sa-Su 10:00-19:00", "payment:cash": "yes", "takeaway": "yes", "wheelchair": "yes"}}, {"type": "node", "id": 4170551491, "lat": 58.490882, "lon": 16.9370997}, {"type": "node", "id": 4170551493, "lat": 58.490893, "lon": 16.9369753}, {"type": "node", "id": 4170551494, "lat": 58.4909052, "lon": 16.9369842}, {"type": "node", "id": 4170551495, "lat": 58.4909177, "lon": 16.9368519}, {"type": "node", "id": 4170551498, "lat": 58.4910627, "lon": 16.9372319}, {"type": "node", "id": 4170551499, "lat": 58.4909728, "lon": 16.9369707}, {"type": "node", "id": 4170551500, "lat": 58.4910369, "lon": 16.9370175}, {"type": "node", "id": 4170551501, "lat": 58.4909865, "lon": 16.9369022}, {"type": "node", "id": 4315573771, "lat": 58.3657335, "lon": 16.8300616, "tags": {"amenity": "restaurant", "name": "B\u00e5thus", "note": "Only open during high season"}}, {"type": "node", "id": 4326293367, "lat": 58.5727454, "lon": 16.2119986, "tags": {"addr:city": "Norrk\u00f6ping", "addr:street": "Timmermansgatan", "amenity": "restaurant", "cuisine": "falafel", "diet:vegan": "only", "fixme": "Is it realy here? Internet resaech says its on \"Bergslagsgatan 3\".", "name": "Max Falafel", "not:brand:wikidata": "Q1912172"}}, {"type": "node", "id": 4460944450, "lat": 58.6094282, "lon": 16.2566579}, {"type": "node", "id": 4460944451, "lat": 58.609441, "lon": 16.2567783}, {"type": "node", "id": 4460944452, "lat": 58.6095254, "lon": 16.2569918}, {"type": "node", "id": 4460944453, "lat": 58.6095527, "lon": 16.2566089}, {"type": "node", "id": 4460944455, "lat": 58.6096409, "lon": 16.2569462}, {"type": "node", "id": 4570353691, "lat": 58.4822368, "lon": 16.319841, "tags": {"amenity": "restaurant", "cuisine": "thai", "name": "Sawasdee", "opening_hours": "Tu-Th 17:00-20:00; Fr 17:00-21:00; Sa 13:00-21:00"}}, {"type": "node", "id": 4570353692, "lat": 58.4821924, "lon": 16.3199723, "tags": {"amenity": "cafe", "name": "Kaffeb\u00f6nan", "opening_hours": "Mo-Fr 10:00-18:00; Sa 10:00-14:00", "website": "http://www.kroonshalsa.se"}}, {"type": "node", "id": 4729926027, "lat": 58.2560638, "lon": 17.00505}, {"type": "node", "id": 4729926028, "lat": 58.2559558, "lon": 17.0051436}, {"type": "node", "id": 4729926029, "lat": 58.2559183, "lon": 17.0049878}, {"type": "node", "id": 4729926030, "lat": 58.2560263, "lon": 17.0048943}, {"type": "node", "id": 4970185970, "lat": 58.3333358, "lon": 16.730922, "tags": {"amenity": "cafe", "name": "Tj\u00e4rholms Sk\u00e4rgards Cafe", "opening_hours": "Fr-Su 11:00-17:00"}}, {"type": "node", "id": 4972243523, "lat": 58.5921063, "lon": 16.1888455, "tags": {"addr:city": "Norrk\u00f6ping", "addr:country": "SE", "addr:housenumber": "6", "addr:postcode": "602 25", "addr:street": "Olai Kyrkogata", "amenity": "restaurant", "cuisine": "barbecue;kebab;coffee_shop;seafood;sandwich;turkish", "drink:coffee": "yes", "drink:juice": "yes", "name": "Naay Caf\u00e9 & Restaurang", "opening_hours": "Mo-Su 16:00-26:00"}}, {"type": "node", "id": 5001700041, "lat": 58.6462327, "lon": 16.9005414, "tags": {"amenity": "cafe", "name": "Tunabergs hembygdsg\u00e5rd", "tourism": "museum"}}, {"type": "node", "id": 5040838093, "lat": 58.4821452, "lon": 16.3213273, "tags": {"amenity": "restaurant", "name": "\u00d6sterns-stj\u00e4rna", "opening_hours": "Tu-Th 11:00-15:00, 17:00-21:30; Fr 11:00-15:00, 17:00-22:30; Sa 12:00-22:30; Su 13:00-20:00", "phone": "+46-121-13444"}}, {"type": "node", "id": 5131951667, "lat": 58.4794595, "lon": 16.3301923}, {"type": "node", "id": 5131951668, "lat": 58.479331, "lon": 16.33007}, {"type": "node", "id": 5131951670, "lat": 58.479572, "lon": 16.3304672}, {"type": "node", "id": 5131951671, "lat": 58.4794285, "lon": 16.3303299}, {"type": "node", "id": 5131951673, "lat": 58.4796761, "lon": 16.3305457}, {"type": "node", "id": 5131951675, "lat": 58.4795821, "lon": 16.3304556}, {"type": "node", "id": 5131951677, "lat": 58.4791113, "lon": 16.3308988}, {"type": "node", "id": 5780365041, "lat": 58.3595141, "lon": 16.793611, "tags": {"amenity": "restaurant", "name": "Sankt Annag\u00e5rden", "short_name": "S:t Annag\u00e5rden", "website": "https://www.stannagarden.com/"}}, {"type": "node", "id": 5847128073, "lat": 58.4895499, "lon": 16.93976}, {"type": "node", "id": 5847128074, "lat": 58.4893321, "lon": 16.9394924}, {"type": "node", "id": 5847128079, "lat": 58.4891875, "lon": 16.9397792}, {"type": "node", "id": 5847128080, "lat": 58.4894712, "lon": 16.9399936}, {"type": "node", "id": 6418563847, "lat": 58.479489, "lon": 16.3312604}, {"type": "node", "id": 6448323619, "lat": 58.4831984, "lon": 16.3213796, "tags": {"amenity": "restaurant", "name": "Bakfickan", "opening_hours": "Tu 16:00-23:00; We-Sa 11:00-23:00; Su 11:30-15:30", "phone": "+4612130098", "website": "https://www.bakfickansoderkoping.se/"}}, {"type": "node", "id": 6651375347, "lat": 58.5922353, "lon": 16.1888038, "tags": {"addr:city": "Norrk\u00f6ping", "addr:country": "SE", "addr:housenumber": "6", "addr:postcode": "602 25", "addr:street": "Olai Kyrkogata", "amenity": "restaurant", "cuisine": "burger;sandwich;kebab;chicken;fish_and_chips", "name": "Naay Restaurang & Caf\u00e9", "phone": "+4676-606 60 60"}}, {"type": "node", "id": 6660105245, "lat": 58.2561233, "lon": 17.0058302, "tags": {"amenity": "cafe"}}, {"type": "node", "id": 6813927405, "lat": 58.5916379, "lon": 16.1923144, "tags": {"addr:city": "Norrk\u00f6ping", "addr:country": "SE", "addr:housenumber": "6", "addr:postcode": "602 26", "addr:street": "Nya torget", "amenity": "restaurant", "cuisine": "american", "name": "Bores", "opening_hours": "Mo-Th 11:00-20:00; Fr 11:00-22:00; Sa 12:00-22:00; Su 12:00-20:00"}}, {"type": "node", "id": 6813927406, "lat": 58.5919465, "lon": 16.1921449, "tags": {"addr:city": "Norrk\u00f6ping", "addr:country": "SE", "addr:housenumber": "3", "addr:postcode": "602 26", "addr:street": "Nya torget", "amenity": "restaurant", "cuisine": "greek", "name": "Grekiska Grill & Bar", "opening_hours": "Mo-Th 11:00-22:00; Fr 11:00-22:30; Sa 12:00-22:30; Su 14:00-21:00"}}, {"type": "node", "id": 6813927407, "lat": 58.5920847, "lon": 16.1920517, "tags": {"addr:city": "Norrk\u00f6ping", "addr:country": "SE", "addr:housenumber": "1", "addr:postcode": "602 26", "addr:street": "Nya torget", "amenity": "restaurant", "cuisine": "mexican", "name": "Cabo Taqueria"}}, {"type": "node", "id": 7087872895, "lat": 58.5897496, "lon": 16.1916605, "tags": {"amenity": "cafe", "cuisine": "cafe", "name": "Quality Caf\u00e9"}}, {"type": "node", "id": 7087883791, "lat": 58.592026, "lon": 16.1896859, "tags": {"addr:country": "SE", "addr:housenumber": "21", "addr:street": "Tr\u00e4dg\u00e5rdsgatan", "amenity": "restaurant", "cuisine": "lunch;regional", "name": "Husman & K\u00f6k", "opening_hours": "Mo-Fr 11:00-14:00", "smoking": "no"}}, {"type": "node", "id": 7087942929, "lat": 58.5924114, "lon": 16.1883214, "tags": {"amenity": "restaurant", "cuisine": "regional;fine_dining", "name": "Stadsvakten"}}, {"type": "node", "id": 7087964777, "lat": 58.5804538, "lon": 16.229172, "tags": {"amenity": "cafe", "cuisine": "cafe;bread", "name": "Nelins smedby"}}, {"type": "node", "id": 7201381798, "lat": 58.5867463, "lon": 16.1889105, "tags": {"addr:city": "Norrk\u00f6ping", "addr:country": "SE", "addr:housenumber": "60", "addr:postcode": "602 32", "addr:street": "Drottninggatan", "amenity": "restaurant", "cuisine": "sushi", "name": "Sushi Yama", "opening_hours": "Mo-Fr 10:00-21:00; Sa-Su 11:00-21:00", "phone": "+46 11 10 12 10", "website": "https://www.sushiyama.se/"}}, {"type": "node", "id": 7650289082, "lat": 58.3242562, "lon": 16.839075}, {"type": "node", "id": 7650289083, "lat": 58.3242172, "lon": 16.8393305}, {"type": "node", "id": 7650289084, "lat": 58.3240285, "lon": 16.8392243}, {"type": "node", "id": 7650322885, "lat": 58.3240499, "lon": 16.8390025}, {"type": "node", "id": 7684751231, "lat": 58.4817199, "lon": 16.3228344}, {"type": "node", "id": 7684751232, "lat": 58.4817947, "lon": 16.322996}, {"type": "node", "id": 7684751233, "lat": 58.481665, "lon": 16.3232147}, {"type": "node", "id": 7684751234, "lat": 58.4815902, "lon": 16.3230531}, {"type": "node", "id": 7826314285, "lat": 58.5914742, "lon": 16.1926401, "tags": {"amenity": "restaurant", "cuisine": "local", "name": "\u00d6stg\u00f6tak\u00f6k"}}, {"type": "node", "id": 7889961232, "lat": 58.5872834, "lon": 16.1885747, "tags": {"amenity": "restaurant", "name": "Lingon Food & Friends", "opening_hours": "Mo-Sa 11:00-20:00; Su 11:00-19:00"}}, {"type": "node", "id": 8050080780, "lat": 58.5893508, "lon": 16.194362, "tags": {"amenity": "restaurant", "name": "Sham"}}, {"type": "node", "id": 8050091589, "lat": 58.5887976, "lon": 16.1886713, "tags": {"amenity": "restaurant", "name": "B\u00e4sta Falafel"}}, {"type": "node", "id": 8498366994, "lat": 58.483413, "lon": 16.9625843}, {"type": "node", "id": 8498366995, "lat": 58.4833562, "lon": 16.9626916}, {"type": "node", "id": 8498366996, "lat": 58.4833725, "lon": 16.9628435}, {"type": "node", "id": 8498366997, "lat": 58.4832838, "lon": 16.9628965}, {"type": "node", "id": 8498367001, "lat": 58.4831914, "lon": 16.9627077}, {"type": "node", "id": 8498367002, "lat": 58.4832103, "lon": 16.9625414}, {"type": "node", "id": 8498367003, "lat": 58.4832468, "lon": 16.9625535}, {"type": "node", "id": 8498367004, "lat": 58.4832436, "lon": 16.9625307}, {"type": "node", "id": 8498367005, "lat": 58.4832952, "lon": 16.9625025}, {"type": "node", "id": 8498367006, "lat": 58.4833037, "lon": 16.9625622}, {"type": "node", "id": 8498367008, "lat": 58.4833527, "lon": 16.9624743}, {"type": "node", "id": 8500497175, "lat": 58.4832694, "lon": 16.9625166, "tags": {"entrance": "yes"}}, {"type": "node", "id": 8503073051, "lat": 58.4832703, "lon": 16.9627924}, {"type": "node", "id": 8503336516, "lat": 58.4885399, "lon": 16.9429851}, {"type": "node", "id": 8503358276, "lat": 58.4892236, "lon": 16.9396722}, {"type": "node", "id": 8503364517, "lat": 58.4885767, "lon": 16.9429582}, {"type": "node", "id": 8503364518, "lat": 58.4885648, "lon": 16.9428987}, {"type": "node", "id": 8503364519, "lat": 58.4885164, "lon": 16.9428676}, {"type": "node", "id": 8503364520, "lat": 58.4885532, "lon": 16.9428407}, {"type": "node", "id": 8510794413, "lat": 58.4899268, "lon": 16.9395467}, {"type": "node", "id": 8510816318, "lat": 58.4899896, "lon": 16.9393404}, {"type": "node", "id": 8510816319, "lat": 58.489916, "lon": 16.9393188}, {"type": "node", "id": 8510816320, "lat": 58.4898984, "lon": 16.9395384}, {"type": "node", "id": 8750627620, "lat": 58.6096312, "lon": 16.2568556}, {"type": "node", "id": 8895318037, "lat": 58.324235, "lon": 16.839294}, {"type": "node", "id": 8895318038, "lat": 58.3242212, "lon": 16.8392891}, {"type": "node", "id": 8895318039, "lat": 58.3241294, "lon": 16.8392997}, {"type": "node", "id": 8895318040, "lat": 58.3241332, "lon": 16.839261}, {"type": "node", "id": 8960432191, "lat": 58.4825173, "lon": 16.3230548, "tags": {"addr:city": "S\u00f6derk\u00f6ping", "addr:country": "SE", "addr:housenumber": "3", "addr:street": "kanalhamnen", "amenity": "restaurant", "name": "H\u00e5llbar och k\u00f6k", "phone": "073 707 19 76", "website": "https://hallbarkok.se/"}}, {"type": "node", "id": 9113669211, "lat": 58.5886227, "lon": 16.1891021, "tags": {"amenity": "restaurant", "name": "Oh Pok\u00e9"}}, {"type": "node", "id": 9381932092, "lat": 58.3433349, "lon": 16.8433982, "tags": {"amenity": "cafe", "name": "Ek\u00f6 G\u00e5rd Tr\u00e4dg\u00e5rdscaf\u00e9", "url": "https://www.ekogard.nu/"}}, {"type": "node", "id": 9392493270, "lat": 58.6096157, "lon": 16.25671}, {"type": "node", "id": 9392493271, "lat": 58.6095656, "lon": 16.2567297}, {"type": "node", "id": 10082762160, "lat": 58.489972, "lon": 16.9395599}, {"type": "node", "id": 10087474486, "lat": 58.4910401, "lon": 16.9370015}, {"type": "node", "id": 10087474487, "lat": 58.4911001, "lon": 16.9370454}, {"type": "node", "id": 10087476196, "lat": 58.4885593, "lon": 16.9429709}, {"type": "node", "id": 10087476202, "lat": 58.4893737, "lon": 16.9398738}, {"type": "node", "id": 10087476203, "lat": 58.4892179, "lon": 16.9398166}, {"type": "node", "id": 10087476204, "lat": 58.4892081, "lon": 16.9398458}, {"type": "node", "id": 10087476205, "lat": 58.4892176, "lon": 16.9398575}, {"type": "node", "id": 10087476206, "lat": 58.4891985, "lon": 16.939914}, {"type": "node", "id": 10087476207, "lat": 58.4893128, "lon": 16.9400545}, {"type": "node", "id": 10087476209, "lat": 58.4892575, "lon": 16.9397139}, {"type": "node", "id": 10106419453, "lat": 58.483265, "lon": 16.9627509}, {"type": "node", "id": 11003293252, "lat": 58.4820585, "lon": 16.3198257, "tags": {"addr:city": "S\u00f6derk\u00f6ping", "addr:country": "SE", "addr:housenumber": "3A", "addr:postcode": "61434", "addr:street": "R\u00e5dhustorget", "amenity": "restaurant", "cuisine": "greek", "name": "Grekiska h\u00e5ll och bar", "phone": "0121-102 22", "website": "https://grekiska.se/restaurang/soderkoping/"}}, {"type": "node", "id": 11003293944, "lat": 58.4754356, "lon": 16.3341566, "tags": {"amenity": "restaurant", "cuisine": "pizza"}}, {"type": "way", "id": 416253208, "nodes": [4170551501, 4170551495, 4170551493, 4170551494, 4170551491, 4170551498, 10087474487, 10087474486, 4170551500, 4170551499, 4170551501], "tags": {"amenity": "restaurant", "building": "yes", "name": "Ark\u00f6 Krog", "website": "http://www.arkokrog.se/"}}, {"type": "way", "id": 449128245, "nodes": [4460944453, 4460944450, 4460944451, 1760594410, 4460944452, 4460944455, 8750627620, 9392493270, 9392493271, 4460944453], "tags": {"amenity": "restaurant", "building": "yes", "cuisine": "pizza;seafood;ice_cream;steak_house", "name": "Hamnkrogen Lind\u00f6", "outdoor_seating": "yes", "takeaway": "yes", "website": "https://www.hamnkrogenlindo.com/", "wheelchair": "yes"}}, {"type": "way", "id": 479964585, "nodes": [4729926030, 4729926027, 4729926028, 4729926029, 4729926030], "tags": {"amenity": "restaurant", "building": "yes", "name": "Restaurang Loftet"}}, {"type": "way", "id": 527979495, "nodes": [5131951668, 5131951667, 5131951671, 5131951670, 5131951675, 5131951673, 6418563847, 5131951677, 5131951668], "tags": {"addr:city": "S\u00f6derk\u00f6ping", "addr:country": "SE", "addr:housenumber": "35", "addr:postcode": "614 30", "addr:street": "Sk\u00f6nbergagatan", "amenity": "restaurant", "building": "yes", "name": "S\u00f6derk\u00f6pings Brunn", "phone": "+46 121 10900", "tourism": "hotel", "website": "http://soderkopingsbrunn.se", "wikidata": "Q111875494"}}, {"type": "way", "id": 618626472, "nodes": [5847128074, 10087476209, 8503358276, 5847128079, 10087476203, 10087476204, 10087476205, 10087476206, 10087476207, 10087476202, 5847128080, 5847128073, 5847128074], "tags": {"building:part": "yes"}}, {"type": "way", "id": 819202273, "nodes": [7650289082, 8895318037, 8895318038, 7650289083, 8895318039, 8895318040, 7650289084, 7650322885, 7650289082], "tags": {"amenity": "restaurant", "building": "yes", "name": "Magasinet Sankt Anna", "website": "https://www.magasinetsanktanna.se/"}}, {"type": "way", "id": 823097126, "nodes": [7684751234, 7684751233, 7684751232, 7684751231, 7684751234], "tags": {"addr:city": "S\u00f6derk\u00f6ping", "addr:country": "SE", "addr:housenumber": "27", "addr:postcode": "614 34", "addr:street": "\u00c5gatan", "amenity": "restaurant", "building": "yes", "cuisine": "regional", "name": "\u00c5-Cafeet"}}, {"type": "way", "id": 914868690, "nodes": [8498366994, 8498366995, 8498366996, 8498366997, 8503073051, 10106419453, 8498367001, 8498367002, 8498367003, 8498367004, 8500497175, 8498367005, 8498367006, 8498367008, 8498366994], "tags": {"air_conditioning": "yes", "amenity": "restaurant", "building": "yes", "email": "sar-utbildning@sjofartsverket.se", "name": "Matsal/reception", "phone": "+46 771 63 00 00", "reservation": "required", "source": "local knowledge;aerial imagery", "website": "https://www.sjofartsverket.se/sar-utbildning", "wheelchair": "yes"}}, {"type": "way", "id": 915436298, "nodes": [8503336516, 10087476196, 8503364517, 8503364518, 8503364520, 8503364519, 8503336516], "tags": {"addr:city": "Vikbolandet", "addr:country": "SE", "addr:housenumber": "573", "addr:postcode": "61025", "addr:street": "Ark\u00f6sundsv\u00e4gen", "amenity": "cafe", "building": "retail", "cuisine": "ice_cream;coffee", "name": "Lykkes Glass", "outdoor_seating": "yes", "payment:credit_cards": "yes", "payment:debit_cards": "yes", "payment:swish": "yes", "phone": "+46 73 763 90 55", "website": "https://www.facebook.com/Lykkescafe/"}}, {"type": "way", "id": 916319910, "nodes": [8510816318, 8510816319, 8510816320, 8510794413, 10082762160, 8510816318], "tags": {"amenity": "restaurant", "building": "yes"}}, {"type": "relation", "id": 12424992, "members": [{"type": "way", "ref": 618626472, "role": "outer"}, {"type": "relation", "ref": 12424993, "role": "outer"}], "tags": {"addr:city": "Vikbolandet", "addr:country": "SE", "addr:housenumber": "3", "addr:postcode": "61025", "addr:street": "V\u00e4rldens \u00c4nde", "amenity": "restaurant", "building": "yes", "email": "info@arkosundshotell.se", "name": "Ark\u00f6sunds Hotell", "type": "multipolygon", "website": "https://www.arkosundshotell.se/"}}]}