{"version": 0.6, "generator": "Overpass API 0.7.61.5 4133829e", "osm3s": {"timestamp_osm_base": "2024-03-14T21:59:00Z", "copyright": "The data included in this document is from www.openstreetmap.org. The data is made available under ODbL."}, "elements": [{"type": "node", "id": 288152946, "lat": 56.8343912, "lon": 12.7093093, "tags": {"amenity": "restaurant", "cuisine": "regional", "name": "Lokal Diner"}}, {"type": "node", "id": 431825379, "lat": 56.8233084, "lon": 12.6095773, "tags": {"amenity": "restaurant", "name": "Strandkanten", "operator": "Ugglarps Camping"}}, {"type": "node", "id": 435695421, "lat": 56.7440426, "lon": 12.7276693, "tags": {"amenity": "restaurant", "name": "Harplinge W\u00e4rdshus"}}, {"type": "node", "id": 490012799, "lat": 56.8214299, "lon": 12.7406337, "tags": {"addr:city": "Getinge", "addr:country": "SE", "addr:housenumber": "727", "addr:postcode": "305 76", "addr:street": "G\u00f6teborgsv\u00e4gen", "amenity": "restaurant", "contact:phone": "+46-35-542 00", "contact:website": "http://getingepizzeria.se/", "cuisine": "pizza", "name": "Getinge Restaurang & Pizzeria", "opening_hours": "Mo-Th 11:30-21:00; Sa 12:00-22:00; Fr 11:30-22:00; Su 12:00-21:00", "outdoor_seating": "yes", "takeaway": "yes"}}, {"type": "node", "id": 495542193, "lat": 56.4632777, "lon": 12.7544878, "tags": {"amenity": "cafe", "check_date": "2023-06-18", "name": "Caf\u00e9 Kattvik", "outdoor_seating": "yes", "payment:cards": "no", "payment:credit_cards": "no", "payment:debit_cards": "no"}}, {"type": "node", "id": 495542215, "lat": 56.4349579, "lon": 12.8399468, "tags": {"amenity": "restaurant", "name": "Papas"}}, {"type": "node", "id": 513417055, "lat": 56.744463, "lon": 12.7271946, "tags": {"amenity": "restaurant", "name": "Harplinge Pizzeria"}}, {"type": "node", "id": 532119027, "lat": 56.7658987, "lon": 12.6321726, "tags": {"amenity": "cafe", "name": "G\u00f6stas caf\u00e9", "website": "http://www.restaurangsteninge.se/"}}, {"type": "node", "id": 582819327, "lat": 56.7640994, "lon": 12.6328592, "tags": {"amenity": "restaurant", "name": "Skepparstugan", "website": "https://www.skepparstugan.se/skepparstugan.html"}}, {"type": "node", "id": 608636999, "lat": 56.664703, "lon": 12.8631482, "tags": {"addr:postcode": "302 50", "addr:street": "Stationsgatan", "amenity": "restaurant", "contact:email": "info@kalervos.se", "contact:phone": "+46-35188828", "contact:website": "http://www.kalervos.se", "cuisine": "regional", "name": "Kalervos", "opening_hours": "Mo-Su 11:00-14:00"}}, {"type": "node", "id": 779172306, "lat": 56.4464496, "lon": 12.5621592, "tags": {"amenity": "cafe"}}, {"type": "node", "id": 814759247, "lat": 56.4678157, "lon": 12.7081179, "tags": {"amenity": "restaurant", "check_date": "2023-04-01", "name": "Hovs hallar", "payment:mastercard": "yes", "payment:visa": "yes"}}, {"type": "node", "id": 1070520467, "lat": 56.6762301, "lon": 12.8587471, "tags": {"amenity": "restaurant", "contact:phone": "+4635108480", "name": "Restaurang Gastons"}}, {"type": "node", "id": 1070698982, "lat": 56.6764699, "lon": 12.8591317}, {"type": "node", "id": 1070699016, "lat": 56.6764601, "lon": 12.8588656, "tags": {"amenity": "cafe", "name": "Morfars Cafe"}}, {"type": "node", "id": 1070699035, "lat": 56.6786209, "lon": 12.8583684, "tags": {"amenity": "cafe", "name": "Fribergs konditori", "opening_hours": "Mo-Th 08:00-18:00; Fr 08:00-20:00; Sa-Su 09:00-15:00"}}, {"type": "node", "id": 1070699068, "lat": 56.6763335, "lon": 12.8596}, {"type": "node", "id": 1070699069, "lat": 56.6787214, "lon": 12.8583016, "tags": {"amenity": "restaurant", "cuisine": "japanese", "name": "Restaurang Ming Sushi"}}, {"type": "node", "id": 1070699078, "lat": 56.6763928, "lon": 12.8591005}, {"type": "node", "id": 1070699106, "lat": 56.6763262, "lon": 12.8591524, "tags": {"addr:country": "SE", "addr:housenumber": "42", "addr:postcode": "302 43", "addr:street": "Storgatan", "amenity": "cafe", "brand": "Espresso House", "brand:wikidata": "Q10489162", "brand:wikipedia": "sv:Espresso House", "cuisine": "coffee_shop", "name": "Espresso House", "outdoor_seating": "yes", "takeaway": "yes"}}, {"type": "node", "id": 1070699181, "lat": 56.6763897, "lon": 12.8596335}, {"type": "node", "id": 1070699186, "lat": 56.6762053, "lon": 12.8591231, "tags": {"amenity": "cafe", "name": "Sk\u00e5nska hembageriet", "opening_hours": "Mo-Fr 09:00-18:00; Sa 09:00-16:00; Su 12:00-16:00"}}, {"type": "node", "id": 1070699295, "lat": 56.6786229, "lon": 12.8608229, "tags": {"amenity": "cafe", "name": "Cafe Rotundan"}}, {"type": "node", "id": 1070699307, "lat": 56.6764229, "lon": 12.8593268}, {"type": "node", "id": 1070699350, "lat": 56.6764467, "lon": 12.8593364}, {"type": "node", "id": 1071758485, "lat": 56.6799678, "lon": 12.8575812, "tags": {"amenity": "restaurant", "cuisine": "pizza", "name": "Pizzeria Giovanni"}}, {"type": "node", "id": 1071758562, "lat": 56.679598, "lon": 12.8577839, "tags": {"amenity": "restaurant", "cuisine": "thai", "name": "Lai-Thai Restaurang"}}, {"type": "node", "id": 1072629570, "lat": 56.6734144, "lon": 12.8573449}, {"type": "node", "id": 1072629600, "lat": 56.6734376, "lon": 12.8573522}, {"type": "node", "id": 1072629615, "lat": 56.6734082, "lon": 12.8571281}, {"type": "node", "id": 1072629652, "lat": 56.6734284, "lon": 12.8574479}, {"type": "node", "id": 1072629665, "lat": 56.6734937, "lon": 12.8574687}, {"type": "node", "id": 1072629679, "lat": 56.67562, "lon": 12.8580844, "tags": {"amenity": "cafe", "brand": "Espresso House", "brand:wikidata": "Q10489162", "brand:wikipedia": "sv:Espresso House", "cuisine": "coffee_shop", "name": "Espresso House", "takeaway": "yes"}}, {"type": "node", "id": 1072629705, "lat": 56.6735229, "lon": 12.8571645}, {"type": "node", "id": 1072629721, "lat": 56.6734249, "lon": 12.8572348}, {"type": "node", "id": 1072629761, "lat": 56.6733988, "lon": 12.8572265}, {"type": "node", "id": 1106297815, "lat": 56.6821332, "lon": 12.8540841, "tags": {"amenity": "cafe", "name": "Hallandsg\u00e5rdens kafe"}}, {"type": "node", "id": 1250121032, "lat": 56.4612741, "lon": 12.9214098, "tags": {"amenity": "restaurant", "name": "Bread & Butter Bistro", "opening_hours": "We-Sa 07:00-21:00; Su 07:00-14:00"}}, {"type": "node", "id": 1250121039, "lat": 56.4621199, "lon": 12.9172807, "tags": {"amenity": "restaurant", "name": "Strandpensionatet", "website": "https://www.strandpensionatet.se/"}}, {"type": "node", "id": 1586016854, "lat": 56.6458285, "lon": 12.728964}, {"type": "node", "id": 1586016869, "lat": 56.6458625, "lon": 12.7290736}, {"type": "node", "id": 1586016877, "lat": 56.6459037, "lon": 12.7288868}, {"type": "node", "id": 1586016890, "lat": 56.6459377, "lon": 12.7289964}, {"type": "node", "id": 1810342134, "lat": 56.6765764, "lon": 12.858908, "tags": {"addr:city": "Halmstad", "addr:country": "SE", "addr:housenumber": "37", "addr:postcode": "302 43", "addr:street": "Storgatan", "amenity": "restaurant", "bar": "yes", "contact:email": "info@pio.se", "contact:phone": "+4635-210669", "contact:website": "http://www.pio.se/", "cuisine": "regional", "email": "info@pio.se", "name": "Pio Matsal & Bar", "opening_hours": "Tu-Th 11:30-22:00, Fr-Sa 11:30-23:30", "phone": "+46 35 210669", "website": "https://www.pio.se/"}}, {"type": "node", "id": 1810342145, "lat": 56.6765021, "lon": 12.8591828, "tags": {"addr:city": "Halmstad", "addr:country": "SE", "addr:housenumber": "46", "addr:postcode": "302 43", "addr:street": "Storgatan", "amenity": "restaurant", "cuisine": "pizza;italian", "name": "Capri", "note": "pizzeria/steakhouse?", "opening_hours": "Mo-Fr 11:00-22:00; Sa-Su 12:00-22:00", "phone": "+46 35 101066", "website": "https://www.capri-halmstad.se/"}}, {"type": "node", "id": 1810342212, "lat": 56.6765013, "lon": 12.8588738, "tags": {"addr:city": "Halmstad", "addr:country": "SE", "addr:housenumber": "35", "addr:postcode": "30243", "addr:street": "Storgatan", "amenity": "restaurant", "contact:phone": "+4635-18 76 49", "cuisine": "regional", "email": "rest.yoss@hotmail.com", "name": "Yoss restaurang", "opening_hours": "Mo-Fr 11:00-22:00; Sa 11:30-22:30", "phone": "+46 35 187649", "website": "https://restaurangyoss.se/"}}, {"type": "node", "id": 2251257089, "lat": 56.6919454, "lon": 12.8715998, "tags": {"addr:city": "Halmstad", "addr:country": "SE", "addr:housenumber": "140", "addr:postcode": "30231", "addr:street": "Frennarpsv\u00e4gen", "amenity": "restaurant", "cuisine": "regional", "diet:vegan": "no", "diet:vegetarian": "yes", "email": "mailto:info@magasinethalmstad.se", "name": "Slottsm\u00f6llans Magasin", "opening_hours": "Mo-Fr 11:30-14:00", "payment:credit_cards": "yes", "payment:debit_cards": "yes", "phone": "035-282 01 30", "source": "Survey", "website": "https://magasinethalmstad.se/"}}, {"type": "node", "id": 2279935509, "lat": 56.6597882, "lon": 12.8908686, "tags": {"addr:country": "SE", "addr:housenumber": "1", "addr:postcode": "302 50", "addr:street": "V\u00e4stervallv\u00e4gen", "amenity": "restaurant", "cuisine": "regional", "name": "\u00d6sterg\u00f6k", "source": "Bing Aerial"}}, {"type": "node", "id": 2283346479, "lat": 56.6664375, "lon": 12.880724, "tags": {"addr:country": "SE", "addr:housenumber": "4", "addr:postcode": "302 51", "addr:street": "\u00d6stra Lyckan", "amenity": "restaurant", "cuisine": "thai", "name": "Chiang Mai", "source": "Survey"}}, {"type": "node", "id": 2322286993, "lat": 56.7430362, "lon": 12.8536856, "tags": {"amenity": "cafe", "name": "Lizzies Caf\u00e9", "source": "Survey"}}, {"type": "node", "id": 2540942645, "lat": 56.7036392, "lon": 12.7340376, "tags": {"addr:city": "Gullbrandstorp", "addr:country": "SE", "addr:housenumber": "1", "addr:postcode": "305 64", "addr:street": "Grangatan", "amenity": "restaurant", "cuisine": "pizza", "name": "Gullbrandstorps Pizza Och Grill"}}, {"type": "node", "id": 2783100249, "lat": 56.730916, "lon": 12.6692932, "tags": {"amenity": "restaurant", "contact:instagram": "https://www.instagram.com/mangold_haverdal", "name": "Mangold Haverdal", "website": "https://www.cafemangold.se/mangold-haverdal"}}, {"type": "node", "id": 2886685568, "lat": 56.6663607, "lon": 12.8172978, "tags": {"amenity": "cafe", "cuisine": "ice_cream", "name": "Glassbaren"}}, {"type": "node", "id": 2886685569, "lat": 56.6662341, "lon": 12.8172546, "tags": {"amenity": "cafe", "cuisine": "burger", "name": "Hamburgerian"}}, {"type": "node", "id": 2886685570, "lat": 56.6663993, "lon": 12.8163107, "tags": {"amenity": "restaurant", "cuisine": "american", "name": "Wild West Steakhouse"}}, {"type": "node", "id": 2972155240, "lat": 56.6634314, "lon": 12.8759573, "tags": {"amenity": "cafe", "name": "Hill"}}, {"type": "node", "id": 2992086753, "lat": 56.6531738, "lon": 12.8786101}, {"type": "node", "id": 2992086756, "lat": 56.6532695, "lon": 12.8787843}, {"type": "node", "id": 2992086757, "lat": 56.6532769, "lon": 12.8784225}, {"type": "node", "id": 2992086759, "lat": 56.6532857, "lon": 12.8787549}, {"type": "node", "id": 2992086761, "lat": 56.6533075, "lon": 12.8787946}, {"type": "node", "id": 2992086763, "lat": 56.6533497, "lon": 12.8787178}, {"type": "node", "id": 2992086764, "lat": 56.6533505, "lon": 12.8785565}, {"type": "node", "id": 2992086765, "lat": 56.6533604, "lon": 12.8787374}, {"type": "node", "id": 2992086766, "lat": 56.6533709, "lon": 12.8785194}, {"type": "node", "id": 2992086768, "lat": 56.6533939, "lon": 12.8785611}, {"type": "node", "id": 2992086769, "lat": 56.6534018, "lon": 12.8785467}, {"type": "node", "id": 2992086771, "lat": 56.6534335, "lon": 12.8786044}, {"type": "node", "id": 3063869080, "lat": 56.6745806, "lon": 12.8536024, "tags": {"addr:country": "SE", "addr:housenumber": "23", "addr:street": "Brogatan", "amenity": "restaurant", "cuisine": "indian", "name": "Aliza's indiska restaurang", "source": "Survey"}}, {"type": "node", "id": 3063887538, "lat": 56.6749623, "lon": 12.8531893, "tags": {"addr:city": "Halmstad", "addr:country": "SE", "addr:housenumber": "47", "addr:postcode": "302 95", "addr:street": "Karl XI:s v\u00e4g", "amenity": "nightclub", "email": "info@halmstadlive.se", "name": "Halmstad Live", "phone": "+46 357108890", "source": "Survey", "website": "https://halmstadlive.se"}}, {"type": "node", "id": 3064748889, "lat": 56.6747767, "lon": 12.8526832, "tags": {"addr:country": "SE", "addr:housenumber": "34", "addr:street": "Brogatan", "amenity": "restaurant", "cuisine": "chinese", "name": "House Ming", "source": "Survey"}}, {"type": "node", "id": 3073749001, "lat": 56.6739126, "lon": 12.8765456, "tags": {"addr:country": "SE", "addr:housenumber": "5", "addr:street": "Snickaregatan", "amenity": "restaurant", "cuisine": "regional", "name": "Kometen", "opening_hours": "Mo-Fr 11:00-13:30", "source": "Survey", "takeaway": "yes"}}, {"type": "node", "id": 3444914532, "lat": 56.6763878, "lon": 12.8638051, "tags": {"addr:city": "Halmstad", "addr:country": "SE", "addr:housenumber": "25", "addr:postcode": "302 27", "addr:street": "Axel Olssons gata", "amenity": "restaurant", "cuisine": "regional", "name": "Restaurang Karl", "source": "Survey"}}, {"type": "node", "id": 3649168880, "lat": 56.676539, "lon": 12.9083114, "tags": {"amenity": "restaurant", "name": "Vall\u00e5s Pizzeria & Steakhouse"}}, {"type": "node", "id": 3680435147, "lat": 56.4369578, "lon": 12.8150192, "tags": {"addr:postcode": "26934", "addr:street": "Italienska v\u00e4gen", "amenity": "cafe", "cuisine": "cake;tea;coffee_shop", "name": "Solbackens Caf\u00e9 och W\u00e5ffelbrug", "name:sv": "Solbacken\u2018s W\u00e5ffelbruk", "opening_hours": "Sa-Su 13:00-17:00", "phone": "+4643170200", "website": "http://solbacken.eu"}}, {"type": "node", "id": 3756408836, "lat": 56.6595937, "lon": 12.8482243}, {"type": "node", "id": 3756408837, "lat": 56.6593232, "lon": 12.8483385}, {"type": "node", "id": 3756408838, "lat": 56.6593236, "lon": 12.848465}, {"type": "node", "id": 3756408839, "lat": 56.6596337, "lon": 12.8483508}, {"type": "node", "id": 3770172313, "lat": 56.6459409, "lon": 12.7338095}, {"type": "node", "id": 3770172314, "lat": 56.6459055, "lon": 12.7338175}, {"type": "node", "id": 3770172315, "lat": 56.6458317, "lon": 12.7338497}, {"type": "node", "id": 3770172316, "lat": 56.6457506, "lon": 12.7338993}, {"type": "node", "id": 3770172317, "lat": 56.6457558, "lon": 12.7339449}, {"type": "node", "id": 3770172318, "lat": 56.6456953, "lon": 12.7339637}, {"type": "node", "id": 3770172319, "lat": 56.6457499, "lon": 12.7343137}, {"type": "node", "id": 3770172320, "lat": 56.6458487, "lon": 12.7342601}, {"type": "node", "id": 3770172321, "lat": 56.6458339, "lon": 12.7341649}, {"type": "node", "id": 3770172322, "lat": 56.6458428, "lon": 12.7341635}, {"type": "node", "id": 3770172323, "lat": 56.6458509, "lon": 12.7341863}, {"type": "node", "id": 3770172324, "lat": 56.6458701, "lon": 12.7342078}, {"type": "node", "id": 3770172325, "lat": 56.6458914, "lon": 12.7342132}, {"type": "node", "id": 3770172326, "lat": 56.6459121, "lon": 12.7341904}, {"type": "node", "id": 3770172327, "lat": 56.6459217, "lon": 12.7341595}, {"type": "node", "id": 3770172328, "lat": 56.6459209, "lon": 12.7341179}, {"type": "node", "id": 3770172329, "lat": 56.6459585, "lon": 12.7341085}, {"type": "node", "id": 3770172330, "lat": 56.6460876, "lon": 12.7332087}, {"type": "node", "id": 3770172331, "lat": 56.646019, "lon": 12.7332248}, {"type": "node", "id": 3770172332, "lat": 56.6460153, "lon": 12.7332087}, {"type": "node", "id": 3770172333, "lat": 56.6459644, "lon": 12.7332234}, {"type": "node", "id": 3770172334, "lat": 56.645963, "lon": 12.7331953}, {"type": "node", "id": 3770172335, "lat": 56.6459327, "lon": 12.7332006}, {"type": "node", "id": 3770172336, "lat": 56.6459342, "lon": 12.7332315}, {"type": "node", "id": 3770172337, "lat": 56.6458966, "lon": 12.7332409}, {"type": "node", "id": 3770172338, "lat": 56.6458973, "lon": 12.733261}, {"type": "node", "id": 3770172339, "lat": 56.6457757, "lon": 12.7333079}, {"type": "node", "id": 3770172340, "lat": 56.6457867, "lon": 12.7334045}, {"type": "node", "id": 3770172341, "lat": 56.6458656, "lon": 12.7333803}, {"type": "node", "id": 3770172342, "lat": 56.6458723, "lon": 12.7334501}, {"type": "node", "id": 3770172343, "lat": 56.6460802, "lon": 12.7333897}, {"type": "node", "id": 3770172344, "lat": 56.646078, "lon": 12.733328}, {"type": "node", "id": 3770172345, "lat": 56.6460979, "lon": 12.7333213}, {"type": "node", "id": 4010064423, "lat": 56.6737563, "lon": 12.8629607, "tags": {"addr:city": "Halmstad", "addr:country": "SE", "addr:housenumber": "5", "addr:postcode": "302 46", "addr:street": "Fredsgatan", "amenity": "restaurant", "cuisine": "regional", "name": "Bistro Jarlen", "outdoor_seating": "yes", "website": "https://bistrojarlen.se/"}}, {"type": "node", "id": 4375756535, "lat": 56.6551203, "lon": 12.9208056}, {"type": "node", "id": 4375756536, "lat": 56.6550399, "lon": 12.9208225}, {"type": "node", "id": 4375756537, "lat": 56.6550568, "lon": 12.9211106}, {"type": "node", "id": 4375756538, "lat": 56.6551228, "lon": 12.9210983}, {"type": "node", "id": 4375756539, "lat": 56.6551203, "lon": 12.9210551}, {"type": "node", "id": 4375756540, "lat": 56.6551347, "lon": 12.921052}, {"type": "node", "id": 4375756541, "lat": 56.6551296, "lon": 12.920955}, {"type": "node", "id": 4375756542, "lat": 56.6551423, "lon": 12.9209519}, {"type": "node", "id": 4375756543, "lat": 56.6551389, "lon": 12.920898}, {"type": "node", "id": 4375756544, "lat": 56.6551262, "lon": 12.9208995}, {"type": "node", "id": 4428662155, "lat": 56.6737955, "lon": 12.8554042, "tags": {"amenity": "cafe", "name": "Kaf\u00e9 Brooktorpsg\u00e5rden"}}, {"type": "node", "id": 4470466127, "lat": 56.4619241, "lon": 12.9187713, "tags": {"amenity": "restaurant", "cuisine": "burger;pizza", "level": "0", "name": "JS Beach Club"}}, {"type": "node", "id": 4601575461, "lat": 56.6464967, "lon": 12.7278015}, {"type": "node", "id": 4601575462, "lat": 56.6463255, "lon": 12.7275926}, {"type": "node", "id": 4601575463, "lat": 56.6462846, "lon": 12.7277165}, {"type": "node", "id": 4601575464, "lat": 56.646306, "lon": 12.7277944}, {"type": "node", "id": 4601575465, "lat": 56.6464092, "lon": 12.7279112}, {"type": "node", "id": 4601575466, "lat": 56.6463839, "lon": 12.7279997}, {"type": "node", "id": 4601575467, "lat": 56.646413, "lon": 12.7280315}, {"type": "node", "id": 4853959203, "lat": 56.6542434, "lon": 12.7796885, "tags": {"addr:city": "Halmstad", "addr:postcode": "302 40", "addr:street": "Krypvidev\u00e4gen", "amenity": "restaurant", "delivery": "yes", "name": "Restaurang Ekebacken"}}, {"type": "node", "id": 4882741621, "lat": 56.8357761, "lon": 12.6000597, "tags": {"amenity": "restaurant", "cuisine": "diner", "name": "Strandstugan", "opening_hours": "24/7"}}, {"type": "node", "id": 4943885942, "lat": 56.6596045, "lon": 12.8483609, "tags": {"addr:city": "Halmstad", "addr:country": "SE", "addr:housenumber": "4", "addr:postcode": "302 90", "addr:street": "Sm\u00e5b\u00e5tsgatan", "amenity": "cafe", "name": "S\u00f6derpiren", "opening_hours": "Mo-Su 10:00-17:30", "source": "DigitalGlobe Standard Imagery"}}, {"type": "node", "id": 5218697701, "lat": 56.7219044, "lon": 12.668188}, {"type": "node", "id": 5218697702, "lat": 56.7220263, "lon": 12.6686536}, {"type": "node", "id": 5218697703, "lat": 56.7218801, "lon": 12.6687808}, {"type": "node", "id": 5218697704, "lat": 56.7217582, "lon": 12.6683151}, {"type": "node", "id": 5406065080, "lat": 56.6765998, "lon": 12.8600792, "tags": {"addr:country": "SE", "addr:housenumber": "47", "addr:street": "Hamngatan", "amenity": "restaurant", "name": "Vinyl Halmstad", "source": "survey"}}, {"type": "node", "id": 5520997553, "lat": 56.6754171, "lon": 12.8609481, "tags": {"amenity": "cafe", "name": "Ollialli"}}, {"type": "node", "id": 5682938589, "lat": 56.7415251, "lon": 12.6578649}, {"type": "node", "id": 5682938590, "lat": 56.7416232, "lon": 12.6580322}, {"type": "node", "id": 5682938591, "lat": 56.74168, "lon": 12.6579216}, {"type": "node", "id": 5682938592, "lat": 56.7415819, "lon": 12.6577543}, {"type": "node", "id": 6038733658, "lat": 56.8568418, "lon": 12.6855625, "tags": {"amenity": "cafe", "contact:website": "http://www.appelgardencafe.se", "name": "\u00c4ppelg\u00e5rden Caf\u00e9"}}, {"type": "node", "id": 6050668274, "lat": 56.6772229, "lon": 12.8032045, "tags": {"amenity": "cafe", "name": "Gomidda Sports & Steakhouse"}}, {"type": "node", "id": 6236229233, "lat": 56.669442, "lon": 12.8643326, "tags": {"amenity": "cafe", "name": "Caf\u00e9 Dressinen", "opening_hours": "Mo-Fr 11:00-20:00; Sa-Su 11:00-19:00"}}, {"type": "node", "id": 6239545601, "lat": 56.6646011, "lon": 12.8566216, "tags": {"amenity": "restaurant", "cuisine": "pizza;regional", "email": "info@mattillsammans.se", "level": "0", "name": "S\u00f6derfamiljen", "outdoor_seating": "yes", "website": "http://www.s\u00f6derfamiljen.se"}}, {"type": "node", "id": 6240214814, "lat": 56.6734322, "lon": 12.8574078}, {"type": "node", "id": 6742104720, "lat": 56.6780585, "lon": 12.8806378, "tags": {"addr:city": "Halmstad", "addr:country": "SE", "addr:housenumber": "1", "addr:postcode": "302 44", "addr:street": "Kristinehedsv\u00e4gen", "amenity": "restaurant", "contact:phone": "+46 35 10 68 06", "cuisine": "regional", "name": "Chalenius & Fredins", "takeaway": "yes"}}, {"type": "node", "id": 6832750686, "lat": 56.6564094, "lon": 12.9086716, "tags": {"amenity": "restaurant", "brand": "Pizza Hut", "brand:wikidata": "Q191615", "brand:wikipedia": "en:Pizza Hut", "cuisine": "pizza", "internet_access": "wlan", "name": "Pizza Hut", "website": "https://www.pizzahut.se/"}}, {"type": "node", "id": 7096310085, "lat": 56.675772, "lon": 12.8571337, "tags": {"amenity": "restaurant", "cuisine": "burger;steak_house", "name": "Mr Vinc'k"}}, {"type": "node", "id": 7323893066, "lat": 56.8240474, "lon": 12.6984769}, {"type": "node", "id": 7323893067, "lat": 56.8240666, "lon": 12.6981871}, {"type": "node", "id": 7323893068, "lat": 56.824104, "lon": 12.6980204}, {"type": "node", "id": 7323893069, "lat": 56.8242343, "lon": 12.6980492}, {"type": "node", "id": 7323893070, "lat": 56.8241071, "lon": 12.6979733}, {"type": "node", "id": 7323893071, "lat": 56.8239997, "lon": 12.6979495}, {"type": "node", "id": 7323893072, "lat": 56.8242229, "lon": 12.6982217}, {"type": "node", "id": 7323893073, "lat": 56.8239539, "lon": 12.698641}, {"type": "node", "id": 7323893074, "lat": 56.8243555, "lon": 12.6987298}, {"type": "node", "id": 7323893075, "lat": 56.8243676, "lon": 12.6985477}, {"type": "node", "id": 7703611327, "lat": 56.4349579, "lon": 12.8401454, "tags": {"amenity": "nightclub", "name": "Peppes Bodega"}}, {"type": "node", "id": 7703619126, "lat": 56.4347233, "lon": 12.8402775, "tags": {"addr:city": "B\u00e5stad", "addr:postcode": "269 33", "addr:street": "Hamngatan", "amenity": "restaurant", "cuisine": "italian;pizza;pasta;salad", "name": "Mamas Italian", "phone": "+4643178988", "website": "https://www.gramgroup.se/mat-och-dryck/mamas/"}}, {"type": "node", "id": 7707394065, "lat": 56.4347933, "lon": 12.8391627, "tags": {"amenity": "restaurant", "name": "Sand"}}, {"type": "node", "id": 7818087378, "lat": 56.7218201, "lon": 12.6682613}, {"type": "node", "id": 7818087379, "lat": 56.7218471, "lon": 12.6686547}, {"type": "node", "id": 8753514017, "lat": 56.6749344, "lon": 12.859375, "tags": {"addr:city": "Halmstad", "addr:country": "SE", "addr:housenumber": "27", "addr:postcode": "302 43", "addr:street": "Hamngatan", "amenity": "restaurant", "bar": "yes", "contact:phone": "+46 762-55 91 31", "contact:website": "https://lionbar.se/halmstad/", "name": "Lion Bar", "opening_hours": "Su-Th 15:00-25:00, Fr-Sa 15:00-26:00", "outdoor_seating": "yes"}}, {"type": "node", "id": 9150945272, "lat": 56.6763327, "lon": 12.8596107}, {"type": "node", "id": 9230592194, "lat": 56.6595264, "lon": 12.8484333}, {"type": "node", "id": 9230592195, "lat": 56.6595051, "lon": 12.8483723}, {"type": "node", "id": 9230592196, "lat": 56.6594998, "lon": 12.8482955}, {"type": "node", "id": 9230592197, "lat": 56.659491, "lon": 12.8482532}, {"type": "node", "id": 9230592198, "lat": 56.659448, "lon": 12.8482935}, {"type": "node", "id": 9230592199, "lat": 56.6593611, "lon": 12.8483031}, {"type": "node", "id": 9230592200, "lat": 56.6593878, "lon": 12.8484322}, {"type": "node", "id": 9230592201, "lat": 56.6593803, "lon": 12.8484567}, {"type": "node", "id": 9230592202, "lat": 56.6594502, "lon": 12.8484212}, {"type": "node", "id": 9230592203, "lat": 56.6599039, "lon": 12.8480377}, {"type": "node", "id": 9230592204, "lat": 56.6598481, "lon": 12.8481041}, {"type": "node", "id": 9230592205, "lat": 56.6598831, "lon": 12.8482044}, {"type": "node", "id": 9230592206, "lat": 56.6599397, "lon": 12.848138}, {"type": "node", "id": 9835882872, "lat": 56.6011373, "lon": 12.9188761, "tags": {"addr:country": "SE", "addr:housenumber": "12", "addr:street": "Norra S\u00e4nkev\u00e4gen", "amenity": "cafe", "description": "Small privately-owned caf\u00e9 with nice outside area", "name": "Tr\u00e4dg\u00e5rdscaf\u00e9 Pedalen", "opening_hours": "Tu-Su 09:00-16:00", "phone": "+46 73 369 15 51"}}, {"type": "node", "id": 9853202966, "lat": 56.6939161, "lon": 12.8709054, "tags": {"addr:city": "Halmstad", "addr:country": "SE", "addr:housenumber": "35", "addr:street": "Sperlingsholmsv\u00e4gen", "amenity": "restaurant", "capacity": "46", "contact:facebook": "https://facebook.com/ElviraHalmstad/", "cuisine": "pizza", "diet:vegan": "yes", "diet:vegetarian": "yes", "disused:amenity": "restaurant", "email": "info.elvirarestaurang@gmail.com", "highchair": "yes", "name": "Elvira", "outdoor_seating": "yes", "phone": "+46 35-500 38", "takeaway": "yes", "website": "https://qopla.com/restaurant/elvira-restaurang-&-pizzeria/qmQYLVxL1r/home"}}, {"type": "node", "id": 9863833175, "lat": 56.6731779, "lon": 12.8580348, "tags": {"addr:country": "SE", "addr:housenumber": "4", "addr:street": "Storgatan", "air_conditioning": "yes", "amenity": "restaurant", "diet:vegan": "yes", "diet:vegetarian": "yes", "name": "Shison sushi", "opening_hours": "Mo-Fr 11:00-21:00; Sa 12:00-21:00; Su 12:00-20:00", "payment:credit_cards": "yes", "payment:debit_cards": "yes", "phone": "+46 35 21 18 11", "website": "https://www.shisonsushi.se", "wheelchair": "yes"}}, {"type": "node", "id": 9887363827, "lat": 56.6747484, "lon": 12.8522102, "tags": {"addr:city": "Halmstad", "addr:country": "SE", "addr:housenumber": "38B", "addr:postcode": "30295", "addr:street": "Brogatan", "amenity": "restaurant", "capacity": "40", "cuisine": "sushi", "diet:vegan": "yes", "diet:vegetarian": "yes", "email": "hej@kinnohashi.se", "name": "Kin No Hashi", "outdoor_seating": "no", "phone": "+46 35 12 47 29", "website": "https://www.kinnohashi.se"}}, {"type": "node", "id": 9897541193, "lat": 56.6442246, "lon": 12.7437062, "tags": {"amenity": "cafe", "cuisine": "ice_cream", "name": "Strandskatan"}}, {"type": "node", "id": 9898099707, "lat": 56.674795, "lon": 12.8531164, "tags": {"amenity": "restaurant", "cuisine": "pizza", "name": "Ida\u2019s Restaurang Och Pizzeria"}}, {"type": "node", "id": 9899479310, "lat": 56.6746083, "lon": 12.8526412, "tags": {"amenity": "restaurant", "name": "Femman Thai", "website": "https://www.femmanthai.se"}}, {"type": "node", "id": 9899479311, "lat": 56.6747813, "lon": 12.8528829, "tags": {"amenity": "restaurant", "name": "Burger Mob"}}, {"type": "node", "id": 9899479312, "lat": 56.6747741, "lon": 12.8524868, "tags": {"amenity": "restaurant", "name": "Fiket K\u00f6k Och Bar"}}, {"type": "node", "id": 9900438611, "lat": 56.6753823, "lon": 12.8533675, "tags": {"addr:city": "Halmstad", "addr:country": "SE", "addr:housenumber": "49", "addr:postcode": "30236", "addr:street": "Karl XI:s v\u00e4g", "amenity": "nightclub", "email": "info@boomboomroom.se", "name": "Boom Boom Boom", "phone": "+46 35120331", "website": "https://boomboomroom.se"}}, {"type": "node", "id": 9921891065, "lat": 56.4322749, "lon": 12.8367332, "tags": {"amenity": "cafe", "email": "kafebokis@gmail.com", "mobile": "+46 70 7790746", "name": "Kaf\u00e9 Bokhandlareg\u00e5rden", "website": "https://kafebokhandlaregarden.se/"}}, {"type": "node", "id": 9929936824, "lat": 56.6683041, "lon": 12.8443494, "tags": {"addr:city": "Halmstad", "addr:country": "SE", "addr:housenumber": "5", "addr:postcode": "302 38", "addr:street": "Slottsjordsv\u00e4gen", "amenity": "restaurant", "cuisine": "regional", "name": "V\u00e4sterg\u00f6k", "opening_hours": "Mo-Fr 11:00-13:30", "website": "https://www.vastergok.se"}}, {"type": "node", "id": 9933688864, "lat": 56.674753, "lon": 12.857515, "tags": {"amenity": "cafe", "name": "Feldts Socker och cykel"}}, {"type": "node", "id": 9970842549, "lat": 56.6460153, "lon": 12.7282876, "tags": {"amenity": "restaurant", "name": "Flamingo"}}, {"type": "node", "id": 9972884017, "lat": 56.6507535, "lon": 12.8950712, "tags": {"amenity": "restaurant", "name": "B\u00e4ckakrogen"}}, {"type": "node", "id": 9992516985, "lat": 56.6607194, "lon": 12.8790071, "tags": {"addr:city": "Halmstad", "addr:country": "SE", "addr:housenumber": "60", "addr:postcode": "302 50", "addr:street": "Pilefeltsgatan", "amenity": "restaurant", "name": "Kryddan lunchrestaurang", "opening_hours": "Mo-Fr 11:00-14:00", "website": "https://kryddanhalmstad.se/"}}, {"type": "node", "id": 10124923217, "lat": 56.6773845, "lon": 12.8589058, "tags": {"addr:country": "SE", "addr:housenumber": "2", "addr:postcode": "302 43", "addr:street": "Tyghusgatan", "amenity": "cafe", "cuisine": "breakfast", "diet:vegan": "yes", "diet:vegetarian": "yes", "name": "Cortado Coffee Shop", "opening_hours": "Mo-Fr 08:00-18:00; Sa-Su 09:00-17:00", "website": "https://www.cortadocoffee.se", "wheelchair": "yes"}}, {"type": "node", "id": 10124957717, "lat": 56.6773635, "lon": 12.858691, "tags": {"addr:country": "SE", "addr:housenumber": "2", "addr:street": "Tyghusgatan", "amenity": "restaurant", "cuisine": "french", "email": "halmstad@cyrano.se", "name": "Cyrano", "opening_hours": "Tu-Th 11:00-22:00; Fr 11:00-23:00; Sa 12:00-23:00", "phone": "+4635 168000", "website": "https://cyrano.se/Restaurant/Detail?Url=cyrano-halmstad"}}, {"type": "node", "id": 10141248455, "lat": 56.6768579, "lon": 12.8589551, "tags": {"addr:city": "Halmstad", "addr:country": "SE", "addr:housenumber": "43", "addr:postcode": "302 43", "addr:street": "Storgatan", "amenity": "restaurant", "bar": "yes", "cuisine": "italian", "name": "il grillo", "opening_hours": "Tu-Th 17:00-23:00; Fr-Sat 17:00-01:00", "outdoor_seating": "yes", "phone": "+46 763014343", "website": "https://ilgrillo.se/"}}, {"type": "node", "id": 10141266379, "lat": 56.6770082, "lon": 12.8590061, "tags": {"addr:city": "Halmstad", "addr:country": "SE", "addr:housenumber": "45", "addr:postcode": "302 43", "addr:street": "Storgatan", "amenity": "restaurant", "cuisine": "regional", "email": "lunch@live.se", "name": "Restaurang Norre Port", "opening_hours": "Mo-Th 11:00-21:00; Fr,Sa 11:00-22:00; Su 12:00-21:00", "phone": "+46 35108030", "website": "https://restaurangnorreport.se/"}}, {"type": "node", "id": 10542862205, "lat": 56.6913199, "lon": 12.8815704, "tags": {"amenity": "restaurant", "cuisine": "pizza", "name": "Pizzeria P\u00e4rlan", "phone": "+4635108500"}}, {"type": "node", "id": 10554120334, "lat": 56.6982866, "lon": 12.8670762, "tags": {"addr:city": "Halmstad", "addr:country": "SE", "addr:housenumber": "4", "addr:street": "Nissastigen", "amenity": "restaurant", "contact:facebook": "https://www.facebook.com/kaerlekenspizzeria/", "cuisine": "pizza", "delivery": "yes", "diet:vegetarian": "yes", "name": "K\u00e4rlekens Pizzeria", "opening_hours": "Mo-Fr 15:00-22:00; Sa,Su 12:00-22:00", "phone": "+46 35 15 80 30", "takeaway": "yes", "website": "https://karlekenspizzeria.se"}}, {"type": "node", "id": 10554120336, "lat": 56.6980974, "lon": 12.8667666, "tags": {"addr:city": "Halmstad", "addr:country": "SE", "addr:housenumber": "60", "addr:postcode": "302 30", "addr:street": "G\u00f6teborgsv\u00e4gen", "amenity": "restaurant", "cuisine": "pizza", "diet:vegetarian": "yes", "email": "manzoortariq73@gmail.com", "name": "Grill 35", "phone": "+46 35 492 95", "website": "https://grill35.se/"}}, {"type": "node", "id": 10926173057, "lat": 56.4472784, "lon": 12.7970709, "tags": {"alcohol": "yes", "amenity": "cafe", "contact:email": "jm@ravinenkultur.se", "cuisine": "soup;local;pasta", "name": "RAVINENs Caf\u00e9 & Bistro", "opening_hours": "We-Su 11:00-17:00, Th 11:00-20:00", "outdoor_seating": "yes", "payment:cash": "no", "payment:mastercard": "yes", "payment:swish": "yes", "payment:visa": "yes", "website": "https://www.ravinenkultur.se/cafe-och-bistro/"}}, {"type": "node", "id": 11014514483, "lat": 56.6408936, "lon": 12.7778395, "tags": {"amenity": "restaurant", "bar": "yes", "name": "Livbojen"}}, {"type": "node", "id": 11061383692, "lat": 56.6747565, "lon": 12.8577395, "tags": {"amenity": "restaurant", "cuisine": "indian", "level": "0", "name": "Best of India", "opening_hours": "Mo-Th 11:00-21:00; Fr 11:00-22:00; Sa 12:00-22:00; Su 12:00-21:00", "outdoor_seating": "yes", "wheelchair": "yes"}}, {"type": "node", "id": 11459847540, "lat": 56.6709643, "lon": 12.9129971, "tags": {"addr:city": "Halmstad", "addr:housenumber": "18", "addr:postcode": "302 56", "addr:street": "Litorinav\u00e4gen", "amenity": "cafe", "cuisine": "coffee_shop;regional", "name": "Inez & Greta", "phone": "070-104 40 09", "website": "https://inez-greta.se/"}}, {"type": "node", "id": 11459902621, "lat": 56.6709083, "lon": 12.9120127, "tags": {"addr:city": "Halmstad", "addr:housenumber": "4", "addr:postcode": "302 56", "addr:street": "Byv\u00e4gen", "amenity": "restaurant", "cuisine": "pizza", "name": "Sn\u00f6storps Pizzeria", "phone": "035 - 10 10 23", "website": "https://snostorpspizzeria.se/"}}, {"type": "way", "id": 92226503, "nodes": [1070698982, 1070699350, 1070699307, 1070699181, 9150945272, 1070699068, 1070699078, 1070698982], "tags": {"addr:city": "Halmstad", "addr:country": "SE", "addr:housenumber": "44", "addr:postcode": "302 43", "addr:street": "Storgatan", "amenity": "restaurant", "building": "yes", "cuisine": "sushi", "name": "Sushi Yama", "opening_hours": "Mo-Th 11:00-20:00; Fr-Sa 11:00-21:00; Su 12:00-20:00", "phone": "+46 35 33131", "website": "https://www.sushiyama.se"}}, {"type": "way", "id": 92402068, "nodes": [1072629705, 1072629665, 1072629652, 6240214814, 1072629600, 1072629570, 1072629721, 1072629761, 1072629615, 1072629705], "tags": {"addr:city": "Halmstad", "addr:country": "SE", "addr:housenumber": "7", "addr:postcode": "302 27", "addr:street": "Kyrkogatan", "amenity": "restaurant", "building": "yes", "cuisine": "italian", "email": "info@trecuori.se", "name": "Tre Cuori", "opening_hours": "Mo-Th 17:00-22:00; Fr 17:00-23:00; Sa 13:00-23:00", "phone": "+46 35 40000", "website": "https://trecuori.se"}}, {"type": "way", "id": 145171567, "nodes": [1586016877, 1586016890, 1586016869, 1586016854, 1586016877], "tags": {"amenity": "bar", "building": "yes", "name": "Zigges beach club"}}, {"type": "way", "id": 295474969, "nodes": [2992086757, 2992086764, 2992086766, 2992086768, 2992086769, 2992086771, 2992086765, 2992086763, 2992086761, 2992086759, 2992086756, 2992086753, 2992086757], "tags": {"amenity": "restaurant", "building": "yes", "cuisine": "chinese", "name": "China Grand", "website": "http://chinagrand.se"}}, {"type": "way", "id": 372106467, "nodes": [3756408836, 9230592196, 9230592197, 9230592198, 9230592199, 3756408837, 3756408838, 9230592201, 9230592200, 9230592202, 9230592195, 9230592194, 3756408839, 3756408836], "tags": {"addr:city": "Halmstad", "addr:country": "SE", "addr:housenumber": "4", "addr:postcode": "302 90", "addr:street": "Sm\u00e5b\u00e5tsgatan", "amenity": "cafe", "building": "yes", "building:levels": "1", "name": "S\u00f6derpiren", "outdoor_seating": "yes", "phone": "+46 76 342 91 44", "source": "Bing;aerial imagery;local knowledge", "website": "https://soderpiren.se/"}}, {"type": "way", "id": 373577546, "nodes": [3770172313, 3770172314, 3770172315, 3770172316, 3770172317, 3770172318, 3770172319, 3770172320, 3770172321, 3770172322, 3770172323, 3770172324, 3770172325, 3770172326, 3770172327, 3770172328, 3770172329, 3770172313], "tags": {"amenity": "restaurant", "building": "yes", "name": "Punch Restaurang & Bar", "source": "Bing"}}, {"type": "way", "id": 373577547, "nodes": [3770172330, 3770172331, 3770172332, 3770172333, 3770172334, 3770172335, 3770172336, 3770172337, 3770172338, 3770172339, 3770172340, 3770172341, 3770172342, 3770172343, 3770172344, 3770172345, 3770172330], "tags": {"amenity": "restaurant", "building": "yes", "name": "Restaurang Carlos", "source": "Bing"}}, {"type": "way", "id": 439898065, "nodes": [4375756535, 4375756536, 4375756537, 4375756538, 4375756539, 4375756540, 4375756541, 4375756542, 4375756543, 4375756544, 4375756535], "tags": {"addr:city": "Halmstad", "addr:country": "SE", "addr:housenumber": "446", "addr:postcode": "305 94", "addr:street": "Olofstorp", "amenity": "cafe", "building": "yes", "building:levels": "2", "cuisine": "coffee_shop", "description": "Dogs are welcome", "internet_access": "no", "name": "Gula huset", "smoking": "outside"}}, {"type": "way", "id": 465160661, "nodes": [4601575461, 4601575462, 4601575463, 4601575464, 4601575465, 4601575466, 4601575467, 4601575461], "tags": {"amenity": "restaurant", "building": "yes", "name": "Salt"}}, {"type": "way", "id": 539295907, "nodes": [5218697701, 5218697702, 5218697703, 7818087379, 5218697704, 7818087378, 5218697701], "tags": {"addr:city": "Haverdal", "addr:country": "SE", "addr:housenumber": "6", "addr:postcode": "310 42", "addr:street": "T\u00e5ngv\u00e4gen", "amenity": "cafe", "building": "retail", "cuisine": "ice_cream;candy", "name": "Margits Kiosk", "opening_hours": "Jun-Aug Mo-Su 08:00-21:00"}}, {"type": "way", "id": 596619932, "nodes": [5682938592, 5682938591, 5682938590, 5682938589, 5682938592], "tags": {"amenity": "cafe", "building": "yes", "name": "S\u00e4rdals Kvarns caf\u00e9"}}, {"type": "way", "id": 784068043, "nodes": [7323893069, 7323893068, 7323893070, 7323893071, 7323893073, 7323893074, 7323893075, 7323893066, 7323893067, 7323893072, 7323893069], "tags": {"amenity": "cafe", "building": "yes", "name": "Stora Berg Sj\u00e4lvplock"}}, {"type": "way", "id": 999972853, "nodes": [9230592203, 9230592204, 9230592205, 9230592206, 9230592203], "tags": {"addr:city": "Halmstad", "addr:country": "SE", "addr:housenumber": "4", "addr:postcode": "302 90", "addr:street": "Sm\u00e5b\u00e5tsgatan", "amenity": "restaurant", "building": "yes", "name": "Lillebror", "website": "https://soderpiren.se/"}}]}