{"version": 0.6, "generator": "Overpass API 0.7.61.5 4133829e", "osm3s": {"timestamp_osm_base": "2024-03-14T22:06:11Z", "copyright": "The data included in this document is from www.openstreetmap.org. The data is made available under ODbL."}, "elements": [{"type": "node", "id": 455998823, "lat": 59.5351135, "lon": 18.0789217, "tags": {"addr:city": "Vallentuna", "addr:country": "SE", "addr:housenumber": "20", "addr:postcode": "186 31", "addr:street": "Torggatan", "amenity": "pharmacy", "app:apk": "se.apoteket.recept", "app:apple": "https://itunes.apple.com/se/app/mitt-apotek/id1053398061", "branch": "Apoteket Runan", "brand": "Apoteket", "fixme": "Owner, brand tags need reviewing - name has changed", "name": "Apotek Hj\u00e4rtat", "opening_hours": "Mo-Fr 08:30-19:00; Sa 10:00-15:00; Su 10:00-15:00", "operator": "Apoteket AB (556138-6532)", "owner": "Svenska Staten", "ownership": "national", "phone": "+46771450450", "website": "www.apotekjartat.se", "website:stock": "https://www.fass.se/", "wheelchair": "yes"}}, {"type": "node", "id": 455998826, "lat": 59.5356713, "lon": 18.0827417, "tags": {"amenity": "hospital", "name": "Korallen"}}, {"type": "node", "id": 2022938424, "lat": 59.5604052, "lon": 18.2209541}, {"type": "node", "id": 2022938548, "lat": 59.5605058, "lon": 18.2208924}, {"type": "node", "id": 2022938851, "lat": 59.5605248, "lon": 18.2210129}, {"type": "node", "id": 2022938953, "lat": 59.5604242, "lon": 18.2210746}, {"type": "node", "id": 2440102501, "lat": 59.5338813, "lon": 18.0845531, "tags": {"addr:city": "Vallentuna", "addr:country": "SE", "addr:housenumber": "25 B", "addr:street": "Tellusv\u00e4gen", "alt_name": "Jerker Kihlstr\u00f6m", "amenity": "veterinary", "name": "Veterin\u00e4ren i Vallentuna", "source": "advert", "website": "https://veterinarenivallentuna.se/"}}, {"type": "node", "id": 2689236628, "lat": 59.7414257, "lon": 18.3704119}, {"type": "node", "id": 2689236629, "lat": 59.7414381, "lon": 18.3710684}, {"type": "node", "id": 2689236630, "lat": 59.7411342, "lon": 18.3710848}, {"type": "node", "id": 2689236631, "lat": 59.7411259, "lon": 18.3708181}, {"type": "node", "id": 2689236632, "lat": 59.7412686, "lon": 18.3708038}, {"type": "node", "id": 2689236633, "lat": 59.7412613, "lon": 18.3704263}, {"type": "node", "id": 3219049844, "lat": 59.5356672, "lon": 18.0654727, "tags": {"addr:country": "SE", "addr:housenumber": "132", "amenity": "dentist", "source": "survey"}}, {"type": "node", "id": 3536413220, "lat": 59.5355235, "lon": 18.0780568, "tags": {"addr:city": "Vallentuna", "addr:country": "SE", "addr:floor": "2", "addr:housenumber": "10", "addr:postcode": "186 31", "addr:street": "Centrumpassagen", "amenity": "clinic", "healthcare:speciality": "general", "level": "2", "name": "Kry V\u00e5rdcentral Vallentuna", "old_name": "ASOMEDA Vallentuna V\u00e5rdcentral;B&B Husl\u00e4karmottagning", "opening_hours": "Mo-Fr 08:00-17:00", "phone": "08-518 305 00", "source": "survey", "website": "https://www.kry.se/"}}, {"type": "node", "id": 4171743179, "lat": 59.7439218, "lon": 18.3671658, "tags": {"amenity": "dentist", "name": "Zenio Dental", "source": "survey"}}, {"type": "node", "id": 4171764396, "lat": 59.7438568, "lon": 18.3662056, "tags": {"amenity": "pharmacy", "app:apk": "se.apoteket.recept", "app:apple": "https://itunes.apple.com/se/app/mitt-apotek/id1053398061", "brand": "Apoteket", "fixme": "branch - vad heter detta apotek mera \u00e4n apoteket?", "name": "Apoteket", "opening_hours": "Mo-Fr 09:00-18:00; Sa 09:30-14:00", "operator": "Apoteket AB (556138-6532)", "owner": "Svenska Staten", "ownership": "national", "phone": "+46771450450", "source": "survey", "website:stock": "https://www.fass.se/"}}, {"type": "node", "id": 5890524842, "lat": 59.742689, "lon": 18.361278, "tags": {"addr:city": "Rimbo", "addr:country": "SE", "addr:housenumber": "18", "addr:postcode": "76241", "addr:street": "Rimbo Skolv\u00e4g", "amenity": "dentist", "check_date": "2023-09-11", "email": "rimbo@distriktstandvarden.se", "healthcare": "dentist", "healthcare:speciality": "dentist;dental;dentistry;emergency_dental_care;pediatric_dentist;dental_bridges;tooth_bonding;dental_extraction;dental_surgery;dental_crowns;dental_fillings;root_canals;tooth_whitening;dental_implants;dental_splints;tartar_removal;dental_examination", "name": "Distriktstandv\u00e5rden Rimbo", "opening_hours": "Mo-Fr 07:30-17:00", "operator": "Distriktstandv\u00e5rden", "phone": "+468222222", "website": "https://distriktstandvarden.se/", "wheelchair": "yes"}}, {"type": "node", "id": 5971606231, "lat": 59.5340591, "lon": 18.078037, "tags": {"addr:city": "Vallentuna", "addr:country": "SE", "addr:housenumber": "3", "addr:postcode": "186 31", "addr:street": "Nys\u00e4ters gata", "alt_name": "CM Tandklinik", "amenity": "dentist", "healthcare": "dentist", "name": "Christina Malmgren", "source": "survey", "website": "https://www.cmtandklinik.se"}}, {"type": "node", "id": 8537260354, "lat": 59.743872, "lon": 18.367221, "tags": {"addr:city": "Rimbo", "addr:country": "SE", "addr:housenumber": "1A", "addr:postcode": "76231", "addr:street": "K\u00f6pmannagatan", "addr:unit": "A", "amenity": "dentist", "check_date": "2023-09-11", "email": "rimbocentrum@distriktstandvarden.se", "healthcare": "dentist", "healthcare:speciality": "dentist;dental;dentistry;emergency_dental_care;pediatric_dentist;dental_bridges;tooth_bonding;dental_extraction;dental_surgery;dental_crowns;dental_fillings;root_canals;tooth_whitening;dental_implants;dental_splints;tartar_removal;dental_examination", "name": "Distriktstandv\u00e5rden Rimbo Centrum", "opening_hours": "Mo-Th 07:30-17:00; Fr 08:30-16:00", "operator": "Distriktstandv\u00e5rden", "phone": "+468222222", "website": "https://distriktstandvarden.se/", "wheelchair": "yes"}}, {"type": "node", "id": 9061698067, "lat": 59.534231, "lon": 18.0790582, "tags": {"addr:city": "Vallentuna", "addr:country": "SE", "addr:housename": "Torghuset", "addr:housenumber": "8", "addr:postcode": "186 31", "addr:street": "Tuna Torg", "amenity": "pharmacy", "brand": "Kronans Apotek", "check_date": "2023-11-26", "name": "Kronans Apotek Vallentuna", "opening_hours": "Mo-Fr 08:00-18:00; Sa-Su 10:00-15:00", "wheelchair": "yes"}}, {"type": "node", "id": 9061807078, "lat": 59.5339726, "lon": 18.0788195, "tags": {"addr:city": "Vallentuna", "addr:country": "SE", "addr:housename": "Tunahuset", "addr:housenumber": "4", "addr:postcode": "186 31", "addr:street": "Tuna torg", "amenity": "dentist", "brand": "Folktandv\u00e5rden", "healthcare": "dentist", "name": "Folktandv\u00e5rden", "opening_hours": "Mo,Tu 07:00-19:00; We,Th 07:00-17:00; Fr 07:00-17:00", "website": "https://www.folktandvardenstockholm.se"}}, {"type": "node", "id": 9061902191, "lat": 59.5325799, "lon": 18.0771002, "tags": {"addr:city": "Vallentuna", "addr:postcode": "186 31", "addr:street": "Centralv\u00e4gen", "amenity": "dentist", "healthcare": "dentist", "name": "Din Tandl\u00e4kare Vallentuna", "source": "survey", "wheelchair": "yes"}}, {"type": "node", "id": 10902156805, "lat": 59.53441, "lon": 18.0771, "tags": {"addr:city": "Vallentuna", "addr:country": "SE", "addr:housenumber": "6", "addr:postcode": "18639", "addr:street": "All\u00e9v\u00e4gen", "amenity": "dentist", "check_date": "2023-09-13", "email": "vallentuna@distriktstandvarden.se", "healthcare": "dentist", "healthcare:speciality": "dentist;dental;dentistry;emergency_dental_care;pediatric_dentist;dental_bridges;tooth_bonding;dental_extraction;dental_surgery;dental_crowns;dental_fillings;root_canals;tooth_whitening;dental_implants;dental_splints;tartar_removal;dental_examination", "name": "Distriktstandv\u00e5rden Vallentuna", "opening_hours": "Mo-Tu 07:00-19:00; We 07:45-17:00; Th 08:00-17:00; Fr 07:00-17:00", "operator": "Distriktstandv\u00e5rden", "phone": "+468222222", "website": "https://distriktstandvarden.se/", "wheelchair": "yes"}}, {"type": "way", "id": 191708727, "nodes": [2022938548, 2022938851, 2022938953, 2022938424, 2022938548], "tags": {"addr:city": "Brottby", "addr:country": "SE", "addr:housenumber": "1B", "addr:postcode": "18670", "addr:street": "Vadav\u00e4gen", "amenity": "dentist", "building": "yes", "healthcare": "dentist", "name": "Brottby Tandklinik", "source": "Bing"}}, {"type": "way", "id": 263299632, "nodes": [2689236628, 2689236629, 2689236630, 2689236631, 2689236632, 2689236633, 2689236628], "tags": {"addr:country": "SE", "addr:housenumber": "11", "addr:street": "V\u00e4stra Stockholmsv\u00e4gen", "amenity": "clinic", "building": "hospital", "building:levels": "3", "healthcare": "clinic"}}]}