{"version": 0.6, "generator": "Overpass API 0.7.61.5 4133829e", "osm3s": {"timestamp_osm_base": "2024-03-14T21:59:00Z", "copyright": "The data included in this document is from www.openstreetmap.org. The data is made available under ODbL."}, "elements": [{"type": "node", "id": 289593260, "lat": 58.6197026, "lon": 13.4032567, "tags": {"addr:city": "H\u00e4llekis", "addr:postcode": "533 94", "addr:street": "Utsiktsplatsen Kinnekulle", "amenity": "cafe", "cuisine": "coffee_shop", "name": "Utsiktens kaffestuga", "website": "https://www.utsiktenskaffestuga.se"}}, {"type": "node", "id": 289696316, "lat": 58.5293215, "lon": 13.4932536, "tags": {"amenity": "restaurant", "cuisine": "pizza", "name": "Viktoria II"}}, {"type": "node", "id": 365895411, "lat": 58.5108414, "lon": 13.138406, "tags": {"addr:city": "Lidk\u00f6ping", "addr:country": "SE", "addr:housenumber": "7", "addr:postcode": "531 54", "addr:street": "F\u00f6rstadsv\u00e4gen", "amenity": "restaurant", "cuisine": "pizza;kebab", "name": "Dr\u00f6mstans pizzeria", "wheelchair": "limited"}}, {"type": "node", "id": 420819885, "lat": 58.5048284, "lon": 13.165183, "tags": {"amenity": "cafe", "name": "Brukets bistro & caf\u00e9"}}, {"type": "node", "id": 421982956, "lat": 58.5067675, "lon": 13.1456413, "tags": {"amenity": "restaurant", "name": "Fiorentina Pizzeria", "opening_hours": "Mo-Fr 11:00-21:00; Sa,Su; 12:00-21:00"}}, {"type": "node", "id": 433858601, "lat": 58.6181666, "lon": 13.3874601}, {"type": "node", "id": 448281172, "lat": 58.503283, "lon": 13.1612755, "tags": {"amenity": "restaurant", "name": "Harrys"}}, {"type": "node", "id": 475578434, "lat": 58.5142365, "lon": 13.1401635, "tags": {"amenity": "restaurant", "name": "Sj\u00f6kanten", "opening_hours": "Mo-Su 12:00-00:00"}}, {"type": "node", "id": 475793029, "lat": 58.5310213, "lon": 13.1291701, "tags": {"amenity": "cafe", "name": "Skogshyddan"}}, {"type": "node", "id": 475793065, "lat": 58.5227701, "lon": 13.1278443, "tags": {"amenity": "restaurant", "cuisine": "pizza;kebab", "name": "Tofta pizzeria"}}, {"type": "node", "id": 538899876, "lat": 58.5052964, "lon": 13.1405559, "tags": {"amenity": "restaurant", "cuisine": "pizza;kebab", "name": "Pizzeria Lidk\u00f6ping", "opening_hours": "Mo-Sa 11:00-22:00; Su 12:00-22:00"}}, {"type": "node", "id": 543347965, "lat": 58.5087357, "lon": 13.1460977, "tags": {"amenity": "restaurant", "name": "Loftet", "opening_hours": "Mo-Sa 11:30-14:30"}}, {"type": "node", "id": 552975042, "lat": 58.5047958, "lon": 13.1563087, "tags": {"addr:city": "Lidk\u00f6ping", "addr:country": "SE", "addr:housenumber": "3", "addr:postcode": "531 30", "addr:street": "K\u00e4llaregatan", "amenity": "restaurant", "cuisine": "Thai;China", "last_checked": "2009-11-03", "name": "Wok house"}}, {"type": "node", "id": 552976677, "lat": 58.5052622, "lon": 13.1551671, "tags": {"addr:city": "Lidk\u00f6ping", "addr:country": "SE", "addr:housenumber": "12", "addr:postcode": "531 30", "addr:street": "K\u00e4llaregatan", "amenity": "restaurant", "cuisine": "thai", "last_checked": "2009-11-03", "name": "Lai-Thai Restaurang"}}, {"type": "node", "id": 563223437, "lat": 58.5042978, "lon": 13.1556653, "tags": {"amenity": "restaurant", "cuisine": "pizza;kebab", "name": "Rhodos"}}, {"type": "node", "id": 563224368, "lat": 58.5044459, "lon": 13.1568411, "tags": {"addr:city": "Lidk\u00f6ping", "addr:country": "SE", "addr:housenumber": "10", "addr:street": "Nya Stadens Torg", "amenity": "restaurant", "name": "Magnus Gabriel"}}, {"type": "node", "id": 620879473, "lat": 58.5013225, "lon": 13.167665, "tags": {"amenity": "restaurant", "name": "Restaurang Troja"}}, {"type": "node", "id": 658631687, "lat": 58.5049905, "lon": 13.1574163, "tags": {"amenity": "restaurant", "name": "Bella Bistro", "phone": "+46-510-20102"}}, {"type": "node", "id": 658631691, "lat": 58.5024716, "lon": 13.1633459, "tags": {"amenity": "restaurant", "name": "Italia"}}, {"type": "node", "id": 671874686, "lat": 58.3352706, "lon": 13.4167635, "tags": {"amenity": "restaurant", "name": "Herrtorps Qvarn"}}, {"type": "node", "id": 676795342, "lat": 58.5036706, "lon": 13.1543028, "tags": {"amenity": "cafe", "name": "Henrys caf\u00e9"}}, {"type": "node", "id": 676800388, "lat": 58.4917855, "lon": 13.1908479, "tags": {"amenity": "cafe", "name": "Lenas caf\u00e9"}}, {"type": "node", "id": 1113132592, "lat": 58.504478, "lon": 13.155117, "tags": {"addr:country": "SE", "addr:housenumber": "7", "addr:street": "Stenportsgatan", "amenity": "cafe", "name": "S\u00f6derstr\u00f6ms Conditori & Caf\u00e9", "opening_hours": "Mo-Fr 08:00-18:00; Sa 08:00-14:00"}}, {"type": "node", "id": 1229069799, "lat": 58.5282967, "lon": 13.4928054, "tags": {"amenity": "cafe", "name": "Centrum caf\u00e9t"}}, {"type": "node", "id": 1229069876, "lat": 58.5279592, "lon": 13.4926659, "tags": {"amenity": "restaurant", "cuisine": "chinese", "name": "Ha Long's k\u00f6k"}}, {"type": "node", "id": 1413947501, "lat": 58.5769543, "lon": 13.6055701, "tags": {"amenity": "restaurant", "name": "Br\u00e4nnebrona G\u00e4stis", "source": "survey", "tourism": "hotel"}}, {"type": "node", "id": 1839529240, "lat": 58.4087569, "lon": 13.5485625}, {"type": "node", "id": 1917605747, "lat": 58.3278294, "lon": 13.132606, "tags": {"amenity": "restaurant", "name": "Haralds"}}, {"type": "node", "id": 2265583568, "lat": 58.3002726, "lon": 13.1824038, "tags": {"amenity": "restaurant"}}, {"type": "node", "id": 2431526605, "lat": 58.2175739, "lon": 13.4971096, "tags": {"addr:city": "Falk\u00f6ping", "addr:country": "SE", "addr:postcode": "521 94", "addr:street": "Tunhem V\u00e4sterg\u00e5rden", "amenity": "restaurant", "cuisine": "regional", "name": "Ceasarstugan", "phone": "+46-515-720431"}}, {"type": "node", "id": 2431619880, "lat": 58.3849154, "lon": 13.6534657}, {"type": "node", "id": 2798672586, "lat": 58.2929874, "lon": 13.5926914, "tags": {"amenity": "restaurant", "name": "L\u00f6fwings atalj\u00e9"}}, {"type": "node", "id": 2815242018, "lat": 58.5476273, "lon": 13.3332397, "tags": {"amenity": "cafe", "name": "Caf\u00e9 p\u00e5 Klostret", "opening_hours": "Mo-Su 11:00-17:00"}}, {"type": "node", "id": 2824539102, "lat": 58.2764396, "lon": 13.4885416, "tags": {"amenity": "cafe"}}, {"type": "node", "id": 2824543984, "lat": 58.269116, "lon": 13.4932893, "tags": {"amenity": "cafe"}}, {"type": "node", "id": 3046443850, "lat": 58.3882881, "lon": 13.439982}, {"type": "node", "id": 3046443851, "lat": 58.3883071, "lon": 13.4404369}, {"type": "node", "id": 3046443852, "lat": 58.3884039, "lon": 13.4399644}, {"type": "node", "id": 3046443853, "lat": 58.3884229, "lon": 13.4404193}, {"type": "node", "id": 3666167968, "lat": 58.5437042, "lon": 13.3940024}, {"type": "node", "id": 3666167969, "lat": 58.5438518, "lon": 13.3944527}, {"type": "node", "id": 3666167970, "lat": 58.5437712, "lon": 13.3945496}, {"type": "node", "id": 4053733021, "lat": 58.4525222, "lon": 13.2689966, "tags": {"amenity": "restaurant", "name": "Vinninga pizzeria"}}, {"type": "node", "id": 4104916328, "lat": 58.6292578, "lon": 13.431727}, {"type": "node", "id": 4104916329, "lat": 58.629178, "lon": 13.4319448}, {"type": "node", "id": 4104916330, "lat": 58.6291486, "lon": 13.431905}, {"type": "node", "id": 4104916331, "lat": 58.6291001, "lon": 13.4320373}, {"type": "node", "id": 4104916332, "lat": 58.629241, "lon": 13.4322278}, {"type": "node", "id": 4104916333, "lat": 58.6292876, "lon": 13.4321006}, {"type": "node", "id": 4104916334, "lat": 58.6292635, "lon": 13.4320681}, {"type": "node", "id": 4104916335, "lat": 58.6293452, "lon": 13.4318452}, {"type": "node", "id": 4111424198, "lat": 58.6292349, "lon": 13.4328953}, {"type": "node", "id": 4111424199, "lat": 58.6291863, "lon": 13.4328272}, {"type": "node", "id": 4111424200, "lat": 58.6291548, "lon": 13.4329102}, {"type": "node", "id": 4111424201, "lat": 58.6292036, "lon": 13.4329782}, {"type": "node", "id": 4111424259, "lat": 58.6309242, "lon": 13.4371956, "tags": {"amenity": "cafe", "name": "Falk\u00e4ngen"}}, {"type": "node", "id": 4111597702, "lat": 58.62015, "lon": 13.4918777}, {"type": "node", "id": 4111597703, "lat": 58.6199311, "lon": 13.4918442}, {"type": "node", "id": 4111597704, "lat": 58.6199219, "lon": 13.4920648}, {"type": "node", "id": 4111597705, "lat": 58.6201409, "lon": 13.4920983}, {"type": "node", "id": 4203078250, "lat": 58.5972051, "lon": 13.4144834}, {"type": "node", "id": 4203078255, "lat": 58.5973151, "lon": 13.4143824}, {"type": "node", "id": 4203078256, "lat": 58.5973198, "lon": 13.4150668}, {"type": "node", "id": 4203078259, "lat": 58.5974181, "lon": 13.4149766}, {"type": "node", "id": 4214275717, "lat": 58.5972016, "lon": 13.4145924}, {"type": "node", "id": 4214275719, "lat": 58.5972266, "lon": 13.4145695}, {"type": "node", "id": 4214275724, "lat": 58.5973439, "lon": 13.4144979}, {"type": "node", "id": 4214275725, "lat": 58.5973474, "lon": 13.414693}, {"type": "node", "id": 4214275727, "lat": 58.5974039, "lon": 13.4144428}, {"type": "node", "id": 4214275728, "lat": 58.5974442, "lon": 13.4146042}, {"type": "node", "id": 4297150757, "lat": 58.4505732, "lon": 13.433662, "tags": {"amenity": "cafe"}}, {"type": "node", "id": 4297152120, "lat": 58.471688, "lon": 13.4058434, "tags": {"amenity": "cafe"}}, {"type": "node", "id": 4304048763, "lat": 58.4087451, "lon": 13.5483137}, {"type": "node", "id": 4304048764, "lat": 58.4087594, "lon": 13.5486156}, {"type": "node", "id": 4304048781, "lat": 58.408999, "lon": 13.5482699}, {"type": "node", "id": 4304048782, "lat": 58.409011, "lon": 13.5485241}, {"type": "node", "id": 4304048784, "lat": 58.4090133, "lon": 13.5485718}, {"type": "node", "id": 4900284264, "lat": 58.3801769, "lon": 12.9772138}, {"type": "node", "id": 4900284265, "lat": 58.3800982, "lon": 12.9776484}, {"type": "node", "id": 4900284266, "lat": 58.3800046, "lon": 12.9775867}, {"type": "node", "id": 4900284267, "lat": 58.3800834, "lon": 12.9771522}, {"type": "node", "id": 4909584651, "lat": 58.3849525, "lon": 13.4355078, "tags": {"amenity": "restaurant", "cuisine": "asian", "name": "Da Vinci"}}, {"type": "node", "id": 4913813994, "lat": 58.3857004, "lon": 13.4375389, "tags": {"amenity": "restaurant", "name": "Canton"}}, {"type": "node", "id": 4913813996, "lat": 58.3849979, "lon": 13.4382384, "tags": {"amenity": "restaurant", "name": "Connys Kalask\u00f6k"}}, {"type": "node", "id": 4985744871, "lat": 58.5298841, "lon": 13.4879111}, {"type": "node", "id": 4985744873, "lat": 58.5294965, "lon": 13.4881105}, {"type": "node", "id": 4985744874, "lat": 58.52955, "lon": 13.4877321}, {"type": "node", "id": 4987311726, "lat": 58.5295185, "lon": 13.4945127, "tags": {"amenity": "restaurant", "cuisine": "pizza", "name": "G\u00f6tene Gatuk\u00f6k & Zackis Bar"}}, {"type": "node", "id": 5054427162, "lat": 58.3864461, "lon": 13.6526322}, {"type": "node", "id": 5054427163, "lat": 58.386223, "lon": 13.6526284}, {"type": "node", "id": 5054427164, "lat": 58.3862219, "lon": 13.6527648}, {"type": "node", "id": 5054427165, "lat": 58.3864407, "lon": 13.6527728}, {"type": "node", "id": 5371147268, "lat": 58.5312303, "lon": 12.9690952, "tags": {"addr:city": "Lidk\u00f6ping", "addr:country": "SE", "addr:housenumber": "1", "addr:postcode": "53197", "addr:street": "S\u00f6ne Mejeriet", "amenity": "cafe", "name": "Mejeriet i S\u00f6ne"}}, {"type": "node", "id": 5470466671, "lat": 58.5436237, "lon": 13.3940993}, {"type": "node", "id": 5728995903, "lat": 58.5068232, "lon": 13.1580776}, {"type": "node", "id": 5777006412, "lat": 58.3849916, "lon": 13.65348}, {"type": "node", "id": 5777006413, "lat": 58.3849862, "lon": 13.6535837}, {"type": "node", "id": 5777006414, "lat": 58.3850199, "lon": 13.65359}, {"type": "node", "id": 5777006415, "lat": 58.3850119, "lon": 13.6537443}, {"type": "node", "id": 5777006416, "lat": 58.384902, "lon": 13.6537236}, {"type": "node", "id": 5899981434, "lat": 58.324112, "lon": 13.5894006, "tags": {"amenity": "restaurant", "name": "Caf\u00e9 Doppingen"}}, {"type": "node", "id": 6001123290, "lat": 58.618106, "lon": 13.3875402}, {"type": "node", "id": 6001123291, "lat": 58.6182434, "lon": 13.387924}, {"type": "node", "id": 6001123292, "lat": 58.618304, "lon": 13.387844}, {"type": "node", "id": 6154403950, "lat": 58.4957673, "lon": 13.1692344, "tags": {"addr:city": "Lidk\u00f6ping", "addr:country": "SE", "addr:housenumber": "6", "addr:postcode": "53136", "addr:street": "Floragatan", "addr:unit": "B", "amenity": "restaurant", "cuisine": "pizza", "name": "Pizzeria Miami", "opening_hours": "Mo-Th 11:00-22:00; Fr 11:00-22:00; Sa 11:00-22:00; Su 12:00-22:00", "outdoor_seating": "yes", "phone": "+46 510 270 15", "takeaway": "yes"}}, {"type": "node", "id": 6466449130, "lat": 58.5396605, "lon": 13.5166488, "tags": {"amenity": "restaurant", "name": "Rasta"}}, {"type": "node", "id": 6613568579, "lat": 58.5003814, "lon": 13.1564972, "tags": {"amenity": "restaurant", "name": "Terassen", "opening_hours": "Mo-Th 16:00-22:00; Fr 16:00-23:00; Sa 12:00-23:00; Su 12:00-21:00", "phone": "+46510-200 11", "website": "https://terrassenlidkoping.se/"}}, {"type": "node", "id": 6613575856, "lat": 58.5039712, "lon": 13.1577124, "tags": {"addr:country": "SE", "addr:street": "Nya Stadens Torg", "amenity": "cafe", "lunch": "yes", "name": "R\u00e5dhuskonditoriet", "opening_hours": "Mo-Fr 08:30-18:00; Sa 08:30-16:00; Su 09:00-17:00", "phone": "+46 51024050"}}, {"type": "node", "id": 7022176423, "lat": 58.5063942, "lon": 13.1580332, "tags": {"amenity": "restaurant", "name": "Thai house"}}, {"type": "node", "id": 7914436099, "lat": 58.3887791, "lon": 13.573239, "tags": {"addr:city": "Axvall", "addr:country": "SE", "addr:street": "Bryggaregatan", "amenity": "restaurant", "cuisine": "pizza", "name": "Pizzeria Barcelona"}}, {"type": "node", "id": 7922324385, "lat": 58.3898954, "lon": 13.4402153, "tags": {"amenity": "cafe"}}, {"type": "node", "id": 7922833085, "lat": 58.38563, "lon": 13.4363154, "tags": {"addr:country": "SE", "addr:street": "Marumsgatan", "amenity": "restaurant", "cuisine": "asian;sushi", "name:en": "enjoy"}}, {"type": "node", "id": 7922833185, "lat": 58.3851817, "lon": 13.4363508, "tags": {"addr:country": "SE", "addr:street": "Marumsgatan", "amenity": "restaurant", "cuisine": "pizza", "name:en": "bianco"}}, {"type": "node", "id": 8006550771, "lat": 58.506899, "lon": 13.1581516}, {"type": "node", "id": 8006550772, "lat": 58.5068395, "lon": 13.158374}, {"type": "node", "id": 8006550773, "lat": 58.5067758, "lon": 13.1582883}, {"type": "node", "id": 8133025965, "lat": 58.6268367, "lon": 13.1354884}, {"type": "node", "id": 8133025966, "lat": 58.6267882, "lon": 13.1354026}, {"type": "node", "id": 8133025967, "lat": 58.6268382, "lon": 13.1352982}, {"type": "node", "id": 8133025968, "lat": 58.6268867, "lon": 13.1353841}, {"type": "node", "id": 8941892204, "lat": 58.4259076, "lon": 13.4638623, "tags": {"addr:city": "Skara", "addr:country": "SE", "addr:housenumber": "2", "addr:postcode": "53296", "addr:street": "Sk\u00e5nings \u00e5saka karteg\u00e5rden", "amenity": "restaurant", "cuisine": "pizza", "email": "hej@vedenslustgard.com", "name": "Vedens Lustg\u00e5rd", "opening_hours": "To-Sa 17:00-22:00, Su 13:30-20:00", "outdoor_seating": "yes", "reservation": "required", "takeaway": "yes", "website": "https://vedenslustgard.com/"}}, {"type": "node", "id": 9006679662, "lat": 58.5045675, "lon": 13.1578673, "tags": {"amenity": "restaurant", "name": "Cyrano"}}, {"type": "node", "id": 9006712324, "lat": 58.504357, "lon": 13.1586568, "tags": {"addr:country": "SE", "addr:housenumber": "4", "addr:street": "Nya Stadens Torg", "amenity": "restaurant", "name": "SushiYaki"}}, {"type": "node", "id": 9733340679, "lat": 58.4087544, "lon": 13.5485097}, {"type": "node", "id": 10281880767, "lat": 58.5023138, "lon": 13.164004, "tags": {"addr:city": "Lidk\u00f6ping", "addr:country": "SE", "addr:housenumber": "7", "addr:postcode": "531 32", "addr:street": "Skaragatan", "amenity": "restaurant", "bar": "yes", "contact:email": "kontakt@feelinglkp.se", "contact:phone": "+46 510-615 20", "contact:website": "https://feelinglkp.se/kontakt/", "name": "FeelingLKP", "opening_hours": "Mo-Su 11:30-24:00", "operator": "Stephen Rowe", "website": "https://feelinglkp.se/"}}, {"type": "node", "id": 10837861425, "lat": 58.3863324, "lon": 13.6527647}, {"type": "node", "id": 10855787502, "lat": 58.5044094, "lon": 13.1584643, "tags": {"addr:city": "Lidk\u00f6ping", "addr:country": "SE", "addr:housenumber": "4", "addr:postcode": "531 31", "addr:street": "Nya Stadens Torg", "amenity": "restaurant", "cuisine": "husmanskost", "name": "Hemma hos Benjamin", "phone": "+46 510 \u2013 220 50", "website": "https://hemmahosbenjamin.se/"}}, {"type": "node", "id": 11064786560, "lat": 58.3826929, "lon": 13.4351296, "tags": {"amenity": "restaurant", "cuisine": "thai", "name": "Lai Thai"}}, {"type": "node", "id": 11108382704, "lat": 58.5619557, "lon": 13.4288385, "tags": {"amenity": "cafe", "contact:facebook": "https://www.facebook.com/profile.php?id=100090902845394", "contact:instagram": "hjuletscafe", "name": "Hjulets Caf\u00e9", "opening_hours": "Apr 29-Sep 10: Sa,Su 11:00-16:00"}}, {"type": "node", "id": 11215827199, "lat": 58.5298348, "lon": 13.4882589}, {"type": "way", "id": 300569851, "nodes": [3046443852, 3046443850, 3046443851, 3046443853, 3046443852], "tags": {"amenity": "restaurant", "building": "yes", "name": "Kr\u00e5ks V\u00e4rdshus", "source": "Bing"}}, {"type": "way", "id": 362280509, "nodes": [3666167968, 3666167969, 3666167970, 5470466671, 3666167968], "tags": {"amenity": "cafe", "building": "yes"}}, {"type": "way", "id": 408603464, "nodes": [4104916328, 4104916329, 4104916330, 4104916331, 4104916332, 4104916333, 4104916334, 4104916335, 4104916328], "tags": {"amenity": "restaurant", "building": "yes", "cuisine": "regional", "name": "Carinas K\u00f6k & Bar"}}, {"type": "way", "id": 409241908, "nodes": [4111424198, 4111424199, 4111424200, 4111424201, 4111424198], "tags": {"amenity": "restaurant", "building": "yes", "name": "H\u00e4llekis Pizzeria"}}, {"type": "way", "id": 409257985, "nodes": [4111597702, 4111597703, 4111597704, 4111597705, 4111597702], "tags": {"amenity": "restaurant", "building": "yes", "contact:website": "http://forshem.se/", "cuisine": "regional", "name": "Forshems G\u00e4stgiveri"}}, {"type": "way", "id": 420367554, "nodes": [4203078250, 4203078255, 4214275724, 4214275727, 4214275728, 4214275725, 4203078259, 4203078256, 4214275717, 4214275719, 4203078250], "tags": {"amenity": "restaurant", "building": "yes", "name": "Kinnekulleg\u00e5rden", "opening_hours": "Mo-Su 10:00-17:00", "phone": "+46 510-54 40 40", "website": "https://www.kinnekullegarden.com/"}}, {"type": "way", "id": 431157310, "nodes": [1839529240, 4304048764, 4304048784, 4304048782, 4304048781, 4304048763, 9733340679, 1839529240], "tags": {"amenity": "restaurant", "building": "yes"}}, {"type": "way", "id": 498649652, "nodes": [4900284267, 4900284264, 4900284265, 4900284266, 4900284267], "tags": {"addr:country": "SE", "addr:housenumber": "2", "addr:street": "Storgatan", "amenity": "restaurant", "building": "yes", "cuisine": "pizza", "name": "J\u00e4rp\u00e5s Pizzeria", "opening_hours": "Mo-Th 11:00-21:00; Fr 11:00-22:00; Sa 12:00-22:00; Su 11:00-21:00", "outdoor_seating": "yes", "phone": "+46 510 910 01", "takeaway": "yes"}}, {"type": "way", "id": 509326784, "nodes": [4985744874, 4985744873, 11215827199, 4985744871, 4985744874], "tags": {"addr:city": "G\u00f6tene", "addr:country": "SE", "addr:housenumber": "28", "addr:postcode": "53332", "addr:street": "Lidk\u00f6pingsv\u00e4gen", "amenity": "restaurant", "building": "yes", "name": "Restaurang Arla Carte Amica"}}, {"type": "way", "id": 518067345, "nodes": [5054427165, 10837861425, 5054427164, 5054427163, 5054427162, 5054427165], "tags": {"amenity": "restaurant", "building": "yes", "cuisine": "pizza"}}, {"type": "way", "id": 609957585, "nodes": [2431619880, 5777006412, 5777006413, 5777006414, 5777006415, 5777006416, 2431619880], "tags": {"amenity": "cafe", "building": "commercial", "email": "lena@paklostret.se", "name": "P\u00e5 klostret", "opening_hours": "11:00-18:00", "phone": "+46-511-60420", "website": "https://www.paklostret.se/"}}, {"type": "way", "id": 636361171, "nodes": [6001123290, 6001123291, 6001123292, 433858601, 6001123290], "tags": {"amenity": "cafe", "building": "yes", "name": "Hellekis Tr\u00e4dg\u00e5rdscaf\u00e9 & K\u00f6k"}}, {"type": "way", "id": 858895795, "nodes": [5728995903, 8006550771, 8006550772, 8006550773, 5728995903], "tags": {"addr:city": "Lidk\u00f6ping", "addr:country": "SE", "addr:housenumber": "4", "addr:postcode": "53130", "addr:street": "Fabriksgatan", "amenity": "restaurant", "cuisine": "pizza;kebab", "diet:meat": "yes", "diet:vegetarian": "yes", "name": "Pizzeria Rotana", "opening_hours": "Mo-Fr 09:00-18:00", "phone": "+46 76 910 52 39", "website": "https://www.matmenyer.se/lidkoping/pizza/rotana/"}}, {"type": "way", "id": 873336068, "nodes": [8133025968, 8133025967, 8133025966, 8133025965, 8133025968], "tags": {"amenity": "cafe", "building": "yes", "name": "Brostugan", "source": "Mapbox", "website": "https://m.facebook.com/Brostugan-2022-100258428881447/"}}]}