{"version": 0.6, "generator": "Overpass API 0.7.61.5 4133829e", "osm3s": {"timestamp_osm_base": "2024-03-13T22:44:43Z", "copyright": "The data included in this document is from www.openstreetmap.org. The data is made available under ODbL."}, "elements": [{"type": "node", "id": 1430155959, "lat": 41.6304122, "lon": 41.6130829, "tags": {"amenity": "pharmacy", "check_date": "2022-12-06", "healthcare": "pharmacy", "name": "\u10da\u10d0\u10d3 \u10e4\u10d0\u10e0\u10db\u10d8", "name:en": "Lad Pharma", "name:ka": "\u10da\u10d0\u10d3 \u10e4\u10d0\u10e0\u10db\u10d8", "source": "JumpStart International"}}, {"type": "node", "id": 1430156039, "lat": 41.6350849, "lon": 41.6107898, "tags": {"amenity": "pharmacy", "brand": "\u10de\u10e1\u10de", "brand:wikidata": "Q115970964", "check_date": "2022-11-04", "contact:email": "online@psp.ge", "contact:facebook": "https://facebook.com/psp.ge", "contact:instagram": "https://instagram.com/psp_pharmacy", "contact:phone": "+995322402020", "contact:website": "https://psp.ge", "contact:youtube": "https://youtube.com/user/PSPN1TV", "drive_through": "no", "healthcare": "pharmacy", "level": "0", "name": "\u10de\u10e1\u10de", "name:en": "PSP", "name:ka": "\u10de\u10e1\u10de", "opening_hours": "08:30-24:00", "operator:wikidata": "Q115970964", "payment:american_express": "yes", "payment:contactless": "yes", "payment:credit_cards": "yes", "payment:debit_cards": "yes", "payment:mastercard": "yes", "payment:visa": "yes", "wheelchair": "limited"}}, {"type": "node", "id": 4126890391, "lat": 41.5853242, "lon": 41.5934059, "tags": {"amenity": "pharmacy", "check_date": "2023-03-10", "healthcare": "pharmacy", "opening_hours": "24/7"}}, {"type": "node", "id": 4231395322, "lat": 41.6344208, "lon": 41.6085169, "tags": {"addr:city": "\u10d1\u10d0\u10d7\u10e3\u10db\u10d8", "addr:country": "GE", "addr:housenumber": "4", "addr:postcode": "6000", "addr:street": "\u10d9\u10dd\u10d1\u10d0\u10da\u10d0\u10eb\u10d8\u10e1 \u10e5\u10e3\u10e9\u10d0", "amenity": "pharmacy", "brand": "\u10de\u10e1\u10de", "brand:wikidata": "Q115970964", "check_date": "2024-02-12", "contact:email": "online@psp.ge", "contact:facebook": "https://facebook.com/psp.ge", "contact:instagram": "https://instagram.com/psp_pharmacy", "contact:phone": "+995322402020", "contact:website": "https://psp.ge", "contact:youtube": "https://youtube.com/user/PSPN1TV", "dispensing": "yes", "drive_through": "no", "healthcare": "pharmacy", "internet_access": "no", "level": "0", "name": "\u10de\u10e1\u10de", "name:en": "PSP", "name:ka": "\u10de\u10e1\u10de", "opening_hours": "24/7", "operator:wikidata": "Q115970964", "payment:american_express": "yes", "payment:contactless": "yes", "payment:credit_cards": "yes", "payment:debit_cards": "yes", "payment:mastercard": "yes", "payment:visa": "yes", "wheelchair": "yes"}}, {"type": "node", "id": 4328492592, "lat": 41.568079, "lon": 41.5717762, "tags": {"amenity": "pharmacy", "healthcare": "pharmacy", "shop": "convenience"}}, {"type": "node", "id": 9309493918, "lat": 41.6362106, "lon": 41.6130343, "tags": {"addr:housenumber": "16\u10d0", "addr:street": "\u10e4\u10d8\u10e0\u10dd\u10e1\u10db\u10d0\u10dc\u10d8\u10e1 \u10e5\u10e3\u10e9\u10d0", "amenity": "pharmacy", "check_date": "2023-02-17", "healthcare": "pharmacy", "internet_access": "no", "level": "0", "name": "\u10dc\u10d0\u10d8\u10e4\u10d0\u10e0\u10db", "name:en": "Nai Farm", "name:ka": "\u10dc\u10d0\u10d8\u10e4\u10d0\u10e0\u10db", "opening_hours": "24/7", "wheelchair": "no"}}, {"type": "node", "id": 9906631432, "lat": 41.6315842, "lon": 41.612767, "tags": {"addr:city": "\u10d1\u10d0\u10d7\u10e3\u10db\u10d8", "addr:country": "GE", "addr:housenumber": "2\u10d2", "addr:postcode": "6010", "addr:street": "\u10d3\u10d0\u10d5\u10d8\u10d7 \u10d0\u10e6\u10db\u10d0\u10e8\u10d4\u10dc\u10d4\u10d1\u10da\u10d8\u10e1 \u10e5\u10e3\u10e9\u10d0", "amenity": "pharmacy", "healthcare": "pharmacy", "name": "\u10d3\u10d8-\u10da\u10d0\u10d8\u10e4 \u10e4\u10d0\u10e0\u10db\u10d0", "name:en": "Di-Life Pharma", "wheelchair": "no"}}, {"type": "node", "id": 9910572717, "lat": 41.6327547, "lon": 41.6115567, "tags": {"addr:city": "\u10d1\u10d0\u10d7\u10e3\u10db\u10d8", "addr:country": "GE", "addr:housenumber": "2", "addr:postcode": "6010", "addr:street": "\u10d0\u10dc\u10d2\u10d8\u10e1\u10d8\u10e1 \u10e5\u10e3\u10e9\u10d0", "amenity": "pharmacy", "healthcare": "pharmacy", "opening_hours": "24/7"}}, {"type": "node", "id": 9991255387, "lat": 41.6289494, "lon": 41.6027804, "tags": {"amenity": "pharmacy", "check_date": "2022-12-04", "name": "Metro Pharmacy"}}, {"type": "node", "id": 10011648882, "lat": 41.6352834, "lon": 41.6116261, "tags": {"addr:city": "\u10d1\u10d0\u10d7\u10e3\u10db\u10d8", "addr:country": "GE", "addr:housenumber": "3", "addr:street": "\u10e8\u10d0\u10da\u10d5\u10d0 \u10d8\u10dc\u10d0\u10e1\u10d0\u10e0\u10d8\u10eb\u10d8\u10e1 \u10e5\u10e3\u10e9\u10d0", "amenity": "pharmacy", "brand": "\u10d0\u10d5\u10d4\u10e0\u10e1\u10d8", "brand:en": "Aversi", "brand:ru": "\u0410\u0432\u0435\u0440\u0441\u0438", "brand:wikidata": "Q55653978", "check_date": "2022-11-04", "contact:facebook": "https://facebook.com/AversiPharma", "contact:instagram": "https://instagram.com/aversipharma", "contact:linkedin": "https://linkedin.com/company/aversi-pharma", "contact:website": "https://www.aversi.ge", "contact:youtube": "https://youtube.com/user/AversiPharma", "healthcare": "pharmacy", "internet_access": "no", "level": "0", "name": "\u10d0\u10d5\u10d4\u10e0\u10e1\u10d8", "name:en": "Aversi", "name:ka": "\u10d0\u10d5\u10d4\u10e0\u10e1\u10d8", "name:ru": "\u0410\u0432\u0435\u0440\u0441\u0438", "opening_hours": "24/7", "operator:wikidata": "Q55653978", "payment:american_express": "yes", "payment:contactless": "yes", "payment:credit_cards": "yes", "payment:debit_cards": "yes", "payment:mastercard": "yes", "payment:visa": "yes", "wheelchair": "limited"}}, {"type": "node", "id": 10013529609, "lat": 41.6349002, "lon": 41.6104909, "tags": {"addr:city": "\u10d1\u10d0\u10d7\u10e3\u10db\u10d8", "addr:country": "GE", "addr:housenumber": "14", "addr:street": "\u10d9\u10dd\u10d1\u10d0\u10da\u10d0\u10eb\u10d8\u10e1 \u10e5\u10e3\u10e9\u10d0", "amenity": "pharmacy", "brand": "\u10e4\u10d0\u10e0\u10db\u10d0\u10d3\u10d4\u10de\u10dd", "brand:en": "Pharmadepot", "brand:ru": "\u0424\u0430\u0440\u043c\u0430\u0434\u0435\u043f\u043e\u0442", "check_date": "2023-09-16", "contact:facebook": "https://facebook.com/Pharmadepot", "healthcare": "pharmacy", "internet_access": "no", "level": "0", "name": "\u10e4\u10d0\u10e0\u10db\u10d0\u10d3\u10d4\u10de\u10dd", "name:en": "Pharmadepot", "name:ka": "\u10e4\u10d0\u10e0\u10db\u10d0\u10d3\u10d4\u10de\u10dd", "name:ru": "\u0424\u0430\u0440\u043c\u0430\u0434\u0435\u043f\u043e", "name:uk": "\u0424\u0430\u0440\u043c\u0430\u0434\u0435\u043f\u043e", "operator:wikidata": "Q115971332", "payment:american_express": "yes", "payment:contactless": "yes", "payment:credit_cards": "yes", "payment:debit_cards": "yes", "payment:mastercard": "yes", "payment:visa": "yes", "wheelchair": "no"}}, {"type": "node", "id": 10016650449, "lat": 41.6314195, "lon": 41.6066094, "tags": {"addr:housenumber": "6", "addr:street": "\u10d8\u10dc\u10d0\u10e1\u10d0\u10e0\u10d8\u10eb\u10d4 \u10e8\u10d0\u10da\u10d5\u10d0\u10e1 \u10db\u10d4-2 \u10e9\u10d8\u10ee\u10d8", "amenity": "pharmacy", "check_date": "2023-10-13", "healthcare": "pharmacy", "level": "0", "name": "\u10d3\u10d8\u10e1\u10e4\u10d0\u10e0\u10db\u10d0", "name:en": "Dispharma", "name:ka": "\u10d3\u10d8\u10e1\u10e4\u10d0\u10e0\u10db\u10d0", "name:ru": "\u0414\u0438\u0441\u0444\u0430\u0440\u043c\u0430", "wheelchair": "limited"}}, {"type": "node", "id": 10051017942, "lat": 41.634109, "lon": 41.6089881, "tags": {"addr:housenumber": "8\u10d0", "addr:street": "\u10d9\u10dd\u10d1\u10d0\u10da\u10d0\u10eb\u10d8\u10e1 \u10e5\u10e3\u10e9\u10d0", "amenity": "pharmacy", "brand": "\u10ef\u10de\u10e1", "brand:en": "GPC", "brand:wikidata": "Q115971130", "check_date": "2023-04-23", "contact:email": "info@gepha.com", "contact:facebook": "https://facebook.com/gpcpharmacy", "contact:phone": "+995322710707", "healthcare": "pharmacy", "level": "0", "name": "\u10ef\u10de\u10e1", "name:en": "GPC", "name:ka": "\u10ef\u10de\u10e1", "opening_hours": "08:30-02:00", "operator:wikidata": "Q115971130", "payment:american_express": "yes", "payment:contactless": "yes", "payment:credit_cards": "yes", "payment:debit_cards": "yes", "payment:mastercard": "yes", "payment:visa": "yes", "wheelchair": "yes"}}, {"type": "node", "id": 10159552855, "lat": 41.6337662, "lon": 41.6088482, "tags": {"addr:housenumber": "8\u10d0", "addr:street": "\u10d9\u10dd\u10d1\u10d0\u10da\u10d0\u10eb\u10d8\u10e1 \u10e5\u10e3\u10e9\u10d0", "amenity": "pharmacy", "check_date": "2022-11-05", "healthcare": "pharmacy", "level": "0", "opening_hours": "24/7"}}, {"type": "node", "id": 10237850083, "lat": 41.6304095, "lon": 41.6083028, "tags": {"amenity": "pharmacy", "check_date": "2022-12-04", "healthcare": "pharmacy", "level": "0", "opening_hours": "24/7", "payment:mastercard": "yes", "payment:visa": "yes", "wheelchair": "no"}}, {"type": "node", "id": 10237850093, "lat": 41.6305086, "lon": 41.6084795, "tags": {"amenity": "pharmacy", "check_date": "2022-12-04", "healthcare": "pharmacy", "level": "0", "payment:mastercard": "yes", "payment:visa": "yes", "wheelchair": "yes"}}, {"type": "node", "id": 10237921742, "lat": 41.6278878, "lon": 41.6027386, "tags": {"addr:housenumber": "1", "addr:street": "\u10da\u10d4\u10ee \u10d3\u10d0 \u10db\u10d0\u10e0\u10d8\u10d0 \u10d9\u10d0\u10e9\u10d8\u10dc\u10e1\u10d9\u10d4\u10d1\u10d8\u10e1 \u10e5\u10e3\u10e9\u10d0", "amenity": "pharmacy", "brand": "\u10de\u10e1\u10de", "brand:wikidata": "Q115970964", "check_date": "2022-12-04", "contact:email": "online@psp.ge", "contact:facebook": "https://facebook.com/psp.ge", "contact:instagram": "https://instagram.com/psp_pharmacy", "contact:phone": "+995322402020", "contact:website": "https://psp.ge", "contact:youtube": "https://youtube.com/user/PSPN1TV", "healthcare": "pharmacy", "level": "0", "name": "\u10de\u10e1\u10de", "name:en": "PSP", "name:ka": "\u10de\u10e1\u10de", "operator:wikidata": "Q115970964", "payment:american_express": "yes", "payment:contactless": "yes", "payment:credit_cards": "yes", "payment:debit_cards": "yes", "payment:mastercard": "yes", "payment:visa": "yes"}}, {"type": "node", "id": 10237937827, "lat": 41.6316652, "lon": 41.6033858, "tags": {"amenity": "pharmacy", "check_date": "2022-12-04", "healthcare": "pharmacy"}}, {"type": "node", "id": 10237987358, "lat": 41.6329222, "lon": 41.6082252, "tags": {"addr:housenumber": "15", "addr:street": "\u10e8\u10d0\u10da\u10d5\u10d0 \u10d8\u10dc\u10d0\u10e1\u10d0\u10e0\u10d8\u10eb\u10d8\u10e1 \u10e5\u10e3\u10e9\u10d0", "amenity": "pharmacy", "brand": "\u10f0\u10d4\u10d9\u10d0\u10e2\u10d4", "brand:en": "Hekate", "brand:ru": "\u0425\u0435\u043a\u0430\u0442\u0435", "check_date": "2022-12-04", "contact:email": "info.hekate@mail.ru", "contact:website": "http://hekate.ge", "healthcare": "pharmacy", "level": "0", "name": "\u10f0\u10d4\u10d9\u10d0\u10e2\u10d4", "name:en": "Hekate", "name:ka": "\u10f0\u10d4\u10d9\u10d0\u10e2\u10d4", "name:ru": "\u0425\u0435\u043a\u0430\u0442\u0435", "opening_hours": "09:00-22:00", "payment:contactless": "yes", "payment:mastercard": "yes", "payment:visa": "yes"}}, {"type": "node", "id": 10269585163, "lat": 41.6349592, "lon": 41.6105965, "tags": {"amenity": "pharmacy", "healthcare": "pharmacy", "level": "0", "name": "\u10d2\u10dd\u10e3\u10d9\u10dd\u10d6\u10d0", "name:en": "Glucose", "name:ka": "\u10d2\u10dd\u10e3\u10d9\u10dd\u10d6\u10d0"}}, {"type": "node", "id": 10648518802, "lat": 41.5853397, "lon": 41.5942485, "tags": {"amenity": "pharmacy", "brand": "\u10d0\u10d5\u10d4\u10e0\u10e1\u10d8", "brand:en": "Aversi", "brand:ka": "\u10d0\u10d5\u10d4\u10e0\u10e1\u10d8", "brand:ru": "\u0410\u0432\u0435\u0440\u0441\u0438", "brand:wikidata": "Q55653978", "check_date": "2023-02-11", "contact:facebook": "https://facebook.com/AversiPharma", "contact:instagram": "https://instagram.com/aversipharma", "contact:linkedin": "https://linkedin.com/company/aversi-pharma", "contact:website": "https://www.aversi.ge", "contact:youtube": "https://youtube.com/user/AversiPharma", "healthcare": "pharmacy", "name": "\u10d0\u10d5\u10d4\u10e0\u10e1\u10d8", "name:en": "Aversi", "name:ka": "\u10d0\u10d5\u10d4\u10e0\u10e1\u10d8", "name:ru": "\u0410\u0432\u0435\u0440\u0441\u0438", "operator:wikidata": "Q55653978", "payment:american_express": "yes", "payment:contactless": "yes", "payment:credit_cards": "yes", "payment:debit_cards": "yes", "payment:mastercard": "yes", "payment:visa": "yes"}}, {"type": "node", "id": 10648615683, "lat": 41.5670193, "lon": 41.5704969, "tags": {"amenity": "pharmacy", "check_date": "2023-02-11", "healthcare": "pharmacy"}}, {"type": "node", "id": 10648615702, "lat": 41.568269, "lon": 41.5717606, "tags": {"amenity": "pharmacy", "check_date": "2023-02-11", "healthcare": "pharmacy"}}, {"type": "node", "id": 10683290608, "lat": 41.6260684, "lon": 41.6106881, "tags": {"amenity": "pharmacy", "check_date": "2023-02-21", "healthcare": "pharmacy", "opening_hours": "24/7", "payment:mastercard": "yes", "payment:visa": "yes", "wheelchair": "no"}}, {"type": "node", "id": 10683290613, "lat": 41.6255727, "lon": 41.6108283, "tags": {"amenity": "pharmacy", "check_date": "2023-02-21", "healthcare": "pharmacy", "name": "\u10dc\u10d0\u10d6\u10d8\u10da\u10d1\u10d4", "name:en": "Nazilbe", "name:ka": "\u10dc\u10d0\u10d6\u10d8\u10da\u10d1\u10d4"}}, {"type": "node", "id": 10683290628, "lat": 41.625374, "lon": 41.6109218, "tags": {"amenity": "pharmacy", "check_date": "2024-03-05", "healthcare": "pharmacy", "name": "\u10d8\u10db\u10de\u10e3\u10da\u10e1\u10d8", "opening_hours": "24/7", "payment:mastercard": "yes", "payment:visa": "yes", "wheelchair": "no"}}, {"type": "node", "id": 10693109323, "lat": 41.6389431, "lon": 41.6120966, "tags": {"amenity": "pharmacy", "check_date": "2023-02-25", "check_date:opening_hours": "2023-02-28", "healthcare": "pharmacy", "name": "Gies pharm", "opening_hours:signed": "no"}}, {"type": "node", "id": 10725864791, "lat": 41.5859609, "lon": 41.5943728, "tags": {"amenity": "pharmacy", "check_date": "2023-03-10", "healthcare": "pharmacy", "name": "\u10e4\u10d0\u10e0\u10db\u10d0\u10db\u10d4\u10d3\u10d8"}}, {"type": "node", "id": 10725864802, "lat": 41.5853358, "lon": 41.5945748, "tags": {"amenity": "pharmacy", "check_date": "2023-03-10", "healthcare": "pharmacy", "name": "\u10d9\u10d0\u10e2\u10d4\u10da\u10d8\u10dc", "name:en": "Katelin", "name:ka": "\u10d9\u10d0\u10e2\u10d4\u10da\u10d8\u10dc"}}, {"type": "node", "id": 10755838077, "lat": 41.5493842, "lon": 41.5644782, "tags": {"amenity": "pharmacy", "check_date": "2023-03-23", "healthcare": "pharmacy"}}, {"type": "node", "id": 10944089533, "lat": 41.6334703, "lon": 41.6101865, "tags": {"addr:housenumber": "14", "addr:street": "\u10d9\u10dd\u10d1\u10d0\u10da\u10d0\u10eb\u10d8\u10e1 \u10e5\u10e3\u10e9\u10d0", "amenity": "pharmacy", "check_date": "2023-05-30", "healthcare": "pharmacy", "level": "0", "name": "\u10e4\u10d0\u10e0\u10db \u10e5\u10da\u10e3\u10d1\u10d8", "name:en": "Pharm Club", "name:ka": "\u10e4\u10d0\u10e0\u10db \u10e5\u10da\u10e3\u10d1\u10d8"}}, {"type": "node", "id": 11255250548, "lat": 41.6350423, "lon": 41.6082964, "tags": {"amenity": "pharmacy", "brand": "\u10ef\u10de\u10e1", "brand:en": "GPC", "brand:wikidata": "Q115971130", "check_date": "2023-10-11", "contact:email": "info@gepha.com", "contact:facebook": "https://facebook.com/gpcpharmacy", "healthcare": "pharmacy", "level": "0", "name": "\u10ef\u10de\u10e1", "name:en": "GPC", "name:ka": "\u10ef\u10de\u10e1", "operator:wikidata": "Q115971130", "payment:american_express": "yes", "payment:contactless": "yes", "payment:credit_cards": "yes", "payment:debit_cards": "yes", "payment:mastercard": "yes", "payment:visa": "yes", "wheelchair": "yes"}}]}