{"version": 0.6, "generator": "Overpass API 0.7.61.5 4133829e", "osm3s": {"timestamp_osm_base": "2024-03-14T21:59:00Z", "copyright": "The data included in this document is from www.openstreetmap.org. The data is made available under ODbL."}, "elements": [{"type": "node", "id": 1835504449, "lat": 59.5985822, "lon": 13.7181538, "tags": {"addr:city": "Molkom", "addr:country": "SE", "addr:housenumber": "4", "addr:postcode": "655 60", "addr:street": "Graningev\u00e4gen", "amenity": "restaurant", "cuisine": "regional;pizza", "name": "Lilla huset", "opening_hours": "Mo-Fr 11:00-21:00; Sa,Su 12:00-21:00", "phone": "+46 553 41555"}}, {"type": "node", "id": 2422199672, "lat": 59.6165387, "lon": 13.8809983}, {"type": "node", "id": 2422199674, "lat": 59.616621, "lon": 13.8811459}, {"type": "node", "id": 2422199676, "lat": 59.616671, "lon": 13.8807103}, {"type": "node", "id": 2422199677, "lat": 59.6167531, "lon": 13.880858}, {"type": "node", "id": 2860448864, "lat": 59.7130078, "lon": 14.1725388}, {"type": "node", "id": 2860448865, "lat": 59.7132082, "lon": 14.1725294}, {"type": "node", "id": 2912442180, "lat": 59.7130138, "lon": 14.1727875}, {"type": "node", "id": 2912442183, "lat": 59.7132161, "lon": 14.1727605}, {"type": "node", "id": 2925993722, "lat": 59.7130942, "lon": 14.1725272}, {"type": "node", "id": 2925993723, "lat": 59.7130951, "lon": 14.1725444}, {"type": "node", "id": 2982595361, "lat": 59.9840498, "lon": 14.1775186}, {"type": "node", "id": 2982595364, "lat": 59.9840799, "lon": 14.1776916}, {"type": "node", "id": 2982595373, "lat": 59.9841843, "lon": 14.1774251}, {"type": "node", "id": 2982595375, "lat": 59.9842144, "lon": 14.1775981}, {"type": "node", "id": 3320191472, "lat": 59.6243881, "lon": 14.2605086}, {"type": "node", "id": 3320191473, "lat": 59.6243991, "lon": 14.2602476}, {"type": "node", "id": 3320191474, "lat": 59.6244576, "lon": 14.26052}, {"type": "node", "id": 3320191476, "lat": 59.6244686, "lon": 14.260259}, {"type": "node", "id": 3613207144, "lat": 59.7314346, "lon": 14.1981437}, {"type": "node", "id": 3613207145, "lat": 59.731435, "lon": 14.1979671}, {"type": "node", "id": 3613207146, "lat": 59.7314696, "lon": 14.198144}, {"type": "node", "id": 3613207147, "lat": 59.7314696, "lon": 14.1981789}, {"type": "node", "id": 3613207148, "lat": 59.7314799, "lon": 14.198179}, {"type": "node", "id": 3613207149, "lat": 59.7314799, "lon": 14.1981957}, {"type": "node", "id": 3613207150, "lat": 59.7314803, "lon": 14.1979675}, {"type": "node", "id": 3613207151, "lat": 59.7314804, "lon": 14.1979257}, {"type": "node", "id": 3613207152, "lat": 59.7314807, "lon": 14.1978018}, {"type": "node", "id": 3613207153, "lat": 59.7315493, "lon": 14.1980324}, {"type": "node", "id": 3613207154, "lat": 59.7315498, "lon": 14.1978024}, {"type": "node", "id": 3613207155, "lat": 59.7315542, "lon": 14.1981963}, {"type": "node", "id": 3613207156, "lat": 59.7315543, "lon": 14.1981372}, {"type": "node", "id": 3613207157, "lat": 59.7316087, "lon": 14.1981376}, {"type": "node", "id": 3613207158, "lat": 59.7316089, "lon": 14.1980329}, {"type": "node", "id": 4315743672, "lat": 59.7125353, "lon": 14.1733874, "tags": {"amenity": "cafe", "name": "Vikings Hamncaf\u00e9"}}, {"type": "node", "id": 4315981091, "lat": 59.7128337, "lon": 14.1647027, "tags": {"amenity": "restaurant", "cuisine": "pizza", "name": "La Strada Filipstad"}}, {"type": "node", "id": 5101979781, "lat": 59.7532716, "lon": 14.2484798, "tags": {"amenity": "restaurant", "cuisine": "regional", "name": "Oxbrog\u00e5rdens g\u00e4stgiveri"}}, {"type": "node", "id": 5196666612, "lat": 59.5863557, "lon": 14.1741}, {"type": "node", "id": 5196666613, "lat": 59.5862452, "lon": 14.1740182}, {"type": "node", "id": 5196666614, "lat": 59.5862083, "lon": 14.1742126}, {"type": "node", "id": 5196666615, "lat": 59.5863188, "lon": 14.1742944}, {"type": "node", "id": 6173996513, "lat": 59.6047789, "lon": 14.4810045, "tags": {"amenity": "restaurant"}}, {"type": "node", "id": 7075607000, "lat": 59.7138814, "lon": 14.1651383, "tags": {"amenity": "restaurant", "name": "Mr Chicken"}}, {"type": "node", "id": 7075607003, "lat": 59.7123837, "lon": 14.1687444, "tags": {"amenity": "cafe", "name": "Caf\u00e9 Huset"}}, {"type": "node", "id": 8567530818, "lat": 59.9753625, "lon": 14.1856362, "tags": {"addr:city": "Lesj\u00f6fors", "addr:country": "SE", "addr:housenumber": "71", "addr:postcode": "682 60", "addr:street": "Bergslagsgatan", "amenity": "restaurant", "name": "Lesj\u00f6fors pizzeria och restaurang"}}, {"type": "node", "id": 8857210422, "lat": 59.7139015, "lon": 14.1654323, "tags": {"amenity": "cafe", "name": "Berlin caf\u00e9"}}, {"type": "node", "id": 8857210479, "lat": 59.7127864, "lon": 14.1669171, "tags": {"amenity": "restaurant", "name": "Werewolf cafe"}}, {"type": "node", "id": 8857210492, "lat": 59.7125558, "lon": 14.166869, "tags": {"amenity": "restaurant", "name": "New Asia"}}, {"type": "node", "id": 11074835505, "lat": 59.9780253, "lon": 14.1864605, "tags": {"amenity": "cafe", "cuisine": "cake;coffee_shop;ice_cream", "name:en": "Museum caf\u00e9"}}, {"type": "node", "id": 11075168106, "lat": 59.7120418, "lon": 14.1699057, "tags": {"amenity": "restaurant", "name": "Zolboo Sushi"}}, {"type": "node", "id": 11083457905, "lat": 59.5968537, "lon": 13.7311201, "tags": {"amenity": "restaurant", "name": "Annso Grillen"}}, {"type": "node", "id": 11083458205, "lat": 59.594452, "lon": 13.7032462, "tags": {"amenity": "cafe", "name": "Cafe & Antikt"}}, {"type": "way", "id": 233903939, "nodes": [2422199674, 2422199672, 2422199676, 2422199677, 2422199674], "tags": {"amenity": "cafe", "building": "yes"}}, {"type": "way", "id": 276209242, "nodes": [2860448865, 2912442183, 2912442180, 2860448864, 2925993722, 2925993723, 2860448865], "tags": {"addr:country": "SE", "addr:housenumber": "7", "addr:street": "Viktoriagatan", "amenity": "restaurant", "building": "commercial", "cuisine": "italian;pizza;burger", "name": "K\u00f6ket"}}, {"type": "way", "id": 294668688, "nodes": [2982595373, 2982595361, 2982595364, 2982595375, 2982595373], "tags": {"addr:city": "Lesj\u00f6fors", "addr:country": "SE", "addr:housenumber": "87", "addr:postcode": "680 96", "addr:street": "Bergslagsgatan", "amenity": "cafe", "building": "train_station", "contact:phone": "+46 590 30010", "contact:website": "http://www.cafestationshuset.com", "name": "Caf\u00e9 Stationshuset", "shop": "interior_decoration", "short_name": "Stationshuset", "source": "MapBox"}}, {"type": "way", "id": 325349258, "nodes": [3320191473, 3320191476, 3320191474, 3320191472, 3320191473], "tags": {"amenity": "cafe", "building": "yes", "name": "Pr\u00e4stb\u00e4cksrasta"}}, {"type": "way", "id": 355785597, "nodes": [3613207152, 3613207154, 3613207153, 3613207158, 3613207157, 3613207156, 3613207155, 3613207149, 3613207148, 3613207147, 3613207146, 3613207144, 3613207145, 3613207150, 3613207151, 3613207152], "tags": {"addr:city": "Filipstad", "addr:country": "SE", "addr:housenumber": "1", "addr:postcode": "682 34", "addr:street": "Storh\u00f6jdsv\u00e4gen", "amenity": "restaurant", "building": "yes", "email": "utpostenscafe@gmail.com", "name": "Big Hill Lodge", "phone": "+46 590-104 13", "website": "http://www.utpostens.se/"}}, {"type": "way", "id": 536449820, "nodes": [5196666612, 5196666613, 5196666614, 5196666615, 5196666612], "tags": {"amenity": "cafe", "building": "yes", "email": "slusscafe@hotmail.com", "name": "Bjurb\u00e4ckens Slusscaf\u00e9", "opening_hours": "May Su[-1]-Aug 28: 11:00-18:00", "opening_hours:url": "http://www.slusscafe.se/48830104", "outdoor_seating": "yes", "phone": "+46 72 238 43 00", "website": "https://slusscafe.se/"}}]}