{"version": 0.6, "generator": "Overpass API 0.7.61.5 4133829e", "osm3s": {"timestamp_osm_base": "2024-03-14T21:59:00Z", "copyright": "The data included in this document is from www.openstreetmap.org. The data is made available under ODbL."}, "elements": [{"type": "node", "id": 142622334, "lat": 60.1509811, "lon": 15.1866278, "tags": {"addr:city": "Ludvika", "addr:country": "SE", "addr:housenumber": "6", "addr:postcode": "771 31", "addr:street": "Eriksgatan", "alt_name": "Best Western Grand Hotell Elektra", "amenity": "restaurant", "name": "Grand Hotel Elektra", "opening_hours": "Mo-Fr 18:00-22:00", "operator": "Best Western", "tourism": "hotel"}}, {"type": "node", "id": 354981035, "lat": 60.1502959, "lon": 15.1854553, "tags": {"amenity": "restaurant", "cuisine": "chinese", "name": "Chinatown"}}, {"type": "node", "id": 411503082, "lat": 60.0187048, "lon": 14.6226467, "tags": {"amenity": "restaurant", "name": "Hyttsj\u00f6boa"}}, {"type": "node", "id": 473138619, "lat": 60.1507136, "lon": 15.1878795, "tags": {"amenity": "restaurant", "cuisine": "italian", "name": "Pizzeria Sole Mio"}}, {"type": "node", "id": 473138626, "lat": 60.1497129, "lon": 15.1855818, "tags": {"amenity": "restaurant", "cuisine": "regional", "name": "Gallerian"}}, {"type": "node", "id": 473138648, "lat": 60.14955, "lon": 15.1850025, "tags": {"addr:city": "Ludvika", "addr:country": "SE", "addr:housenumber": "30", "addr:postcode": "771 30", "addr:street": "Storgatan", "amenity": "cafe", "name": "Bergslagskonditoriet", "phone": "+46-240-10338", "short_name": "BK", "website": "http://www.bergslagskonditoriet.se"}}, {"type": "node", "id": 473141839, "lat": 60.1408237, "lon": 15.1791727, "tags": {"amenity": "restaurant", "cuisine": "pizza", "name": "Pizzeria Milano"}}, {"type": "node", "id": 473142374, "lat": 60.1438405, "lon": 15.1928369, "tags": {"amenity": "restaurant", "cuisine": "pizza", "name": "Pizzeria Etna"}}, {"type": "node", "id": 473782916, "lat": 60.1563316, "lon": 15.1881756, "tags": {"amenity": "cafe", "name": "V\u00e5ffelbruket", "website": "https://vaffelbruket.com"}}, {"type": "node", "id": 474739637, "lat": 60.1524058, "lon": 15.1989168, "tags": {"amenity": "restaurant", "cuisine": "pizza", "name": "Milano"}}, {"type": "node", "id": 474739640, "lat": 60.1513508, "lon": 15.2011654, "tags": {"amenity": "restaurant", "cuisine": "pizza"}}, {"type": "node", "id": 493926275, "lat": 60.1508263, "lon": 15.1874667, "tags": {"amenity": "cafe", "name": "Juicerisa Caf\u00e9 Juice Fruite"}}, {"type": "node", "id": 493926278, "lat": 60.1512292, "lon": 15.1873184, "tags": {"amenity": "cafe", "name": "Priq Caf\u00e9 och konfektyr"}}, {"type": "node", "id": 493926283, "lat": 60.1514107, "lon": 15.188678, "tags": {"addr:housenumber": "12", "addr:street": "Tingshusgatan", "amenity": "restaurant", "check_date": "2023-07-16", "cuisine": "pizza", "name": "Pizzeria Monte Carlo", "opening_hours": "Mo-Th 11:00-21:00; Fr 11:00-22:00; Sa 12:00-22:00; Su 12:00-21:00", "website": "http://montecarloludvika.se/"}}, {"type": "node", "id": 834659034, "lat": 60.2609383, "lon": 14.9851621, "tags": {"amenity": "restaurant", "cuisine": "pizza"}}, {"type": "node", "id": 918581649, "lat": 60.079746, "lon": 14.9849161, "tags": {"amenity": "cafe", "name": "Tr\u00e4dg\u00e5rdscaf\u00e9et"}}, {"type": "node", "id": 924619492, "lat": 60.3002337, "lon": 15.2808786, "tags": {"amenity": "restaurant", "name": "L\u00e5ngsj\u00f6ns rastplats"}}, {"type": "node", "id": 1088078180, "lat": 60.4132677, "lon": 15.319924}, {"type": "node", "id": 1471185136, "lat": 60.1507114, "lon": 15.1866416, "tags": {"amenity": "nightclub", "name": "Solo", "source": "local_knowledge"}}, {"type": "node", "id": 1590085737, "lat": 60.1476327, "lon": 15.1829377, "tags": {"amenity": "restaurant", "cuisine": "pizza", "ele": "158.42", "name": "Pizzeria Flamenco", "source": "survey"}}, {"type": "node", "id": 1972068035, "lat": 60.1445953, "lon": 15.1781064, "tags": {"addr:city": "Ludvika", "addr:country": "SE", "addr:housenumber": "1", "addr:postcode": "771 31", "addr:street": "Lyviksv\u00e4gen", "amenity": "restaurant", "description": "Lunchrestaurang, Restraunt", "description:sv": "Lunchrestaurang", "name": "Kantina AB", "old_name": "Kanelen;Sinus", "outdoor_seating": "yes"}}, {"type": "node", "id": 2260228709, "lat": 60.110611, "lon": 14.909359, "tags": {"amenity": "cafe", "ele": "421.21", "name": "V\u00e5ffelstugan Ljung\u00e5sen", "note": "\u00d6ppet p\u00e5 helgdagar vintertid samt under hela sportlovet. opening_hours \u00e4r en uppskattning.", "opening_hours": "week 1-12 Sa-Su 10:00-15:00; week 48-52 Sa-Su 10:00-16:00", "operator": "Mormor Ullas Kaf\u00e9", "snowmobile": "yes", "website": "http://www.mormorullas.com/"}}, {"type": "node", "id": 2444471388, "lat": 60.1034888, "lon": 15.2171373, "tags": {"amenity": "restaurant", "name": "R\u00e4fsn\u00e4sg\u00e5rden", "tourism": "hostel"}}, {"type": "node", "id": 2450980248, "lat": 60.151529, "lon": 15.188028, "tags": {"alt_name": "Coco Thai", "amenity": "restaurant", "cuisine": "thai", "ele": "163.34", "name": "Co Co Thai Restaurang", "not:brand:wikidata": "Q65084369", "opening_hours": "Tu-Fr 11:00-21:00; Sa 12:00-21:00; Su 12:00-20:00", "phone": "+46-240-16888", "short_name": "Co Co Thai", "source": "survey"}}, {"type": "node", "id": 3368338899, "lat": 60.1510219, "lon": 15.1864418, "tags": {"amenity": "restaurant", "name": "Lobbybaren", "opening_hours": "Mo-Th 15:00-24:00; Fr 15:00-23:00; Sa 15:00-24:00"}}, {"type": "node", "id": 4912924961, "lat": 60.1490007, "lon": 15.1854917, "tags": {"addr:street": "Engelbrektsgatan", "amenity": "restaurant", "cuisine": "greek;turkish", "name": "Akropolis", "outdoor_seating": "yes", "takeaway": "yes"}}, {"type": "node", "id": 5026264320, "lat": 60.1485389, "lon": 15.1839974, "tags": {"amenity": "restaurant", "cuisine": "asian;chinese", "name": "Golden Crown"}}, {"type": "node", "id": 6839754518, "lat": 60.1497183, "lon": 15.1851798, "tags": {"addr:city": "Ludvika", "addr:country": "SE", "addr:housenumber": "30", "addr:postcode": "771 30", "addr:street": "Storgatan", "amenity": "cafe", "brand": "Espresso House", "brand:wikidata": "Q10489162", "brand:wikipedia": "en:Espresso House", "check_date": "2023-07-07", "cuisine": "coffee_shop", "internet_access": "yes", "internet_access:fee": "no", "name": "Espresso House", "opening_hours": "Mo-Fr 08:00-19:00 Sa 09:00-19:00 Su 10:00-19:00", "outdoor_seating": "yes", "takeaway": "yes", "website": "https://espressohouse.com/coffee-shops/ludvika/"}}, {"type": "node", "id": 7005149317, "lat": 60.4133279, "lon": 15.3206171}, {"type": "node", "id": 7005149323, "lat": 60.4129916, "lon": 15.3208424}, {"type": "node", "id": 7005149326, "lat": 60.4129291, "lon": 15.3200458}, {"type": "node", "id": 8075341352, "lat": 60.2175833, "lon": 14.960663, "tags": {"addr:city": "Sunnansj\u00f6", "addr:country": "SE", "addr:housenumber": "26", "addr:postcode": "770 12", "addr:street": "Hyttv\u00e4gen", "amenity": "cafe", "dog": "yes", "name": "Marias Salong & Presentbutik & 50-tals nostalgicaf\u00e9", "short_name": "Marias Nostalgicaf\u00e9", "website": "https://mariassalong.vpsite.se"}}, {"type": "node", "id": 8935985289, "lat": 60.1534294, "lon": 14.9755427, "tags": {"amenity": "cafe", "name": "Caf\u00e9 & D\u00e9", "outdoor_seating": "yes"}}, {"type": "node", "id": 10050354554, "lat": 60.2859264, "lon": 14.9703158, "tags": {"amenity": "cafe", "name": "Gamla Brukskontoret Bageri & Konditori", "outdoor_seating": "yes", "website": "https://gamlabrukskontoret.se"}}, {"type": "node", "id": 11204620913, "lat": 60.1506848, "lon": 15.2012605, "tags": {"amenity": "restaurant"}}, {"type": "way", "id": 749091320, "nodes": [7005149317, 1088078180, 7005149326, 7005149323, 7005149317], "tags": {"addr:city": "Borl\u00e4nge", "addr:housenumber": "8A", "addr:postcode": "781 97", "amenity": "cafe", "name": "Murboannas - G\u00e5rdsmejeri, caf\u00e9 & g\u00e5rdsbutik", "shop": "dairy", "short_name": "Murboannas", "website": "https://www.murboannas.se"}}]}