{"version": 0.6, "generator": "Overpass API 0.7.61.5 4133829e", "osm3s": {"timestamp_osm_base": "2024-03-14T21:59:00Z", "copyright": "The data included in this document is from www.openstreetmap.org. The data is made available under ODbL."}, "elements": [{"type": "node", "id": 299169416, "lat": 58.3080892, "lon": 14.2536698, "tags": {"amenity": "restaurant", "name": "Stampens kvarn", "opening_hours": "We-Su 10:00-16:00"}}, {"type": "node", "id": 336074092, "lat": 58.3903742, "lon": 13.8476284, "tags": {"amenity": "restaurant", "name": "Yummy D\u00f6ner", "opening_hours": "Mo-Th 11:00-20:00, Fr,Sa 11:00-03:00, Su 12:00-20:00"}}, {"type": "node", "id": 389079287, "lat": 58.5754006, "lon": 14.4343841}, {"type": "node", "id": 389079288, "lat": 58.5752728, "lon": 14.4342677}, {"type": "node", "id": 389079289, "lat": 58.5753032, "lon": 14.434097}, {"type": "node", "id": 389079290, "lat": 58.5754413, "lon": 14.4341556}, {"type": "node", "id": 430513436, "lat": 58.3026432, "lon": 14.2902146, "tags": {"amenity": "cafe", "cuisine": "ice_cream", "name": "\u00d6sterhagen"}}, {"type": "node", "id": 514799195, "lat": 58.3060253, "lon": 14.2954094, "tags": {"amenity": "restaurant", "name": "Frestelsen", "name:sv": "Biergarten", "opening_hours": "Tu-Fr 17:00-22:00; Sa 12:00-01:00"}}, {"type": "node", "id": 597194280, "lat": 58.3896008, "lon": 13.8464498, "tags": {"amenity": "cafe", "indoor_seating": "yes", "name": "Den lilla krogen", "opening_hours": "Mo-Th 17:30-18:00+; Fr,Sa 17:00-18:00+", "outdoor_seating": "yes"}}, {"type": "node", "id": 597194305, "lat": 58.3911667, "lon": 13.8482412, "tags": {"amenity": "restaurant", "name": "Sam's Noodles", "opening_hours": "Tu-Th 11:00-21:00; Fr 11:00-22:00; Sa 12:00-22:00; Su 01:00-20:30"}}, {"type": "node", "id": 597194306, "lat": 58.3908496, "lon": 13.8485097, "tags": {"amenity": "restaurant", "cuisine": "lebanese", "name": "Sand meza & lounge"}}, {"type": "node", "id": 597194308, "lat": 58.3908489, "lon": 13.8484516, "tags": {"amenity": "restaurant", "cuisine": "steak_house", "name": "Joe's Steakhouse"}}, {"type": "node", "id": 602891415, "lat": 58.4225211, "lon": 14.1636241, "tags": {"amenity": "restaurant", "cuisine": "pizza", "name": "\u00d6rlenbadets Pizzeria II", "opening_hours": "Mo-Th 11:00-21:00; Fr-Sa 11:00-22:00; Su 12:00-21:00"}}, {"type": "node", "id": 637024151, "lat": 58.603174, "lon": 14.3112188, "tags": {"amenity": "cafe"}}, {"type": "node", "id": 829532184, "lat": 58.4240646, "lon": 14.1634896, "tags": {"addr:city": "Tibro", "addr:country": "SE", "addr:housenumber": "2", "addr:postcode": "54330", "addr:street": "All\u00e9n", "amenity": "cafe", "cuisine": "coffee_shop", "internet_access": "no", "name": "Caf\u00e9 V\u00e4nner", "opening_hours": "Mo-Fr 08:30-18:00; Sa 10:00-14:00; Su 11:00-15:00", "source": "local knowledge", "website": "https://www.facebook.com/pages/Caf%C3%A9-V%C3%A4nner/204753879719860"}}, {"type": "node", "id": 861615462, "lat": 58.4755896, "lon": 13.8649298, "tags": {"amenity": "restaurant", "cuisine": "italian", "name": "Murano", "opening_hours": "Mo-Th 11:00-21:00, Fr-Sa 11:00-24:00, Su 12:00-21:00"}}, {"type": "node", "id": 872585188, "lat": 58.5020774, "lon": 13.9697217, "tags": {"amenity": "restaurant", "name": "Hedhamra V\u00e4rdshus", "opening_hours": "08:00-21:00"}}, {"type": "node", "id": 1070476006, "lat": 58.2869729, "lon": 13.6722606, "tags": {"amenity": "cafe", "name": "Albionstugan"}}, {"type": "node", "id": 1192579554, "lat": 58.3886849, "lon": 13.8442761, "tags": {"amenity": "restaurant", "cuisine": "thai;chinese", "name": "Orient Palace", "source": "survey"}}, {"type": "node", "id": 1192580334, "lat": 58.3891266, "lon": 13.8461266, "tags": {"addr:city": "Sk\u00f6vde", "addr:country": "SE", "addr:housenumber": "12", "addr:postcode": "54130", "addr:street": "R\u00e5dhusgatan", "amenity": "restaurant", "contact:phone": "+46500415530", "contact:website": "http://bombaymasala.se", "cuisine": "indian", "name": "Bombay Masala", "opening_hours": "Mo-Th 11:00-21:00; Fr 11:00-22:00; Sa 13:00-22:00; Su 13:00-21:00", "smoking": "no", "wheelchair": "no"}}, {"type": "node", "id": 1750932783, "lat": 58.5706664, "lon": 14.0048176, "tags": {"addr:country": "SE", "addr:housename": "\u00d6sterbergs Konditori", "addr:housenumber": "6", "addr:postcode": "54931", "addr:street": "N\u00e4rlundav\u00e4gen", "amenity": "cafe", "contact:facebook": "\u00d6sterbergs-Konditori", "internet_access": "no", "name": "\u00d6sterbergs Konditori", "opening_hours": "Mo-Fr 08:00-18:00", "phone": "+46 500 47 00 47"}}, {"type": "node", "id": 1802803109, "lat": 58.3898709, "lon": 13.8473583, "tags": {"al_fresco": "yes", "amenity": "restaurant", "cuisine": "regional", "name": "Gl\u00e4dje"}}, {"type": "node", "id": 2072985367, "lat": 58.392956, "lon": 13.8653136, "tags": {"amenity": "restaurant", "cuisine": "thai", "name": "Thai House", "website": "http://www.restaurangthaihouse.se/"}}, {"type": "node", "id": 2183290265, "lat": 58.3954309, "lon": 13.8533903, "tags": {"addr:city": "Sk\u00f6vde", "addr:country": "SE", "addr:housenumber": "21", "addr:postcode": "54145", "addr:street": "Mariestadsv\u00e4gen", "amenity": "restaurant", "cuisine": "thai", "internet_access": "no", "name": "Thai Thai", "opening_hours": "Mo-Th 11:00-15:00,17:00-21:00; Fr 11:00-22:00; Sa,Su 12:00-22:00", "phone": "+46500459090", "smoking": "no"}}, {"type": "node", "id": 2183290271, "lat": 58.3945838, "lon": 13.8528044, "tags": {"amenity": "cafe", "name": "Snax Box", "opening_hours": "Mo-Th 10:00-20:00; Fr 10:00-21:00; Sa 11:00-21:00"}}, {"type": "node", "id": 2388747189, "lat": 58.4107652, "lon": 13.8652931}, {"type": "node", "id": 2388747191, "lat": 58.4107782, "lon": 13.8653318}, {"type": "node", "id": 2388747192, "lat": 58.4107809, "lon": 13.8653274}, {"type": "node", "id": 2388747204, "lat": 58.4108165, "lon": 13.8652072}, {"type": "node", "id": 2388747205, "lat": 58.4108304, "lon": 13.8652375}, {"type": "node", "id": 2388747206, "lat": 58.4108358, "lon": 13.8652285}, {"type": "node", "id": 2388747209, "lat": 58.41085, "lon": 13.865488}, {"type": "node", "id": 2388747211, "lat": 58.4108526, "lon": 13.8652649}, {"type": "node", "id": 2388747216, "lat": 58.4108872, "lon": 13.8652069}, {"type": "node", "id": 2388747217, "lat": 58.4108882, "lon": 13.8653339}, {"type": "node", "id": 2388747222, "lat": 58.4109116, "lon": 13.8653849}, {"type": "node", "id": 2388747226, "lat": 58.4109206, "lon": 13.8652796}, {"type": "node", "id": 2736607821, "lat": 58.3010425, "lon": 14.2877451, "tags": {"amenity": "cafe", "name": "Vete&R\u00e5g"}}, {"type": "node", "id": 2736629316, "lat": 58.3026725, "lon": 14.2903395, "tags": {"amenity": "cafe", "cuisine": "ice_cream", "name": "\u00d6sterhagens Glass"}}, {"type": "node", "id": 2736631701, "lat": 58.3029671, "lon": 14.2925654, "tags": {"amenity": "cafe", "name": "Moster Elins glasscaf\u00e9"}}, {"type": "node", "id": 2736634667, "lat": 58.3031041, "lon": 14.293721, "tags": {"amenity": "restaurant", "name": "Bryggan/Norra Piren"}}, {"type": "node", "id": 2736638185, "lat": 58.3026996, "lon": 14.2915079, "tags": {"amenity": "restaurant", "name": "Hamnkrogen"}}, {"type": "node", "id": 2755770808, "lat": 58.3437855, "lon": 13.8281033, "tags": {"amenity": "restaurant", "cuisine": "pizza", "name": "Pizzahuset"}}, {"type": "node", "id": 2755770811, "lat": 58.3437969, "lon": 13.8282885, "tags": {"amenity": "restaurant", "cuisine": "V\u00e4gkrogen"}}, {"type": "node", "id": 2796750311, "lat": 58.2720834, "lon": 13.7126249, "tags": {"amenity": "restaurant", "cuisine": "pizza", "name": "Pizzeria Estelle"}}, {"type": "node", "id": 2796752182, "lat": 58.2720646, "lon": 13.7131263, "tags": {"amenity": "restaurant", "cuisine": "thai", "name": "Benya Thai Restaurang"}}, {"type": "node", "id": 3062576629, "lat": 58.4221391, "lon": 14.1665449, "tags": {"addr:city": "Tibro", "addr:country": "SE", "addr:housenumber": "10", "addr:postcode": "54332", "addr:street": "Storgatan", "amenity": "restaurant", "cuisine": "pizza", "name": "Milan", "opening_hours": "Mo-Th 11:00-22:00; Fr-Sa 11:00-23:00; Su 12:00-22:00", "phone": "+4650415226", "takeaway": "yes", "website": "https://www.facebook.com/Milan-111454695602713/"}}, {"type": "node", "id": 3226281454, "lat": 58.4247396, "lon": 14.1608375, "tags": {"addr:city": "Tibro", "addr:country": "SE", "addr:housenumber": "12", "addr:postcode": "54330", "addr:street": "Fredsgatan", "amenity": "restaurant", "capacity": "40", "cuisine": "asian", "name": "Restaurang China", "phone": "+4650413270", "smoking": "no"}}, {"type": "node", "id": 3226284028, "lat": 58.4246247, "lon": 14.1608985, "tags": {"addr:city": "Tibro", "addr:country": "SE", "addr:housenumber": "12", "addr:postcode": "54330", "addr:street": "Fredsgatan", "amenity": "restaurant", "cuisine": "thai", "name": "Sukalaya Baan Thai", "opening_hours": "Tu-Su 12:00-20:00", "phone": "+46720299660", "website": "https://www.facebook.com/sukalayabaanthai"}}, {"type": "node", "id": 3364721854, "lat": 58.3895617, "lon": 13.844062, "tags": {"amenity": "restaurant", "cuisine": "pizza", "name": "Mamma Mia"}}, {"type": "node", "id": 3369036719, "lat": 58.3938499, "lon": 13.8410964, "tags": {"amenity": "restaurant", "name": "Restaurang Valle"}}, {"type": "node", "id": 3433492868, "lat": 58.3892452, "lon": 13.851603, "tags": {"amenity": "cafe", "brand": "Espresso House", "brand:wikidata": "Q10489162", "brand:wikipedia": "sv:Espresso House", "cuisine": "coffee_shop", "diet:vegetarian": "yes", "name": "Espresso House", "opening_hours": "Mo-Fr 06:00-19:00; Sa,Su 08:00-18:00", "source": "survey", "takeaway": "yes"}}, {"type": "node", "id": 3433547352, "lat": 58.389549, "lon": 13.8483282, "tags": {"al_fresco": "yes", "amenity": "cafe", "name": "Euro-Baguette"}}, {"type": "node", "id": 3433547356, "lat": 58.3899918, "lon": 13.8476738, "tags": {"addr:city": "Sk\u00f6vde", "addr:country": "SE", "addr:housenumber": "3", "addr:postcode": "541 30", "addr:street": "Sankt Sigfrids gata", "al_fresco": "yes", "amenity": "restaurant", "contact:email": "info@skovde.pinchos.se", "contact:facebook": "https://www.facebook.com/restaurangpinchos", "contact:instagram": "https://www.instagram.com/eatpinchos", "contact:website": "https://www.pinchos.se/restaurant/se-skovde-st-sigfrid", "diet:vegan": "yes", "diet:vegetarian": "yes", "name": "Pinchos", "opening_hours": "Mo-Tu off; We-Th 17:00-20:00; Fr-Su 16:00-21:00"}}, {"type": "node", "id": 3433581995, "lat": 58.3898216, "lon": 13.8464453, "tags": {"al_fresco": "yes", "amenity": "cafe", "diet:vegan": "yes", "diet:vegetarian": "yes", "indoor_seating": "yes", "name": "R\u00e5dhuset", "opening_hours": "Su-Fr 11:00-21:00; Sa 10:00-18:00", "outdoor_seating": "yes", "source": "survey", "wheelchair": "limited"}}, {"type": "node", "id": 3433760561, "lat": 58.388198, "lon": 13.8473065, "tags": {"amenity": "cafe", "cuisine": "chinese", "name": "China Town", "source": "survey"}}, {"type": "node", "id": 3583662032, "lat": 58.5782508, "lon": 14.4350204, "tags": {"addr:city": "Forsvik", "addr:postcode": "54673", "addr:street": "Baltzar von Platens v\u00e4g", "amenity": "cafe", "name": "Kaf\u00e9 Ada", "phone": "+46 505-41137"}}, {"type": "node", "id": 3797960957, "lat": 58.4249978, "lon": 14.1618716, "tags": {"addr:city": "Tibro", "addr:country": "SE", "addr:housenumber": "3", "addr:postcode": "54330", "addr:street": "Torggatan", "amenity": "restaurant", "cuisine": "sushi", "delivery": "no", "name": "Nikko Sushi", "opening_hours": "Mo-Fr 11:30-20:00, Sa-Su 12:30-20:00", "phone": "+46504791202;+46729311710", "smoking": "no", "takeaway": "yes", "website": "http://www.nikkosushi.se/"}}, {"type": "node", "id": 3797963042, "lat": 58.4240267, "lon": 14.1617174, "tags": {"addr:city": "Tibro", "addr:country": "SE", "addr:housenumber": "3", "addr:postcode": "54330", "addr:street": "Stora torget", "amenity": "restaurant", "cuisine": "pizza", "delivery": "yes", "name": "Pizzeria Campino", "opening_hours": "Mo-Su 11:00-22:00", "phone": "+4650412788", "takeaway": "yes", "website": "https://www.facebook.com/Pizzeria-Campino-800361503373568/"}}, {"type": "node", "id": 3797969360, "lat": 58.4245615, "lon": 14.1638608, "tags": {"addr:city": "Tibro", "addr:country": "SE", "addr:housenumber": "8", "addr:postcode": "54330", "addr:street": "Stora torget", "amenity": "restaurant", "cuisine": "pizza", "name": "Pinky's Salladsbar", "opening_hours": "Mo-Th 10:00-21:00; Fr 10:00-22:00; Sa 12:00-22:00; Su 12:00-21:00", "phone": "+4650415520", "takeaway": "yes", "website": "https://www.facebook.com/pages/Pinkys/143203395747832"}}, {"type": "node", "id": 3798007816, "lat": 58.430345, "lon": 14.1602953, "tags": {"addr:city": "Tibro", "addr:country": "SE", "addr:housenumber": "24", "addr:postcode": "54330", "addr:street": "Mariestadsv\u00e4gen", "amenity": "restaurant", "cuisine": "pizza", "name": "Tibro Bar & Grill", "opening_hours": "Mo-Su 11:00-22:00", "phone": "+4650410666", "takeaway": "yes", "website": "http://www.tibrobarogrill.se/"}}, {"type": "node", "id": 3798022838, "lat": 58.4312763, "lon": 14.1605023, "tags": {"addr:city": "Tibro", "addr:country": "SE", "addr:housenumber": "26", "addr:postcode": "54330", "addr:street": "Mariestadsv\u00e4gen", "amenity": "nightclub", "name": "Millners", "phone": "+46709900465", "website": "https://www.millners.nu/"}}, {"type": "node", "id": 3894985374, "lat": 58.3972768, "lon": 13.8445814, "tags": {"addr:city": "Sk\u00f6vde", "addr:country": "SE", "addr:housenumber": "16", "addr:postcode": "54141", "addr:street": "K\u00e4pplundav\u00e4gen", "amenity": "restaurant", "cuisine": "pizza", "delivery": "yes", "drive_through": "no", "name": "Pizzeria Babylon", "phone": "+46 500 415141", "smoking": "no", "takeaway": "yes"}}, {"type": "node", "id": 4217733035, "lat": 58.4643644, "lon": 14.2494643}, {"type": "node", "id": 4336040332, "lat": 58.6097769, "lon": 14.1895697}, {"type": "node", "id": 4336040333, "lat": 58.6098097, "lon": 14.1890882}, {"type": "node", "id": 4336040334, "lat": 58.609438, "lon": 14.1894152}, {"type": "node", "id": 4336040335, "lat": 58.6092968, "lon": 14.1897621}, {"type": "node", "id": 4336040336, "lat": 58.6091905, "lon": 14.1903072}, {"type": "node", "id": 4336040337, "lat": 58.6093803, "lon": 14.1906278}, {"type": "node", "id": 4336040338, "lat": 58.6095928, "lon": 14.1907386}, {"type": "node", "id": 4336040339, "lat": 58.6096672, "lon": 14.1906948}, {"type": "node", "id": 4473962504, "lat": 58.4065329, "lon": 13.8534792, "tags": {"amenity": "restaurant", "cuisine": "pizza;grill;burger", "diet:vegan": "no", "diet:vegetarian": "yes", "name": "Alpina Restaurang & Pizzeria", "name:sv": "Alpina Restaurang & Pizzeria", "phone": "+46500484811", "website": "https://www.restaurangalpina.se/", "wheelchair": "yes"}}, {"type": "node", "id": 4491522346, "lat": 58.641747, "lon": 13.7021393, "tags": {"addr:street": "Bj\u00f6rs\u00e4tersv\u00e4gen", "amenity": "restaurant", "cuisine": "pizza", "delivery": "no", "name": "E3 Barens Restaurang och Pizzeria", "opening_hours": "Mo-Su 11:00-21:00", "phone": "+46 501-40900", "smoking": "no", "takeaway": "yes", "wheelchair": "yes"}}, {"type": "node", "id": 4993642519, "lat": 58.4256308, "lon": 14.1620892}, {"type": "node", "id": 4993642520, "lat": 58.4256019, "lon": 14.16193}, {"type": "node", "id": 4993647821, "lat": 58.4257141, "lon": 14.1618557}, {"type": "node", "id": 4993647822, "lat": 58.4256493, "lon": 14.162077}, {"type": "node", "id": 4993647823, "lat": 58.4256547, "lon": 14.1621069}, {"type": "node", "id": 4993647824, "lat": 58.4257484, "lon": 14.1620449}, {"type": "node", "id": 5097047217, "lat": 58.5753798, "lon": 14.4341472}, {"type": "node", "id": 5097047218, "lat": 58.5753849, "lon": 14.4341186}, {"type": "node", "id": 5143889494, "lat": 58.4098946, "lon": 13.8380171}, {"type": "node", "id": 5143889495, "lat": 58.4098812, "lon": 13.8382458}, {"type": "node", "id": 5143889496, "lat": 58.40996, "lon": 13.8382626}, {"type": "node", "id": 5143889497, "lat": 58.4099724, "lon": 13.8380681}, {"type": "node", "id": 5426091278, "lat": 58.4643203, "lon": 14.2492275}, {"type": "node", "id": 5426091279, "lat": 58.4642141, "lon": 14.2492996}, {"type": "node", "id": 5426091280, "lat": 58.4642817, "lon": 14.2495204}, {"type": "node", "id": 5501558121, "lat": 58.3908383, "lon": 13.8458623, "tags": {"amenity": "restaurant", "cuisine": "noodles;thai", "internet_access": "wlan", "name": "Spice 'n rice"}}, {"type": "node", "id": 5590616287, "lat": 58.424787, "lon": 14.1610551, "tags": {"addr:city": "Tibro", "addr:country": "SE", "addr:housenumber": "12b", "addr:postcode": "54330", "addr:street": "Fredsgatan", "amenity": "bar", "brewery": "Eriksberg;Falcon", "name": "Foekcorner", "opening_hours": "Mo-Fr 22:00-05:00", "outdoor_seating": "no", "smoking": "no"}}, {"type": "node", "id": 5660440912, "lat": 58.4263182, "lon": 13.8729544, "tags": {"addr:city": "Sk\u00f6vde", "addr:country": "SE", "addr:housenumber": "3", "addr:postcode": "54163", "addr:street": "Timmerv\u00e4gen", "addr:unit": "a", "amenity": "restaurant", "cuisine": "pizza", "name": "Napoli", "outdoor_seating": "no", "phone": "+46 500 43 66 35", "website": "https://pizzerianapoliryd.se/"}}, {"type": "node", "id": 5662238061, "lat": 58.3844554, "lon": 13.8443651, "tags": {"addr:city": "Sk\u00f6vde", "addr:country": "SE", "addr:housenumber": "2", "addr:street": "Skaraborgsv\u00e4gen", "amenity": "restaurant", "cuisine": "pizza;burger;pasta", "name": "Benidorm", "opening_hours": "Mo-Th 11:00-22:00; Fr-Sa 11:00-23:00; Su 12:00-23:00", "outdoor_seating": "no", "phone": "+46 500-41 59 18", "website": "https://benidorm.kvartersmenyn.se/"}}, {"type": "node", "id": 5935433917, "lat": 58.4314829, "lon": 14.1604758}, {"type": "node", "id": 5935433918, "lat": 58.4314713, "lon": 14.1607421}, {"type": "node", "id": 5935433919, "lat": 58.4314209, "lon": 14.1607341}, {"type": "node", "id": 5935433920, "lat": 58.4314168, "lon": 14.160828}, {"type": "node", "id": 5935433921, "lat": 58.4313003, "lon": 14.1608095}, {"type": "node", "id": 5935433922, "lat": 58.4312826, "lon": 14.1612142}, {"type": "node", "id": 5935433923, "lat": 58.4310868, "lon": 14.161183}, {"type": "node", "id": 5935433924, "lat": 58.4311201, "lon": 14.1604181}, {"type": "node", "id": 5935433937, "lat": 58.4311159, "lon": 14.1605154}, {"type": "node", "id": 5964901848, "lat": 58.350048, "lon": 14.04979, "tags": {"addr:city": "V\u00e4rs\u00e5s", "addr:street": "Djurs\u00e4trav\u00e4gen", "amenity": "restaurant", "cuisine": "pizza;kebab", "name": "V\u00e4rs\u00e5s Pizzeria", "outdoor_seating": "yes"}}, {"type": "node", "id": 6270088709, "lat": 58.402511, "lon": 13.8276118}, {"type": "node", "id": 6270088710, "lat": 58.4024799, "lon": 13.8279551}, {"type": "node", "id": 6270088711, "lat": 58.4023992, "lon": 13.8279285}, {"type": "node", "id": 6270088712, "lat": 58.4024303, "lon": 13.8275852}, {"type": "node", "id": 6578580691, "lat": 58.3918513, "lon": 13.8652557, "tags": {"addr:city": "Sk\u00f6vde", "addr:country": "SE", "addr:housenumber": "1", "addr:postcode": "54135", "addr:street": "Backv\u00e4gen", "amenity": "restaurant", "cuisine": "pizza;kebab;salad", "name": "Pizzeria Ometto", "phone": "+46 500 411010"}}, {"type": "node", "id": 6721761686, "lat": 58.3894576, "lon": 13.8434705, "tags": {"amenity": "restaurant", "cuisine": "local", "name": "Helensg\u00e5rden"}}, {"type": "node", "id": 6721792786, "lat": 58.3904649, "lon": 13.847045, "tags": {"addr:city": "Sk\u00f6vde", "addr:country": "SE", "addr:housenumber": "18", "addr:postcode": "54130", "addr:street": "L\u00e5nggatan", "amenity": "restaurant", "cuisine": "sushi;japanese;ramen", "name": "Sushi Yaki", "opening_hours": "Mo-Fr 11:00-21:00, Sa 12:00-21:30", "phone": "+46 500 48 08 88", "website": "https://noodle.sushiyaki.se/"}}, {"type": "node", "id": 6893438330, "lat": 58.3870682, "lon": 13.8581262, "tags": {"amenity": "restaurant", "name": "San Marino"}}, {"type": "node", "id": 7710483551, "lat": 58.4049622, "lon": 13.8568528, "tags": {"addr:city": "Sk\u00f6vde", "addr:country": "SE", "addr:housenumber": "3", "addr:postcode": "54145", "addr:street": "K\u00f6pmannagatan", "amenity": "restaurant", "cuisine": "sushi", "name": "sushiyama", "opening_hours": "Mo-Su 11:00-20:00", "phone": "+46 500 48 48 80", "website": "https://www.sushiyama.se"}}, {"type": "node", "id": 7834537285, "lat": 58.3015614, "lon": 14.2886996, "tags": {"amenity": "restaurant", "cuisine": "chinese", "name:en": "ming"}}, {"type": "node", "id": 7834537287, "lat": 58.3012979, "lon": 14.2885595, "tags": {"addr:street": "Stora Torget", "amenity": "restaurant", "cuisine": "pizza", "name:en": "alexandra"}}, {"type": "node", "id": 7841423087, "lat": 58.3947983, "lon": 13.853809, "tags": {"amenity": "restaurant", "name": "g\u00f6tasalen"}}, {"type": "node", "id": 7923525286, "lat": 58.3858771, "lon": 13.8445773, "tags": {"amenity": "restaurant", "cuisine": "japanese;sushi", "name:en": "yokohama sushi bar"}}, {"type": "node", "id": 7939856175, "lat": 58.4099642, "lon": 13.8381907}, {"type": "node", "id": 7939856176, "lat": 58.4099866, "lon": 13.8381954}, {"type": "node", "id": 7939856177, "lat": 58.4099912, "lon": 13.8381173}, {"type": "node", "id": 7939856178, "lat": 58.4099698, "lon": 13.8381127}, {"type": "node", "id": 7939856179, "lat": 58.4099566, "lon": 13.8380647}, {"type": "node", "id": 7939856180, "lat": 58.4099586, "lon": 13.8380307}, {"type": "node", "id": 7946084901, "lat": 58.4054593, "lon": 13.8562145, "tags": {"amenity": "restaurant", "cuisine": "asian", "name": "Chili & Wok"}}, {"type": "node", "id": 8037523610, "lat": 58.3957608, "lon": 13.8338588, "tags": {"addr:country": "SE", "addr:housenumber": "54", "addr:street": "Gamla Kungsv\u00e4gen", "amenity": "restaurant", "cuisine": "burger;pizza", "name": "Urban Bistro", "takeaway": "yes", "website": "https://www.ica.se/butiker/kvantum/skovde/ica-kvantum-skovde-2062/urban-bistro/", "wheelchair": "yes"}}, {"type": "node", "id": 8755798391, "lat": 58.3952476, "lon": 13.8532224, "tags": {"amenity": "restaurant", "cuisine": "indian", "name": "Sk\u00f6vde Indisk Restaurang", "outdoor_seating": "yes"}}, {"type": "node", "id": 8763947967, "lat": 58.390004, "lon": 13.8450909, "tags": {"addr:city": "Sk\u00f6vde", "addr:country": "SE", "addr:housenumber": "4", "addr:postcode": "541 30", "addr:street": "Hertig Johans gata", "amenity": "restaurant", "cuisine": "sushi", "level": "1", "name": "Sushi Yama", "opening_hours": "Mo-Fr 10:00-19:00,Sa 10:00-17:00,Su 11:00-17:00", "phone": "+46 500 20 20 21", "website": "https://www.sushiyama.se"}}, {"type": "node", "id": 8832555573, "lat": 58.4001062, "lon": 13.9772079}, {"type": "node", "id": 8832555574, "lat": 58.4001629, "lon": 13.9772055}, {"type": "node", "id": 8832555575, "lat": 58.4001617, "lon": 13.9771068}, {"type": "node", "id": 8832555576, "lat": 58.400105, "lon": 13.9771092}, {"type": "node", "id": 8846909717, "lat": 58.3952794, "lon": 13.8532314, "tags": {"addr:country": "SE", "addr:housenumber": "19", "addr:street": "Mariestadsv\u00e4gen", "amenity": "restaurant", "name": "The poco loco"}}, {"type": "node", "id": 8863074262, "lat": 58.4144142, "lon": 13.8619828, "tags": {"amenity": "cafe", "name": "Asp\u00f6 kaf\u00e9", "opening_hours": "Tu-Su 11:00-12:00, 15:00-16:00"}}, {"type": "node", "id": 8916785829, "lat": 58.440158, "lon": 14.4420813}, {"type": "node", "id": 8916785836, "lat": 58.4402225, "lon": 14.4422074}, {"type": "node", "id": 8916785839, "lat": 58.4403057, "lon": 14.4420521}, {"type": "node", "id": 8916785842, "lat": 58.4403632, "lon": 14.4421644}, {"type": "node", "id": 8916785848, "lat": 58.440217, "lon": 14.4424373}, {"type": "node", "id": 8916785852, "lat": 58.440095, "lon": 14.4421989}, {"type": "node", "id": 8920397896, "lat": 58.4220231, "lon": 14.1613447}, {"type": "node", "id": 8920397897, "lat": 58.421799, "lon": 14.1610323}, {"type": "node", "id": 8920397898, "lat": 58.4217475, "lon": 14.1612569}, {"type": "node", "id": 8920397899, "lat": 58.4219997, "lon": 14.1615937}, {"type": "node", "id": 8920438152, "lat": 58.421968, "lon": 14.161276}, {"type": "node", "id": 8920438153, "lat": 58.4219586, "lon": 14.161294}, {"type": "node", "id": 8920438154, "lat": 58.4219234, "lon": 14.1612424}, {"type": "node", "id": 8920438155, "lat": 58.4219316, "lon": 14.161215}, {"type": "node", "id": 8920438156, "lat": 58.4220347, "lon": 14.1614839}, {"type": "node", "id": 8920438157, "lat": 58.4220253, "lon": 14.1614722}, {"type": "node", "id": 8920438158, "lat": 58.4220396, "lon": 14.1614128}, {"type": "node", "id": 8920438159, "lat": 58.422013, "lon": 14.16138}, {"type": "node", "id": 8920438160, "lat": 58.4217404, "lon": 14.1611689}, {"type": "node", "id": 9019544940, "lat": 58.4039282, "lon": 13.8203122, "tags": {"amenity": "restaurant", "name": "Berget Sk\u00f6vde", "opening_hours": "10:00-16:00", "opening_hours:kitchen": "11:30-14:30"}}, {"type": "node", "id": 9120012438, "lat": 58.4053361, "lon": 13.8568115, "tags": {"amenity": "cafe", "brand": "Espresso House", "brand:wikidata": "Q10489162", "brand:wikipedia": "sv:Espresso House", "cuisine": "coffee_shop", "name": "Espresso House", "opening_hours": "Mo-Fr 08:00-20:00; Sa,Su 09:00-19:00", "takeaway": "yes"}}, {"type": "node", "id": 9124196901, "lat": 58.3428924, "lon": 13.8273614, "tags": {"amenity": "cafe", "name": "Caf\u00e9 Skultorp"}}, {"type": "node", "id": 9174470096, "lat": 58.4029348, "lon": 13.849973, "tags": {"amenity": "restaurant", "name": "Ten Lanes", "sport": "10pin"}}, {"type": "node", "id": 9196377350, "lat": 58.4642402, "lon": 14.2494402}, {"type": "node", "id": 9196377351, "lat": 58.4642639, "lon": 14.2494242}, {"type": "node", "id": 9239259838, "lat": 58.5753481, "lon": 14.4343171}, {"type": "node", "id": 9239259839, "lat": 58.5753429, "lon": 14.4343463}, {"type": "node", "id": 9385467040, "lat": 58.389235, "lon": 13.8368274, "tags": {"amenity": "restaurant", "name": "Deluxe Restaurang & Pizzeria", "opening_hours": "Mo-Th 11:00-22:00; Fr 11:00-23:00; Sa 12:00-22:00; Su 12:00-22:00", "phone": "0500489898"}}, {"type": "node", "id": 9442325283, "lat": 58.3905452, "lon": 13.8460815, "tags": {"amenity": "restaurant", "cuisine": "kebab", "name": "Holy kebab"}}, {"type": "node", "id": 9442325284, "lat": 58.3904948, "lon": 13.8460865, "tags": {"amenity": "restaurant", "cuisine": "burger", "indoor_seating": "yes", "name": "Bastard Burgers", "opening_hours": "Mo-Th 10:00-20:00; Fr 10:00-21:00; Sa 10:00-21:00; Su 11:00-20:00", "outdoor_seating": "yes", "takeaway": "yes"}}, {"type": "node", "id": 9442325285, "lat": 58.390348, "lon": 13.846088, "tags": {"amenity": "restaurant", "name": "Resturang Haket"}}, {"type": "node", "id": 9610216602, "lat": 58.3918837, "lon": 13.8524663, "tags": {"amenity": "restaurant", "name": "Mode"}}, {"type": "node", "id": 9692241610, "lat": 58.3892156, "lon": 13.8451701, "tags": {"amenity": "cafe", "brand": "Espresso House", "cuisine": "coffee_shop", "indoor_seating": "yes", "name": "Espresso House", "opening_hours": "Mo-Fr 08:00-19:00; Sa 09:00-19:00; Su 10:00-19:00", "outdoor_seating": "yes", "takeaway": "yes"}}, {"type": "node", "id": 9692241611, "lat": 58.3892033, "lon": 13.8458865, "tags": {"amenity": "cafe", "name": "Henrys Bageri", "outdoor_seating": "yes"}}, {"type": "node", "id": 9864666974, "lat": 58.4224169, "lon": 13.8497641, "tags": {"amenity": "restaurant"}}, {"type": "node", "id": 9912709396, "lat": 58.301389, "lon": 14.2790451, "tags": {"amenity": "restaurant", "name": "Garaget Pizzeria", "opening_hours": "We, Th 11:30-16:00; Fr, Sa 11:30-20:00; Su 12:00-16:00"}}, {"type": "node", "id": 9951915991, "lat": 58.3888521, "lon": 13.8448019, "tags": {"amenity": "cafe", "name": "Jenny Gelati Caf\u00e9", "opening_hours": "Tu-Fr 11:00-19:00; Sa 11:00-17:00; Su 12:00-16:00; Mo off"}}, {"type": "node", "id": 10054501414, "lat": 58.4157138, "lon": 13.9007849, "tags": {"amenity": "restaurant", "cuisine": "pizza"}}, {"type": "node", "id": 10055780488, "lat": 58.4136031, "lon": 13.8467009, "tags": {"amenity": "restaurant", "cuisine": "burger"}}, {"type": "node", "id": 10765350868, "lat": 58.3958125, "lon": 13.8458962, "tags": {"addr:city": "Sk\u00f6vde", "addr:country": "SE", "addr:housenumber": "6", "addr:postcode": "54140", "addr:street": "K\u00e4pplundav\u00e4gen", "amenity": "restaurant", "cuisine": "turkish;lebanese", "name": "Izmir grill & meze", "opening_hours": "Mo-Th 11:00-22:00; Fr 11:00-23:00; Sa 12:00-23:00; Su 12:00-21:00", "phone": "0500- 40 02 29", "website": "https://www.izmirskovde.se"}}, {"type": "node", "id": 11047197213, "lat": 58.3009959, "lon": 14.2894384, "tags": {"addr:city": "Hjo", "addr:country": "SE", "addr:housenumber": "2", "addr:postcode": "544 30", "addr:street": "Stora Torget", "amenity": "restaurant", "name": "Kihlbergsg\u00e5rden Cafe o Bistro", "outdoor_seating": "yes"}}, {"type": "node", "id": 11093197905, "lat": 58.3061075, "lon": 14.2939455, "tags": {"amenity": "restaurant", "cuisine": "asian;thai", "name:en": "Nam chai Thai food"}}, {"type": "node", "id": 11233594393, "lat": 58.4245225, "lon": 14.1639042, "tags": {"amenity": "restaurant", "cuisine": "pizza", "name": "Gallerians Pizzeria", "source": "osm notes"}}, {"type": "way", "id": 33968844, "nodes": [389079287, 9239259839, 9239259838, 389079288, 389079289, 5097047217, 5097047218, 389079290, 389079287], "tags": {"amenity": "cafe", "name": "Forsvik Cafe & Mat", "opening_hours": "Mo-Fr 12:00-15:30, Mo-Fr 16:30-19:00, Sa 12:00-15:30, Sa 16:30-19:00, Su 12:00-16:00, Oct-Mar off", "phone": "+46 0505-41444", "source": "survey", "website": "https://forsvikscafe.com/"}}, {"type": "way", "id": 230362758, "nodes": [2388747211, 2388747216, 2388747226, 2388747217, 2388747222, 2388747209, 2388747191, 2388747192, 2388747189, 2388747204, 2388747205, 2388747206, 2388747211], "tags": {"amenity": "restaurant", "building": "commercial", "cuisine": "pizza", "name": "Pizzeria Prego"}}, {"type": "way", "id": 435706004, "nodes": [4336040332, 4336040333, 4336040334, 4336040335, 4336040336, 4336040337, 4336040338, 4336040339, 4336040332], "tags": {"addr:city": "Moholm", "addr:postcode": "549 93", "addr:street": "G\u00f6ta Kanal", "amenity": "cafe", "contact:mobile": "+46 70-530 86 37", "cuisine": "organic", "description": "Very ecological spirit, organic food. mini-golf, boats, bikes to rent. hostel (vandrarhem) or cabin (stuga) lodging.", "landuse": "residential", "name": "T\u00e5torps caf\u00e9 & logi", "opening_hours": "Jul 1-Aug 1 12:00-16:00", "phone": "+46 506-530 86", "source": "survey", "tourism": "hostel", "website": "https://www.tatorp.se/"}}, {"type": "way", "id": 510321951, "nodes": [4993647823, 4993647822, 4993642519, 4993642520, 4993647821, 4993647824, 4993647823], "tags": {"addr:city": "Tibro", "addr:country": "SE", "addr:housenumber": "7", "addr:postcode": "54330", "addr:street": "Torggatan", "amenity": "cafe", "building": "yes", "name": "VillAnns Caf\u00e9"}}, {"type": "way", "id": 529555334, "nodes": [5143889494, 5143889495, 5143889496, 7939856175, 7939856176, 7939856177, 7939856178, 5143889497, 7939856179, 7939856180, 5143889494], "tags": {"addr:city": "Sk\u00f6vde", "addr:country": "SE", "addr:street": "Ek\u00e4ngsv\u00e4gen", "amenity": "restaurant", "building": "commercial", "cuisine": "italian;pizza;kebab", "name": "Treviso", "opening_hours": "Mo-Sa 11:00-22:00; Sa 12:00-22:00", "outdoor_seating": "yes", "roof:colour": "#72858B", "takeaway": "yes"}}, {"type": "way", "id": 562953199, "nodes": [5426091280, 9196377351, 9196377350, 5426091279, 5426091278, 4217733035, 5426091280], "tags": {"amenity": "restaurant", "building": "yes", "cuisine": "pizza", "name": "\u00d6rlenbadets pizzeria", "opening_hours": "Mo-Th 11:00-21:00; Fr,Sa 11:00-22:00; Su 11:00-21:00"}}, {"type": "way", "id": 628663188, "nodes": [5935433917, 5935433918, 5935433919, 5935433920, 5935433921, 5935433922, 5935433923, 5935433937, 5935433924, 5935433917], "tags": {"addr:city": "Tibro", "addr:country": "SE", "addr:housenumber": "26", "addr:postcode": "54330", "addr:street": "Mariestadsv\u00e4gen", "amenity": "restaurant", "building": "yes", "cuisine": "regional", "delivery": "no", "name": "Millners", "opening_hours": "Mo-Su 11:30-14:30", "phone": "+46709900465", "takeaway": "no", "website": "https://www.millners.nu/"}}, {"type": "way", "id": 669558214, "nodes": [6270088709, 6270088710, 6270088711, 6270088712, 6270088709], "tags": {"amenity": "cafe", "building": "yes"}}, {"type": "way", "id": 954312563, "nodes": [8832555576, 8832555575, 8832555574, 8832555573, 8832555576], "tags": {"amenity": "restaurant", "building": "yes", "cuisine": "pizza"}}, {"type": "way", "id": 963985201, "nodes": [8916785829, 8916785836, 8916785839, 8916785842, 8916785848, 8916785852, 8916785829], "tags": {"amenity": "cafe", "building": "yes", "contact:facebook": "https://facebook.com/people/Brevikens-tr%C3%A4dg%C3%A5rdscaf%C3%A9/100040815054992/", "cuisine": "regional", "name": "Brevikens Tr\u00e4dg\u00e5rdscafe", "opening_hours": "Sep-Jun closed", "outdoor_seating": "yes", "payment:american_express": "no", "payment:coins": "yes", "payment:maestro": "no", "payment:mastercard": "no", "payment:notes": "no", "payment:telephone_cards": "no", "payment:visa": "no", "phone": "+46703939132"}}, {"type": "way", "id": 964397309, "nodes": [8920397896, 8920438152, 8920438153, 8920438154, 8920438155, 8920397897, 8920438160, 8920397898, 8920397899, 8920438156, 8920438157, 8920438158, 8920438159, 8920397896], "tags": {"addr:city": "Tibro", "addr:country": "SE", "addr:housenumber": "24", "addr:postcode": "54332", "addr:street": "B\u00e4ckpromenaden", "addr:unit": "1 tr.", "amenity": "restaurant", "bar": "yes", "building": "terrace", "cuisine": "italian;burger;salad;fish", "internet_access": "no", "name": "SpaTerassen", "outdoor_seating": "yes", "website": "https://www.facebook.com/SpaTerrassen/"}}]}