{"version": 0.6, "generator": "Overpass API 0.7.61.5 4133829e", "osm3s": {"timestamp_osm_base": "2024-03-13T23:10:01Z", "copyright": "The data included in this document is from www.openstreetmap.org. The data is made available under ODbL."}, "elements": [{"type": "node", "id": 920578543, "lat": 42.9957216, "lon": 41.0232818, "tags": {"amenity": "restaurant", "cuisine": "cake;coffee_shop;international;local;russian;seafood", "int_name": "Apra", "internet_access": "wlan", "name": "\u0410\u043f\u0440\u0430", "name:en": "Apra", "name:ru": "\u0410\u043f\u0440\u0430", "opening_hours": "Mo-Su 11:00-00:00"}}, {"type": "node", "id": 922917217, "lat": 42.9969222, "lon": 41.0243762, "tags": {"amenity": "cafe", "fixme": "operator? tenant? address?", "name": "Amra"}}, {"type": "node", "id": 924672013, "lat": 42.9990543, "lon": 41.0248666, "tags": {"addr:city": "\u0410\u049f\u04d9\u0430 - \u0421\u0443\u0445\u0443\u043c", "amenity": "cafe", "cuisine": "cake;donut;coffee_shop", "description": "\u041a\u043e\u0444\u0435 \u043f\u043e-\u0432\u043e\u0441\u0442\u043e\u0447\u043d\u043e\u043c\u0443 (\u043d\u0430 \u043f\u0435\u0441\u043a\u0435) \u0438 \u0434\u0440\u0443\u0433\u0438\u0435 \u0432\u0438\u0434\u044b \u043a\u043e\u0444\u0435", "name": "\u0411\u0440\u0435\u0445\u0430\u043b\u043e\u0432\u043a\u0430", "opening_hours": "Mo-Su 10:00-19:00", "wheelchair": "yes"}}, {"type": "node", "id": 946457583, "lat": 43.0009634, "lon": 41.0361296, "tags": {"amenity": "restaurant", "fixme": "name? operator? tenant? address?", "wheelchair": "limited"}}, {"type": "node", "id": 946579488, "lat": 43.0012638, "lon": 41.0002767}, {"type": "node", "id": 946579489, "lat": 43.0011913, "lon": 41.0002981}, {"type": "node", "id": 946579490, "lat": 43.0012066, "lon": 41.0003947}, {"type": "node", "id": 946579491, "lat": 43.0012791, "lon": 41.0003732}, {"type": "node", "id": 946793617, "lat": 42.9861632, "lon": 40.9718586, "tags": {"addr:city": "\u0421\u0443\u0445\u0443\u043c", "addr:country": "AB", "amenity": "cafe", "fixme": "name? operator? tenant? address?"}}, {"type": "node", "id": 956015624, "lat": 42.9914763, "lon": 40.9625727, "tags": {"amenity": "cafe", "fixme": "name? operator? tenant? address?"}}, {"type": "node", "id": 956086435, "lat": 42.9965222, "lon": 41.0057698, "tags": {"addr:city": "\u0421\u0443\u0445\u0443\u043c", "addr:country": "AB", "amenity": "cafe", "fixme": "operator? tenant? address?", "name": "\u0421\u0438\u043d\u044f\u044f \u043f\u0442\u0438\u0446\u0430", "name:ka": "\u10da\u10e3\u10e0\u10ef\u10d8 \u10e4\u10e0\u10d8\u10dc\u10d5\u10d4\u10da\u10d8", "name:ru": "\u0421\u0438\u043d\u044f\u044f \u043f\u0442\u0438\u0446\u0430"}}, {"type": "node", "id": 956778808, "lat": 43.0005021, "lon": 41.0150596, "tags": {"addr:city": "\u0421\u0443\u0445\u0443\u043c", "addr:country": "AB", "addr:street": "\u0443\u043b\u0438\u0446\u0430 \u0412\u043e\u0440\u043e\u043d\u043e\u0432\u0430", "amenity": "cafe", "fixme": "operator? tenant? address:housenumber? opening_hours?", "name": "\u041a\u0430\u0444\u0435 \u00ab\u0421\u043a\u0430\u0437\u043a\u0430\u00bb", "name:de": "Caf\u00e9 \"Skaska\"", "name:en": "Cafe \"Skazka\"", "name:ka": "\u10d9\u10d0\u10e4\u10d4 \u10d6\u10e6\u10d0\u10de\u10d0\u10e0\u10d8", "name:ru": "\u041a\u0430\u0444\u0435 \u00ab\u0421\u043a\u0430\u0437\u043a\u0430\u00bb"}}, {"type": "node", "id": 957876740, "lat": 42.9797606, "lon": 41.0609159, "tags": {"amenity": "restaurant", "fixme": "operator? tenant? address?", "name": "\u0410\u0431\u0445\u0430\u0437\u0441\u043a\u0438\u0439 \u0434\u0432\u043e\u0440", "name:en": "Abkhazian Yard", "name:ru": "\u0410\u0431\u0445\u0430\u0437\u0441\u043a\u0438\u0439 \u0434\u0432\u043e\u0440"}}, {"type": "node", "id": 957879021, "lat": 42.9724378, "lon": 41.0663772, "tags": {"amenity": "restaurant", "cuisine": "abkhazian", "fixme": "operator? tenant? address? opening_hours?", "name": "\u0410\u043f\u0430\u0446\u0445\u0430 \u043d\u0430 \u043e\u0431\u0440\u044b\u0432\u0435", "name:en": "Apatskha on the Cliff", "name:ru": "\u0410\u043f\u0430\u0446\u0445\u0430 \u043d\u0430 \u043e\u0431\u0440\u044b\u0432\u0435"}}, {"type": "node", "id": 992691129, "lat": 42.7638332, "lon": 41.4455031, "tags": {"addr:city": "\u0410\u0440\u0430\u0434\u0443", "addr:country": "AB", "amenity": "restaurant", "cuisine": "abkhazian", "fixme": "address? operator? tenant? opening_hours?", "name": "\u0410\u0440\u0430\u0434\u0443", "name:en": "Aradu", "name:ru": "\u0410\u0440\u0430\u0434\u0443"}}, {"type": "node", "id": 1233401239, "lat": 42.9980261, "lon": 41.0208273}, {"type": "node", "id": 1233401251, "lat": 42.9980582, "lon": 41.0209845}, {"type": "node", "id": 1233401255, "lat": 42.9978279, "lon": 41.0210703}, {"type": "node", "id": 1236205211, "lat": 42.9914876, "lon": 41.0494989}, {"type": "node", "id": 1236205239, "lat": 42.9915488, "lon": 41.0492134}, {"type": "node", "id": 1236205244, "lat": 42.9914186, "lon": 41.049416}, {"type": "node", "id": 1236205269, "lat": 42.9916178, "lon": 41.0492963}, {"type": "node", "id": 1400894909, "lat": 42.9290957, "lon": 41.0865562}, {"type": "node", "id": 1400894910, "lat": 42.9291031, "lon": 41.0866334}, {"type": "node", "id": 1400894911, "lat": 42.9292098, "lon": 41.0866131}, {"type": "node", "id": 1400894912, "lat": 42.929202, "lon": 41.0865364}, {"type": "node", "id": 1400897312, "lat": 42.9284706, "lon": 41.0869255}, {"type": "node", "id": 1400897313, "lat": 42.9284325, "lon": 41.0869637}, {"type": "node", "id": 1400897314, "lat": 42.9284321, "lon": 41.0869054}, {"type": "node", "id": 1400897315, "lat": 42.9284515, "lon": 41.0868721}, {"type": "node", "id": 1400897316, "lat": 42.9284744, "lon": 41.0868645}, {"type": "node", "id": 1798804266, "lat": 42.9962501, "lon": 41.0201982, "tags": {"amenity": "cafe", "name": "\u041f\u0438\u043d\u0433\u0432\u0438\u043d", "name:en": "Penguin"}}, {"type": "node", "id": 2084219608, "lat": 42.9981104, "lon": 41.0225964}, {"type": "node", "id": 2084219609, "lat": 42.9980007, "lon": 41.0224125}, {"type": "node", "id": 2084219615, "lat": 42.9982244, "lon": 41.0224691}, {"type": "node", "id": 2084219617, "lat": 42.9981147, "lon": 41.0222853}, {"type": "node", "id": 2084266587, "lat": 42.9996187, "lon": 41.0387836}, {"type": "node", "id": 2084266591, "lat": 42.9994076, "lon": 41.0387049}, {"type": "node", "id": 2084266635, "lat": 42.9996561, "lon": 41.0385983}, {"type": "node", "id": 2084266699, "lat": 42.9994435, "lon": 41.0385208}, {"type": "node", "id": 2114544555, "lat": 42.7096999, "lon": 41.4665073}, {"type": "node", "id": 2114544790, "lat": 42.7097322, "lon": 41.46659}, {"type": "node", "id": 2114544872, "lat": 42.7097772, "lon": 41.4665575}, {"type": "node", "id": 2114544922, "lat": 42.7097449, "lon": 41.4664748}, {"type": "node", "id": 2139112937, "lat": 42.995492, "lon": 41.0161705}, {"type": "node", "id": 2139112938, "lat": 42.9953393, "lon": 41.0162292}, {"type": "node", "id": 2505377174, "lat": 42.7074103, "lon": 41.4669335, "tags": {"amenity": "cafe", "name": "\u0410\u0445\u0440\u0430"}}, {"type": "node", "id": 2618057136, "lat": 42.731735, "lon": 41.448224, "tags": {"amenity": "restaurant", "name": "\u0410\u043f\u0430\u0446\u0445\u0430 \"\u0410\u0439\u043d\u0430\u0440\""}}, {"type": "node", "id": 2618194414, "lat": 43.0021253, "lon": 41.0335653, "tags": {"amenity": "restaurant"}}, {"type": "node", "id": 2618194434, "lat": 43.0014074, "lon": 41.0330986, "tags": {"amenity": "restaurant", "name": "\u0415\u0440\u0446\u0430\u0445\u0443", "wheelchair": "limited"}}, {"type": "node", "id": 3050082985, "lat": 42.728692, "lon": 41.450179, "tags": {"amenity": "cafe"}}, {"type": "node", "id": 3148775051, "lat": 42.9980748, "lon": 41.022327}, {"type": "node", "id": 3294109318, "lat": 42.7986786, "lon": 41.2570243, "tags": {"amenity": "cafe"}}, {"type": "node", "id": 3415091923, "lat": 42.9993587, "lon": 41.0200825, "tags": {"amenity": "cafe"}}, {"type": "node", "id": 3697719477, "lat": 42.9995075, "lon": 41.0387389}, {"type": "node", "id": 3697785695, "lat": 42.9970991, "lon": 41.0448195}, {"type": "node", "id": 3697785696, "lat": 42.997189, "lon": 41.0448872}, {"type": "node", "id": 3697785697, "lat": 42.9971528, "lon": 41.0449772}, {"type": "node", "id": 3697785698, "lat": 42.9972354, "lon": 41.0450394}, {"type": "node", "id": 3697785699, "lat": 42.9973209, "lon": 41.044827}, {"type": "node", "id": 3697785700, "lat": 42.9971484, "lon": 41.0446971}, {"type": "node", "id": 3697828224, "lat": 42.9977968, "lon": 41.0209107}, {"type": "node", "id": 3751903294, "lat": 42.9301277, "lon": 41.1036907, "tags": {"amenity": "cafe", "name": "\u0421\u0442\u043e\u043b\u043e\u0432\u0430\u044f", "wheelchair": "no"}}, {"type": "node", "id": 4177522392, "lat": 42.9983807, "lon": 41.0228875, "tags": {"addr:street": "\u041d\u0430\u0431\u0435\u0440\u0435\u0436\u043d\u0430\u044f \u041c\u0430\u0445\u0430\u0434\u0436\u0438\u0440\u043e\u0432", "amenity": "restaurant", "cuisine": "seafood;barbecue;chicken;pizza;regional;fish_and_chips;breakfast;coffee_shop;ice_cream;georgian", "diet:vegetarian": "yes", "name": "\u041d\u0430\u0440\u0442\u0430\u0430", "opening_hours": "Mo-Su 10:00-19:00", "wheelchair": "limited"}}, {"type": "node", "id": 4311758989, "lat": 43.0005644, "lon": 41.023472, "tags": {"addr:city": "\u0410\u049f\u04d9\u0430 - \u0421\u0443\u0445\u0443\u043c", "addr:housenumber": "9", "addr:street": "\u043f\u0440\u043e\u0441\u043f\u0435\u043a\u0442 \u041b\u0435\u043e\u043d\u0430", "amenity": "cafe", "name": "\u0420\u0438\u0432\u044c\u0435\u0440\u0430", "name:de": "Riviera", "name:en": "Riviera", "name:ru": "\u0420\u0438\u0432\u044c\u0435\u0440\u0430", "wheelchair": "limited"}}, {"type": "node", "id": 4324144838, "lat": 42.7154865, "lon": 41.4583644, "tags": {"amenity": "cafe", "name": "\u0412\u043e\u043b\u043d\u0430"}}, {"type": "node", "id": 4361363990, "lat": 42.9999279, "lon": 41.0368859, "tags": {"amenity": "cafe", "internet_access": "wlan", "name": "\u041d\u043e\u0432\u0430\u044f \u0421\u0442\u043e\u043b\u043e\u0432\u0430\u044f", "name:ru": "\u041d\u043e\u0432\u0430\u044f \u0421\u0442\u043e\u043b\u043e\u0432\u0430\u044f"}}, {"type": "node", "id": 4364511389, "lat": 42.945488, "lon": 41.1194567, "tags": {"amenity": "restaurant", "name": "\u041c\u044f\u0441\u043d\u0438\u043a\u043e\u0432\u043e", "name:ru": "\u041c\u044f\u0441\u043d\u0438\u043a\u043e\u0432\u043e"}}, {"type": "node", "id": 4364714991, "lat": 43.0008403, "lon": 41.0193312, "tags": {"amenity": "cafe", "name": "\u0414\u0438\u043b\u0430\u0440\u0430", "name:de": "Dilara", "name:en": "Dilara", "name:ru": "\u0414\u0438\u043b\u0430\u0440\u0430"}}, {"type": "node", "id": 4364802890, "lat": 42.9998362, "lon": 41.0376255, "tags": {"amenity": "cafe", "name": "\u041d\u043e\u0432\u0430\u044f \u0441\u0442\u043e\u043b\u043e\u0432\u0430\u044f"}}, {"type": "node", "id": 4414590515, "lat": 42.9999561, "lon": 41.0371278, "tags": {"amenity": "cafe", "name": "\u041d\u043e\u0432\u0430\u044f \u0441\u0442\u043e\u043b\u043e\u0432\u0430\u044f", "name:ru": "\u041d\u043e\u0432\u0430\u044f \u0441\u0442\u043e\u043b\u043e\u0432\u0430\u044f"}}, {"type": "node", "id": 4520262591, "lat": 42.7215827, "lon": 41.4555929, "tags": {"amenity": "restaurant", "cuisine": "regional;local", "name": "\u041f\u0430\u0446\u0445\u0430", "name:ru": "\u041f\u0430\u0446\u0445\u0430"}}, {"type": "node", "id": 4520285793, "lat": 42.9956631, "lon": 40.9928188, "tags": {"amenity": "cafe", "cuisine": "coffee_shop;pizza", "internet_access": "wlan", "name": "\u041d\u0435\u0430\u043f\u043e\u043b\u044c", "opening_hours": "Mo-Su 09:00-21:00"}}, {"type": "node", "id": 4520324689, "lat": 42.7093175, "lon": 41.4650894, "tags": {"amenity": "cafe"}}, {"type": "node", "id": 4520325094, "lat": 43.0226317, "lon": 40.9805951, "tags": {"amenity": "cafe", "name": "\u0421\u0442\u043e\u043b\u043e\u0432\u0430\u044f \"\u0413\u044c\u044f\u043c\u0430\u043b\u0430\"", "website": "https://instagram.com/stolovaya_giamala"}}, {"type": "node", "id": 4520325289, "lat": 43.0174247, "lon": 40.9702401, "tags": {"amenity": "restaurant", "name": "\u0410\u0431\u044b\u0440\u043b\u0430\u0448", "name:ru": "\u0410\u0431\u044b\u0440\u043b\u0430\u0448", "toilets:wheelchair": "no", "wheelchair": "limited"}}, {"type": "node", "id": 4520325290, "lat": 42.9954113, "lon": 40.9921889, "tags": {"addr:housenumber": "32", "addr:street": "\u0443\u043b\u0438\u0446\u0430 \u0410\u0434\u043b\u0435\u0439\u0431\u0430", "amenity": "cafe", "cuisine": "local;coffee_shop", "name": "\u0411\u0437\u043e\u0443", "name:ru": "\u0411\u0437\u043e\u0443", "opening_hours": "Mo-Su 08:30-17:00"}}, {"type": "node", "id": 4520325989, "lat": 42.99568, "lon": 40.9933133, "tags": {"addr:housenumber": "24", "addr:street": "\u0443\u043b\u0438\u0446\u0430 \u0410\u0434\u043b\u0435\u0439\u0431\u0430", "amenity": "cafe", "cuisine": "sushi;pizza;coffee_shop", "email": "denis_yana@mail.ru", "internet_access": "wlan", "name": "\u0441\u0443\u0448\u0438-\u0431\u0430\u0440 \u0421\u0430\u043a\u0443\u0440\u0430", "name:ru": "\u0441\u0443\u0448\u0438-\u0431\u0430\u0440 \u0421\u0430\u043a\u0443\u0440\u0430", "operator": "\u0414\u0435\u043d\u0438\u0441", "phone": "+7 940 9954852"}}, {"type": "node", "id": 4529109190, "lat": 43.0014975, "lon": 41.0218195, "tags": {"addr:housenumber": "24", "addr:street": "\u0410\u0440\u0434\u0437\u0438\u043d\u0431\u0430", "amenity": "cafe", "cuisine": "greek;coffee_shop", "name": "\u041f\u043e\u043d\u0434\u043e\u0441", "opening_hours": "Mo-Sa 10:00-22:00"}}, {"type": "node", "id": 4563185983, "lat": 42.9995369, "lon": 41.0246304, "tags": {"amenity": "cafe", "name": "\u0410\u043a\u0430\u0444\u0443\u0440\u0442\u0430", "wheelchair": "no"}}, {"type": "node", "id": 4563185984, "lat": 43.0011645, "lon": 41.0223598, "tags": {"amenity": "restaurant", "cuisine": "turkish", "name": "\u0410\u0446\u0445\u0430"}}, {"type": "node", "id": 4563206858, "lat": 42.9991616, "lon": 41.0179713, "tags": {"amenity": "restaurant", "name": "\u0413\u0430\u0433\u0440\u0430", "name:ab": "\u0413\u0430\u0433\u0440\u0430", "name:de": "Gagra", "name:el": "\u0393\u03ba\u03ac\u03b3\u03ba\u03c1\u03b1", "name:en": "Gagra", "name:et": "Gagra", "name:hy": "\u0533\u0561\u0563\u0580\u0561", "name:ka": "\u10d2\u10d0\u10d2\u10e0\u10d0", "name:ru": "\u0413\u0430\u0433\u0440\u0430"}}, {"type": "node", "id": 4625717064, "lat": 42.9353387, "lon": 41.1026552, "tags": {"amenity": "cafe"}}, {"type": "node", "id": 4675668589, "lat": 42.9954394, "lon": 41.0166547, "tags": {"addr:street": "\u041d\u0430\u0431\u0435\u0440\u0435\u0436\u043d\u0430\u044f \u041c\u0430\u0445\u0430\u0434\u0436\u0438\u0440\u043e\u0432", "amenity": "cafe", "cuisine": "international;russian", "email": "asa1979@mail.ru", "internet_access": "wlan", "name": "\u041c\u0443\u0441\u043a\u0430\u0442", "phone": "+7 940 7772379", "wheelchair": "limited"}}, {"type": "node", "id": 4815088707, "lat": 43.003314, "lon": 41.0247831, "tags": {"addr:city": "\u0410\u049f\u0259\u0430 - \u0421\u0443\u0445\u0443\u043c", "addr:housenumber": "16", "addr:street": "\u0443\u043b\u0438\u0446\u0430 \u041f\u0443\u0448\u043a\u0438\u043d\u0430", "amenity": "restaurant", "cuisine": "italian_pizza", "name": "Rossini", "opening_hours": "Mo-Su 09:00-23:00"}}, {"type": "node", "id": 4815113741, "lat": 43.0012412, "lon": 41.0227793, "tags": {"amenity": "cafe", "internet_access": "wlan", "name": "\u041c\u0430\u043c\u0430 \u0438\u0441\u043f\u0435\u043a\u043b\u0430"}}, {"type": "node", "id": 4815122144, "lat": 42.9982115, "lon": 41.0198486}, {"type": "node", "id": 4815122145, "lat": 42.9981118, "lon": 41.0198875}, {"type": "node", "id": 4815122146, "lat": 42.9980846, "lon": 41.0197459}, {"type": "node", "id": 4815122147, "lat": 42.9981843, "lon": 41.019707}, {"type": "node", "id": 4940793423, "lat": 42.738536, "lon": 41.440286, "tags": {"amenity": "restaurant", "name": "\u0420\u0438\u0432\u044c\u0435\u0440\u0430", "name:ru": "\u0420\u0438\u0432\u044c\u0435\u0440\u0430", "opening_hours": "Mo-Su 09:00-01:00"}}, {"type": "node", "id": 4944403225, "lat": 42.9985301, "lon": 41.0215029, "tags": {"addr:housenumber": "23", "addr:street": "\u0443\u043b\u0438\u0446\u0430 \u041a\u043e\u0433\u043e\u043d\u0438\u044f", "amenity": "cafe", "cuisine": "russian;local", "name": "\u0410\u0443\u0430\u0434\u0445\u0430\u0440\u0430", "name:ru": "\u041a\u0430\u0444\u0435 \u0410\u0443\u0430\u0434\u0445\u0430\u0440\u0430", "opening_hours": "Mo-Su 10:00-23:00", "operator": "\u041c\u0430\u0438\u0441", "phone": "+7 940 7155130"}}, {"type": "node", "id": 5044000932, "lat": 43.0077354, "lon": 41.0219462, "tags": {"addr:housenumber": "1", "amenity": "cafe", "cuisine": "\u043a\u0430\u0444\u0435-\u043a\u043e\u043d\u0434\u0438\u0442\u0435\u0440\u0441\u043a\u0430\u044f", "name": "\u0411\u0438\u0441\u043a\u0432\u0438\u0442", "opening_hours": "Mo-Su 10:00-23:00", "wheelchair": "no"}}, {"type": "node", "id": 5052814523, "lat": 42.9980531, "lon": 41.0359482, "tags": {"amenity": "cafe", "name": "\u041d\u0435\u043f\u0442\u0443\u043d", "name:en": "Neptune", "name:ru": "\u041d\u0435\u043f\u0442\u0443\u043d", "wheelchair": "no"}}, {"type": "node", "id": 5054367425, "lat": 42.9977555, "lon": 41.0370723, "tags": {"amenity": "cafe", "cuisine": "italian;local", "internet_access": "wlan", "name": "\u042f\u043a\u043e\u0440\u044c (\u043a\u0430\u0444\u0435-\u043a\u0430\u043b\u044c\u044f\u043d\u043d\u0430\u044f)", "name:en": "Anchor", "name:ru": "\u042f\u043a\u043e\u0440\u044c (\u043a\u0430\u0444\u0435-\u043a\u0430\u043b\u044c\u044f\u043d\u043d\u0430\u044f)"}}, {"type": "node", "id": 5333114173, "lat": 43.0014484, "lon": 41.0167676, "tags": {"amenity": "restaurant", "name": "\u0413\u0430\u0441\u0442\u0440\u043e\u043d\u043e\u043c \u0414\u041e\u0423", "name:ru": "\u0413\u0430\u0441\u0442\u0440\u043e\u043d\u043e\u043c \u0414\u041e\u0423"}}, {"type": "node", "id": 5350093727, "lat": 42.9997346, "lon": 41.0174333, "tags": {"addr:housenumber": "24", "addr:street": "\u0410\u0431\u0430\u0437\u0438\u043d\u0441\u043a\u0430\u044f \u0443\u043b\u0438\u0446\u0430", "amenity": "restaurant", "cuisine": "seafood;regional", "name": "\u0422\u0430\u0432\u0435\u0440\u043d\u0430 \u00ab\u0425\u0430\u0438\u0442\u00bb", "name:de": "Taverna \u201eHait\u201c", "name:en": "Taverna Hait", "name:ru": "\u0422\u0430\u0432\u0435\u0440\u043d\u0430 \u00ab\u0425\u0430\u0438\u0442\u00bb", "opening_hours": "Mo-Su 11:00-00:00", "website": "https://www.facebook.com/TavernaHait/"}}, {"type": "node", "id": 5398698822, "lat": 43.0142044, "lon": 40.9779072, "tags": {"addr:housenumber": "49", "addr:street": "\u0443\u043b\u0438\u0446\u0430 \u041d\u0430\u0437\u0430\u0434\u0437\u0435", "amenity": "restaurant", "cuisine": "asian;coffee_shop;pizza;russian;fine_dining;regional;turkish", "name": "\u0410\u043f\u0430\u0446\u0445\u0430 \u00ab\u0426\u0430\u0440\u0441\u043a\u043e\u0435 \u043f\u043e\u0434\u0432\u043e\u0440\u044c\u0435\u00bb", "name:en": "Cafe \u201cCzar's courtyard\u201d", "opening_hours": "Mo-Su 09:00-23:00"}}, {"type": "node", "id": 5428628524, "lat": 42.998186, "lon": 41.0178497, "tags": {"amenity": "cafe"}}, {"type": "node", "id": 5428664133, "lat": 43.0000745, "lon": 41.0202753, "tags": {"amenity": "cafe", "name:en": "Appetit", "opening_hours": "Mo-Su 09:00-00:00"}}, {"type": "node", "id": 5428677321, "lat": 42.9990307, "lon": 41.0209973, "tags": {"amenity": "cafe", "name": "\u041b\u0430\u0439\u043c", "name:en": "Loft"}}, {"type": "node", "id": 5432982822, "lat": 43.001468, "lon": 41.0320662, "tags": {"amenity": "restaurant", "name:en": "Leon"}}, {"type": "node", "id": 5433001621, "lat": 43.0002568, "lon": 41.020162, "tags": {"amenity": "restaurant", "name:en": "Cafe Asteria"}}, {"type": "node", "id": 5433001623, "lat": 43.0012334, "lon": 41.0143661, "tags": {"addr:street": "\u0443\u043b\u0438\u0446\u0430 \u0412\u043b\u0430\u0434\u0438\u0441\u043b\u0430\u0432\u0430 \u0410\u0440\u0434\u0437\u0438\u043d\u0431\u0430", "amenity": "restaurant", "internet_access": "wlan", "name": "\u041c\u0430\u0433\u043d\u043e\u043b\u0438\u044f"}}, {"type": "node", "id": 5433001624, "lat": 43.0021426, "lon": 41.0177891, "tags": {"amenity": "cafe", "name:en": "Bistro", "opening_hours": "Mo-Su 09:00-19:00"}}, {"type": "node", "id": 5433001722, "lat": 43.0012597, "lon": 41.014551, "tags": {"amenity": "cafe", "name": "\u0410\u0440\u043e\u043c\u0430"}}, {"type": "node", "id": 5433002021, "lat": 43.0005897, "lon": 41.019379, "tags": {"amenity": "cafe", "name:en": "Take Coffee"}}, {"type": "node", "id": 5433002221, "lat": 43.0016767, "lon": 41.0166691, "tags": {"amenity": "cafe", "internet_access": "wlan", "name": "Sandwich Lab", "name:en": "Sandwich Lab", "opening_hours": "Mo-Su 10:00-22:00"}}, {"type": "node", "id": 5552937722, "lat": 42.9981308, "lon": 41.0226385, "tags": {"amenity": "cafe", "name": "\u0411\u0430\u0440\u0438\u0441\u0442\u0430", "name:en": "Barista"}}, {"type": "node", "id": 5668871321, "lat": 42.9970616, "lon": 41.0019801, "tags": {"addr:housenumber": "197", "addr:street": "\u0410\u0438\u0430\u0430\u0438\u0440\u0430", "amenity": "cafe", "name": "\u0410\u041f\u0428\u0410\u041b\u0410\u0421", "name:en": "Apshalas"}}, {"type": "node", "id": 5685291922, "lat": 42.9242689, "lon": 41.0935609, "tags": {"addr:street": "\u041a\u0443\u0440\u043e\u0440\u0442\u043d\u0430\u044f \u0443\u043b\u0438\u0446\u0430", "amenity": "cafe", "name": "\u041a\u0430\u0444\u0435. \u041f\u0438\u0432\u043e, \u0447\u0430\u0447\u0430, \u0432\u0438\u043d\u043e, \u043c\u0435\u0434, \u0432\u0430\u0440\u0435\u043d\u044c\u0435, \u0447\u0430\u0439, \u0445\u0430\u0447\u0430\u043f\u0443\u0440\u0438..."}}, {"type": "node", "id": 5788141754, "lat": 43.0110423, "lon": 40.9668666, "tags": {"amenity": "cafe", "internet_access": "wlan", "wheelchair": "limited"}}, {"type": "node", "id": 5788183653, "lat": 43.022095, "lon": 40.9802045, "tags": {"amenity": "cafe"}}, {"type": "node", "id": 5788192853, "lat": 43.020708, "lon": 40.9820439, "tags": {"amenity": "cafe", "name": "\u0421\u0435\u043b\u0438-\u043f\u043e\u0435\u043b\u0438", "wheelchair": "no"}}, {"type": "node", "id": 5806793735, "lat": 42.9968443, "lon": 41.0090701, "tags": {"amenity": "cafe", "name": "\u0421\u0442\u043e\u043b\u043e\u0432\u0430\u044f \"\u0421\u0435\u043b\u0438-\u043f\u043e\u0435\u043b\u0438\"", "wheelchair": "yes"}}, {"type": "node", "id": 5841568785, "lat": 42.9480635, "lon": 41.0899133, "tags": {"amenity": "restaurant", "name": "\u0418\u043d\u0432\u0438\u0442\u043e"}}, {"type": "node", "id": 5896384485, "lat": 42.9833386, "lon": 40.9790289, "tags": {"amenity": "restaurant"}}, {"type": "node", "id": 5919634885, "lat": 42.9924143, "lon": 41.0492743, "tags": {"amenity": "restaurant", "cuisine": "pasta;local;italian_pizza;chicken", "name": "\u0427\u0438\u043b\u0438", "name:en": "Chili"}}, {"type": "node", "id": 6073228202, "lat": 42.9237904, "lon": 41.0877151, "tags": {"amenity": "cafe"}}, {"type": "node", "id": 6073922776, "lat": 42.951174, "lon": 41.080878, "tags": {"amenity": "cafe"}}, {"type": "node", "id": 6076494143, "lat": 42.844379, "lon": 41.1137007, "tags": {"amenity": "cafe"}}, {"type": "node", "id": 6120583601, "lat": 42.996334, "lon": 41.0088419, "tags": {"amenity": "cafe", "cuisine": "georgian", "name": "\u0421\u0430\u043d\u041c\u0430\u0440"}}, {"type": "node", "id": 6201679026, "lat": 42.9966106, "lon": 41.014862, "tags": {"amenity": "restaurant", "description": "2 \u044d\u0442\u0430\u0436"}}, {"type": "node", "id": 6393694285, "lat": 43.0021735, "lon": 41.0283811, "tags": {"addr:housenumber": "9", "addr:street": "\u0443\u043b\u0438\u0446\u0430 \u0417\u0432\u0430\u043d\u0431\u0430", "amenity": "cafe", "cuisine": "greek;tea;turkish;kebab;breakfast;coffee_shop", "name": "\u0421\u0443\u0432\u043b\u0430\u0447\u043d\u0430\u044f Grekos", "name:en": "Greek fast food", "opening_hours": "Mo-Fr 09:00-22:00; Sa-Su 11:00-22:00", "phone": "+7 940 9908090"}}, {"type": "node", "id": 6458406386, "lat": 43.0031897, "lon": 41.0259901, "tags": {"amenity": "cafe", "cuisine": "ossetian", "name": "\u041e\u0441\u0435\u0442\u0438\u043d\u0441\u043a\u0438\u0435 \u043f\u0438\u0440\u043e\u0433\u0438"}}, {"type": "node", "id": 6583601586, "lat": 42.9997357, "lon": 41.0157267, "tags": {"addr:housenumber": "26", "addr:street": "\u0443\u043b\u0438\u0446\u0430 \u0412\u043e\u0440\u043e\u043d\u043e\u0432\u0430", "amenity": "cafe", "cuisine": "russian;local", "name": "\u0410\u043a\u0430\u043b\u0430\u0442", "name:en": "Akalat", "phone": "+7 940 7767777", "website": "https://instagram.com/akalat.market.cafe"}}, {"type": "node", "id": 6584287685, "lat": 42.998106, "lon": 41.0240262, "tags": {"amenity": "cafe", "cuisine": "coffee_shop;local", "name": "\u0410\u043c\u0440\u0430", "name:en": "Amra restaurant"}}, {"type": "node", "id": 6590604685, "lat": 43.0022886, "lon": 41.0271953, "tags": {"amenity": "restaurant", "name": "\u0410\u043c\u0433\u0431\u0430\u043b", "name:en": "Amgbal", "name:ru": "\u0410\u043c\u0433\u044f\u043b"}}, {"type": "node", "id": 6782687686, "lat": 42.9987039, "lon": 41.0168991, "tags": {"amenity": "cafe", "name": "Food-", "name:ru": "Food-Market", "opening_hours": "Mo-Su 12:00-00:00", "website": "https://instagram.com/food__market__"}}, {"type": "node", "id": 6782764085, "lat": 42.9999692, "lon": 41.0353532, "tags": {"addr:housenumber": "14", "addr:street": "\u0443\u043b\u0438\u0446\u0430 \u0410\u043a\u0438\u0440\u0442\u0430\u0432\u0430", "amenity": "restaurant", "cuisine": "georgian", "name": "\u0410\u043f\u0430\u0446\u0445\u0430 \"\u041a\u0430\u0432\u043a\u0430\u0437\"", "website": "https://instagram.com/kavkaz.cafe"}}, {"type": "node", "id": 6836276985, "lat": 42.9742494, "lon": 41.0709603, "tags": {"amenity": "cafe", "cuisine": "pizza;local", "name": "\u0421\u0442\u043e\u041f\u0438\u0446\u0446\u0430", "opening_hours": "Mo-Su 09:00-00:00"}}, {"type": "node", "id": 7028711544, "lat": 43.0012967, "lon": 41.0428594, "tags": {"amenity": "cafe", "name": "\u041a\u0430\u0444\u0435-\u0421\u0442\u043e\u043b\u043e\u0432\u0430\u044f \u043d\u0430 \u0421\u0430\u0434\u043e\u0432\u043e\u0439"}}, {"type": "node", "id": 7864688185, "lat": 42.9991039, "lon": 41.0310018, "tags": {"amenity": "cafe", "name": "\u041a\u0430\u0444\u0435 \"\u0424\u043e\u0440\u0435\u043b\u044c\"", "opening_hours": "Mo-Su 08:29-22:00"}}, {"type": "node", "id": 7867102286, "lat": 43.0003221, "lon": 41.0235415, "tags": {"amenity": "cafe", "internet_access": "wlan", "name": "Germes", "name:en": "Hatabogata", "name:ru": "\u0425\u0430\u0442\u0430 \u0431\u043e\u0433\u0430\u0442\u0430", "opening_hours": "Mo-Su 10:00-00:00", "shop": "confectionery"}}, {"type": "node", "id": 8176115318, "lat": 42.7153793, "lon": 41.4584436, "tags": {"amenity": "cafe", "name": "\u0412\u043e\u043b\u043d\u0430"}}, {"type": "node", "id": 8230424717, "lat": 43.0003383, "lon": 41.00902, "tags": {"addr:city": "\u0421\u0443\u0445\u0443\u043c", "addr:housenumber": "30", "addr:street": "\u0443\u043b\u0438\u0446\u0430 \u041a\u0430\u043b\u043c\u044b\u043a\u043e\u0432\u0430", "amenity": "cafe", "internet_access": "wlan", "name": "\u0421\u0442\u043e\u043b\u043e\u0432\u0430\u044f \u00ab\u042d\u043b\u044c\u0431\u0440\u0443\u0441\u00bb", "opening_hours": "Mo-Su 08:30-20:00"}}, {"type": "node", "id": 8670897517, "lat": 42.9953969, "lon": 41.016682, "tags": {"amenity": "restaurant", "cuisine": "breakfast;georgian;japanese", "internet_access": "wlan", "name": "\u0420\u0435\u0441\u0442\u043e\u0440\u0430\u043d SOHO", "name:en": "SOHO Restaurant", "opening_hours": "Mo-Su 09:00-23:00", "phone": "+7 (940) 921-77-71", "website": "https://instagram.com/sohosukhum_?igshid=gi2f1j8bt1ax"}}, {"type": "node", "id": 8768405017, "lat": 42.9978364, "lon": 41.0215298, "tags": {"amenity": "cafe", "internet_access": "wlan", "name": "Brigantine coffee"}}, {"type": "node", "id": 8780497984, "lat": 43.0135595, "lon": 41.025669}, {"type": "node", "id": 8780497985, "lat": 43.0136203, "lon": 41.0254866}, {"type": "node", "id": 8780497986, "lat": 43.0135419, "lon": 41.0254276}, {"type": "node", "id": 8780497987, "lat": 43.0136242, "lon": 41.0252345}, {"type": "node", "id": 8780497988, "lat": 43.0137537, "lon": 41.0252559}, {"type": "node", "id": 8780497989, "lat": 43.0138694, "lon": 41.0252184}, {"type": "node", "id": 8780497990, "lat": 43.0139596, "lon": 41.0252935}, {"type": "node", "id": 8780497991, "lat": 43.0140067, "lon": 41.0254034}, {"type": "node", "id": 8780497992, "lat": 43.0139949, "lon": 41.0255349}, {"type": "node", "id": 8780497993, "lat": 43.0138459, "lon": 41.0258594}, {"type": "node", "id": 8780706448, "lat": 43.0015013, "lon": 41.0228439, "tags": {"amenity": "cafe", "cuisine": "coffee_shop", "name": "Smolol", "opening_hours": "Mo-Su 08:30-22:00"}}, {"type": "node", "id": 8827896818, "lat": 43.006057, "lon": 41.0211563, "tags": {"addr:housenumber": "32", "addr:street": "\u0443\u043b\u0438\u0446\u0430 \u0424\u0430\u0437\u0438\u043b\u044f \u0418\u0441\u043a\u0430\u043d\u0434\u0435\u0440\u0430", "amenity": "cafe", "name": "\u041c\u0443\u0445\u0443\u0441", "opening_hours": "Mo-Su 10:00-22:00"}}, {"type": "node", "id": 8827896917, "lat": 43.0042802, "lon": 41.0229438, "tags": {"amenity": "cafe", "name": "\u0421\u0442\u043e\u043b\u043e\u0432\u0430\u044f"}}, {"type": "node", "id": 8827897017, "lat": 43.0033049, "lon": 41.0161068, "tags": {"amenity": "cafe", "name": "\u0421\u0442\u043e\u043b\u043e\u0432\u0430\u044f"}}, {"type": "node", "id": 8829510817, "lat": 42.9993072, "lon": 41.0248591, "tags": {"amenity": "restaurant", "cuisine": "georgian;grill", "name": "\u0412\u0435\u0440\u0448\u0438\u043d\u0430"}}, {"type": "node", "id": 8874755818, "lat": 43.0006558, "lon": 41.0062387, "tags": {"amenity": "cafe", "name": "\u0422\u0430\u043c\u0430\u0434\u0430"}}, {"type": "node", "id": 8874841917, "lat": 43.0036363, "lon": 41.0268241, "tags": {"amenity": "cafe", "name": "\"\u0425\u0438\u043d\u043a\u0430\u043b\u044c\u043d\u0430\u044f \""}}, {"type": "node", "id": 9038787317, "lat": 42.9827886, "lon": 40.972653, "tags": {"amenity": "cafe", "name": "\"\u0427\u0430\u0440\u0438 \u0440\u0430\u043c\u0430\"", "name:en": "Dolfin frends"}}, {"type": "node", "id": 9054043117, "lat": 42.9828427, "lon": 40.972664, "tags": {"amenity": "cafe", "name": "\u0427\u0430\u0440\u0438-\u0420\u0430\u043c\u0430"}}, {"type": "node", "id": 9062245317, "lat": 42.9990844, "lon": 41.0057525, "tags": {"amenity": "cafe", "name": "\u041f\u0438\u0440\u0430\u043c\u0438\u0434\u0430"}}, {"type": "node", "id": 9876930417, "lat": 42.7889452, "lon": 41.3746447, "tags": {"addr:housenumber": "1", "amenity": "cafe", "cuisine": "georgian;russian", "internet_access": "wlan", "name": "\u0420\u0435\u043c\u0430 \u042f\u0448\u0442\u0430", "name:en": "Rema Yashta", "opening_hours": "Mo-Su 08:00-23:00", "phone": "+79409300551"}}, {"type": "node", "id": 9968149118, "lat": 42.9893842, "lon": 41.0519522, "tags": {"amenity": "restaurant", "name": "\u0427\u0430\u0439\u043a\u0430"}}, {"type": "node", "id": 9968352021, "lat": 43.0004057, "lon": 41.0345315, "tags": {"amenity": "cafe", "name": "\u0410\u043d\u0430\u0441\u044b\u043f"}}, {"type": "node", "id": 10027556817, "lat": 43.001109, "lon": 41.0031321, "tags": {"amenity": "cafe", "name": "\u0410\u0431\u0430\u0437\u0430"}}, {"type": "node", "id": 10111938504, "lat": 42.9178063, "lon": 41.0892917, "tags": {"amenity": "bar"}}, {"type": "node", "id": 10160144614, "lat": 42.9967664, "lon": 41.0399429}, {"type": "node", "id": 10160144615, "lat": 42.9968282, "lon": 41.039983}, {"type": "node", "id": 10160144616, "lat": 42.9967768, "lon": 41.0401311}, {"type": "node", "id": 10160151517, "lat": 42.996715, "lon": 41.040091}, {"type": "node", "id": 10982997511, "lat": 43.0037597, "lon": 41.0177408, "tags": {"amenity": "cafe", "name": "\u0443 \u0441\u043e\u0432\u043c\u0438\u043d\u0430"}}, {"type": "node", "id": 11029844205, "lat": 43.0010345, "lon": 41.0237898, "tags": {"amenity": "cafe"}}, {"type": "node", "id": 11036239582, "lat": 43.0082553, "lon": 40.9974524, "tags": {"amenity": "cafe", "name": "\u0410\u043f\u0441\u043d\u044b"}}, {"type": "node", "id": 11036245809, "lat": 42.9953956, "lon": 40.9944261, "tags": {"amenity": "restaurant", "name": "\u0425\u043e\u0440\u043e\u0448\u0435\u0435 \u043c\u0435\u0441\u0442\u043e"}}, {"type": "node", "id": 11036245819, "lat": 42.9968372, "lon": 41.0205933, "tags": {"amenity": "cafe", "name": "\u0411\u0443\u0440\u0433\u0435\u0440\u043f\u043e\u0440\u0442"}}, {"type": "node", "id": 11036840999, "lat": 42.9955147, "lon": 41.0106503, "tags": {"amenity": "bar", "description": "\u041f\u043b\u044f\u0436\u043d\u044b\u0439 \u0431\u0430\u0440", "name": "\u041f\u0430\u043b\u0443\u0431\u0430"}}, {"type": "node", "id": 11037479644, "lat": 42.9959372, "lon": 41.0112617}, {"type": "node", "id": 11037479645, "lat": 42.9959315, "lon": 41.0113817}, {"type": "node", "id": 11037479646, "lat": 42.9959655, "lon": 41.0113885}, {"type": "node", "id": 11037479647, "lat": 42.9959662, "lon": 41.0114776}, {"type": "node", "id": 11037479648, "lat": 42.9959216, "lon": 41.0114776}, {"type": "node", "id": 11037479649, "lat": 42.995918, "lon": 41.0116015}, {"type": "node", "id": 11037479650, "lat": 42.995821, "lon": 41.0115947}, {"type": "node", "id": 11037479651, "lat": 42.9958302, "lon": 41.0112549}, {"type": "node", "id": 11037502644, "lat": 42.9954608, "lon": 41.0159965}, {"type": "node", "id": 11037502645, "lat": 42.9953168, "lon": 41.0160447}, {"type": "node", "id": 11179021637, "lat": 42.9484728, "lon": 41.0908756, "tags": {"amenity": "cafe", "name": "\u0413\u044c\u0430\u043c\u0430\u043b\u0430", "opening_hours": "Mo-Su 09:00-21:00"}}, {"type": "way", "id": 81246511, "nodes": [946579488, 946579489, 946579490, 946579491, 946579488], "tags": {"amenity": "restaurant", "building": "yes", "name": "\u0410\u043f\u0430\u0446\u0445\u0430 \u00ab\u0410\u0431\u0430\u0437\u0433\u0430\u0430\u00bb", "name:ru": "\u0410\u043f\u0430\u0446\u0445\u0430 \u00ab\u0410\u0431\u0430\u0437\u0430\u00bb"}}, {"type": "way", "id": 107285380, "nodes": [1233401251, 1233401255, 3697828224, 1233401239, 1233401251], "tags": {"addr:housenumber": "5", "addr:street": "\u0443\u043b\u0438\u0446\u0430 \u041a\u043e\u043d\u0444\u0435\u0434\u0435\u0440\u0430\u0442\u043e\u0432", "amenity": "cafe", "building": "yes", "cuisine": "oriental;georgian", "internet_access": "wlan", "name": "\u0417\u044b\u0437\u043b\u0430\u043d"}}, {"type": "way", "id": 107578119, "nodes": [1236205269, 1236205211, 1236205244, 1236205239, 1236205269], "tags": {"amenity": "cafe", "building": "house", "cuisine": "international", "internet_access": "yes", "name": "\u041a\u0430\u0444\u0435 \u0410\u0439\u0442\u0430\u0440", "opening_hours": "08:00-20:00"}}, {"type": "way", "id": 126351257, "nodes": [1400894909, 1400894910, 1400894911, 1400894912, 1400894909], "tags": {"amenity": "cafe", "building": "yes"}}, {"type": "way", "id": 126351607, "nodes": [1400897316, 1400897312, 1400897313, 1400897314, 1400897315, 1400897316], "tags": {"amenity": "cafe", "building": "yes"}}, {"type": "way", "id": 198263217, "nodes": [2084219608, 2084219609, 3148775051, 2084219617, 2084219615, 2084219608], "tags": {"addr:city": "\u0410\u049f\u04d9\u0430 - \u0421\u0443\u0445\u0443\u043c", "addr:housenumber": "60", "addr:street": "\u041d\u0430\u0431\u0435\u0440\u0435\u0436\u043d\u0430\u044f \u041c\u0430\u0445\u0430\u0434\u0436\u0438\u0440\u043e\u0432", "amenity": "restaurant", "building": "yes", "name": "\u0414\u043e\u043b\u044c\u0447\u0435 \u0412\u0438\u0442\u0430", "name:de": "Dolce Vita", "name:en": "Dolce Vita", "name:ru": "\u0414\u043e\u043b\u044c\u0447\u0435 \u0412\u0438\u0442\u0430", "toilets:wheelchair": "yes", "wheelchair": "limited"}}, {"type": "way", "id": 198267248, "nodes": [2084266587, 3697719477, 2084266591, 2084266699, 2084266635, 2084266587], "tags": {"addr:city": "\u0410\u049f\u0259\u0430 - \u0421\u0443\u0445\u0443\u043c", "addr:street": "\u0443\u043b\u0438\u0446\u0430 \u0410\u043a\u0438\u0440\u0442\u0430\u0432\u0430", "amenity": "cafe", "building": "yes", "name": "\u0421\u0442\u043e\u043b\u043e\u0432\u0430\u044f"}}, {"type": "way", "id": 201461212, "nodes": [2114544922, 2114544872, 2114544790, 2114544555, 2114544922], "tags": {"amenity": "cafe", "building": "yes"}}, {"type": "way", "id": 365770674, "nodes": [3697785695, 3697785696, 3697785697, 3697785698, 3697785699, 3697785700, 3697785695], "tags": {"amenity": "restaurant", "building": "yes", "name": "\u0410\u043d\u0430\u0441\u044b\u043f", "name:de": "Anasyp", "name:en": "Anasyp", "name:ru": "\u0410\u043d\u0430\u0441\u044b\u043f", "wheelchair": "limited"}}, {"type": "way", "id": 489248085, "nodes": [4815122144, 4815122145, 4815122146, 4815122147, 4815122144], "tags": {"addr:city": "\u0410\u049f\u04d9\u0430 - \u0421\u0443\u0445\u0443\u043c", "addr:housenumber": "28", "addr:street": "\u0443\u043b\u0438\u0446\u0430 \u041a\u043e\u0433\u043e\u043d\u0438\u044f", "amenity": "restaurant", "building": "yes", "name": "\u0421\u0442\u0435\u0439\u043a \u0425\u0430\u0443\u0441", "name:de": "Steak House", "name:en": "Steak House", "name:ru": "\u0421\u0442\u0435\u0439\u043a \u0425\u0430\u0443\u0441", "opening_hours": "Mo-Su 09:00-22:00"}}, {"type": "way", "id": 948602996, "nodes": [8780497993, 8780497992, 8780497991, 8780497990, 8780497989, 8780497988, 8780497987, 8780497986, 8780497985, 8780497984, 8780497993], "tags": {"addr:housenumber": "14", "addr:street": "\u0413\u0443\u043c\u0441\u043a\u0430\u044f \u0443\u043b\u0438\u0446\u0430", "amenity": "restaurant", "building": "yes", "building:levels": "2", "cuisine": "regional;abkhaz;\u043d\u0430\u0446\u0438\u043e\u043d\u0430\u043b\u044c\u043d\u0430\u044f;\u0430\u0431\u0445\u0430\u0437\u0441\u043a\u0430\u044f", "name": "\u0410\u0434\u0437\u044b\u0445\u044c", "name:ab": "\u0410\u04e1\u044b\u0445\u044c", "name:ru": "\u0410\u0434\u0437\u044b\u0445\u044c", "website": "http://adzikh.su", "wheelchair": "no"}}, {"type": "way", "id": 1110608588, "nodes": [10160144614, 10160144615, 10160144616, 10160151517, 10160144614], "tags": {"addr:city": "\u0410\u049f\u0259\u0430 - \u0421\u0443\u0445\u0443\u043c", "amenity": "cafe", "building": "yes", "building:levels": "1", "internet_access": "wlan", "internet_access:fee": "customers", "name": "\u0422\u0435\u0440\u0435\u043c\u043e\u043a", "outdoor_seating": "yes"}}, {"type": "way", "id": 1188666064, "nodes": [11037479644, 11037479645, 11037479646, 11037479647, 11037479648, 11037479649, 11037479650, 11037479651, 11037479644], "tags": {"amenity": "restaurant", "building": "yes", "name": "\u0420\u0435\u0441\u0442\u043e-\u0431\u0430\u0440 \u042d\u043b\u044c\u0431\u0440\u0443\u0441"}}, {"type": "way", "id": 1188669925, "nodes": [11037502644, 2139112937, 2139112938, 11037502645, 11037502644], "tags": {"amenity": "restaurant", "building": "retail", "internet_access": "wlan", "name": "\u0414\u044d\u043c"}}]}