{"version": 0.6, "generator": "Overpass API 0.7.61.5 4133829e", "osm3s": {"timestamp_osm_base": "2024-03-13T22:45:43Z", "copyright": "The data included in this document is from www.openstreetmap.org. The data is made available under ODbL."}, "elements": [{"type": "node", "id": 1157550455, "lat": 42.0701322, "lon": 42.8245738, "tags": {"amenity": "pharmacy", "source": "JumpStart International"}}, {"type": "node", "id": 1157550456, "lat": 42.0693874, "lon": 42.8247726, "tags": {"amenity": "pharmacy", "source": "JumpStart International"}}, {"type": "node", "id": 1157550490, "lat": 42.0696195, "lon": 42.8241807, "tags": {"amenity": "pharmacy", "brand": "\u10d0\u10d5\u10d4\u10e0\u10e1\u10d8", "brand:en": "Aversi", "brand:ru": "\u0410\u0432\u0435\u0440\u0441\u0438", "brand:wikidata": "Q55653978", "contact:facebook": "https://facebook.com/AversiPharma", "contact:instagram": "https://instagram.com/aversipharma", "contact:linkedin": "https://linkedin.com/company/aversi-pharma", "contact:website": "https://www.aversi.ge", "contact:youtube": "https://youtube.com/user/AversiPharma", "healthcare": "pharmacy", "name": "\u10d0\u10d5\u10d4\u10e0\u10e1\u10d8", "name:en": "Aversi", "name:ka": "\u10d0\u10d5\u10d4\u10e0\u10e1\u10d8", "name:ru": "\u0410\u0432\u0435\u0440\u0441\u0438", "operator:wikidata": "Q55653978", "payment:american_express": "yes", "payment:contactless": "yes", "payment:credit_cards": "yes", "payment:debit_cards": "yes", "payment:mastercard": "yes", "payment:visa": "yes", "source": "JumpStart International"}}, {"type": "node", "id": 1157550494, "lat": 42.0698159, "lon": 42.8249255, "tags": {"amenity": "pharmacy", "source": "JumpStart International"}}, {"type": "node", "id": 1157550548, "lat": 42.0677589, "lon": 42.8255259, "tags": {"amenity": "pharmacy", "source": "JumpStart International"}}, {"type": "node", "id": 1157550556, "lat": 42.0686166, "lon": 42.8251937, "tags": {"amenity": "pharmacy", "source": "JumpStart International"}}, {"type": "node", "id": 1157550563, "lat": 42.0704752, "lon": 42.8243726, "tags": {"amenity": "pharmacy", "brand": "\u10d0\u10d5\u10d4\u10e0\u10e1\u10d8", "brand:en": "Aversi", "brand:ru": "\u0410\u0432\u0435\u0440\u0441\u0438", "brand:wikidata": "Q55653978", "contact:facebook": "https://facebook.com/AversiPharma", "contact:instagram": "https://instagram.com/aversipharma", "contact:linkedin": "https://linkedin.com/company/aversi-pharma", "contact:website": "https://www.aversi.ge", "contact:youtube": "https://youtube.com/user/AversiPharma", "healthcare": "pharmacy", "name": "\u10d0\u10d5\u10d4\u10e0\u10e1\u10d8", "name:en": "Aversi", "name:ka": "\u10d0\u10d5\u10d4\u10e0\u10e1\u10d8", "name:ru": "\u0410\u0432\u0435\u0440\u0441\u0438", "operator:wikidata": "Q55653978", "payment:american_express": "yes", "payment:contactless": "yes", "payment:credit_cards": "yes", "payment:debit_cards": "yes", "payment:mastercard": "yes", "payment:visa": "yes", "source": "JumpStart International"}}, {"type": "node", "id": 1158876124, "lat": 42.2915113, "lon": 43.2881278, "tags": {"amenity": "pharmacy", "healthcare": "pharmacy", "source": "JumpStart International"}}, {"type": "node", "id": 1158876126, "lat": 42.2888038, "lon": 43.2842798, "tags": {"amenity": "pharmacy", "healthcare": "pharmacy", "source": "JumpStart International"}}, {"type": "node", "id": 1158876187, "lat": 42.2909043, "lon": 43.2907396, "tags": {"amenity": "pharmacy", "healthcare": "pharmacy", "source": "JumpStart International"}}, {"type": "node", "id": 1158876336, "lat": 42.290706, "lon": 43.2852588, "tags": {"amenity": "pharmacy", "healthcare": "pharmacy", "source": "JumpStart International"}}, {"type": "node", "id": 1158876516, "lat": 42.2914354, "lon": 43.2870594, "tags": {"amenity": "pharmacy", "healthcare": "pharmacy", "source": "JumpStart International"}}, {"type": "node", "id": 1158876642, "lat": 42.2916178, "lon": 43.2862334, "tags": {"amenity": "pharmacy", "brand": "\u10de\u10e1\u10de", "brand:en": "PSP", "brand:ka": "\u10de\u10e1\u10de", "brand:wikidata": "Q115970964", "contact:email": "online@psp.ge", "contact:facebook": "https://facebook.com/psp.ge", "contact:instagram": "https://instagram.com/psp_pharmacy", "contact:phone": "+995322402020", "contact:website": "https://psp.ge", "contact:youtube": "https://youtube.com/user/PSPN1TV", "healthcare": "pharmacy", "name": "\u10de\u10e1\u10de", "name:en": "PSP", "name:ka": "\u10de\u10e1\u10de", "operator:wikidata": "Q115970964", "payment:american_express": "yes", "payment:contactless": "yes", "payment:credit_cards": "yes", "payment:debit_cards": "yes", "payment:mastercard": "yes", "payment:visa": "yes", "source": "JumpStart International"}}, {"type": "node", "id": 1158876698, "lat": 42.2913085, "lon": 43.2890479, "tags": {"amenity": "pharmacy", "brand": "\u10d0\u10d5\u10d4\u10e0\u10e1\u10d8", "brand:en": "Aversi", "brand:ka": "\u10d0\u10d5\u10d4\u10e0\u10e1\u10d8", "brand:ru": "\u0410\u0432\u0435\u0440\u0441\u0438", "brand:wikidata": "Q55653978", "contact:facebook": "https://facebook.com/AversiPharma", "contact:instagram": "https://instagram.com/aversipharma", "contact:linkedin": "https://linkedin.com/company/aversi-pharma", "contact:website": "https://www.aversi.ge", "contact:youtube": "https://youtube.com/user/AversiPharma", "healthcare": "pharmacy", "name": "\u10d0\u10d5\u10d4\u10e0\u10e1\u10d8", "name:en": "Aversi", "name:ka": "\u10d0\u10d5\u10d4\u10e0\u10e1\u10d8", "name:ru": "\u0410\u0432\u0435\u0440\u0441\u0438", "operator:wikidata": "Q55653978", "payment:american_express": "yes", "payment:contactless": "yes", "payment:credit_cards": "yes", "payment:debit_cards": "yes", "payment:mastercard": "yes", "payment:visa": "yes", "source": "JumpStart International"}}, {"type": "node", "id": 1159072047, "lat": 42.0405438, "lon": 43.1130093, "tags": {"amenity": "pharmacy", "source": "JumpStart International"}}, {"type": "node", "id": 1159072052, "lat": 42.1101041, "lon": 43.0234305, "tags": {"amenity": "pharmacy", "healthcare": "pharmacy", "source": "JumpStart International"}}, {"type": "node", "id": 1159072053, "lat": 42.1068469, "lon": 43.0347402, "tags": {"amenity": "pharmacy", "healthcare": "pharmacy", "name": "\u10ec\u10d8\u10d7\u10d4\u10da\u10d8 - A (Tsiteli A)", "name:en": "Tsiteli A", "name:ka": "\u10ec\u10d8\u10d7\u10d4\u10da\u10d8 - A", "source": "JumpStart International"}}, {"type": "node", "id": 1159072074, "lat": 42.1082115, "lon": 43.0274197, "tags": {"amenity": "pharmacy", "healthcare": "pharmacy", "source": "JumpStart International"}}, {"type": "node", "id": 1159072075, "lat": 42.0201596, "lon": 43.1966518, "tags": {"amenity": "pharmacy", "source": "JumpStart International"}}, {"type": "node", "id": 1159072080, "lat": 42.0111814, "lon": 43.208101, "tags": {"amenity": "pharmacy", "name": "36'6 (36'6)", "name:en": "36'6", "name:ka": "36'6", "source": "JumpStart International"}}, {"type": "node", "id": 1159072130, "lat": 42.1078328, "lon": 43.0289116, "tags": {"amenity": "pharmacy", "healthcare": "pharmacy", "name": "\u10e1\u10d0\u10ee\u10d0\u10da\u10ee\u10dd \u10d0\u10e4\u10d7\u10d8\u10d0\u10e5\u10d8 (People's Pharmacy)", "name:en": "People's Pharmacy", "name:ka": "\u10e1\u10d0\u10ee\u10d0\u10da\u10ee\u10dd \u10d0\u10e4\u10d7\u10d8\u10d0\u10e5\u10d8", "source": "JumpStart International"}}, {"type": "node", "id": 1159072141, "lat": 42.1097566, "lon": 43.0238739, "tags": {"amenity": "pharmacy", "healthcare": "pharmacy", "source": "JumpStart International"}}, {"type": "node", "id": 1159072163, "lat": 42.1074039, "lon": 43.0191189, "tags": {"amenity": "pharmacy", "brand": "\u10d0\u10d5\u10d4\u10e0\u10e1\u10d8", "brand:en": "Aversi", "brand:ka": "\u10d0\u10d5\u10d4\u10e0\u10e1\u10d8", "brand:ru": "\u0410\u0432\u0435\u0440\u0441\u0438", "brand:wikidata": "Q55653978", "contact:facebook": "https://facebook.com/AversiPharma", "contact:instagram": "https://instagram.com/aversipharma", "contact:linkedin": "https://linkedin.com/company/aversi-pharma", "contact:website": "https://www.aversi.ge", "contact:youtube": "https://youtube.com/user/AversiPharma", "healthcare": "pharmacy", "name": "\u10d0\u10d5\u10d4\u10e0\u10e1\u10d8", "name:en": "Aversi", "name:ka": "\u10d0\u10d5\u10d4\u10e0\u10e1\u10d8", "name:ru": "\u0410\u0432\u0435\u0440\u0441\u0438", "operator:wikidata": "Q55653978", "payment:american_express": "yes", "payment:contactless": "yes", "payment:credit_cards": "yes", "payment:debit_cards": "yes", "payment:mastercard": "yes", "payment:visa": "yes", "source": "JumpStart International"}}, {"type": "node", "id": 1159072185, "lat": 42.0135133, "lon": 43.204233, "tags": {"amenity": "pharmacy", "source": "JumpStart International"}}, {"type": "node", "id": 1159072191, "lat": 42.0135631, "lon": 43.2041694, "tags": {"amenity": "pharmacy", "source": "JumpStart International"}}, {"type": "node", "id": 1159072219, "lat": 42.1098082, "lon": 43.0242633}, {"type": "node", "id": 1159072231, "lat": 42.1073282, "lon": 43.0379692, "tags": {"amenity": "pharmacy", "brand": "\u10de\u10e1\u10de", "brand:en": "PSP", "brand:ka": "\u10de\u10e1\u10de", "brand:wikidata": "Q115970964", "contact:email": "online@psp.ge", "contact:facebook": "https://facebook.com/psp.ge", "contact:instagram": "https://instagram.com/psp_pharmacy", "contact:phone": "+995322402020", "contact:website": "https://psp.ge", "contact:youtube": "https://youtube.com/user/PSPN1TV", "healthcare": "pharmacy", "name": "\u10de\u10e1\u10de", "name:en": "PSP", "name:ka": "\u10de\u10e1\u10de", "operator:wikidata": "Q115970964", "payment:american_express": "yes", "payment:contactless": "yes", "payment:credit_cards": "yes", "payment:debit_cards": "yes", "payment:mastercard": "yes", "payment:visa": "yes", "source": "JumpStart International"}}, {"type": "node", "id": 1159072304, "lat": 42.0355221, "lon": 43.1189908, "tags": {"amenity": "pharmacy", "source": "JumpStart International"}}, {"type": "node", "id": 1159072360, "lat": 42.1074029, "lon": 43.0451411, "tags": {"amenity": "pharmacy", "brand": "\u10ef\u10de\u10e1", "brand:en": "GPC", "brand:wikidata": "Q115971130", "contact:email": "info@gepha.com", "contact:facebook": "https://facebook.com/gpcpharmacy", "healthcare": "pharmacy", "name": "\u10ef\u10de\u10e1", "name:en": "GPC", "name:ka": "\u10ef\u10de\u10e1", "operator:wikidata": "Q115971130", "payment:american_express": "yes", "payment:contactless": "yes", "payment:credit_cards": "yes", "payment:debit_cards": "yes", "payment:mastercard": "yes", "payment:visa": "yes", "source": "JumpStart International"}}, {"type": "node", "id": 1159072371, "lat": 42.1071775, "lon": 43.0371682, "tags": {"amenity": "pharmacy", "brand": "\u10d0\u10d5\u10d4\u10e0\u10e1\u10d8", "brand:en": "Aversi", "brand:ka": "\u10d0\u10d5\u10d4\u10e0\u10e1\u10d8", "brand:ru": "\u0410\u0432\u0435\u0440\u0441\u0438", "brand:wikidata": "Q55653978", "contact:facebook": "https://facebook.com/AversiPharma", "contact:instagram": "https://instagram.com/aversipharma", "contact:linkedin": "https://linkedin.com/company/aversi-pharma", "contact:website": "https://www.aversi.ge", "contact:youtube": "https://youtube.com/user/AversiPharma", "healthcare": "pharmacy", "name": "\u10d0\u10d5\u10d4\u10e0\u10e1\u10d8", "name:en": "Aversi", "name:ka": "\u10d0\u10d5\u10d4\u10e0\u10e1\u10d8", "name:ru": "\u0410\u0432\u0435\u0440\u0441\u0438", "operator:wikidata": "Q55653978", "payment:american_express": "yes", "payment:contactless": "yes", "payment:credit_cards": "yes", "payment:debit_cards": "yes", "payment:mastercard": "yes", "payment:visa": "yes", "source": "JumpStart International"}}, {"type": "node", "id": 1159072442, "lat": 42.1070297, "lon": 43.0187631, "tags": {"amenity": "pharmacy", "brand": "\u10ef\u10de\u10e1", "brand:en": "GPC", "brand:wikidata": "Q115971130", "contact:email": "info@gepha.com", "contact:facebook": "https://facebook.com/gpcpharmacy", "healthcare": "pharmacy", "name": "\u10ef\u10de\u10e1", "name:en": "GPC", "name:ka": "\u10ef\u10de\u10e1", "operator:wikidata": "Q115971130", "payment:american_express": "yes", "payment:contactless": "yes", "payment:credit_cards": "yes", "payment:debit_cards": "yes", "payment:mastercard": "yes", "payment:visa": "yes", "source": "JumpStart International"}}, {"type": "node", "id": 1159072476, "lat": 42.0405376, "lon": 43.1127581, "tags": {"amenity": "pharmacy", "name": "\u10d5\u10d4\u10e2\u10d0\u10e4\u10d7\u10d8\u10d0\u10e5\u10d8 (Veterinary)", "name:en": "Veterinary", "name:ka": "\u10d5\u10d4\u10e2\u10d0\u10e4\u10d7\u10d8\u10d0\u10e5\u10d8", "name:ru": "\u0412\u0435\u0442\u0435\u0440\u0438\u043d\u0430\u0440\u043d\u044b\u0439", "source": "JumpStart International"}}, {"type": "node", "id": 1159072486, "lat": 42.0112805, "lon": 43.2081482, "tags": {"amenity": "pharmacy", "source": "JumpStart International"}}, {"type": "node", "id": 1159072493, "lat": 42.1073751, "lon": 43.0306934, "tags": {"amenity": "pharmacy", "healthcare": "pharmacy", "name": "\u10db\u10ec\u10d5\u10d0\u10dc\u10d4 \u10d0\u10e4\u10d7\u10d8\u10d0\u10e5\u10d8 (Green Pharmacy)", "name:en": "Green Pharmacy", "name:ka": "\u10db\u10ec\u10d5\u10d0\u10dc\u10d4 \u10d0\u10e4\u10d7\u10d8\u10d0\u10e5\u10d8", "source": "JumpStart International"}}, {"type": "node", "id": 1159072537, "lat": 42.1090695, "lon": 43.0208008, "tags": {"amenity": "pharmacy", "healthcare": "pharmacy", "name": "\u10ec\u10d8\u10d7\u10d4\u10da\u10d8 - A (Tsiteli A)", "name:en": "Tsiteli A", "name:ka": "\u10ec\u10d8\u10d7\u10d4\u10da\u10d8 - A", "source": "JumpStart International"}}, {"type": "node", "id": 1159072604, "lat": 42.1098403, "lon": 43.0218363, "tags": {"amenity": "pharmacy", "brand": "\u10ef\u10de\u10e1", "brand:en": "GPC", "brand:wikidata": "Q115971130", "contact:email": "info@gepha.com", "contact:facebook": "https://facebook.com/gpcpharmacy", "healthcare": "pharmacy", "name": "\u10ef\u10de\u10e1", "name:en": "GPC", "name:ka": "\u10ef\u10de\u10e1", "operator:wikidata": "Q115971130", "payment:american_express": "yes", "payment:contactless": "yes", "payment:credit_cards": "yes", "payment:debit_cards": "yes", "payment:mastercard": "yes", "payment:visa": "yes", "source": "JumpStart International"}}, {"type": "node", "id": 1159072636, "lat": 42.1077015, "lon": 43.0194303, "tags": {"amenity": "pharmacy", "healthcare": "pharmacy", "name": "\u10d8\u10e0\u10d4\u10db\u10d0 (Irema)", "name:en": "Irema", "name:ka": "\u10d8\u10e0\u10d4\u10db\u10d0", "source": "JumpStart International"}}, {"type": "node", "id": 1159072669, "lat": 42.1100069, "lon": 43.0235345, "tags": {"amenity": "pharmacy", "brand": "\u10de\u10e1\u10de", "brand:en": "PSP", "brand:ka": "\u10de\u10e1\u10de", "brand:wikidata": "Q115970964", "contact:email": "online@psp.ge", "contact:facebook": "https://facebook.com/psp.ge", "contact:instagram": "https://instagram.com/psp_pharmacy", "contact:phone": "+995322402020", "contact:website": "https://psp.ge", "contact:youtube": "https://youtube.com/user/PSPN1TV", "healthcare": "pharmacy", "name": "\u10de\u10e1\u10de", "name:en": "PSP", "name:ka": "\u10de\u10e1\u10de", "operator:wikidata": "Q115970964", "payment:american_express": "yes", "payment:contactless": "yes", "payment:credit_cards": "yes", "payment:debit_cards": "yes", "payment:mastercard": "yes", "payment:visa": "yes", "source": "JumpStart International"}}, {"type": "node", "id": 1159072685, "lat": 42.105825, "lon": 43.0129219, "tags": {"amenity": "pharmacy", "healthcare": "pharmacy", "name": "36'6 (36'6)", "name:en": "36'6", "name:ka": "36'6", "source": "JumpStart International"}}, {"type": "node", "id": 1159072690, "lat": 42.011393, "lon": 43.2070442, "tags": {"amenity": "pharmacy", "source": "JumpStart International"}}, {"type": "node", "id": 1159072721, "lat": 42.1084769, "lon": 43.0122442, "tags": {"amenity": "pharmacy", "healthcare": "pharmacy", "source": "JumpStart International"}}, {"type": "node", "id": 1163632836, "lat": 42.1773723, "lon": 42.9771066, "tags": {"amenity": "pharmacy", "source": "JumpStart International"}}, {"type": "node", "id": 1163632861, "lat": 42.2221197, "lon": 42.8601781, "tags": {"amenity": "pharmacy", "source": "JumpStart International"}}, {"type": "node", "id": 1163632952, "lat": 42.1808067, "lon": 42.9775042, "tags": {"amenity": "pharmacy", "source": "JumpStart International"}}, {"type": "node", "id": 1163632979, "lat": 42.2502268, "lon": 42.954448, "tags": {"amenity": "pharmacy", "name": "\u10d5\u10d4\u10e2\u10d0\u10e4\u10d7\u10d8\u10d0\u10e5\u10d8 (Veterinary)", "name:en": "Veterinary", "name:ka": "\u10d5\u10d4\u10e2\u10d0\u10e4\u10d7\u10d8\u10d0\u10e5\u10d8", "source": "JumpStart International"}}, {"type": "node", "id": 1163633215, "lat": 42.2305908, "lon": 43.0309616, "tags": {"amenity": "pharmacy", "source": "JumpStart International"}}, {"type": "node", "id": 1163633623, "lat": 42.1826311, "lon": 42.9771682, "tags": {"amenity": "pharmacy", "brand": "\u10d0\u10d5\u10d4\u10e0\u10e1\u10d8", "brand:en": "Aversi", "brand:ru": "\u0410\u0432\u0435\u0440\u0441\u0438", "brand:wikidata": "Q55653978", "contact:facebook": "https://facebook.com/AversiPharma", "contact:instagram": "https://instagram.com/aversipharma", "contact:linkedin": "https://linkedin.com/company/aversi-pharma", "contact:website": "https://www.aversi.ge", "contact:youtube": "https://youtube.com/user/AversiPharma", "healthcare": "pharmacy", "name": "\u10d0\u10d5\u10d4\u10e0\u10e1\u10d8", "name:en": "Aversi", "name:ka": "\u10d0\u10d5\u10d4\u10e0\u10e1\u10d8", "name:ru": "\u0410\u0432\u0435\u0440\u0441\u0438", "operator:wikidata": "Q55653978", "payment:american_express": "yes", "payment:contactless": "yes", "payment:credit_cards": "yes", "payment:debit_cards": "yes", "payment:mastercard": "yes", "payment:visa": "yes", "source": "JumpStart International"}}, {"type": "node", "id": 1163633649, "lat": 42.1829855, "lon": 42.9774492, "tags": {"amenity": "pharmacy", "source": "JumpStart International"}}, {"type": "node", "id": 1163633753, "lat": 42.2504378, "lon": 42.9801975, "tags": {"amenity": "pharmacy", "source": "JumpStart International"}}, {"type": "node", "id": 1163633807, "lat": 42.2505795, "lon": 42.9557365, "tags": {"amenity": "pharmacy", "name": "\u10d5\u10d4\u10e2\u10d0\u10e4\u10d7\u10d8\u10d0\u10e5\u10d8 (Veterinary)", "name:en": "Veterinary", "name:ka": "\u10d5\u10d4\u10e2\u10d0\u10e4\u10d7\u10d8\u10d0\u10e5\u10d8", "source": "JumpStart International"}}, {"type": "node", "id": 4208584672, "lat": 42.1098917, "lon": 43.0243467}, {"type": "node", "id": 4208584673, "lat": 42.1099552, "lon": 43.0242312}, {"type": "node", "id": 4208584674, "lat": 42.1098717, "lon": 43.0241478}, {"type": "node", "id": 4432108090, "lat": 42.1068864, "lon": 43.0183267, "tags": {"amenity": "pharmacy", "brand": "\u10d0\u10d5\u10d4\u10e0\u10e1\u10d8", "brand:en": "Aversi", "brand:ka": "\u10d0\u10d5\u10d4\u10e0\u10e1\u10d8", "brand:ru": "\u0410\u0432\u0435\u0440\u0441\u0438", "brand:wikidata": "Q55653978", "contact:facebook": "https://facebook.com/AversiPharma", "contact:instagram": "https://instagram.com/aversipharma", "contact:linkedin": "https://linkedin.com/company/aversi-pharma", "contact:website": "https://www.aversi.ge", "contact:youtube": "https://youtube.com/user/AversiPharma", "healthcare": "pharmacy", "name": "\u10d0\u10d5\u10d4\u10e0\u10e1\u10d8", "name:en": "Aversi", "name:ka": "\u10d0\u10d5\u10d4\u10e0\u10e1\u10d8", "name:ru": "\u0410\u0432\u0435\u0440\u0441\u0438", "operator:wikidata": "Q55653978", "payment:american_express": "yes", "payment:contactless": "yes", "payment:credit_cards": "yes", "payment:debit_cards": "yes", "payment:mastercard": "yes", "payment:visa": "yes"}}, {"type": "node", "id": 4432134189, "lat": 42.1068214, "lon": 43.018245, "tags": {"amenity": "pharmacy", "brand": "\u10de\u10e1\u10de", "brand:en": "PSP", "brand:ka": "\u10de\u10e1\u10de", "brand:wikidata": "Q115970964", "healthcare": "pharmacy", "name": "\u10de\u10e1\u10de", "name:en": "PSP", "name:ka": "\u10de\u10e1\u10de"}}, {"type": "node", "id": 4836274321, "lat": 42.2908933, "lon": 43.2847862, "tags": {"amenity": "pharmacy", "healthcare": "pharmacy"}}, {"type": "node", "id": 8663532389, "lat": 42.1727682, "lon": 42.933371, "tags": {"amenity": "pharmacy", "dispensing": "yes", "healthcare": "pharmacy"}}, {"type": "node", "id": 8663532400, "lat": 42.1478603, "lon": 42.9650605, "tags": {"amenity": "pharmacy", "dispensing": "yes", "healthcare": "pharmacy"}}, {"type": "node", "id": 9776496718, "lat": 42.1068699, "lon": 43.0357432, "tags": {"amenity": "pharmacy", "brand": "\u10d8\u10db\u10de\u10d4\u10e5\u10e1\u10d8", "brand:en": "Impex", "contact:email": "office@myimpex.ge", "contact:facebook": "https://facebook.com/ImpexPharmacy", "contact:instagram": "https://instagram.com/impexpharmacy", "contact:linkedin": "https://linkedin.com/company/impexpharm", "healthcare": "pharmacy", "name": "\u10d8\u10db\u10de\u10d4\u10e5\u10e1\u10d8", "name:en": "Impex", "name:ka": "\u10d8\u10db\u10de\u10d4\u10e5\u10e1\u10d8", "payment:contactless": "yes", "payment:credit_cards": "yes", "payment:debit_cards": "yes", "payment:mastercard": "yes", "payment:visa": "yes"}}, {"type": "way", "id": 421003263, "nodes": [1159072219, 4208584672, 4208584673, 4208584674, 1159072219], "tags": {"amenity": "pharmacy", "brand": "\u10d0\u10d5\u10d4\u10e0\u10e1\u10d8", "brand:en": "Aversi", "brand:ka": "\u10d0\u10d5\u10d4\u10e0\u10e1\u10d8", "brand:ru": "\u0410\u0432\u0435\u0440\u0441\u0438", "brand:wikidata": "Q55653978", "building": "yes", "contact:facebook": "https://facebook.com/AversiPharma", "contact:instagram": "https://instagram.com/aversipharma", "contact:linkedin": "https://linkedin.com/company/aversi-pharma", "contact:website": "https://www.aversi.ge", "contact:youtube": "https://youtube.com/user/AversiPharma", "healthcare": "pharmacy", "name": "\u10d0\u10d5\u10d4\u10e0\u10e1\u10d8", "name:en": "Aversi", "name:ka": "\u10d0\u10d5\u10d4\u10e0\u10e1\u10d8", "name:ru": "\u0410\u0432\u0435\u0440\u0441\u0438", "operator:wikidata": "Q55653978", "payment:american_express": "yes", "payment:contactless": "yes", "payment:credit_cards": "yes", "payment:debit_cards": "yes", "payment:mastercard": "yes", "payment:visa": "yes", "source": "JumpStart International"}}]}