{"version": 0.6, "generator": "Overpass API 0.7.61.5 4133829e", "osm3s": {"timestamp_osm_base": "2024-03-14T22:00:01Z", "copyright": "The data included in this document is from www.openstreetmap.org. The data is made available under ODbL."}, "elements": [{"type": "node", "id": 247039189, "lat": 63.8335514, "lon": 20.3278333, "tags": {"amenity": "restaurant", "check_date": "2023-02-10", "cuisine": "pizza;burger;kebab", "diet:vegan": "yes", "diet:vegetarian": "yes", "internet_access": "wlan", "internet_access:fee": "no", "name": "Restaurang Maria", "name:sv": "Restaurang Maria", "opening_hours": "Mo-Fr 11:00-21:00; Sa,Su 12:00-21:00"}}, {"type": "node", "id": 281194005, "lat": 63.8265571, "lon": 20.3284118, "tags": {"amenity": "restaurant", "cuisine": "pizza;kebab", "entrance": "main", "name": "Restaurang Capri"}}, {"type": "node", "id": 286060420, "lat": 63.8257505, "lon": 20.2666999, "tags": {"addr:city": "Ume\u00e5", "addr:country": "SE", "addr:housenumber": "10", "addr:street": "Vasagatan", "amenity": "restaurant", "contact:phone": "+4690121252", "contact:website": "http://www.tajmahalumea.com/", "cuisine": "indian", "name": "Tajmahal", "opening_hours": "Mo-Th 11:00-15:00, 16:00-22:00; Fr 11:00-15:00, 16:00-23:00; Sa 12:00-23:00; Su 12:00-21:00", "takeaway": "yes"}}, {"type": "node", "id": 286385002, "lat": 63.8241809, "lon": 20.2630492, "tags": {"amenity": "cafe", "name": "Kaf\u00e9 Tornhuset", "wheelchair": "yes"}}, {"type": "node", "id": 286578617, "lat": 63.8258532, "lon": 20.2668005, "tags": {"amenity": "restaurant", "cuisine": "chinese", "name": "Eastern Palace", "opening_hours": "Tu-Fr 11:00-21:00; Sa-Su 12:00-21:00", "wheelchair": "yes"}}, {"type": "node", "id": 286579131, "lat": 63.8304524, "lon": 20.2625884, "tags": {"amenity": "restaurant", "cuisine": "chinese", "name": "Great Eastern"}}, {"type": "node", "id": 286583549, "lat": 63.8339674, "lon": 20.2793693, "tags": {"addr:city": "Ume\u00e5", "addr:country": "SE", "addr:housenumber": "64", "addr:street": "\u00d6stra Kyrkogatan", "amenity": "restaurant", "name": "Pizzeria Bj\u00f6rken"}}, {"type": "node", "id": 287352128, "lat": 63.8223671, "lon": 20.2519892, "tags": {"amenity": "restaurant", "cuisine": "pizza", "name": "Pizzeria Roberto"}}, {"type": "node", "id": 287352132, "lat": 63.8221015, "lon": 20.2519892, "tags": {"amenity": "restaurant", "cuisine": "thai", "name": "Mhenam", "website": "https://www.thairestaurangmhenam.se/"}}, {"type": "node", "id": 287775040, "lat": 63.8259768, "lon": 20.2598299, "tags": {"addr:city": "Ume\u00e5", "addr:country": "SE", "addr:housenumber": "6", "addr:postcode": "903 26", "addr:street": "Renmarkstorget", "amenity": "restaurant", "capacity": "228", "name": "Harrys", "outdoor_seating": "yes", "website": "https://www.harrys.se/restauranger/umea/"}}, {"type": "node", "id": 287775296, "lat": 63.8264769, "lon": 20.2667425, "tags": {"amenity": "restaurant", "delivery": "no", "name": "\u00c4pplet", "operator": "Ume\u00e5 Folkets Hus"}}, {"type": "node", "id": 292640642, "lat": 63.8262639, "lon": 20.2594366, "tags": {"addr:city": "Ume\u00e5", "addr:country": "SE", "addr:housenumber": "5", "addr:postcode": "903 26", "addr:street": "Renmarkstorget", "amenity": "restaurant", "capacity": "380", "cuisine": "spanish", "level": "0", "name": "Cinco", "outdoor_seating": "yes", "website": "https://cincoumea.se/", "wheelchair": "yes"}}, {"type": "node", "id": 295220028, "lat": 63.8293649, "lon": 20.2654438, "tags": {"amenity": "restaurant", "check_date:opening_hours": "2023-10-17", "cuisine": "indian", "name": "Gandhi", "opening_hours": "Mo-Th 11:00-22:00; Fr 11:00-23:00; Sa 12:00-23:00; Su 15:00-21:00"}}, {"type": "node", "id": 295220030, "lat": 63.8257653, "lon": 20.2683454, "tags": {"amenity": "restaurant", "diet:vegetarian": "yes", "name": "Helan och Halvan's grill", "opening_hours": "Mo-Th 11:00-20:00; Fr, Sa 11:00-03:00; Su 12:00-20:00"}}, {"type": "node", "id": 295220031, "lat": 63.8262068, "lon": 20.261566, "tags": {"amenity": "cafe", "name": "Nya konditoriet", "opening_hours": "Mo-Sa 08:30-18:00; Su 12:00-17:00", "shop": "pastry", "wheelchair": "no"}}, {"type": "node", "id": 295220032, "lat": 63.8279215, "lon": 20.2690125, "tags": {"addr:city": "Ume\u00e5", "addr:country": "SE", "addr:housenumber": "7", "addr:postcode": "903 29", "addr:street": "Operaplan", "amenity": "restaurant", "capacity": "92", "cuisine": "bistro", "name": "Elektra", "opening_hours": "We,Th 16:00-23:00; Fr,Sa 16:00-01:00", "website": "https://elektraumea.se"}}, {"type": "node", "id": 295220033, "lat": 63.8252546, "lon": 20.2602223, "tags": {"amenity": "restaurant", "name": "Tapas", "opening_hours": "Mo-Sa 17:00-22:00"}}, {"type": "node", "id": 295220035, "lat": 63.8289466, "lon": 20.2655241, "tags": {"addr:country": "SE", "addr:housenumber": "15", "addr:street": "R\u00e5dhusesplanaden", "amenity": "cafe", "check_date": "2022-07-24", "diet:vegan": "yes", "diet:vegetarian": "yes", "email": "info@mekka.se", "name": "Mekka", "opening_hours": "Mo-Fr 07:00-17:00; Sa-Su 09:00-17:00", "opening_hours:url": "http://mekka.se/oppettider/", "phone": "+4690774404", "shop": "pastry", "website": "https://mekka.se/", "wheelchair": "no"}}, {"type": "node", "id": 295220039, "lat": 63.8291406, "lon": 20.2672648, "tags": {"amenity": "restaurant", "cuisine": "pizza", "name": "Kebnekajse"}}, {"type": "node", "id": 297835204, "lat": 63.8193093, "lon": 20.2883731, "tags": {"amenity": "restaurant", "cuisine": "chinese", "name": "Shanghai", "wheelchair": "yes"}}, {"type": "node", "id": 298499566, "lat": 63.8121501, "lon": 20.3142035, "tags": {"amenity": "restaurant", "cuisine": "pizza", "name": "Pizzeria Un po d'Italia", "opening_hours": "Mo-Th 11:00-21:00; Fr 11:00-22:00; Sa,Su 12:00-22:00", "phone": "+4690190600", "wheelchair": "yes"}}, {"type": "node", "id": 298499568, "lat": 63.8126027, "lon": 20.3142978, "tags": {"amenity": "restaurant", "name": "Golden fork", "wheelchair": "yes"}}, {"type": "node", "id": 298500077, "lat": 63.8124236, "lon": 20.3146549, "tags": {"amenity": "restaurant", "name": "Taco Bar"}}, {"type": "node", "id": 298556722, "lat": 63.812104, "lon": 20.3147055, "tags": {"amenity": "restaurant", "cuisine": "asian", "diet:vegetarian": "yes"}}, {"type": "node", "id": 310663380, "lat": 63.8025963, "lon": 20.31578, "tags": {"addr:city": "Ume\u00e5", "addr:country": "SE", "addr:housenumber": "4", "addr:postcode": "90740", "addr:street": "Gnejsv\u00e4gen", "amenity": "restaurant", "cuisine": "pizza", "name": "Pizzeria Milano", "opening_hours": "Mo-Th 10:00-20:00; Fr 10:00-21:00; Sa-Su 12:00-21:00", "phone": "+46 90 199390"}}, {"type": "node", "id": 316785721, "lat": 63.8290056, "lon": 20.2550012, "tags": {"addr:city": "Ume\u00e5", "addr:country": "SE", "addr:housenumber": "31", "addr:postcode": "90325", "addr:street": "Skolgatan", "amenity": "restaurant", "contact:phone": "+46 (90) 161410", "name": "Restaurang \u00d6versten", "opening_hours": "Mo-Fr 08:00-15:30", "operator": "Ume\u00e5 kommun"}}, {"type": "node", "id": 419817446, "lat": 63.8404479, "lon": 20.1168785}, {"type": "node", "id": 614622887, "lat": 63.8253107, "lon": 20.2624527, "tags": {"amenity": "restaurant", "name": "Rex Bar & Grill"}}, {"type": "node", "id": 1025674024, "lat": 63.8191657, "lon": 20.3164602}, {"type": "node", "id": 1025674034, "lat": 63.8193912, "lon": 20.3167316}, {"type": "node", "id": 1025674069, "lat": 63.8191329, "lon": 20.3167155}, {"type": "node", "id": 1025674072, "lat": 63.819343, "lon": 20.3167314}, {"type": "node", "id": 1025674098, "lat": 63.8191655, "lon": 20.3167156}, {"type": "node", "id": 1025674112, "lat": 63.8193914, "lon": 20.3164611}, {"type": "node", "id": 1025674142, "lat": 63.8191328, "lon": 20.3169028}, {"type": "node", "id": 1025674186, "lat": 63.8193428, "lon": 20.3169036}, {"type": "node", "id": 1025716618, "lat": 63.8232695, "lon": 20.3019769, "tags": {"addr:city": "Ume\u00e5", "addr:country": "SE", "addr:housenumber": "32", "addr:postcode": "90337", "addr:street": "Axtorpsv\u00e4gen", "amenity": "restaurant", "check_date:opening_hours": "2022-10-23", "contact:phone": "+46 90 77 96 00", "delivery": "no", "drink:beer": "served;draught", "drink:cider": "served", "drink:soda": "served", "drink:wine": "served", "email": "info@pubrott.se", "level": "0", "name": "R\u00f6tt", "opening_hours": "Mo-Th 16:00-24:00, Fr 16:00-01:00, Sa 17:00-01:00", "outdoor_seating": "yes", "smoking": "outside", "takeaway": "yes", "website": "http://pubrott.se/", "wheelchair": "yes"}}, {"type": "node", "id": 1025716680, "lat": 63.8216827, "lon": 20.3042496, "tags": {"amenity": "cafe", "name": "Caf\u00e9 Tornet", "opening_hours": "Sep-May Mo-Fr 07:30-16:00", "smoking": "no", "wheelchair": "yes"}}, {"type": "node", "id": 1058150113, "lat": 63.8264523, "lon": 20.2950795, "tags": {"addr:city": "Ume\u00e5", "addr:country": "SE", "addr:housenumber": "1", "addr:street": "Axtorpsv\u00e4gen", "amenity": "restaurant", "cuisine": "chinese", "name": "Great Wall", "opening_hours": "Mo,We-Fr 10:30-20:00; Tu 10:30-14:00; Sa,Su 12:00-20:00"}}, {"type": "node", "id": 1231050581, "lat": 63.8104821, "lon": 20.3543438}, {"type": "node", "id": 1231050608, "lat": 63.8105331, "lon": 20.3545362}, {"type": "node", "id": 1231050669, "lat": 63.8104817, "lon": 20.3543159}, {"type": "node", "id": 1231050875, "lat": 63.8105297, "lon": 20.3543122}, {"type": "node", "id": 1231050992, "lat": 63.8103648, "lon": 20.354448}, {"type": "node", "id": 1231051053, "lat": 63.8104293, "lon": 20.3545442}, {"type": "node", "id": 1231051149, "lat": 63.8104297, "lon": 20.35457}, {"type": "node", "id": 1231051313, "lat": 63.8104178, "lon": 20.354444}, {"type": "node", "id": 1231051383, "lat": 63.8104163, "lon": 20.3543489}, {"type": "node", "id": 1231051430, "lat": 63.8103667, "lon": 20.3545749}, {"type": "node", "id": 1298213986, "lat": 63.8266915, "lon": 20.2644195, "tags": {"amenity": "cafe", "check_date": "2022-07-24", "name": "Gamla Bibliotekscaf\u00e9et", "opening_hours": "Mo-Fr 09:00-18:00; Sa 10:00-17:00; Su 11:00-17:00", "website": "https://www.gamlabibliotekscafeet.se/"}}, {"type": "node", "id": 1357627975, "lat": 63.8358333, "lon": 20.1643064}, {"type": "node", "id": 1357627977, "lat": 63.8358723, "lon": 20.1641962}, {"type": "node", "id": 1357627979, "lat": 63.836098, "lon": 20.1647879}, {"type": "node", "id": 1357627985, "lat": 63.836137, "lon": 20.1646777}, {"type": "node", "id": 1380970441, "lat": 63.8282597, "lon": 20.2909295}, {"type": "node", "id": 1380970443, "lat": 63.828285, "lon": 20.2911929}, {"type": "node", "id": 1380970453, "lat": 63.8285161, "lon": 20.2908028}, {"type": "node", "id": 1380970455, "lat": 63.8285197, "lon": 20.2908394}, {"type": "node", "id": 1380970457, "lat": 63.8285403, "lon": 20.2910461}, {"type": "node", "id": 1380970459, "lat": 63.8285414, "lon": 20.2910662}, {"type": "node", "id": 1380970470, "lat": 63.8286277, "lon": 20.2904768}, {"type": "node", "id": 1380970476, "lat": 63.8286581, "lon": 20.2907682}, {"type": "node", "id": 1380970487, "lat": 63.8286949, "lon": 20.2909027}, {"type": "node", "id": 1380970494, "lat": 63.828701, "lon": 20.2909634}, {"type": "node", "id": 1380970496, "lat": 63.8287066, "lon": 20.2904344}, {"type": "node", "id": 1380970512, "lat": 63.8287523, "lon": 20.2908719}, {"type": "node", "id": 1402080823, "lat": 63.8211338, "lon": 20.2525761, "tags": {"amenity": "cafe", "contact:phone": "+46-90770030", "name": "Nybro konditori"}}, {"type": "node", "id": 1430802894, "lat": 63.8285231, "lon": 20.2910752}, {"type": "node", "id": 1568235785, "lat": 63.8355143, "lon": 20.2802923}, {"type": "node", "id": 1568235792, "lat": 63.8355484, "lon": 20.2795875}, {"type": "node", "id": 1568235802, "lat": 63.8355771, "lon": 20.2803932}, {"type": "node", "id": 1568235810, "lat": 63.8355812, "lon": 20.280309}, {"type": "node", "id": 1568235825, "lat": 63.8356261, "lon": 20.2804054}, {"type": "node", "id": 1568235850, "lat": 63.8356642, "lon": 20.2796163}, {"type": "node", "id": 1610669380, "lat": 63.8504832, "lon": 20.3466193}, {"type": "node", "id": 1610669383, "lat": 63.8505334, "lon": 20.3454022}, {"type": "node", "id": 1610669385, "lat": 63.8506503, "lon": 20.3466548}, {"type": "node", "id": 1610669392, "lat": 63.8506556, "lon": 20.3465263}, {"type": "node", "id": 1610669393, "lat": 63.8506708, "lon": 20.3461577}, {"type": "node", "id": 1610669394, "lat": 63.8506729, "lon": 20.3461058}, {"type": "node", "id": 1610669395, "lat": 63.8506879, "lon": 20.3457421}, {"type": "node", "id": 1610669396, "lat": 63.8507005, "lon": 20.3454376}, {"type": "node", "id": 1610669397, "lat": 63.8508353, "lon": 20.3461402}, {"type": "node", "id": 1610669399, "lat": 63.8508503, "lon": 20.3457766}, {"type": "node", "id": 1610669401, "lat": 63.850864, "lon": 20.3465705}, {"type": "node", "id": 1610669402, "lat": 63.8508792, "lon": 20.3462019}, {"type": "node", "id": 1637553204, "lat": 63.840244, "lon": 20.1172114}, {"type": "node", "id": 1637553205, "lat": 63.8403384, "lon": 20.1173294}, {"type": "node", "id": 1637553207, "lat": 63.8403536, "lon": 20.1167605}, {"type": "node", "id": 1663092295, "lat": 63.8213073, "lon": 20.2209387, "tags": {"addr:city": "Ume\u00e5", "addr:country": "SE", "addr:housenumber": "62", "addr:postcode": "90434", "addr:street": "B\u00f6lev\u00e4gen", "amenity": "restaurant", "cuisine": "pizza;kebab;grill", "name": "Olles Pizzeria", "phone": "090-12 28 72", "website": "https://www.ollespizzeria.se/"}}, {"type": "node", "id": 1764328047, "lat": 63.8283035, "lon": 20.2659347, "tags": {"amenity": "restaurant", "name": "Angelini", "opening_hours": "Mo-Fr 08:00-13:30, We-Sa 17:00-23:00", "website": "http://www.angelini.se/"}}, {"type": "node", "id": 1764328048, "lat": 63.8268243, "lon": 20.2623643, "tags": {"amenity": "restaurant", "name": "Balder", "opening_hours": "Mo-Th 11:00-21:00; Fr 11:00-22:00; Sa 12:00-22:00; Su 13:00-21:00"}}, {"type": "node", "id": 1764328049, "lat": 63.8254395, "lon": 20.2606812, "tags": {"amenity": "restaurant", "capacity": "128", "cuisine": "bistro", "diet:vegan": "yes", "diet:vegetarian": "yes", "internet_access": "wlan", "internet_access:fee": "no", "internet_access:password": "tonkabistro", "internet_access:wlan:essid": "Tonka Guest", "level": "1", "name": "Tonka Bistro Caf\u00e9", "opening_hours": "Mo-Fr 10:00-20:00; Sa,Su 10:00-17:00"}}, {"type": "node", "id": 1764328051, "lat": 63.8239898, "lon": 20.2790541, "tags": {"amenity": "cafe", "check_date:opening_hours": "2023-03-27", "name": "Bokcaf\u00e9 Pilgatan", "opening_hours": "Tu-Fr 11:00-17:00; Sa 12:00-16:00"}}, {"type": "node", "id": 1764328052, "lat": 63.8251417, "lon": 20.2665733, "tags": {"addr:country": "SE", "addr:housenumber": "60", "addr:postcode": "903 26", "addr:street": "Kungsgatan", "amenity": "cafe", "check_date:opening_hours": "2023-02-03", "name": "Brobergs Coffee Shop", "opening_hours": "Mo-Fr 08:00-16:00; Sa 11:00-15:30"}}, {"type": "node", "id": 1764328056, "lat": 63.8221434, "lon": 20.2737809, "tags": {"addr:country": "SE", "addr:housenumber": "60", "addr:postcode": "903 30", "addr:street": "Storgatan", "amenity": "restaurant", "name": "Droskan Pub & Restaurang"}}, {"type": "node", "id": 1764328070, "lat": 63.8221271, "lon": 20.283936, "tags": {"addr:country": "SE", "addr:housenumber": "102", "addr:street": "Kungsgatan", "amenity": "restaurant", "cuisine": "pizza", "name": "Matador", "opening_hours": "Mo-Fr 10:30-21:00 open, 10:30-15:00 open \"Lunch\"; Sa-Su,PH 11:00-21:00; Dec 24 off", "outdoor_seating": "yes", "payment:cash": "yes", "phone": "+4690121100", "website": "http://pizzeriamatador.se/", "wheelchair": "yes"}}, {"type": "node", "id": 1764328075, "lat": 63.8210446, "lon": 20.2870915, "tags": {"addr:city": "Ume\u00e5", "addr:country": "SE", "addr:housenumber": "133", "addr:postcode": "90332", "addr:street": "Kungsgatan", "amenity": "restaurant", "name": "Svingen", "phone": "+46-90124666", "website": "http://www.svingenpizzeria.se/"}}, {"type": "node", "id": 1764328078, "lat": 63.82752, "lon": 20.253917, "tags": {"amenity": "restaurant", "check_date": "2023-05-18", "name": "Amango"}}, {"type": "node", "id": 1764328082, "lat": 63.8238488, "lon": 20.2641181, "tags": {"addr:city": "Ume\u00e5", "addr:country": "SE", "addr:housenumber": "1", "addr:postcode": "903 29", "addr:street": "Vasagatan", "alt_name": "Hunger och t\u00f6rst", "amenity": "restaurant", "capacity": "80", "name": "Hunger & T\u00f6rst", "website": "https://hungerochtorst.se/"}}, {"type": "node", "id": 1764328084, "lat": 63.8257267, "lon": 20.2594274, "tags": {"amenity": "restaurant", "cuisine": "sushi", "level": "0", "name": "The Sea Street Sushi Bar", "opening_hours": "Mo-Fr 11:00-20:00, Sa 12:00-20:00, Su 12:00-19:00", "payment:coins": "yes", "payment:credit_cards": "yes", "payment:debit_cards": "yes", "payment:maestro": "yes", "payment:mastercard": "yes", "payment:notes": "yes", "payment:visa": "yes", "website": "http://www.seastreetsushibar.se/"}}, {"type": "node", "id": 1764328086, "lat": 63.8364236, "lon": 20.2335996, "tags": {"alt_name": "Ullas konditori", "amenity": "cafe", "check_date": "2023-02-10", "cuisine": "coffee_shop;cake;sandwich", "name": "Ullas kondis", "name:sv": "Ullas kondis", "opening_hours": "Mo-Fr 07:00-16:00; Sa-Su off", "outdoor_seating": "no", "payment:mastercard": "yes", "payment:visa": "yes", "phone": "090-121665", "shop": "pastry", "website": "https://ullaskondis.se", "wheelchair": "yes"}}, {"type": "node", "id": 1764328087, "lat": 63.8255059, "lon": 20.2585856, "tags": {"amenity": "restaurant", "name": "V&R - Viskningar & Rop", "opening_hours": "Tu-Sa 17:00-22:00", "payment:cash": "no"}}, {"type": "node", "id": 1764328245, "lat": 63.841382, "lon": 20.3389971}, {"type": "node", "id": 1764328246, "lat": 63.8413958, "lon": 20.3388526}, {"type": "node", "id": 1764328250, "lat": 63.841534, "lon": 20.3390714}, {"type": "node", "id": 1764328251, "lat": 63.8415477, "lon": 20.3389269}, {"type": "node", "id": 1818145425, "lat": 63.8218266, "lon": 20.2459793, "tags": {"amenity": "restaurant", "name": "Charlies k\u00f6k", "opening_hours": "Mo-Th 10:30-20:00; Fr,Sa 11:00-21:00; Su 11:00-20:00"}}, {"type": "node", "id": 1857166874, "lat": 63.8289107, "lon": 20.2459691, "tags": {"addr:city": "Ume\u00e5", "addr:country": "SE", "addr:housenumber": "24", "addr:street": "Kungsgatan", "amenity": "restaurant", "check_date": "2023-02-09", "cuisine": "sushi", "diet:vegan": "yes", "diet:vegetarian": "yes", "name": "Sushi h\u00f6rnan", "name:sv": "Sushi h\u00f6rnan", "opening_hours": "Tu-Fr 11:00-20:00; Sa,Su 12:00-20:00", "outdoor_seating": "no", "wheelchair": "no"}}, {"type": "node", "id": 1859958392, "lat": 63.8336832, "lon": 20.3271623, "tags": {"addr:city": "Ume\u00e5", "addr:country": "SE", "addr:housenumber": "7H", "addr:postcode": "906 54", "addr:street": "Mariehemsv\u00e4gen", "amenity": "restaurant", "cuisine": "pizza", "entrance": "yes", "facebook": "restaurangangen", "name": "Pizzeria \u00c4ngen", "opening_hours": "Mo-Fr 11:00-21:00; Sa,Su 12:00-21:00"}}, {"type": "node", "id": 1876621598, "lat": 63.8262021, "lon": 20.2658656, "tags": {"addr:city": "Ume\u00e5", "addr:country": "SE", "addr:housenumber": "64D", "addr:street": "Skolgatan", "air_conditioning": "yes", "amenity": "restaurant", "cuisine": "burger", "diet:vegetarian": "yes", "email": "umea@olearys.se", "indoor_seating": "yes", "microbrewery": "no", "name": "O'Learys Ume\u00e5 Bowling", "opening_hours": "Mo-Tu,Th 10:00-24:00; We,Fr-Sa 10:00-02:00; Su,PH 11:00-01:00", "operator": "O'Learys", "outdoor_seating": "no", "payment:cash": "no", "phone": "+46-90-12 55 55", "smoking": "no", "website": "https://olearys.se/umea-bowling/"}}, {"type": "node", "id": 1925677799, "lat": 63.8362371, "lon": 20.2447652, "tags": {"addr:country": "SE", "addr:housenumber": "2", "addr:postcode": "901 30", "addr:street": "Industriv\u00e4gen", "amenity": "restaurant", "cuisine": "thai", "level": "1", "name": "Banthai", "phone": "+46-90129040", "website": "https://banthaiumea.se/"}}, {"type": "node", "id": 1925677807, "lat": 63.8293164, "lon": 20.2655365, "tags": {"addr:city": "Ume\u00e5", "addr:country": "SE", "addr:housenumber": "17C", "addr:postcode": "90328", "addr:street": "R\u00e5dhusesplanaden", "amenity": "restaurant", "capacity": "36", "cuisine": "pakistani", "name": "Malala", "website": "https://www.malalarestaurang.se/"}}, {"type": "node", "id": 1954754283, "lat": 63.8261852, "lon": 20.2640149, "tags": {"addr:city": "Ume\u00e5", "addr:country": "SE", "addr:housenumber": "2E", "addr:postcode": "903 28", "addr:street": "R\u00e5dhusesplanaden", "amenity": "restaurant", "capacity": "54", "name": "Harlequin", "website": "https://www.harlequinumea.com/"}}, {"type": "node", "id": 2004581291, "lat": 63.8216847, "lon": 20.3056196, "tags": {"addr:postcode": "907 13", "amenity": "cafe", "diet:vegan": "yes", "diet:vegetarian": "yes", "name": "Caf\u00e9 Lindell", "opening_hours": "Mo-Th 07:30-20:00, Fr 07:30-18:00, Sa 10:00-17:00, Su 12:00-17:00", "wheelchair": "yes"}}, {"type": "node", "id": 2010742611, "lat": 63.8292776, "lon": 20.2656431, "tags": {"addr:city": "Ume\u00e5", "addr:country": "SE", "addr:housenumber": "17C", "addr:postcode": "903 28", "addr:street": "R\u00e5dhusesplanaden", "amenity": "restaurant", "capacity": "56", "cuisine": "steak_house", "name": "Texas Longhorn", "opening_hours:signed": "no", "website": "https://www.texaslonghorn.se/umea"}}, {"type": "node", "id": 2010742612, "lat": 63.8257747, "lon": 20.2614496, "tags": {"addr:city": "Ume\u00e5", "addr:country": "SE", "addr:housenumber": "54", "addr:postcode": "903 26", "addr:street": "Kungsgatan", "amenity": "cafe", "level": "0", "name": "Smak Bar & Bistro"}}, {"type": "node", "id": 2010777045, "lat": 63.8185143, "lon": 20.318784, "tags": {"addr:country": "SE", "addr:housenumber": "15", "addr:postcode": "907 03", "addr:street": "Petrus Laestadius v\u00e4g", "amenity": "restaurant", "diet:vegetarian": "yes", "name": "Hansson & Hammar", "opening_hours": "Mo-Th 08:00-20:00; Fr 08:00-17:00; Sa,Su 11:00-16:00"}}, {"type": "node", "id": 2124247708, "lat": 63.8261321, "lon": 20.2686433, "tags": {"amenity": "restaurant", "name": "Ronyas", "opening_hours": "Mo-Th 10:00-21:00; Fr 10:00-22:00; Sa 11:00-22:00; Su 11:00-21:00", "takeaway": "yes", "website": "http://www.ronyas.se/"}}, {"type": "node", "id": 2138865392, "lat": 63.8358806, "lon": 20.2539877, "tags": {"amenity": "cafe"}}, {"type": "node", "id": 2147836509, "lat": 63.8273317, "lon": 20.2609756, "tags": {"amenity": "restaurant", "name": "Palermo"}}, {"type": "node", "id": 2210538921, "lat": 63.8250324, "lon": 20.2568768, "tags": {"alt_name": "Caf\u00e9 Hamnis", "amenity": "cafe", "diet:vegan": "yes", "diet:vegetarian": "yes", "indoor": "yes", "internet_access": "wlan", "internet_access:fee": "no", "internet_access:password": "hamnmagasinet", "internet_access:wlan:essid": "hamnmagasinet", "name": "Caf\u00e9 Hamnmagasinet", "opening_hours": "Tu-Th 15:00-22:00; Fr 15:00-23:00; Sa 18:00-23:00; PH,Mo,Su off", "smoking": "no", "toilets:wheelchair": "yes", "wheelchair": "yes"}}, {"type": "node", "id": 2273731251, "lat": 63.8474845, "lon": 20.1530855, "tags": {"amenity": "cafe", "name": "Caf\u00e9 Rutan"}}, {"type": "node", "id": 2295672779, "lat": 63.8203506, "lon": 20.2758106, "tags": {"amenity": "restaurant", "cuisine": "regional", "level": "0", "name": "Hansson & Hammar", "opening_hours": "We-Fr 10:30-17:00; Sa-Su 12:00-17:00"}}, {"type": "node", "id": 2389847127, "lat": 63.820544, "lon": 20.307778, "tags": {"air_conditioning": "yes", "amenity": "cafe", "check_date:opening_hours": "2023-08-15", "diet:vegan": "yes", "diet:vegetarian": "yes", "email": "cf@ntk.umu.se", "level": "2", "name": "K\u00e5rfiket Mitum", "name:en": "Caf\u00e9 Mitum", "opening_hours": "Mo-Fr 08:30-14:30", "operator": "NTK", "outdoor_seating": "no", "website": "https://www.ntk.umu.se/mitum/", "wheelchair": "yes"}}, {"type": "node", "id": 2400864873, "lat": 63.8500717, "lon": 20.2189473, "tags": {"addr:country": "SE", "addr:housenumber": "1", "addr:street": "Kontaktv\u00e4gen", "amenity": "restaurant", "contact:phone": "+46-90130240", "name": "Terminalbaren", "website": "https://www.terminalbaren.se/"}}, {"type": "node", "id": 2448251006, "lat": 63.8204589, "lon": 20.2965826, "tags": {"amenity": "cafe", "name": "V\u00e5rdcaf\u00e9et"}}, {"type": "node", "id": 2451550989, "lat": 63.8190993, "lon": 20.3099904, "tags": {"amenity": "cafe", "indoor": "yes", "name": "KBC-caf\u00e9et"}}, {"type": "node", "id": 2473348071, "lat": 63.8174736, "lon": 20.2990608, "tags": {"amenity": "restaurant", "name": "Restaurang Torget", "website": "https://www.compass-group.se/restauranger/Torget/"}}, {"type": "node", "id": 2481394367, "lat": 63.8294868, "lon": 20.289661, "tags": {"amenity": "cafe", "name": "Kaf\u00e9 Museum", "opening_hours": "Tu-Fr 10:00-17:00; Sa,Su 11:00-17:00", "website": "https://www.vbm.se/sv/se-and-gora/kafe.html"}}, {"type": "node", "id": 2496995155, "lat": 63.820085, "lon": 20.3057719, "tags": {"amenity": "restaurant", "name": "Restaurang Universum"}}, {"type": "node", "id": 2496995156, "lat": 63.8199383, "lon": 20.3057558, "tags": {"amenity": "cafe", "name": "Caf\u00e9 Bl\u00e5b\u00e4r"}}, {"type": "node", "id": 2529165723, "lat": 63.8291814, "lon": 20.26577, "tags": {"amenity": "restaurant", "name": "K\u00f6ksbaren", "opening_hours": "Tu-Fr 11:00-23:00; Sa 16:00-23:00", "website": "https://koksbaren.com/"}}, {"type": "node", "id": 2586621895, "lat": 63.8267333, "lon": 20.2572066, "tags": {"amenity": "restaurant", "check_date": "2023-05-18", "cuisine": "sushi", "facebook": "https://www.facebook.com/wasabiumea/", "name": "Wasabi sushi bar", "pho": "+46 90-200 33 63"}}, {"type": "node", "id": 2590116767, "lat": 63.8515678, "lon": 20.3240806, "tags": {"addr:city": "Ume\u00e5", "addr:country": "SE", "addr:housenumber": "16", "addr:street": "Cementv\u00e4gen", "amenity": "restaurant", "contact:phone": "+46-90701010", "cuisine": "pizza;kebab;burger", "drive_through": "no", "name": "Pion", "opening_hours": "Mo-Fr 10:00-20:00; Sa-Su 11:00-20:00", "website": "https://www.pionpizza.se/"}}, {"type": "node", "id": 2612386798, "lat": 63.8258307, "lon": 20.2645133, "tags": {"amenity": "restaurant", "contact:phone": "+46-90130099", "cuisine": "asian", "level": "1", "name": "Rosegarden", "payment:cash": "no", "takeaway": "yes"}}, {"type": "node", "id": 2629912959, "lat": 63.8208693, "lon": 20.3136577, "tags": {"amenity": "restaurant", "name": "Hansson & Hammar", "website": "https://www.hanssonohammar.se/"}}, {"type": "node", "id": 2696274336, "lat": 63.8250779, "lon": 20.2611315, "tags": {"amenity": "restaurant", "name": "Gotthards krog", "opening_hours": "Mo-Th 11:00-13:30,17:00-23:00, Fr 11:00-01:00, Sa 12:00-01:00, Su 16:00-22:00", "phone": "+46-90778870", "website": "https://www.gotthardskrog.se/"}}, {"type": "node", "id": 2696828639, "lat": 63.824826, "lon": 20.2604501, "tags": {"amenity": "restaurant", "check_date:diet:vegetarian": "2024-02-09", "diet:vegan": "yes", "diet:vegetarian": "yes", "indoor_seating": "yes", "name": "Kulturbageriet", "outdoor_seating": "no", "phone": "+46-906904817", "shop": "bakery", "website": "https://www.kulturbageriet.se/"}}, {"type": "node", "id": 2697659729, "lat": 63.8205282, "lon": 20.3100483, "tags": {"amenity": "restaurant", "cuisine": "asian", "diet:vegetarian": "yes", "name": "Umi sushi Ume\u00e5"}}, {"type": "node", "id": 2697659730, "lat": 63.8197704, "lon": 20.3059198, "tags": {"amenity": "restaurant", "name": "K\u00e5rhuset"}}, {"type": "node", "id": 2998903429, "lat": 63.6232816, "lon": 19.9079818, "tags": {"amenity": "restaurant", "name": "H\u00f6rnefors restaurang"}}, {"type": "node", "id": 3206103182, "lat": 63.8242628, "lon": 20.2601273, "tags": {"addr:country": "SE", "addr:housenumber": "46A", "addr:street": "Storgatan", "amenity": "cafe", "name": "Fika!", "opening_hours": "Mo-Th 11:00-19:00; Fr 11:00-18:00; Sa-Su 11:00-16:00", "payment:cash": "yes", "smoking": "no", "website": "https://fikaumea.se/"}}, {"type": "node", "id": 3387835882, "lat": 63.8352442, "lon": 20.2566466, "tags": {"amenity": "restaurant", "name": "Restaurang Umestan"}}, {"type": "node", "id": 3596201629, "lat": 63.8291112, "lon": 20.1922847, "tags": {"addr:country": "SE", "addr:housenumber": "50", "addr:street": "H\u00e4radsv\u00e4gen", "amenity": "restaurant", "name": "\u00c4lvt\u00e5ets gr\u00f6na", "website": "https://www.alvtaetsgrona.se/"}}, {"type": "node", "id": 3649614819, "lat": 63.7828187, "lon": 20.2927557, "tags": {"amenity": "cafe"}}, {"type": "node", "id": 3660447108, "lat": 63.8123219, "lon": 20.3148353, "tags": {"amenity": "restaurant", "cuisine": "sushi", "name": "\u00c5lidhem Sushi Bar", "opening_hours": "Mo-Th 10:30-20:30; Sa,Su 11:30-20:30; Fr 10:30-21:00"}}, {"type": "node", "id": 3670390054, "lat": 63.8264684, "lon": 20.2642742, "tags": {"addr:city": "Ume\u00e5", "addr:country": "SE", "addr:housenumber": "62B", "addr:street": "Skolgatan", "amenity": "restaurant", "level": "0", "name": "GP's - Guilty Pleasure Caf\u00e9", "opening_hours": "Mo-Su 11:30-01:00", "website": "https://www.guiltypleasure.se/"}}, {"type": "node", "id": 3682820625, "lat": 63.8265131, "lon": 20.259848, "tags": {"addr:country": "SE", "addr:housenumber": "53", "addr:street": "Kungsgatan", "amenity": "cafe", "brand": "Espresso House", "brand:wikidata": "Q10489162", "brand:wikipedia": "en:Espresso House", "cuisine": "coffee_shop", "name": "Espresso House", "opening_hours": "Mo-Fr 08:00-22:00; Sa, Su 09:00-22:00", "phone": "+46765219315", "takeaway": "yes", "website": "https://espressohouse.com/coffee-shops/kungsgatan-ume/"}}, {"type": "node", "id": 3706589128, "lat": 63.8477081, "lon": 20.3127732, "tags": {"amenity": "restaurant", "name": "Restaurang MIX", "outdoor_seating": "yes"}}, {"type": "node", "id": 3706589131, "lat": 63.8479002, "lon": 20.3116698, "tags": {"amenity": "cafe", "name": "Caf\u00e9 Victoria"}}, {"type": "node", "id": 3818502874, "lat": 63.8177229, "lon": 20.2471398, "tags": {"amenity": "cafe", "dog": "yes", "name": "Cassis caf\u00e9"}}, {"type": "node", "id": 3994444794, "lat": 63.8171411, "lon": 20.3024653, "tags": {"amenity": "restaurant", "name": "Kulinarium"}}, {"type": "node", "id": 4090336590, "lat": 63.8078363, "lon": 20.2547946, "tags": {"amenity": "cafe", "name": "IKEA Bistro"}}, {"type": "node", "id": 4119029292, "lat": 63.8069541, "lon": 20.2544843, "tags": {"amenity": "cafe", "brand": "Espresso House", "brand:wikidata": "Q10489162", "brand:wikipedia": "en:Espresso House", "cuisine": "coffee_shop", "level": "0", "name": "Espresso House", "outdoor_seating": "no", "payment:cash": "no", "payment:coins": "no", "payment:notes": "no", "takeaway": "yes", "wheelchair": "yes"}}, {"type": "node", "id": 4121631930, "lat": 63.8097853, "lon": 20.3421077, "tags": {"addr:country": "SE", "addr:housenumber": "246 B", "addr:street": "\u00c4lvans v\u00e4g", "amenity": "restaurant", "diet:vegetarian": "yes", "name": "\u00c4lvans pizzeria", "opening_hours": "Mo-Su 11:00-20:00", "phone": "+46-90-196965", "website": "https://tomtebopizzeria.se/"}}, {"type": "node", "id": 4163126361, "lat": 63.8097832, "lon": 20.2581742, "tags": {"addr:country": "SE", "addr:housenumber": "35", "addr:street": "Ringv\u00e4gen", "amenity": "restaurant", "cuisine": "pizza", "name": "Svalan pizzeria", "phone": "+46 90 14 25 06", "website": "http://www.svalanpizzeria.se/"}}, {"type": "node", "id": 4214322538, "lat": 63.8351547, "lon": 20.1183292}, {"type": "node", "id": 4214322541, "lat": 63.835223, "lon": 20.1181756}, {"type": "node", "id": 4214322542, "lat": 63.8352407, "lon": 20.1185258}, {"type": "node", "id": 4214322545, "lat": 63.835309, "lon": 20.1183722}, {"type": "node", "id": 4216305089, "lat": 63.8246561, "lon": 20.2569966, "tags": {"amenity": "restaurant", "capacity": "640", "description": "On a pier and a permanently parked boat.", "name": "Sj\u00f6bris", "payment:coins": "no", "payment:credit_cards": "yes", "payment:maestro": "yes", "payment:mastercard": "yes", "payment:notes": "no", "payment:visa": "yes", "website": "https://www.sjobris.nu/"}}, {"type": "node", "id": 4239225465, "lat": 63.8562063, "lon": 20.3403996, "tags": {"amenity": "restaurant", "cuisine": "pizza", "name": "K\u00e4rnan", "phone": "+46 90 18 05 34"}}, {"type": "node", "id": 4360488444, "lat": 63.8028658, "lon": 20.3492301}, {"type": "node", "id": 4360488445, "lat": 63.8026219, "lon": 20.3492288}, {"type": "node", "id": 4360488446, "lat": 63.8026215, "lon": 20.3496147}, {"type": "node", "id": 4360488447, "lat": 63.8028655, "lon": 20.3495279}, {"type": "node", "id": 4360783143, "lat": 63.8270706, "lon": 20.2622799, "tags": {"addr:city": "Ume\u00e5", "addr:country": "SE", "addr:housenumber": "49", "addr:postcode": "90327", "addr:street": "Skolgatan", "amenity": "restaurant", "capacity": "60", "cuisine": "salad;sandwich", "diet:vegan": "yes", "diet:vegetarian": "yes", "email": "kontakt@rost.nu", "name": "Rost", "opening_hours": "Mo-Fr 08:00-19:00; Sa 11:00-16:00; Su,PH off", "payment:coins": "no", "payment:credit_cards": "yes", "payment:debit_cards": "yes", "payment:maestro": "yes", "payment:mastercard": "yes", "payment:notes": "no", "payment:visa": "yes", "phone": "+46 90-13 58 00", "takeaway": "yes", "website": "https://rost.nu/"}}, {"type": "node", "id": 4471921185, "lat": 63.8254516, "lon": 20.2953184, "tags": {"addr:city": "Ume\u00e5", "addr:country": "SE", "addr:housenumber": "5A", "addr:postcode": "90337", "addr:street": "Axtorpsv\u00e4gen", "amenity": "restaurant", "cuisine": "pizza", "name": "Spinato", "opening_hours": "Mo-Th 10:30-20:00; Fr 10:30-21:00; Sa 12:00-21:00; Su 12:00-20:00", "takeaway": "yes", "website": "https://www.spinato.se/", "wheelchair": "limited"}}, {"type": "node", "id": 4606972644, "lat": 63.8318572, "lon": 20.3293311, "tags": {"amenity": "cafe", "cuisine": "coffee_shop", "name": "Aptit", "opening_hours": "Mo-Fr 08:00-19:00; Sa-Su 10:00-18:00"}}, {"type": "node", "id": 4637180317, "lat": 63.8252416, "lon": 20.2671802, "tags": {"addr:city": "Ume\u00e5", "addr:country": "SE", "addr:housenumber": "73", "addr:postcode": "90326", "addr:street": "Kungsgatan", "amenity": "restaurant", "cuisine": "sushi", "name": "Oishii sushi", "opening_hours": "Mo-Fr 10:30-20:30; Sa,Su 12:00-20:30", "phone": "+46 90-14 20 20", "website": "http://www.oishiisushi.se/"}}, {"type": "node", "id": 4637180318, "lat": 63.8252778, "lon": 20.2669558, "tags": {"addr:city": "Ume\u00e5", "addr:country": "SE", "addr:housenumber": "71", "addr:postcode": "90326", "addr:street": "Kungsgatan", "air_conditioning": "yes", "amenity": "restaurant", "capacity": "200", "description": "Boule & bistro.", "diet:vegetarian": "yes", "indoor_seating": "yes", "name": "Orangeriet", "opening_hours": "Mo-Fr 11:00-13:30; Sa 11:30-14:00", "outdoor_seating": "yes", "smoking": "no", "wheelchair": "yes"}}, {"type": "node", "id": 4653152419, "lat": 63.8044026, "lon": 20.3211706, "tags": {"addr:country": "SE", "addr:housenumber": "5C", "addr:street": "Glimmerv\u00e4gen", "amenity": "restaurant", "cuisine": "pizza", "name": "Roma"}}, {"type": "node", "id": 4705020964, "lat": 63.8337468, "lon": 20.3277584, "tags": {"addr:city": "Ume\u00e5", "addr:country": "SE", "addr:housenumber": "7C", "addr:postcode": "90654", "addr:street": "Mariehemsv\u00e4gen", "amenity": "restaurant", "cuisine": "sushi", "name": "Fatima Sushi Bar", "opening_hours": "Mo-Th 10:30-20:30; Fr 10:30-21:00; Sa 12:00-21:00; Su 12:00-20:00", "website": "https://fatimasushibar.se/"}}, {"type": "node", "id": 4743315553, "lat": 63.8267864, "lon": 20.261118, "tags": {"amenity": "restaurant", "level": "0", "name": "Sen street kitchen", "opening_hours": "Mo-Th 11:00-20:00; Fr,Sa 11:00-21:00; Su 12:00-20:00"}}, {"type": "node", "id": 4748661821, "lat": 63.8450385, "lon": 20.3308785, "tags": {"addr:city": "Ume\u00e5", "addr:country": "SE", "addr:housenumber": "9", "addr:postcode": "90643", "addr:street": "\u00c4lgv\u00e4gen", "alt_name": "Kaf\u00e9 Vaniljdr\u00f6mmen", "amenity": "cafe", "name": "Caf\u00e9 Vaniljdr\u00f6mmen", "opening_hours": "Mo-Fr 10:00-15:00", "wheelchair": "yes"}}, {"type": "node", "id": 5202025995, "lat": 63.827026, "lon": 20.2585859, "tags": {"amenity": "cafe", "name": "Caf\u00e9 Raw"}}, {"type": "node", "id": 5202084624, "lat": 63.8265043, "lon": 20.258495, "tags": {"amenity": "restaurant", "check_date:opening_hours": "2023-01-16", "name": "Pinchos", "opening_hours:signed": "no"}}, {"type": "node", "id": 5329034195, "lat": 63.8493353, "lon": 20.3175455, "tags": {"amenity": "cafe", "name": "Biltema Caf\u00e9"}}, {"type": "node", "id": 5345595121, "lat": 63.838737, "lon": 20.1885116, "tags": {"addr:country": "SE", "addr:housenumber": "83", "addr:postcode": "90361", "addr:street": "Kronoskogsv\u00e4gen", "amenity": "restaurant", "cuisine": "japanese;asian", "name": "Aylia Sushi Bar", "opening_hours": "Mo-Fr 11:00-20:00; Sa-Su 12:00-20:00", "phone": "+469022077", "website": "http://ayliasushibar.se"}}, {"type": "node", "id": 5486545807, "lat": 63.8255507, "lon": 20.2637774, "tags": {"addr:city": "Ume\u00e5", "addr:country": "SE", "addr:housenumber": "3", "addr:postcode": "903 26", "addr:street": "R\u00e5dhustorget", "air_conditioning": "yes", "amenity": "restaurant", "cuisine": "ramen;sushi", "diet:vegan": "yes", "diet:vegetarian": "yes", "indoor_seating": "yes", "name": "Ramen Kaf\u00e9", "opening_hours": "Mo-Th 11:00-21:00; Fr,Sa 11:00-22:00", "outdoor_seating": "yes", "payment:credit_cards": "yes", "payment:debit_cards": "yes", "phone": "+46 90-765 70 21", "smoking": "no", "website": "https://www.ramenkafe.se/", "wheelchair": "yes"}}, {"type": "node", "id": 5652019734, "lat": 63.8460103, "lon": 20.2954525, "tags": {"addr:country": "SE", "addr:housenumber": "14", "addr:street": "Himlastigen", "amenity": "restaurant", "cuisine": "pizza;kebab;burger", "name": "Sandah\u00f6jds Pizzeria"}}, {"type": "node", "id": 5666611932, "lat": 63.8066547, "lon": 20.2544459, "tags": {"amenity": "restaurant", "cuisine": "asian", "level": "0", "name": "Sen Street Kitchen", "payment:coins": "no", "payment:notes": "no", "toilets:wheelchair": "yes", "wheelchair": "yes"}}, {"type": "node", "id": 5701764378, "lat": 63.8504075, "lon": 20.3138336, "tags": {"amenity": "restaurant", "cuisine": "sushi", "name": "Miki sushi bar"}}, {"type": "node", "id": 5747653445, "lat": 63.8258511, "lon": 20.2650653, "tags": {"addr:country": "SE", "addr:housenumber": "2A", "addr:street": "R\u00e5dhusesplanaden", "amenity": "cafe", "brand": "Espresso House", "brand:wikidata": "Q10489162", "brand:wikipedia": "en:Espresso House", "cuisine": "coffee_shop", "level": "1", "name": "Espresso House", "opening_hours": "Mo-Th 07:00-19:00; Fr, Sa 10:00-20:00; Su 11:00-17:00", "phone": "+46105101292", "takeaway": "yes", "website": "https://espressohouse.com/coffee-shops/utopia-ume/"}}, {"type": "node", "id": 5869674065, "lat": 63.8577114, "lon": 20.3355199, "tags": {"addr:city": "Ume\u00e5", "addr:country": "SE", "addr:housenumber": "13", "addr:postcode": "90627", "addr:street": "Byttgr\u00e4nd", "amenity": "restaurant", "capacity": "70", "cuisine": "regional", "email": "cafe@ersbodafolketshus.se", "name": "Folkan Restaurang & Caf\u00e9", "opening_hours": "Mo-Th 08:00-15:30; Fr 08:00-14:30", "outdoor_seating": "no", "phone": "+46 90 18 0002", "takeaway": "yes", "website": "https://www.ersbodafolketshus.se/index.php?content=3"}}, {"type": "node", "id": 5988973037, "lat": 63.825558, "lon": 20.2609073, "tags": {"amenity": "restaurant", "cuisine": "sushi", "diet:vegan": "yes", "diet:vegetarian": "yes", "level": "0", "name": "Sushi&Bowl", "opening_hours": "Mo-Sa 10:00-20:00; Su 11:00-18:00", "payment:credit_cards": "yes", "payment:debit_cards": "yes", "takeaway": "yes", "wheelchair": "limited"}}, {"type": "node", "id": 6119796764, "lat": 63.8343235, "lon": 20.2595588, "tags": {"amenity": "restaurant", "check_date:opening_hours": "2022-08-30", "name": "M\u00e4ssen", "opening_hours:signed": "no"}}, {"type": "node", "id": 6140937992, "lat": 63.8120095, "lon": 20.3146689, "tags": {"amenity": "nightclub", "name": "Rouge"}}, {"type": "node", "id": 6192252973, "lat": 63.8252537, "lon": 20.2694439, "tags": {"addr:city": "Ume\u00e5", "addr:country": "SE", "addr:housenumber": "75", "addr:postcode": "903 26", "addr:street": "Kungsgatan", "amenity": "restaurant", "capacity": "85", "name": "Artonnittiosju"}}, {"type": "node", "id": 6284450139, "lat": 63.8249876, "lon": 20.2568592, "tags": {"amenity": "restaurant", "contact:facebook": "folkkokstpln", "diet:vegan": "yes", "diet:vegetarian": "only", "fee": "yes", "name": "Folkk\u00f6k Ume\u00e5", "opening_hours": "Su 14:00-16:30"}}, {"type": "node", "id": 6305594984, "lat": 63.8508317, "lon": 20.3085117}, {"type": "node", "id": 6305601985, "lat": 63.8507751, "lon": 20.3085001}, {"type": "node", "id": 6305601986, "lat": 63.850769, "lon": 20.3086545}, {"type": "node", "id": 6305601987, "lat": 63.8508256, "lon": 20.3086661}, {"type": "node", "id": 6437063697, "lat": 63.6603345, "lon": 20.1308196, "tags": {"amenity": "restaurant"}}, {"type": "node", "id": 6443924317, "lat": 63.8262026, "lon": 20.2652417, "tags": {"amenity": "restaurant", "capacity": "150", "cuisine": "pizza;burger;tacos", "diet:vegetarian": "yes", "name": "Klang Market"}}, {"type": "node", "id": 6572247912, "lat": 63.8270224, "lon": 20.2612946, "tags": {"amenity": "restaurant", "entrance": "main", "level": "0", "name": "Eurasia", "opening_hours": "Mo-Fr 11:00-14:30, Sa 12:00-22:00, Mo-Th 16:30-21:00, Fr 14:30-22:00, Su 15:00-21:00", "payment:cash": "yes", "website": "http://www.eurasia.se/", "wheelchair": "yes"}}, {"type": "node", "id": 6627258366, "lat": 63.8482428, "lon": 20.3052024, "tags": {"amenity": "restaurant", "name": "Mariedals restaurang", "opening_hours": "July off"}}, {"type": "node", "id": 6798052342, "lat": 63.8507293, "lon": 20.3053033, "tags": {"amenity": "restaurant", "contact:email": "info@restaurangbeirutumea.se", "contact:phone": "+46 90 200 33 33", "contact:website": "https://restaurangbeirutumea.se/", "cuisine": "lebanese", "name": "Beirut"}}, {"type": "node", "id": 6852531416, "lat": 63.8258959, "lon": 20.2675465, "tags": {"amenity": "nightclub", "name": "Berlin", "smoking": "no", "wheelchair": "yes"}}, {"type": "node", "id": 6972276855, "lat": 63.7013076, "lon": 20.3167747, "tags": {"amenity": "restaurant", "cuisine": "pizza", "name": "Tre Kronor"}}, {"type": "node", "id": 7071847541, "lat": 63.8008161, "lon": 20.2816209, "tags": {"amenity": "restaurant", "name": "Times Kitchen", "payment:cash": "yes"}}, {"type": "node", "id": 7132930999, "lat": 63.8409151, "lon": 20.3106121, "tags": {"addr:city": "Ume\u00e5", "addr:postcode": "90105", "addr:street": "Br\u00e4ntberget", "amenity": "cafe", "opening_hours": "Mo-Th 17:30-21:00; Sa,Su 10:00-15:00; May-Nov closed", "operator": "UHSK Ume\u00e5 Skidklubb", "payment:cash": "no", "payment:maestro": "yes", "payment:mastercard": "yes", "payment:swish": "yes", "payment:visa": "yes", "seasonal": "winter", "website": "https://uhsk.nu/uhsk#brantberget"}}, {"type": "node", "id": 7830550974, "lat": 63.8276017, "lon": 20.2590989, "tags": {"amenity": "cafe", "name": "Caf\u00e9 Godheten", "operator": "Caf\u00e9 rEKOmmenderas"}}, {"type": "node", "id": 7861366595, "lat": 63.8026991, "lon": 20.349527}, {"type": "node", "id": 7861366596, "lat": 63.802699, "lon": 20.3496151}, {"type": "node", "id": 7877820978, "lat": 63.8140483, "lon": 20.2787715, "tags": {"addr:city": "Ume\u00e5", "addr:country": "SE", "addr:housenumber": "9", "addr:postcode": "90426", "addr:street": "Nabbv\u00e4gen", "amenity": "cafe", "name": "Eljest", "opening_hours": "Mo,Tu 11:00-16:00; We-Sa 11:00-21:00; Su 11:00-16:00"}}, {"type": "node", "id": 7931919904, "lat": 63.7994746, "lon": 20.2894765, "tags": {"amenity": "restaurant", "name": "Restaurang \u00d6rnen", "opening_hours": "Mo-Fr 11:00-14:00", "phone": "+46 73 8000368", "website": "http://www.restaurangornen.nu/"}}, {"type": "node", "id": 8746164796, "lat": 63.8266523, "lon": 20.264925, "tags": {"amenity": "restaurant", "cuisine": "sushi", "diet:vegetarian": "yes", "name": "Sushimi"}}, {"type": "node", "id": 8980777951, "lat": 63.798567, "lon": 20.3034347, "tags": {"amenity": "restaurant", "name": "Restaurang Majestic", "opening_hours": "Mo-Fr 10:30-20:00; Sa 11:00-20:00; Su 12:00-18:00", "website": "https://www.restaurangmajestic.se/"}}, {"type": "node", "id": 9103442521, "lat": 63.8262113, "lon": 20.2680703, "tags": {"amenity": "restaurant", "name": "Marias K\u00f6k"}}, {"type": "node", "id": 9141371811, "lat": 63.8044552, "lon": 20.352989, "tags": {"amenity": "cafe", "name": "Caf\u00e9 Crosta", "opening_hours": "Tu-Su 12:00-20:00"}}, {"type": "node", "id": 9169423137, "lat": 63.8071627, "lon": 20.2556533, "tags": {"addr:city": "Ume\u00e5", "addr:country": "SE", "addr:housenumber": "3", "addr:postcode": "904 22", "addr:street": "Marknadsgatan", "amenity": "restaurant", "cuisine": "sushi", "name": "Sushi Yama", "opening_hours": "Mo-Fr 10:00-20:00, Sa-Su 10:00-18:00", "phone": "+46 90 40 400", "website": "https://www.sushiyama.se"}}, {"type": "node", "id": 9288650868, "lat": 63.8256038, "lon": 20.2655673, "tags": {"addr:city": "Ume\u00e5", "addr:country": "SE", "addr:housenumber": "65", "addr:postcode": "90326", "addr:street": "Kungsgatan", "amenity": "restaurant", "cuisine": "sushi", "name": "Sushi Yama", "opening_hours": "Mo-Fr 10:00-19:00, Sa 10:00-17:00, Su 12:00-16:00", "phone": "+4690130100", "website": "https://www.sushiyama.se"}}, {"type": "node", "id": 9382537562, "lat": 63.8205725, "lon": 20.3097824, "tags": {"addr:country": "SE", "addr:housenumber": "34", "addr:street": "Linnaeus v\u00e4g", "amenity": "restaurant", "cuisine": "indian", "internet_access": "wlan", "name": "The little indian", "opening_hours": "Mo-Su 11:00-14:00", "takeaway": "yes", "website": "https://thelittleindian.se/university.html"}}, {"type": "node", "id": 9490028586, "lat": 63.8265611, "lon": 20.258274, "tags": {"addr:city": "Ume\u00e5", "addr:country": "SE", "addr:housenumber": "46", "addr:postcode": "90326", "addr:street": "Kungsgatan", "addr:unit": "B", "amenity": "cafe", "name": "Costas Of Sweden", "opening_hours": "Mo-Fr 11:00-16:00", "website": "https://costasofsweden.com/"}}, {"type": "node", "id": 9566779341, "lat": 63.8266142, "lon": 20.2665307, "tags": {"amenity": "bar", "name": "Freja"}}, {"type": "node", "id": 9908982265, "lat": 63.8174738, "lon": 20.2987778, "tags": {"amenity": "cafe", "name": "Caf\u00e9 Dallucci"}}, {"type": "node", "id": 9909252298, "lat": 63.806547, "lon": 20.2547613, "tags": {"amenity": "restaurant", "cuisine": "asian", "name": "Chili & Wok"}}, {"type": "node", "id": 9909252299, "lat": 63.8064909, "lon": 20.2551713, "tags": {"amenity": "restaurant", "cuisine": "burger", "name": "Br\u00f6dernas"}}, {"type": "node", "id": 9909252300, "lat": 63.8065213, "lon": 20.2549729, "tags": {"amenity": "restaurant", "cuisine": "kebab", "name": "GDK D\u00f6ner Kebab"}}, {"type": "node", "id": 9909252303, "lat": 63.807613, "lon": 20.2551184, "tags": {"amenity": "cafe", "name": "Le Croissant"}}, {"type": "node", "id": 9993972652, "lat": 63.8291789, "lon": 20.2675269, "tags": {"amenity": "restaurant", "cuisine": "italian;pizza", "email": "info@vezzo.se", "name": "Vezzo", "opening_hours": "Mo-Su 11:00-22:00", "phone": "+46 90 771080", "website": "https://vezzo.se"}}, {"type": "node", "id": 10239820691, "lat": 63.8256751, "lon": 20.2646827, "tags": {"amenity": "bar", "min_age": "23", "name": "Facit Bar", "opening_hours": "We-Th 17:00-00:00; Fr 14:00-02:00; Sa 12:00-02:00", "website": "https://www.facitbar.se/"}}, {"type": "node", "id": 10268556654, "lat": 63.8333059, "lon": 20.241484, "tags": {"addr:city": "Ume\u00e5", "addr:country": "SE", "addr:housenumber": "3", "addr:postcode": "90322", "addr:street": "Signalv\u00e4gen", "amenity": "restaurant", "diet:vegetarian": "yes", "email": "restaurang@kummin.nu", "level": "1", "name": "Kummin", "opening_hours": "Mo-Fr 10:30-13:30", "phone": "+4690190400", "reservation": "yes", "website": "https://www.kummin.nu/"}}, {"type": "node", "id": 10271233008, "lat": 63.8079357, "lon": 20.2546357, "tags": {"amenity": "restaurant", "name": "IKEA restaurant", "note": "v\u00e5ning 1"}}, {"type": "node", "id": 10294095018, "lat": 63.8506788, "lon": 20.345433}, {"type": "node", "id": 10294095032, "lat": 63.8504942, "lon": 20.3466216}, {"type": "node", "id": 10588869763, "lat": 63.8269932, "lon": 20.2604613, "tags": {"amenity": "cafe", "description": "Social meeting point with second hand shop and caf\u00e9.", "name": "K\u00e4rng\u00e5rden", "opening_hours": "Mo-Fr 10:00-16:00; Sa 12:00-16:00"}}, {"type": "node", "id": 10604431700, "lat": 63.8254395, "lon": 20.2587822, "tags": {"amenity": "bar", "name": "Bistro & bar"}}, {"type": "node", "id": 10604437412, "lat": 63.8250169, "lon": 20.2612822, "tags": {"amenity": "bar", "name": "Gothartts krog", "opening_hours": "Mo-Th 17:00-23:00, Fr,Sa 16:00-01:00, Su 16:00-22:00"}}, {"type": "node", "id": 10722828083, "lat": 63.807101, "lon": 20.2559325, "tags": {"amenity": "cafe", "level": "1", "name": "Waynes"}}, {"type": "node", "id": 10876559200, "lat": 63.8524269, "lon": 20.3041032, "tags": {"amenity": "restaurant", "name": "Hus 5"}}, {"type": "node", "id": 10963245605, "lat": 63.8251842, "lon": 20.2608897, "tags": {"amenity": "restaurant", "name": "Gotthards Krog"}}, {"type": "node", "id": 10963245705, "lat": 63.8269131, "lon": 20.261195, "tags": {"amenity": "restaurant", "name": "SEN Street Kitchen Renmarkstorget"}}, {"type": "node", "id": 11409200578, "lat": 63.8259091, "lon": 20.2621128, "tags": {"addr:city": "Ume\u00e5", "addr:housenumber": "7", "addr:postcode": "903 26", "addr:street": "V\u00e4stra R\u00e5dhusgatan", "amenity": "restaurant", "cuisine": "italian", "name": "Basta!", "phone": "+46 10 182 92 21", "website": "https://www.restaurangbasta.se/restauranger/umea"}}, {"type": "node", "id": 11500025817, "lat": 63.63808, "lon": 19.9112122, "tags": {"amenity": "restaurant", "name": "H\u00f6rnefors V\u00e4gkrog & Trafikbutik AB Frendo", "website": "https://www.frendohornefors.se/"}}, {"type": "node", "id": 11545400771, "lat": 63.8527904, "lon": 20.2933108, "tags": {"addr:city": "Ume\u00e5", "addr:housenumber": "9", "addr:postcode": "906 20", "addr:street": "Sandb\u00e4cksgatan", "amenity": "restaurant", "cuisine": "asian", "name": "ChopChop Asian Express", "opening_hours": "Mo-Fr 10:30-21:00; Sa-Su 11:00-21:00", "phone": "+46902009180", "website": "https://chopchop.se"}}, {"type": "way", "id": 88306951, "nodes": [1025674112, 1025674024, 1025674098, 1025674069, 1025674142, 1025674186, 1025674072, 1025674034, 1025674112], "tags": {"addr:city": "Ume\u00e5", "addr:country": "SE", "addr:housenumber": "25", "addr:postcode": "907 36", "addr:street": "G\u00f6sta Skoglunds v\u00e4g", "air_conditioning": "yes", "alt_name": "Origo;(0, 0, 0)", "amenity": "bar", "brewery": "carlsberg;various", "building": "university", "building:levels": "1", "diet:non-vegetarian": "yes", "diet:ovo_vegetarian": "yes", "diet:vegan": "yes", "diet:vegetarian": "yes", "drink:beer": "served;draught", "drink:cider": "served;draught", "drink:wine": "served", "email": "origo@ntkumea.se", "food": "yes", "internet_access": "wlan", "internet_access:ssid": "eduroam", "min_age": "20", "name": "K\u00e5rhuset Origo", "opening_hours": "Tu 17:00-19:30 open \"EPP\",Fr-Sa 22:00-02:00 open \"Klubb\"", "operator": "NTK", "outdoor_seating": "yes", "payment:cash": "no", "payment:cashless": "yes", "roof:levels": "1", "roof:shape": "gabled", "smoking": "no", "source": "local knowledge", "start_date": "2007-05-10", "takeaway": "no", "website": "https://www.ntkumea.se/origo/", "wheelchair": "yes", "wikidata": "Q10552050"}}, {"type": "way", "id": 107071362, "nodes": [1231050875, 1231050669, 1231050581, 1231051383, 1231051313, 1231050992, 1231051430, 1231051149, 1231051053, 1231050608, 1231050875], "tags": {"addr:city": "Ume\u00e5", "addr:housenumber": "179", "addr:postcode": "90652", "addr:street": "Nydalasj\u00f6n", "amenity": "cafe", "building": "yes", "name": "Kyrkans Sommarcaf\u00e9"}}, {"type": "way", "id": 121225974, "nodes": [1357627985, 1357627979, 1357627975, 1357627977, 1357627985], "tags": {"addr:city": "Ume\u00e5", "addr:country": "SE", "addr:housenumber": "15", "addr:postcode": "903 64", "addr:street": "Umedalsall\u00e9n", "amenity": "restaurant", "building": "yes", "name": "Le Garage", "website": "https://bistrolegarage.com/"}}, {"type": "way", "id": 123973007, "nodes": [1380970453, 1380970455, 1380970459, 1430802894, 1380970443, 1380970441, 1380970453], "tags": {"amenity": "restaurant", "building": "yes", "name": "S\u00e4varg\u00e5rden", "website": "https://www.savargarden.se/", "wikidata": "Q10688236"}}, {"type": "way", "id": 123973057, "nodes": [1380970487, 1380970494, 1380970457, 1380970455, 1380970476, 1380970470, 1380970496, 1380970512, 1380970487], "tags": {"amenity": "cafe", "building": "yes", "name": "Tr\u00e1hppie", "opening_hours": "Fr-Su 12:00-16:00", "website": "https://www.sahkie.se/trahppie/"}}, {"type": "way", "id": 143307919, "nodes": [1568235850, 1568235792, 1568235785, 1568235810, 1568235802, 1568235825, 1568235850], "tags": {"addr:city": "Ume\u00e5", "addr:country": "SE", "addr:housenumber": "59", "addr:postcode": "90343", "addr:street": "\u00d6stra Kyrkogatan", "addr:unit": "B", "amenity": "restaurant", "building": "yes", "cuisine": "pizza;italian;steak_house", "name": "Pizzera Taormina", "opening_hours": "Mo-Th 11:00-13:30,16:00-20:30; Fr 11:00-13:30,16:00-22:00; PH,Sa,Su 13:00-22:00", "phone": "+46 90 77 00 77", "website": "https://www.taormina.se/"}}, {"type": "way", "id": 147949111, "nodes": [1610669380, 10294095032, 1610669385, 1610669392, 1610669401, 1610669402, 1610669393, 1610669394, 1610669397, 1610669399, 1610669395, 1610669396, 10294095018, 1610669383, 1610669380], "tags": {"addr:city": "Ume\u00e5", "addr:country": "SE", "addr:housenumber": "2", "addr:postcode": "90622", "addr:street": "Mejeriv\u00e4gen", "amenity": "restaurant", "building": "yes", "name": "Mejerik\u00f6ket", "website": "http://mejerikoket.se/"}}, {"type": "way", "id": 150890634, "nodes": [419817446, 1637553207, 1637553204, 1637553205, 419817446], "tags": {"amenity": "restaurant", "building": "yes", "name": "Baggb\u00f6le herrg\u00e5rd", "wikidata": "Q10424673"}}, {"type": "way", "id": 164831554, "nodes": [1764328246, 1764328245, 1764328250, 1764328251, 1764328246], "tags": {"amenity": "cafe", "building": "yes"}}, {"type": "way", "id": 421675538, "nodes": [4214322538, 4214322542, 4214322545, 4214322541, 4214322538], "tags": {"amenity": "cafe", "building": "yes", "building:levels": "2", "name": "Kaf\u00e9et Maskinisten"}}, {"type": "way", "id": 438314001, "nodes": [4360488444, 4360488445, 4360488446, 7861366596, 7861366595, 4360488447, 4360488444], "tags": {"addr:city": "Ume\u00e5", "addr:country": "SE", "addr:housenumber": "69A", "addr:postcode": "90752", "addr:street": "Sj\u00f6r\u00e5v\u00e4gen", "amenity": "restaurant", "building": "yes", "cuisine": "italian", "name": "Ruccola", "smoking": "no", "takeaway": "yes", "website": "https://ruccolaumea.se/"}}, {"type": "way", "id": 673325227, "nodes": [6305594984, 6305601985, 6305601986, 6305601987, 6305594984], "tags": {"amenity": "restaurant", "building": "yes", "cuisine": "thai", "name": "Thai-Vagnen Ersboda", "opening_hours": "Mo-Fr 10:30-19:00; Sa 11:00-19:00"}}]}