{"version": 0.6, "generator": "Overpass API 0.7.61.5 4133829e", "osm3s": {"timestamp_osm_base": "2024-03-14T21:59:00Z", "copyright": "The data included in this document is from www.openstreetmap.org. The data is made available under ODbL."}, "elements": [{"type": "node", "id": 593984009, "lat": 56.8334359, "lon": 13.9398089, "tags": {"amenity": "restaurant", "indoor_seating": "yes", "name": "En trappa upp", "outdoor_seating": "no"}}, {"type": "node", "id": 593984018, "lat": 56.8329908, "lon": 13.9415734, "tags": {"amenity": "restaurant", "cuisine": "thai", "indoor_seating": "yes", "name": "Suriyo Thai", "opening_hours": "Mo-Th 11:00-14:00,17:00-21:00; Fr 11:00-14:00,17:00-22:00; Sa 12:00-22:00; Su 12:00-21:00", "outdoor_seating": "yes", "wheelchair": "yes"}}, {"type": "node", "id": 593984020, "lat": 56.832196, "lon": 13.9341057, "tags": {"amenity": "restaurant", "level": "0", "name": "Poco Locos"}}, {"type": "node", "id": 593984022, "lat": 56.8336163, "lon": 13.938058, "tags": {"amenity": "restaurant", "brewery": "various", "name": "Tre Torn", "outdoor_seating": "yes", "smoking": "no"}}, {"type": "node", "id": 595086154, "lat": 56.8330234, "lon": 13.9419517, "tags": {"amenity": "cafe", "name": "Caf\u00e9 Vildrosen", "opening_hours": "Tu-Fr 08:30-14:00"}}, {"type": "node", "id": 595254081, "lat": 56.8333961, "lon": 13.9317812}, {"type": "node", "id": 595254083, "lat": 56.8332598, "lon": 13.9315491}, {"type": "node", "id": 731567210, "lat": 56.6183624, "lon": 14.2001608, "tags": {"amenity": "cafe", "contact:phone": "+46 476-21318", "contact:website": "http://www.linnesrashult.se/", "name": "Tr\u00e4dg\u00e5rdscaf\u00e9et", "opening_hours": "may-aug tu-su 11:00-16:00"}}, {"type": "node", "id": 775282447, "lat": 56.826336, "lon": 13.9085627, "tags": {"amenity": "restaurant", "name": "Ryssby Hotell", "opening_hours": "Mo-Fr 11:00-14:00"}}, {"type": "node", "id": 838091762, "lat": 56.5687607, "lon": 14.1317894, "tags": {"amenity": "restaurant", "indoor_seating": "yes", "name": "Sj\u00f6stugans Restaurang", "outdoor_seating": "yes"}}, {"type": "node", "id": 1122711384, "lat": 56.8343429, "lon": 13.9419758, "tags": {"addr:street": "F\u00f6reningsgatan", "amenity": "restaurant", "cuisine": "sushi", "diet:vegan": "yes", "diet:vegetarian": "yes", "indoor_seating": "yes", "name": "Saki Sushi", "opening_hours": "Mo-Fr 11:00-20:00; Sa 12:00-20:00; PH,Su off", "outdoor_seating": "no", "payment:cash": "yes", "wheelchair": "yes"}}, {"type": "node", "id": 1122779520, "lat": 56.8339934, "lon": 13.9402395, "tags": {"addr:city": "Ljungby", "addr:country": "SE", "addr:housenumber": "1", "addr:postcode": "341 43", "addr:street": "Eskilsgatan", "amenity": "restaurant", "indoor_seating": "yes", "level": "1", "name": "Poco Locos", "opening_hours": "Mo-Fr 11:30-14:00", "outdoor_seating": "yes", "phone": "+46 372-401 00", "wheelchair": "yes"}}, {"type": "node", "id": 1127865440, "lat": 56.8345638, "lon": 13.9421958, "tags": {"addr:street": "F\u00f6reningsgatan", "amenity": "bar", "min_age": "18", "name": "Figo\u2019s Sports & Bar", "opening_hours": "Tu-Th 17:00-23:00; Mo off; Fr 16:30-23:00+; Sa 12:30-23:00+; Su 14:00-20:00", "payment:cash": "no", "website": "https://figossportsbar.se/", "wheelchair": "no"}}, {"type": "node", "id": 1553862679, "lat": 56.7475373, "lon": 14.1473362, "tags": {"addr:country": "SE", "addr:housenumber": "12", "addr:postcode": "34177", "addr:street": "Br\u00e5nav\u00e4gen", "amenity": "cafe", "name": "Agunnaryds Lathandel - caf\u00e9"}}, {"type": "node", "id": 1629322502, "lat": 56.6135435, "lon": 14.1569016, "tags": {"addr:street": "M\u00f6ckelsn\u00e4s", "amenity": "restaurant", "name": "M\u00f6ckelsn\u00e4s Herrg\u00e5rd", "phone": "+46 476 53200", "tourism": "hotel", "website": "https://www.mockelsnasherrgard.se/"}}, {"type": "node", "id": 2302866860, "lat": 56.5536099, "lon": 14.1412879, "tags": {"addr:city": "\u00c4lmhult", "addr:country": "SE", "addr:housenumber": "16", "addr:postcode": "343 30", "addr:street": "Norra Esplanaden", "amenity": "cafe", "contact:website": "http://www.cafederes.se", "name": "Caf\u00e9 Der\u00e9s", "opening_hours": "Mo-Fr 06:00-19:00; Sa-Su 07:00-17:00", "phone": "+46 476 10750", "shop": "bakery"}}, {"type": "node", "id": 3501814107, "lat": 56.5527801, "lon": 14.1356293}, {"type": "node", "id": 3501814108, "lat": 56.5528739, "lon": 14.1356678}, {"type": "node", "id": 3501814109, "lat": 56.5528707, "lon": 14.1356936}, {"type": "node", "id": 3501814110, "lat": 56.5528951, "lon": 14.1357036}, {"type": "node", "id": 3501814111, "lat": 56.5528794, "lon": 14.1358297}, {"type": "node", "id": 3501814112, "lat": 56.5529151, "lon": 14.1358444}, {"type": "node", "id": 3501814113, "lat": 56.5528908, "lon": 14.1360388}, {"type": "node", "id": 3501814114, "lat": 56.5528483, "lon": 14.1360213}, {"type": "node", "id": 3501814115, "lat": 56.5528377, "lon": 14.1361067}, {"type": "node", "id": 3501814116, "lat": 56.5528171, "lon": 14.1360982}, {"type": "node", "id": 3501814117, "lat": 56.5528132, "lon": 14.1361293}, {"type": "node", "id": 3501814118, "lat": 56.5527018, "lon": 14.1360835}, {"type": "node", "id": 3501814119, "lat": 56.552756, "lon": 14.1356497}, {"type": "node", "id": 3501814120, "lat": 56.5527765, "lon": 14.1356582}, {"type": "node", "id": 3725380650, "lat": 56.6362938, "lon": 14.2197551, "tags": {"addr:city": "\u00c4lmhult", "addr:country": "SE", "addr:housenumber": "310", "addr:postcode": "34371", "addr:street": "V\u00e4xj\u00f6v\u00e4gen", "amenity": "restaurant", "cuisine": "pizza", "name": "Di\u00f6 Pizzeria & Kiosk", "outdoor_seating": "yes"}}, {"type": "node", "id": 4171906928, "lat": 56.8351456, "lon": 13.9356339}, {"type": "node", "id": 4191679487, "lat": 56.8340561, "lon": 13.9363589, "tags": {"addr:city": "Ljungby", "addr:country": "SE", "addr:housenumber": "1 B", "addr:postcode": "341 30", "addr:street": "Storgatan", "amenity": "restaurant", "capacity": "0", "cuisine": "sushi", "delivery": "no", "name": "Oishi Sushi", "opening_hours": "Tu-Th 10:00-20:00; Fr 11:00-21:00; Sa 12:00-21:00; Su,Mo off", "smoking": "no", "takeaway": "only"}}, {"type": "node", "id": 4191679488, "lat": 56.8332819, "lon": 13.939376, "tags": {"amenity": "cafe", "check_date:opening_hours": "2021-10-04", "cuisine": "pastry;sandwich;baguette;coffee_shop", "indoor_seating": "yes", "internet_access": "no", "name": "Lilla Hembageriet", "opening_hours": "Mo-Fr 08:00-18:00; Sa 08:00-14:00", "outdoor_seating": "yes", "wheelchair": "yes"}}, {"type": "node", "id": 4201206564, "lat": 56.8358887, "lon": 13.9402072, "tags": {"addr:city": "Ljungby", "addr:country": "SE", "addr:housenumber": "13", "addr:postcode": "341 36", "addr:street": "Hantverkaregatan", "amenity": "restaurant", "indoor_seating": "yes", "level": "0", "name": "Restaurang Charlie", "opening_hours": "Fr,Sa 16:00-22:30; Su 17:00-21:00; Mo 17:00-21:00; Tu-Th 17:00-22:00", "outdoor_seating": "no", "smoking": "no", "takeaway": "yes", "website": "http://www.charlie.se/", "wheelchair": "limited"}}, {"type": "node", "id": 4202184399, "lat": 56.8324167, "lon": 13.9376971}, {"type": "node", "id": 4202184404, "lat": 56.8323804, "lon": 13.9377921}, {"type": "node", "id": 4202184406, "lat": 56.8324694, "lon": 13.9379057}, {"type": "node", "id": 4202184407, "lat": 56.8324915, "lon": 13.9381198}, {"type": "node", "id": 4202184408, "lat": 56.8324309, "lon": 13.9381407}, {"type": "node", "id": 4202184410, "lat": 56.8325437, "lon": 13.9381018}, {"type": "node", "id": 4202184411, "lat": 56.832582, "lon": 13.9384733}, {"type": "node", "id": 4202184412, "lat": 56.8324693, "lon": 13.9385122}, {"type": "node", "id": 4202184413, "lat": 56.8325216, "lon": 13.9378877}, {"type": "node", "id": 4222954412, "lat": 56.8315592, "lon": 13.9508855}, {"type": "node", "id": 4222954413, "lat": 56.8315994, "lon": 13.9507298}, {"type": "node", "id": 4222954414, "lat": 56.8313917, "lon": 13.9505506}, {"type": "node", "id": 4222954415, "lat": 56.8313515, "lon": 13.9507064}, {"type": "node", "id": 4260195735, "lat": 56.8333936, "lon": 13.9398746, "tags": {"amenity": "restaurant", "cuisine": "bistro", "name": "Terraza Bistro"}}, {"type": "node", "id": 4311338894, "lat": 56.5513986, "lon": 14.137323, "tags": {"amenity": "restaurant", "cuisine": "lebanese;pizza", "internet_access": "wlan", "name": "Jacobs Krog", "opening_hours": "Mo-Fr 11:00-22:00; Sa-Su 12:00-22:00", "phone": "+4647615884", "website": "https://www.jacobskrog.com/"}}, {"type": "node", "id": 4311369890, "lat": 56.5558176, "lon": 14.1426619, "tags": {"addr:street": "Skolgatan", "amenity": "restaurant", "cuisine": "pizza", "name": "Amigos Pizzeria"}}, {"type": "node", "id": 4356572090, "lat": 56.5524069, "lon": 14.132504, "tags": {"amenity": "restaurant", "name": "IKEA Restaurant"}}, {"type": "node", "id": 4358230173, "lat": 56.5524058, "lon": 14.1349118, "tags": {"amenity": "restaurant", "name": "The Kitchen", "wheelchair": "yes"}}, {"type": "node", "id": 4359314779, "lat": 56.7863452, "lon": 14.4550467, "tags": {"addr:street": "Husebyv\u00e4gen", "amenity": "restaurant", "description": "Menu of the day from Monday till Friday 11:30 till 14:00 o' clock.", "name": "Vislanda Wardshus", "phone": "+46-47230012", "website": "https://www.vislandawardshus.se/"}}, {"type": "node", "id": 4370204772, "lat": 56.7190598, "lon": 13.8784168}, {"type": "node", "id": 4370204773, "lat": 56.7191517, "lon": 13.8784741}, {"type": "node", "id": 4370204774, "lat": 56.7191335, "lon": 13.8785706}, {"type": "node", "id": 4370204775, "lat": 56.7190417, "lon": 13.8785133}, {"type": "node", "id": 4465550674, "lat": 56.8325149, "lon": 13.9378225}, {"type": "node", "id": 4543839562, "lat": 56.8328605, "lon": 13.9411485, "tags": {"amenity": "restaurant", "cuisine": "asian", "delivery": "no", "indoor_seating": "yes", "name": "Lilla Bangkok", "opening_hours": "Mo-Fr 11:00-14:00, Tu-Th 16:00-19:00, Fr 16:00-20:00, Sa 12:00-20:00", "outdoor_seating": "yes", "takeaway": "yes", "wheelchair": "no"}}, {"type": "node", "id": 4665525792, "lat": 56.8643362, "lon": 14.1652436, "tags": {"amenity": "restaurant", "cuisine": "pizza"}}, {"type": "node", "id": 4720372496, "lat": 56.6998446, "lon": 13.8367984}, {"type": "node", "id": 4720372497, "lat": 56.6995254, "lon": 13.836816}, {"type": "node", "id": 4720372498, "lat": 56.6995288, "lon": 13.8370195}, {"type": "node", "id": 4720372499, "lat": 56.6996016, "lon": 13.8370155}, {"type": "node", "id": 4720372500, "lat": 56.6996027, "lon": 13.8370832}, {"type": "node", "id": 4720372501, "lat": 56.6997116, "lon": 13.8370772}, {"type": "node", "id": 4720372502, "lat": 56.6997105, "lon": 13.8370081}, {"type": "node", "id": 4720372503, "lat": 56.6998479, "lon": 13.8370005}, {"type": "node", "id": 4768427922, "lat": 56.8332771, "lon": 13.9318194, "tags": {"entrance": "main"}}, {"type": "node", "id": 4818481620, "lat": 56.8286368, "lon": 13.9409987, "tags": {"amenity": "restaurant", "delivery": "no", "name": "Restaurang \u00c5sikten", "outdoor_seating": "yes", "website": "https://www.ljungby.se/restaurangasikten"}}, {"type": "node", "id": 5016604993, "lat": 56.8333276, "lon": 13.9319083}, {"type": "node", "id": 5016604995, "lat": 56.8331914, "lon": 13.9316686}, {"type": "node", "id": 5331434906, "lat": 56.5527123, "lon": 14.1387406}, {"type": "node", "id": 5331434907, "lat": 56.5526785, "lon": 14.1390714}, {"type": "node", "id": 5331434908, "lat": 56.5525984, "lon": 14.1390485}, {"type": "node", "id": 5331434909, "lat": 56.5526142, "lon": 14.1388764}, {"type": "node", "id": 5331434910, "lat": 56.5525425, "lon": 14.138863}, {"type": "node", "id": 5331434911, "lat": 56.5525605, "lon": 14.138687}, {"type": "node", "id": 5777960645, "lat": 56.8346557, "lon": 13.9440529, "tags": {"addr:city": "Ljungby", "addr:country": "SE", "addr:housenumber": "34", "addr:postcode": "341 36", "addr:street": "Drottninggatan", "amenity": "cafe", "cuisine": "bistro", "internet_access": "wlan", "internet_access:fee": "no", "name": "ICA Maxi", "opening_hours": "Mo-Fr 07:00-19:00; Sa-Su 07:00-18:00", "outdoor_seating": "no", "payment:cash": "yes", "payment:credit_cards": "yes", "payment:debit_cards": "yes", "smoking": "no", "website": "https://www.ica.se/butiker/maxi/ljungby/maxi-ica-stormarknad-ljungby-3511/start/"}}, {"type": "node", "id": 5777960647, "lat": 56.8151885, "lon": 13.9067772, "tags": {"addr:city": "Ljungby", "addr:country": "SE", "addr:housenumber": "3a", "addr:postcode": "341 32", "addr:street": "Ringv\u00e4gen", "amenity": "cafe", "cuisine": "pastry;coffee", "internet_access": "wlan", "internet_access:fee": "no", "name": "City Gross", "opening_hours": "Mo-Su 07:00-21:00", "outdoor_seating": "no", "smoking": "no", "website": "https://www.citygross.se/butiker/ljungby/"}}, {"type": "node", "id": 5990491286, "lat": 56.5531813, "lon": 14.1396942, "tags": {"amenity": "restaurant", "cuisine": "thai", "internet_access": "wlan", "name": "Thai Palace", "name:be": "\u0422\u0430\u0439\u0441\u043a\u0430\u044f \u0440\u044d\u0441\u0442\u0430\u0440\u0430\u0446\u044b\u044f", "name:en": "Thai Palace", "name:ru": "\u0422\u0430\u0439\u0441\u043a\u0438\u0439 \u0440\u0435\u0441\u0442\u043e\u0440\u0430\u043d"}}, {"type": "node", "id": 5990491287, "lat": 56.5500245, "lon": 14.1622901, "tags": {"amenity": "restaurant", "indoor_seating": "yes", "name": "IKEA Restaurant", "opening_hours": "Mo-Fr 11:00-18:30; Sa,Su 11:00-17:30", "outdoor_seating": "no", "payment:cash": "yes"}}, {"type": "node", "id": 6168093550, "lat": 56.8133792, "lon": 13.9059145, "tags": {"addr:city": "Ljungby", "addr:country": "SE", "addr:housenumber": "1", "addr:street": "Ringv\u00e4gen", "amenity": "restaurant", "cuisine": "tapas;fusion", "name": "Pinchos", "phone": "+46 70-593 03 09", "website": "https://pinchos.se/restaurant/se-ljungby-ringvagen/"}}, {"type": "node", "id": 6236924308, "lat": 56.553018, "lon": 14.1393798, "tags": {"amenity": "restaurant", "cuisine": "pizza", "name": "Sorello's", "outdoor_seating": "yes", "takeaway": "yes"}}, {"type": "node", "id": 6237155420, "lat": 56.5517312, "lon": 14.1391958, "tags": {"amenity": "cafe", "name": "Kagan", "outdoor_seating": "yes"}}, {"type": "node", "id": 6237155424, "lat": 56.552267, "lon": 14.1393683, "tags": {"amenity": "restaurant", "name": "Augusts", "outdoor_seating": "no"}}, {"type": "node", "id": 6237155425, "lat": 56.5531016, "lon": 14.1386104, "tags": {"amenity": "restaurant", "cuisine": "sushi", "name": "Hiro's Sushi"}}, {"type": "node", "id": 6237155426, "lat": 56.5532519, "lon": 14.1389709, "tags": {"amenity": "restaurant", "diet:vegan": "yes", "name": "MUFF"}}, {"type": "node", "id": 6279445984, "lat": 56.8351285, "lon": 13.9353095}, {"type": "node", "id": 6279450485, "lat": 56.8351585, "lon": 13.9356312}, {"type": "node", "id": 6279450486, "lat": 56.8351576, "lon": 13.9353044}, {"type": "node", "id": 6279450487, "lat": 56.8351591, "lon": 13.9353334}, {"type": "node", "id": 6279450488, "lat": 56.835263, "lon": 13.9353149}, {"type": "node", "id": 6279450489, "lat": 56.8351903, "lon": 13.935786}, {"type": "node", "id": 6279450490, "lat": 56.8352344, "lon": 13.9357757}, {"type": "node", "id": 6279450491, "lat": 56.8352588, "lon": 13.9356799}, {"type": "node", "id": 6279450492, "lat": 56.8352641, "lon": 13.935608}, {"type": "node", "id": 6279450493, "lat": 56.8352565, "lon": 13.9354683}, {"type": "node", "id": 6279450494, "lat": 56.835271, "lon": 13.9354652}, {"type": "node", "id": 6279450495, "lat": 56.8352665, "lon": 13.9356889}, {"type": "node", "id": 6279450496, "lat": 56.8352723, "lon": 13.9357018}, {"type": "node", "id": 6279450497, "lat": 56.8352756, "lon": 13.9357174}, {"type": "node", "id": 6279450498, "lat": 56.835276, "lon": 13.935734}, {"type": "node", "id": 6279450499, "lat": 56.8352736, "lon": 13.9357501}, {"type": "node", "id": 6279450500, "lat": 56.8352686, "lon": 13.9357641}, {"type": "node", "id": 6279450501, "lat": 56.8352615, "lon": 13.9357745}, {"type": "node", "id": 6279450502, "lat": 56.8352529, "lon": 13.9357803}, {"type": "node", "id": 6279450503, "lat": 56.8352438, "lon": 13.9357809}, {"type": "node", "id": 6279450504, "lat": 56.8351595, "lon": 13.9356471}, {"type": "node", "id": 6279450506, "lat": 56.8351797, "lon": 13.9353297, "tags": {"entrance": "main"}}, {"type": "node", "id": 6498855632, "lat": 56.8339748, "lon": 13.9412067, "tags": {"addr:city": "Ljungby", "addr:country": "SE", "addr:housenumber": "3", "addr:postcode": "341 43", "addr:street": "F\u00f6reningsgatan", "amenity": "cafe", "brand": "Espresso House", "brand:wikidata": "Q10489162", "brand:wikipedia": "sv:Espresso House", "cuisine": "coffee_shop", "diet:vegan": "yes", "diet:vegetarian": "yes", "indoor_seating": "yes", "name": "Espresso House", "opening_hours": "Mo-Fr 08:00-18:00; Sa 09:00-17:00; Su 10:00-17:00", "outdoor_seating": "yes", "payment:cash": "no", "start_date": "2019-05-25", "takeaway": "yes", "website": "https://espressohouse.com/coffee-shops/ljungby/", "wheelchair": "limited"}}, {"type": "node", "id": 7618216788, "lat": 56.8376037, "lon": 13.9465288, "tags": {"addr:city": "Ljungby", "addr:country": "SE", "addr:housenumber": "5a", "addr:street": "Harabergsgatan", "amenity": "restaurant", "cuisine": "pizza;kebab;hamburger;sallad;falafel", "name": "Pizzeria Claudi", "website": "http://claudi.se/"}}, {"type": "node", "id": 8118561405, "lat": 56.8335824, "lon": 13.9407039, "tags": {"amenity": "restaurant", "cuisine": "asian", "name": "Jenny Wok", "wheelchair": "yes"}}, {"type": "node", "id": 9045597120, "lat": 56.5014088, "lon": 14.1117945}, {"type": "node", "id": 9045597121, "lat": 56.5013898, "lon": 14.1119793}, {"type": "node", "id": 9045597123, "lat": 56.5014391, "lon": 14.1120345}, {"type": "node", "id": 9045597124, "lat": 56.5014829, "lon": 14.1120493}, {"type": "node", "id": 9045597125, "lat": 56.5014868, "lon": 14.1120117}, {"type": "node", "id": 9045597126, "lat": 56.5015209, "lon": 14.1120232}, {"type": "node", "id": 9045597127, "lat": 56.501542, "lon": 14.1118175}, {"type": "node", "id": 9045597128, "lat": 56.5014429, "lon": 14.1119972}, {"type": "node", "id": 9046019178, "lat": 56.5014992, "lon": 14.1118031}, {"type": "node", "id": 9046019179, "lat": 56.501497, "lon": 14.1118242}, {"type": "node", "id": 9176496705, "lat": 56.8302807, "lon": 13.9319573, "tags": {"amenity": "cafe", "name": "Spiket"}}, {"type": "node", "id": 9181254573, "lat": 56.8322469, "lon": 13.933319, "tags": {"amenity": "cafe", "cuisine": "bistro;pie;pastry", "indoor_seating": "yes", "level": "1", "name": "Garvet", "opening_hours": "Mo-Th 08:00-15:00; Fr 08:00-13:00", "outdoor_seating": "no", "takeaway": "yes", "toilets": "no", "website": "https://campusljungby.se/motesplats/", "wheelchair": "yes"}}, {"type": "node", "id": 10130500634, "lat": 56.6144383, "lon": 14.1557137, "tags": {"addr:city": "Di\u00f6", "addr:street": "M\u00f6ckelsn\u00e4s", "amenity": "cafe", "cuisine": "cafe;pajer;glass", "name": "Orangeriet M\u00f6ckelsn\u00e4s", "outdoor_seating": "yes", "website": "https://www.destinationmockelsnas.se/se-gora/tradgard-orangeri/"}}, {"type": "node", "id": 10303597981, "lat": 56.8340067, "lon": 13.9416851, "tags": {"amenity": "restaurant", "cuisine": "american", "indoor_seating": "yes", "name": "Texas Longhorn Ribs 'n' Burgers", "opening_hours": "Mo-Th 11:30-21:00; Fr 11:30-21:00+; Sa 12:00-21:00+; Su 12:00-20:30", "outdoor_seating": "no", "start_date": "2023-03-03", "wheelchair": "yes"}}, {"type": "way", "id": 46528939, "nodes": [5016604995, 4768427922, 5016604993, 595254081, 595254083, 5016604995], "tags": {"amenity": "restaurant", "building": "yes", "building:colour": "white", "building:levels": "2", "building:material": "wood", "cuisine": "swedish", "delivery": "no", "indoor_seating": "yes", "material": "wood", "name": "G\u00e4stgivareg\u00e5rden", "opening_hours": "Mo-Fr 11:30-14:00; Sa 12:00-14:30", "outdoor_seating": "yes", "payment:cash": "no", "payment:credit_cards": "yes", "payment:debit_cards": "yes", "roof:colour": "#b27f60", "roof:levels": "1", "roof:shape": "gabled", "smoking": "outside", "source": "local_knowledge", "takeaway": "no", "wheelchair": "no"}}, {"type": "way", "id": 343319387, "nodes": [3501814107, 3501814108, 3501814109, 3501814110, 3501814111, 3501814112, 3501814113, 3501814114, 3501814115, 3501814116, 3501814117, 3501814118, 3501814119, 3501814120, 3501814107], "tags": {"amenity": "restaurant", "building": "yes", "cuisine": "thai", "name": "Saikok", "wheelchair": "yes"}}, {"type": "way", "id": 420277018, "nodes": [4202184407, 4202184410, 4202184411, 4202184412, 4202184408, 4202184407], "tags": {"amenity": "restaurant", "building:colour": "#C4B095", "building:levels": "1", "building:material": "brick", "building:part": "yes", "name": "Matverket", "opening_hours": "Mo-Fr 08:45-15:00", "roof:colour": "#a98b73", "roof:shape": "gabled", "smoking": "no"}}, {"type": "way", "id": 420277028, "nodes": [4202184413, 4465550674, 4202184399, 4202184404, 4202184406, 4202184413], "tags": {"amenity": "restaurant", "building:colour": "#C4B095", "building:levels": "1", "building:material": "brick", "building:part": "yes", "indoor_seating": "yes", "name": "Laya Kolgrill & Restaurang", "outdoor_seating": "yes", "roof:colour": "#a98b73", "roof:shape": "hipped"}}, {"type": "way", "id": 422539638, "nodes": [4222954412, 4222954413, 4222954414, 4222954415, 4222954412], "tags": {"amenity": "cafe", "building": "yes", "building:colour": "#471a15", "opening_hours": "During event", "roof:colour": "#606872"}}, {"type": "way", "id": 439405577, "nodes": [4370204772, 4370204773, 4370204774, 4370204775, 4370204772], "tags": {"amenity": "cafe", "building": "yes", "cuisine": "coffee_shop", "name": "Cafe am Park", "website": "http://cafe-am-park.com/"}}, {"type": "way", "id": 478848613, "nodes": [4720372496, 4720372497, 4720372498, 4720372499, 4720372500, 4720372501, 4720372502, 4720372503, 4720372496], "tags": {"addr:city": "Hamneda", "addr:postcode": "34013", "amenity": "restaurant", "building": "retail", "cuisine": "seafood", "fax": "+4637250006", "name": "Bolmen Fisk", "opening_hours": "10:00-17:00", "operator": "Bolmen Fisk AB", "phone": "+4637250180", "smoking": "no", "takeaway": "yes", "website": "http://www.bolmenfisk.se"}}, {"type": "way", "id": 552162735, "nodes": [5331434906, 5331434907, 5331434908, 5331434909, 5331434910, 5331434911, 5331434906], "tags": {"amenity": "restaurant", "building": "yes", "name": "Goaroije", "outdoor_seating": "yes"}}, {"type": "way", "id": 670563567, "nodes": [4171906928, 6279450485, 6279450504, 6279450489, 6279450490, 6279450503, 6279450502, 6279450501, 6279450500, 6279450499, 6279450498, 6279450497, 6279450496, 6279450495, 6279450491, 6279450492, 6279450493, 6279450494, 6279450488, 6279450506, 6279450487, 6279450486, 6279445984, 4171906928], "tags": {"amenity": "restaurant", "building:levels": "2", "building:part": "yes", "name": "Ljungr\u00e4tten"}}, {"type": "way", "id": 977579666, "nodes": [9045597120, 9045597121, 9045597128, 9045597123, 9045597124, 9045597125, 9045597126, 9045597127, 9046019178, 9046019179, 9045597120], "tags": {"addr:city": "Killeberg", "addr:country": "SE", "addr:housenumber": "4", "addr:postcode": "28936", "addr:street": "Fornah\u00e4sslev\u00e4gen", "amenity": "cafe", "building": "retail", "delivery": "no", "description:en": "Caf\u00e9 & Bageri Ekological sourdough bread Parking: Kindly park at the Loshult church and follow the signs to Loshult Handelsbod, a short 200m walk away.", "diet:vegetarian": "yes", "email": "loshulthandelsbod@gmail.com", "name": "Loshult Handelsbod", "opening_hours": "Fr 12:00-18:00", "outdoor_seating": "yes", "payment:cash": "yes", "payment:credit_cards": "yes", "takeaway": "yes", "website": "https://loshulthandelsbod.com"}}]}