{"version": 0.6, "generator": "Overpass API 0.7.61.5 4133829e", "osm3s": {"timestamp_osm_base": "2024-03-14T21:59:00Z", "copyright": "The data included in this document is from www.openstreetmap.org. The data is made available under ODbL."}, "elements": [{"type": "node", "id": 326582555, "lat": 57.1688669, "lon": 12.2772256, "tags": {"amenity": "restaurant", "name": "Road Star"}}, {"type": "node", "id": 340434313, "lat": 57.1872033, "lon": 12.2194203, "tags": {"amenity": "restaurant", "cuisine": "regional", "name": "Solbacken"}}, {"type": "node", "id": 340434318, "lat": 57.1911825, "lon": 12.2200456, "tags": {"amenity": "cafe", "name": "Smedjan"}}, {"type": "node", "id": 528980186, "lat": 56.886314, "lon": 12.6015648, "tags": {"amenity": "restaurant", "cuisine": "seafood", "name": "Laxbutiken"}}, {"type": "node", "id": 869914462, "lat": 57.0429217, "lon": 12.3971316, "tags": {"amenity": "restaurant", "name": "Pizzeria & Steakhouse"}}, {"type": "node", "id": 873691493, "lat": 57.1073242, "lon": 12.2452845, "tags": {"amenity": "cafe", "name": "Hamnpaviljongen"}}, {"type": "node", "id": 932355521, "lat": 57.1073641, "lon": 12.2490591, "tags": {"amenity": "cafe", "name": "Bl\u00e5 D\u00f6rren"}}, {"type": "node", "id": 932356580, "lat": 57.1047187, "lon": 12.2496541, "tags": {"amenity": "restaurant", "name": "Big Boys"}}, {"type": "node", "id": 932361416, "lat": 57.1090911, "lon": 12.2495295, "tags": {"amenity": "restaurant", "cuisine": "chinese", "name": "Chinese Sea"}}, {"type": "node", "id": 1204093909, "lat": 56.9313165, "lon": 12.356067, "tags": {"amenity": "restaurant", "name": "Solsidan Restaurant"}}, {"type": "node", "id": 1329458242, "lat": 57.1230721, "lon": 12.2777581, "tags": {"amenity": "restaurant"}}, {"type": "node", "id": 1369371743, "lat": 57.2359856, "lon": 12.3186208, "tags": {"amenity": "restaurant", "name": "Pizza & bar"}}, {"type": "node", "id": 1387715207, "lat": 57.1368219, "lon": 12.7150627, "tags": {"amenity": "restaurant", "name": "Stantons"}}, {"type": "node", "id": 1602453477, "lat": 57.1053347, "lon": 12.2520777, "tags": {"amenity": "cafe", "cuisine": "coffee_shop", "name": "Caf\u00e9 Str\u00f6get"}}, {"type": "node", "id": 1603769644, "lat": 57.0844746, "lon": 12.248572}, {"type": "node", "id": 1603769649, "lat": 57.0845591, "lon": 12.2490194}, {"type": "node", "id": 1603769666, "lat": 57.0846766, "lon": 12.2484945}, {"type": "node", "id": 1603769668, "lat": 57.0846867, "lon": 12.2486089}, {"type": "node", "id": 1603769727, "lat": 57.0847961, "lon": 12.2484586}, {"type": "node", "id": 1603769742, "lat": 57.0848154, "lon": 12.2486765}, {"type": "node", "id": 1603769744, "lat": 57.084832, "lon": 12.2488345}, {"type": "node", "id": 1603769747, "lat": 57.084838, "lon": 12.2486697}, {"type": "node", "id": 1603769752, "lat": 57.0848442, "lon": 12.2489728}, {"type": "node", "id": 1603769753, "lat": 57.0848521, "lon": 12.2488285}, {"type": "node", "id": 1660281094, "lat": 57.1361101, "lon": 12.7147237, "tags": {"addr:city": "Ullared", "addr:housenumber": "7", "addr:postcode": "31060", "addr:street": "Danska v\u00e4gen", "amenity": "restaurant", "name": "Harrys"}}, {"type": "node", "id": 1704718101, "lat": 57.1056952, "lon": 12.251594, "tags": {"amenity": "cafe", "name": "Caf\u00e9 Mignon"}}, {"type": "node", "id": 1704718135, "lat": 57.1059553, "lon": 12.2495863, "tags": {"amenity": "restaurant", "name": "Grappa"}}, {"type": "node", "id": 1704718139, "lat": 57.1162935, "lon": 12.247859, "tags": {"amenity": "restaurant", "name": "Hamnkocken"}}, {"type": "node", "id": 1704718183, "lat": 57.1069056, "lon": 12.2514805, "tags": {"amenity": "nightclub", "name": "Niteclub Oscar"}}, {"type": "node", "id": 1704718224, "lat": 57.1066623, "lon": 12.2489078, "tags": {"amenity": "restaurant", "cuisine": "greek", "name": "Zorba"}}, {"type": "node", "id": 1704718686, "lat": 57.1087653, "lon": 12.2411721, "tags": {"amenity": "cafe"}}, {"type": "node", "id": 1707317408, "lat": 56.9040875, "lon": 12.492364, "tags": {"amenity": "bar", "name": "R\u00e5dhustorget No:1A", "website": "https://www.radhustorget.nu/"}}, {"type": "node", "id": 1707317659, "lat": 56.9035838, "lon": 12.4908729, "tags": {"amenity": "cafe", "brand": "Espresso House", "brand:wikidata": "Q10489162", "brand:wikipedia": "sv:Espresso House", "cuisine": "coffee_shop", "name": "Espresso House", "takeaway": "yes"}}, {"type": "node", "id": 1707318082, "lat": 56.906969, "lon": 12.4871232}, {"type": "node", "id": 1780649162, "lat": 57.1073274, "lon": 12.2506232, "tags": {"addr:city": "Varberg", "addr:country": "SE", "addr:housenumber": "11", "addr:postcode": "43241", "addr:street": "Kungsgatan", "amenity": "restaurant", "cuisine": "burger;salad", "name": "Hells Burger", "website": "https://www.hellsburger.se/varberg"}}, {"type": "node", "id": 1780649163, "lat": 57.1049033, "lon": 12.2497032, "tags": {"amenity": "restaurant", "name": "Paganini"}}, {"type": "node", "id": 1810342095, "lat": 56.9041979, "lon": 12.4918675, "tags": {"amenity": "restaurant", "cuisine": "steak_house", "name": "Hermans", "website": "https://www.hermansrestaurang.se/"}}, {"type": "node", "id": 1834988214, "lat": 57.2604764, "lon": 12.1111549}, {"type": "node", "id": 1876258633, "lat": 57.0847382, "lon": 12.2489656}, {"type": "node", "id": 1876258637, "lat": 57.0801266, "lon": 12.263371}, {"type": "node", "id": 1876258642, "lat": 57.0832879, "lon": 12.2581538}, {"type": "node", "id": 1880576674, "lat": 57.0992337, "lon": 12.2433916, "tags": {"amenity": "restaurant", "name": "K\u00e4rleksparken"}}, {"type": "node", "id": 1884577941, "lat": 57.0886141, "lon": 12.3621489, "tags": {"amenity": "cafe"}}, {"type": "node", "id": 1886423650, "lat": 57.1055375, "lon": 12.2517334, "tags": {"amenity": "cafe", "internet_access": "yes"}}, {"type": "node", "id": 2206261077, "lat": 57.1079774, "lon": 12.2448512, "tags": {"amenity": "restaurant", "contact:phone": "+46340677666", "contact:website": "www.fiskrestaurangcampus.se", "name": "Restaurang Caf\u00e9 Campus"}}, {"type": "node", "id": 2206261317, "lat": 57.1054851, "lon": 12.2391783, "tags": {"amenity": "cafe", "name": "F\u00e4stningsterassen"}}, {"type": "node", "id": 2295993887, "lat": 57.1171199, "lon": 12.2541627}, {"type": "node", "id": 2295993888, "lat": 57.1170434, "lon": 12.2542995}, {"type": "node", "id": 2295993889, "lat": 57.1170944, "lon": 12.2543988}, {"type": "node", "id": 2295993890, "lat": 57.1170383, "lon": 12.2544994}, {"type": "node", "id": 2295993891, "lat": 57.1172288, "lon": 12.2548595}, {"type": "node", "id": 2295993892, "lat": 57.1173623, "lon": 12.2546107}, {"type": "node", "id": 2610930355, "lat": 56.9026032, "lon": 12.4927306, "tags": {"addr:city": "Falkenberg", "addr:country": "SE", "addr:housenumber": "2", "addr:postcode": "31131", "addr:street": "Brogatan", "amenity": "restaurant", "contact:phone": "+46 346-16220", "contact:website": "http://www.downtownrockbar.com/", "cuisine": "burger", "name": "Downtown Restaurang Och Bar"}}, {"type": "node", "id": 2610930356, "lat": 56.9037839, "lon": 12.4923287, "tags": {"addr:city": "Falkenberg", "addr:country": "SE", "addr:housenumber": "32", "addr:postcode": "31131", "addr:street": "Storgatan", "amenity": "bar", "cuisine": "international", "name": "Amadeus Bar", "website": "http://www.amadeusbar.se/"}}, {"type": "node", "id": 2704650808, "lat": 56.9779085, "lon": 12.6525136, "tags": {"addr:city": "Vessingebro", "addr:country": "SE", "addr:housenumber": "14", "addr:postcode": "31164", "addr:street": "Brogatan", "amenity": "restaurant", "cuisine": "regional", "name": "Restaurang Ekholmen", "website": "https://www.restaurangekholmen.se/"}}, {"type": "node", "id": 3437004254, "lat": 57.1238257, "lon": 12.2625321}, {"type": "node", "id": 3437004255, "lat": 57.1235928, "lon": 12.2625902}, {"type": "node", "id": 3437004256, "lat": 57.1236128, "lon": 12.2628631}, {"type": "node", "id": 3437004257, "lat": 57.1237477, "lon": 12.2628294}, {"type": "node", "id": 3437004258, "lat": 57.1237552, "lon": 12.2629313}, {"type": "node", "id": 3437004259, "lat": 57.1238532, "lon": 12.2629068}, {"type": "node", "id": 3437170484, "lat": 57.2395056, "lon": 12.115314}, {"type": "node", "id": 3437170485, "lat": 57.2393864, "lon": 12.1151179}, {"type": "node", "id": 3437170486, "lat": 57.2393157, "lon": 12.1152646}, {"type": "node", "id": 3437170487, "lat": 57.2394348, "lon": 12.1154607}, {"type": "node", "id": 3437218418, "lat": 57.1117057, "lon": 12.2777208}, {"type": "node", "id": 3437218420, "lat": 57.1117066, "lon": 12.277837}, {"type": "node", "id": 3437218421, "lat": 57.1118192, "lon": 12.277834}, {"type": "node", "id": 3437233237, "lat": 57.0992046, "lon": 12.2432689, "tags": {"amenity": "cafe"}}, {"type": "node", "id": 3437233238, "lat": 57.0834957, "lon": 12.2579496}, {"type": "node", "id": 3437233239, "lat": 57.0834143, "lon": 12.257839}, {"type": "node", "id": 3437233240, "lat": 57.0833682, "lon": 12.2584127}, {"type": "node", "id": 3437233241, "lat": 57.0833904, "lon": 12.2578985}, {"type": "node", "id": 3437233242, "lat": 57.083246, "lon": 12.2582582}, {"type": "node", "id": 3437233244, "lat": 57.0832205, "lon": 12.2580622}, {"type": "node", "id": 3437233245, "lat": 57.0833155, "lon": 12.2585442}, {"type": "node", "id": 3437233246, "lat": 57.083248, "lon": 12.2584524}, {"type": "node", "id": 3437233247, "lat": 57.0833884, "lon": 12.258217}, {"type": "node", "id": 3437233248, "lat": 57.0832978, "lon": 12.2583285}, {"type": "node", "id": 3437233249, "lat": 57.0833997, "lon": 12.2584902}, {"type": "node", "id": 3437233250, "lat": 57.0834087, "lon": 12.2584678}, {"type": "node", "id": 3437233251, "lat": 57.0833626, "lon": 12.2586082}, {"type": "node", "id": 3437233252, "lat": 57.0834262, "lon": 12.2582684}, {"type": "node", "id": 3437233253, "lat": 57.0834063, "lon": 12.2584992}, {"type": "node", "id": 3437233254, "lat": 57.0801905, "lon": 12.2634942}, {"type": "node", "id": 3437233255, "lat": 57.0801602, "lon": 12.2633447}, {"type": "node", "id": 3437233257, "lat": 57.0800779, "lon": 12.2631289}, {"type": "node", "id": 3437233258, "lat": 57.0799346, "lon": 12.2632288}, {"type": "node", "id": 3437233259, "lat": 57.0800024, "lon": 12.2635404}, {"type": "node", "id": 3437233260, "lat": 57.0800451, "lon": 12.2635057}, {"type": "node", "id": 3437233261, "lat": 57.0800652, "lon": 12.2635868}, {"type": "node", "id": 3437233284, "lat": 57.0575357, "lon": 12.2704471}, {"type": "node", "id": 3437233285, "lat": 57.0574872, "lon": 12.27038}, {"type": "node", "id": 3437233287, "lat": 57.0573053, "lon": 12.2707991}, {"type": "node", "id": 3437233289, "lat": 57.0573804, "lon": 12.2708192}, {"type": "node", "id": 3437233290, "lat": 57.0573917, "lon": 12.2706456}, {"type": "node", "id": 3437233291, "lat": 57.0575178, "lon": 12.2706684}, {"type": "node", "id": 3437249769, "lat": 57.1131026, "lon": 12.2258852}, {"type": "node", "id": 3437249770, "lat": 57.1128969, "lon": 12.225931}, {"type": "node", "id": 3437249771, "lat": 57.1129624, "lon": 12.2264175}, {"type": "node", "id": 3437249772, "lat": 57.1130831, "lon": 12.2264685}, {"type": "node", "id": 3437249773, "lat": 57.1131723, "lon": 12.2264297}, {"type": "node", "id": 3437249782, "lat": 57.1187771, "lon": 12.2039471}, {"type": "node", "id": 3437249783, "lat": 57.1186697, "lon": 12.20376}, {"type": "node", "id": 3437249784, "lat": 57.1186169, "lon": 12.2037708}, {"type": "node", "id": 3437249785, "lat": 57.1185212, "lon": 12.2039579}, {"type": "node", "id": 3437249786, "lat": 57.118654, "lon": 12.2042026}, {"type": "node", "id": 3437249787, "lat": 57.118646, "lon": 12.203877, "tags": {"amenity": "cafe", "name": "Caf\u00e9"}}, {"type": "node", "id": 3437249791, "lat": 57.1220857, "lon": 12.2253873, "tags": {"amenity": "cafe", "toilets:wheelchair": "yes", "wheelchair": "yes"}}, {"type": "node", "id": 3437249792, "lat": 57.1264927, "lon": 12.2523339, "tags": {"amenity": "cafe", "contact:website": "http://www.naturumgetteron.se/", "diet:lactose_free": "yes", "diet:vegan": "yes", "diet:vegetarian": "yes", "email": "kafeochkonferens@naturumgetteron.se", "name": "Kafe & Konferens", "opening_hours": "Tu-Su 10:00-16:00"}}, {"type": "node", "id": 3437266009, "lat": 57.1087408, "lon": 12.2422329, "tags": {"amenity": "restaurant", "name": "Rolands K\u00f6k & Bar"}}, {"type": "node", "id": 3437266012, "lat": 57.1062556, "lon": 12.2475333, "tags": {"amenity": "cafe"}}, {"type": "node", "id": 3437268399, "lat": 57.1040039, "lon": 12.252288, "tags": {"amenity": "cafe", "cuisine": "Hembakat", "name": "Veras Cafe", "opening_hours": "Mo-Fr 09:00-17:00; Sa 09:00-14:00"}}, {"type": "node", "id": 3437268401, "lat": 57.104883, "lon": 12.2545711, "tags": {"amenity": "restaurant", "name": "Bastard Burgers"}}, {"type": "node", "id": 3507798245, "lat": 57.1129167, "lon": 12.2260863}, {"type": "node", "id": 3507798246, "lat": 57.1129428, "lon": 12.2262645}, {"type": "node", "id": 3507798247, "lat": 57.1130102, "lon": 12.2260457}, {"type": "node", "id": 3507798248, "lat": 57.1130331, "lon": 12.2262253}, {"type": "node", "id": 3507798249, "lat": 57.1130616, "lon": 12.2258595}, {"type": "node", "id": 3507798250, "lat": 57.1130669, "lon": 12.2259007}, {"type": "node", "id": 3507798251, "lat": 57.1130705, "lon": 12.2263706}, {"type": "node", "id": 3557131112, "lat": 57.2447214, "lon": 12.8647649, "tags": {"addr:city": "\u00c4lvsered", "addr:postcode": "311 63", "addr:street": "Bor\u00e5sv\u00e4gen", "amenity": "restaurant", "contact:phone": "+46 325 31130", "contact:website": "http://www.mandysdiner.se/", "cuisine": "burger;Ribs", "name": "Mandy's Diner", "outdoor_seating": "yes"}}, {"type": "node", "id": 3660120640, "lat": 57.1165907, "lon": 12.2137557, "tags": {"amenity": "restaurant", "name": "Restaurang 4:e Vik", "opening_hours": "Mo-Su 11:30-22:00", "operator": "Getter\u00f6ns Camping"}}, {"type": "node", "id": 3693821584, "lat": 57.1071649, "lon": 12.2405507, "tags": {"amenity": "restaurant", "name": "Vin & Skafferi Hus 13", "opening_hours": "Mo 17:00-24:00; Tu-Sa 12:00-15:00, 17:00-24:00"}}, {"type": "node", "id": 3700881818, "lat": 56.8841292, "lon": 12.5039955}, {"type": "node", "id": 3700881819, "lat": 56.8842586, "lon": 12.5042778}, {"type": "node", "id": 3700881820, "lat": 56.884472, "lon": 12.5034239}, {"type": "node", "id": 3700881821, "lat": 56.8843893, "lon": 12.50402}, {"type": "node", "id": 3700881822, "lat": 56.8844373, "lon": 12.504107}, {"type": "node", "id": 3700881823, "lat": 56.8845088, "lon": 12.5039917}, {"type": "node", "id": 3700881824, "lat": 56.8846383, "lon": 12.5037574}, {"type": "node", "id": 4954121589, "lat": 57.1173372, "lon": 12.2545651}, {"type": "node", "id": 5026772786, "lat": 57.1221483, "lon": 12.2590833}, {"type": "node", "id": 5026772789, "lat": 57.1220029, "lon": 12.25896}, {"type": "node", "id": 5026773230, "lat": 57.1134525, "lon": 12.250924, "tags": {"amenity": "restaurant", "cuisine": "pizza", "name": "Don Camillo Pizzeria"}}, {"type": "node", "id": 5099016531, "lat": 56.9021842, "lon": 12.4462866, "tags": {"addr:city": "Falkenberg", "addr:country": "SE", "addr:housenumber": "36", "addr:postcode": "311 32", "addr:street": "\u00c5karev\u00e4gen", "amenity": "restaurant", "delivery": "yes", "name": "Matverket", "opening_hours": "Mo-Fr 07:30-14:30", "takeaway": "yes"}}, {"type": "node", "id": 5157148726, "lat": 57.095804, "lon": 12.253495, "tags": {"amenity": "restaurant", "cuisine": "pizza", "name": "Pinnocio"}}, {"type": "node", "id": 5223692847, "lat": 57.063161, "lon": 12.5565857, "tags": {"amenity": "bar", "name": "Skybar"}}, {"type": "node", "id": 5223692848, "lat": 57.0649166, "lon": 12.5575387, "tags": {"amenity": "bar"}}, {"type": "node", "id": 5223692849, "lat": 57.0628774, "lon": 12.5563881, "tags": {"amenity": "restaurant", "name": "Resturang Logen"}}, {"type": "node", "id": 5223692850, "lat": 57.0649713, "lon": 12.5571673, "tags": {"amenity": "restaurant", "name": "Resturang Vinhuset"}}, {"type": "node", "id": 5340231244, "lat": 56.9772654, "lon": 12.6497427, "tags": {"amenity": "restaurant", "capacity": "16", "cuisine": "pizza", "delivery": "no", "name": "Vessige Pizzeria", "opening_hours": "Tu-Th 16:00-21:00; Fr 16:00-22:00; Sa 14:00-22:00; Su 14:00-21:00", "outdoor_seating": "no", "takeaway": "yes"}}, {"type": "node", "id": 5419186012, "lat": 56.8842493, "lon": 12.504261}, {"type": "node", "id": 5419186013, "lat": 56.8842247, "lon": 12.5043299}, {"type": "node", "id": 5419186014, "lat": 56.8840954, "lon": 12.5040475}, {"type": "node", "id": 5452170180, "lat": 56.8889394, "lon": 12.5794305, "tags": {"amenity": "restaurant", "name": "Aska Barbeque"}}, {"type": "node", "id": 5452174513, "lat": 56.8872163, "lon": 12.5779475, "tags": {"amenity": "restaurant", "contact:website": "http://www.prostenspizza.se/", "name": "Prostens Pizza"}}, {"type": "node", "id": 5730015129, "lat": 57.1063436, "lon": 12.2497538, "tags": {"addr:country": "SE", "addr:housenumber": "5", "addr:postcode": "43241", "addr:street": "Kyrkogatan", "amenity": "restaurant", "diet:vegan": "yes", "name": "Le Juice", "opening_hours": "Tu-Fr 11:00-18:00; Sa 11:00-15:00"}}, {"type": "node", "id": 5760824104, "lat": 56.907654, "lon": 12.4663601}, {"type": "node", "id": 5760824105, "lat": 56.9075644, "lon": 12.4662642}, {"type": "node", "id": 5760824106, "lat": 56.9076171, "lon": 12.4660992}, {"type": "node", "id": 5760824107, "lat": 56.9077067, "lon": 12.4661951}, {"type": "node", "id": 5760851222, "lat": 56.8994232, "lon": 12.4907322, "tags": {"addr:city": "Falkenberg", "addr:country": "SE", "addr:housenumber": "7", "addr:postcode": "311 74", "addr:street": "S\u00f6dergatan", "amenity": "restaurant", "cuisine": "pizza", "name": "Pizzeria La Casa", "opening_hours": "Mo-Fr 11:00-21:00, Sa-Su 12:00-21:00", "phone": "+46 0346 100 07", "website": "https://www.pizzerialacasa.se/"}}, {"type": "node", "id": 5760851225, "lat": 56.9052553, "lon": 12.4862262, "tags": {"amenity": "restaurant", "cuisine": "pizza", "name": "Tommys Pizzeria"}}, {"type": "node", "id": 5764508455, "lat": 56.9055387, "lon": 12.4920704, "tags": {"amenity": "restaurant", "cuisine": "coffee_shop;sandwich;salad;regional", "name": "Majo Mat Och M\u00f6ten", "outdoor_seating": "yes", "takeaway": "yes", "website": "https://www.facebook.com/Majo-Mat-Och-M%C3%B6ten-1736354960004694/"}}, {"type": "node", "id": 5764508456, "lat": 56.9050899, "lon": 12.4907044, "tags": {"amenity": "restaurant", "name": "Belugia", "website": "https://www.facebook.com/Belugia-Drink-and-Food-Court-412753415765414/"}}, {"type": "node", "id": 5783013058, "lat": 56.9072188, "lon": 12.4868362}, {"type": "node", "id": 5783013059, "lat": 56.9068747, "lon": 12.4869698}, {"type": "node", "id": 5783013060, "lat": 56.9068917, "lon": 12.4871873}, {"type": "node", "id": 5783013061, "lat": 56.9072397, "lon": 12.487044}, {"type": "node", "id": 5788196305, "lat": 56.9044913, "lon": 12.4934009, "tags": {"addr:country": "SE", "addr:housenumber": "26", "addr:street": "Storgatan", "amenity": "restaurant", "cuisine": "indian", "name": "Indian Kitchen", "opening_hours": "Mo-Fr 11:00-22:00, Sa 12:00-23:00, Su 13:00-21:00", "website": "https://indiankitchen.nu/"}}, {"type": "node", "id": 5788217181, "lat": 56.9035312, "lon": 12.4934961, "tags": {"amenity": "restaurant", "name": "Harrys", "website": "https://www.harrys.se/restauranger/falkenberg/"}}, {"type": "node", "id": 5791933620, "lat": 57.0414835, "lon": 12.3181722, "tags": {"amenity": "cafe", "name": "Janko"}}, {"type": "node", "id": 5793742553, "lat": 57.0183457, "lon": 12.3877448, "tags": {"addr:city": "Tv\u00e5\u00e5ker", "addr:country": "SE", "addr:housenumber": "1", "addr:place": "Hermanslycke", "addr:postcode": "43276", "amenity": "cafe", "name": "V\u00e5ffelcaf\u00e9", "operator": "Hermanslycke Lantbruk AB", "outdoor_seating": "yes"}}, {"type": "node", "id": 5830078214, "lat": 56.8810913, "lon": 12.5142899, "tags": {"amenity": "restaurant"}}, {"type": "node", "id": 6053553930, "lat": 57.3148697, "lon": 12.8765267}, {"type": "node", "id": 6126850279, "lat": 57.0623211, "lon": 12.2781614}, {"type": "node", "id": 6126877627, "lat": 57.2157044, "lon": 12.6574423, "tags": {"amenity": "cafe", "cuisine": "swedish", "internet_access": "no", "name": "K\u00e4llsj\u00f6 Mejerri", "smoking": "outside", "takeaway": "yes"}}, {"type": "node", "id": 6641547612, "lat": 57.1227041, "lon": 12.2629441, "tags": {"amenity": "restaurant", "name": "LOL Lunch"}}, {"type": "node", "id": 6641894990, "lat": 57.1220922, "lon": 12.2680458, "tags": {"amenity": "restaurant", "cuisine": "thai", "name": "Linnea & Basilika"}}, {"type": "node", "id": 6646812690, "lat": 57.1221087, "lon": 12.2592417}, {"type": "node", "id": 6646812691, "lat": 57.1219633, "lon": 12.2591184}, {"type": "node", "id": 6698468076, "lat": 56.904479, "lon": 12.4931075, "tags": {"amenity": "restaurant", "cuisine": "thai", "name": "Royal Thai"}}, {"type": "node", "id": 6698470794, "lat": 56.9035387, "lon": 12.4919756, "tags": {"addr:city": "Falkenberg", "addr:country": "SE", "addr:housenumber": "31", "addr:postcode": "311 31", "addr:street": "Storgatan", "amenity": "cafe", "name": "Borgm\u00e4starg\u00e5rden Kaf\u00e9 & Konditori", "website": "https://borgmastargarden.com/"}}, {"type": "node", "id": 6928712326, "lat": 56.8841634, "lon": 12.504196}, {"type": "node", "id": 6928712330, "lat": 56.8845557, "lon": 12.5035917}, {"type": "node", "id": 7052048256, "lat": 57.0424669, "lon": 12.4022996, "tags": {"addr:city": "Tv\u00e5\u00e5ker", "addr:country": "SE", "addr:housenumber": "49", "addr:postcode": "43278", "addr:street": "Fastarpsv\u00e4gen", "amenity": "restaurant", "contact:phone": "+46034040710", "contact:website": "helgespizzabod.se", "cuisine": "pizza;kebab;Sallad", "name": "Helges Pizzabod", "takeaway": "yes"}}, {"type": "node", "id": 8074956943, "lat": 56.917673, "lon": 12.5031444, "tags": {"addr:city": "Falkenberg", "addr:country": "SE", "addr:housenumber": "4", "addr:postcode": "31139", "addr:street": "Dalkullev\u00e4gen", "amenity": "restaurant", "cuisine": "asian", "name": "Sisi", "website": "https://tanga.sisirestaurang.se/"}}, {"type": "node", "id": 8120673065, "lat": 57.0854512, "lon": 12.2477206}, {"type": "node", "id": 8120673066, "lat": 57.0854663, "lon": 12.2478591}, {"type": "node", "id": 8120673067, "lat": 57.0854992, "lon": 12.247847}, {"type": "node", "id": 8120673068, "lat": 57.0855098, "lon": 12.2479445}, {"type": "node", "id": 8120673069, "lat": 57.0854773, "lon": 12.2479565}, {"type": "node", "id": 8120673070, "lat": 57.0854924, "lon": 12.248095}, {"type": "node", "id": 8120673071, "lat": 57.085527, "lon": 12.2480822}, {"type": "node", "id": 8120673072, "lat": 57.0855347, "lon": 12.2481527}, {"type": "node", "id": 8120673073, "lat": 57.0856063, "lon": 12.2481262}, {"type": "node", "id": 8120673074, "lat": 57.0855725, "lon": 12.2478171}, {"type": "node", "id": 8120673075, "lat": 57.0856082, "lon": 12.2478039}, {"type": "node", "id": 8120673076, "lat": 57.0855937, "lon": 12.2476714}, {"type": "node", "id": 8120673077, "lat": 57.0855586, "lon": 12.2476844}, {"type": "node", "id": 8120673078, "lat": 57.0855494, "lon": 12.2476004}, {"type": "node", "id": 8120673079, "lat": 57.0854707, "lon": 12.2476295}, {"type": "node", "id": 8120673080, "lat": 57.0854795, "lon": 12.2477101}, {"type": "node", "id": 8150340910, "lat": 57.3149787, "lon": 12.8765821}, {"type": "node", "id": 8150340911, "lat": 57.3150237, "lon": 12.8762786}, {"type": "node", "id": 8150340912, "lat": 57.3149148, "lon": 12.8762231}, {"type": "node", "id": 8815085382, "lat": 57.2365759, "lon": 12.1261018, "tags": {"amenity": "restaurant", "cuisine": "pizza", "name": "Grillbar Pizzeria Narin"}}, {"type": "node", "id": 8912221402, "lat": 57.0622603, "lon": 12.2782673}, {"type": "node", "id": 8912221403, "lat": 57.0623569, "lon": 12.2783719}, {"type": "node", "id": 8912270183, "lat": 57.0572592, "lon": 12.2700017}, {"type": "node", "id": 8912270184, "lat": 57.0573001, "lon": 12.2705591}, {"type": "node", "id": 8912270185, "lat": 57.0573332, "lon": 12.2702039}, {"type": "node", "id": 8912270186, "lat": 57.0574887, "lon": 12.2702989}, {"type": "node", "id": 8912270188, "lat": 57.0574515, "lon": 12.2702466}, {"type": "node", "id": 8912270189, "lat": 57.0574033, "lon": 12.2702271}, {"type": "node", "id": 8912270191, "lat": 57.0573001, "lon": 12.2699553}, {"type": "node", "id": 8912270192, "lat": 57.0573206, "lon": 12.2705648}, {"type": "node", "id": 8912280431, "lat": 57.0623011, "lon": 12.2781398}, {"type": "node", "id": 8912280432, "lat": 57.0624294, "lon": 12.2781455}, {"type": "node", "id": 8912280433, "lat": 57.0623528, "lon": 12.2780625}, {"type": "node", "id": 8912341191, "lat": 57.0574493, "lon": 12.2702915}, {"type": "node", "id": 8912341192, "lat": 57.057508, "lon": 12.2703854}, {"type": "node", "id": 8912341193, "lat": 57.0575043, "lon": 12.2704377}, {"type": "node", "id": 8912363831, "lat": 57.0623125, "lon": 12.3139299, "tags": {"amenity": "cafe", "diet:vegetarian": "yes", "indoor_seating": "yes", "name": "Sikta Stenugnsbageri", "outdoor_seating": "yes", "wheelchair": "yes"}}, {"type": "node", "id": 8912363868, "lat": 57.0618993, "lon": 12.3141444, "tags": {"amenity": "restaurant", "name": "Spiseriet"}}, {"type": "node", "id": 8914368899, "lat": 57.0847421, "lon": 12.2490097}, {"type": "node", "id": 8914368900, "lat": 57.0847532, "lon": 12.2490063}, {"type": "node", "id": 8914368901, "lat": 57.0848448, "lon": 12.2489788}, {"type": "node", "id": 8914368902, "lat": 57.0844888, "lon": 12.248732}, {"type": "node", "id": 8914368903, "lat": 57.0845324, "lon": 12.2487189}, {"type": "node", "id": 8914368904, "lat": 57.0845875, "lon": 12.248538}, {"type": "node", "id": 8914368905, "lat": 57.0845962, "lon": 12.2486361}, {"type": "node", "id": 8933344712, "lat": 57.1850917, "lon": 12.2178639}, {"type": "node", "id": 8933344713, "lat": 57.1850601, "lon": 12.2141407}, {"type": "node", "id": 8971734147, "lat": 57.1851223, "lon": 12.2179734}, {"type": "node", "id": 8971734148, "lat": 57.1850599, "lon": 12.2180329}, {"type": "node", "id": 8971734149, "lat": 57.1850292, "lon": 12.2179235}, {"type": "node", "id": 8971734321, "lat": 57.1850772, "lon": 12.2144293}, {"type": "node", "id": 8971734322, "lat": 57.185174, "lon": 12.2144464}, {"type": "node", "id": 8971734323, "lat": 57.1851727, "lon": 12.2142937}, {"type": "node", "id": 8971734324, "lat": 57.1850646, "lon": 12.2143039}, {"type": "node", "id": 8971734325, "lat": 57.1850787, "lon": 12.2144823}, {"type": "node", "id": 8971734326, "lat": 57.1851747, "lon": 12.2144733}, {"type": "node", "id": 8971734327, "lat": 57.1851928, "lon": 12.2144446}, {"type": "node", "id": 8971734328, "lat": 57.1851921, "lon": 12.2144184}, {"type": "node", "id": 8971734329, "lat": 57.1850619, "lon": 12.2143041}, {"type": "node", "id": 8971734330, "lat": 57.1850654, "lon": 12.2144304}, {"type": "node", "id": 8971734331, "lat": 57.1851886, "lon": 12.2142922}, {"type": "node", "id": 8971734332, "lat": 57.1850531, "lon": 12.2141414}, {"type": "node", "id": 8971734333, "lat": 57.185048, "lon": 12.2139609}, {"type": "node", "id": 8971734334, "lat": 57.1851631, "lon": 12.2139501}, {"type": "node", "id": 8988209151, "lat": 57.1082032, "lon": 12.2565929, "tags": {"amenity": "restaurant", "name": "Thai Jasmine", "website": "https://www.thaijasmine.se/"}}, {"type": "node", "id": 8989838597, "lat": 57.083323, "lon": 12.2578069}, {"type": "node", "id": 9045481607, "lat": 57.0599471, "lon": 12.2745921}, {"type": "node", "id": 9045481612, "lat": 57.0600113, "lon": 12.274638}, {"type": "node", "id": 9045579417, "lat": 57.059983, "lon": 12.274678}, {"type": "node", "id": 9045579418, "lat": 57.0599755, "lon": 12.2745521}, {"type": "node", "id": 9046139515, "lat": 57.2917962, "lon": 12.8656966}, {"type": "node", "id": 9046139516, "lat": 57.2918849, "lon": 12.8657675}, {"type": "node", "id": 9046296717, "lat": 57.2917834, "lon": 12.8662029}, {"type": "node", "id": 9046296718, "lat": 57.2916947, "lon": 12.866132}, {"type": "node", "id": 9449166592, "lat": 57.2600531, "lon": 12.1112358}, {"type": "node", "id": 9449166593, "lat": 57.2601309, "lon": 12.1114244}, {"type": "node", "id": 9449166594, "lat": 57.2601597, "lon": 12.1114203}, {"type": "node", "id": 9449166595, "lat": 57.2601598, "lon": 12.1115138}, {"type": "node", "id": 9449166596, "lat": 57.2601953, "lon": 12.1115282}, {"type": "node", "id": 9449166597, "lat": 57.2601877, "lon": 12.1115994}, {"type": "node", "id": 9449166598, "lat": 57.2602337, "lon": 12.1116226}, {"type": "node", "id": 9449166599, "lat": 57.2602273, "lon": 12.1117032}, {"type": "node", "id": 9449166600, "lat": 57.2603048, "lon": 12.1117449}, {"type": "node", "id": 9449166601, "lat": 57.2603237, "lon": 12.1116212}, {"type": "node", "id": 9449166602, "lat": 57.2604048, "lon": 12.1116416}, {"type": "node", "id": 9449166603, "lat": 57.2604972, "lon": 12.1115198}, {"type": "node", "id": 9449166604, "lat": 57.2605107, "lon": 12.1113851}, {"type": "node", "id": 9449166605, "lat": 57.2605626, "lon": 12.1113963}, {"type": "node", "id": 9449166606, "lat": 57.2605796, "lon": 12.1112786}, {"type": "node", "id": 9449166607, "lat": 57.2605431, "lon": 12.111268}, {"type": "node", "id": 9449166608, "lat": 57.2605491, "lon": 12.1111683}, {"type": "node", "id": 9449166609, "lat": 57.2604976, "lon": 12.1109948}, {"type": "node", "id": 9449166610, "lat": 57.2604399, "lon": 12.1110069}, {"type": "node", "id": 9449166611, "lat": 57.260419, "lon": 12.1109551}, {"type": "node", "id": 9449166612, "lat": 57.2604542, "lon": 12.1109085}, {"type": "node", "id": 9449166613, "lat": 57.2604006, "lon": 12.1107847}, {"type": "node", "id": 9674769037, "lat": 57.0819436, "lon": 12.3070769, "tags": {"amenity": "cafe", "cuisine": "coffee_shop", "name": "Vareborgs jordgubbskaf\u00e9", "outdoor_seating": "yes", "website": "https://www.vareborg.se/gardskafe"}}, {"type": "node", "id": 9712376799, "lat": 57.1118193, "lon": 12.2778574}, {"type": "node", "id": 9712376800, "lat": 57.111929, "lon": 12.2778545}, {"type": "node", "id": 9712376801, "lat": 57.1119279, "lon": 12.2777149}, {"type": "node", "id": 9801556421, "lat": 57.2391627, "lon": 12.3088717}, {"type": "node", "id": 9801556422, "lat": 57.239161, "lon": 12.3089823}, {"type": "node", "id": 9801556423, "lat": 57.2391181, "lon": 12.30898}, {"type": "node", "id": 9803998717, "lat": 56.8873134, "lon": 12.4992594, "tags": {"addr:country": "SE", "addr:housenumber": "19", "addr:street": "Klitterv\u00e4gen", "amenity": "cafe", "contact:facebook": "swerl.coffee.club", "contact:instagram": "swerl.coffee", "cuisine": "bagel;breakfast;coffee_shop;sandwich", "name": "Swerl", "name:en": "Swerl coffee", "name:fr": "Swerl coffee", "name:sv": "Swerl coffee", "opening_hours": "Sa-Mo 10:00-15:00", "website": "https://swerl.se/"}}, {"type": "node", "id": 9885763804, "lat": 56.9033568, "lon": 12.4919911, "tags": {"addr:city": "Falkenberg", "addr:country": "SE", "addr:housenumber": "35", "addr:postcode": "31131", "addr:street": "Storgatan", "amenity": "restaurant", "cuisine": "burger", "name": "Br\u00f6dernas", "phone": "+46 346 102 42"}}, {"type": "node", "id": 9935454258, "lat": 56.9309319, "lon": 12.3591005, "tags": {"amenity": "cafe", "name": "Annies Stuga", "opening_hours": "Th, Fr 13:00-18:00; Sa, Su 11:00-16:00", "phone": "+46706405771", "website": "https://anniesstuga.se/"}}, {"type": "node", "id": 9935669090, "lat": 57.063115, "lon": 12.3519167, "tags": {"amenity": "restaurant", "name": "Bj\u00f6rk\u00e4ng V\u00e4gkrog"}}, {"type": "node", "id": 9937682598, "lat": 57.0599776, "lon": 12.2746116, "tags": {"addr:city": "Tr\u00e4sl\u00f6vsl\u00e4ge", "addr:country": "SE", "addr:housenumber": "134B", "addr:postcode": "432 75", "addr:street": "Strandbackav\u00e4gen", "amenity": "cafe", "name": "Kaffeboden"}}, {"type": "node", "id": 9937682601, "lat": 57.0573994, "lon": 12.2704424, "tags": {"addr:city": "Tr\u00e4sl\u00f6vsl\u00e4ge", "addr:country": "SE", "addr:housenumber": "2", "addr:postcode": "432 75", "addr:street": "Fiskehamnsv\u00e4gen", "amenity": "restaurant", "name": "Joels Brygga"}}, {"type": "node", "id": 10184888299, "lat": 57.2391198, "lon": 12.3088695}, {"type": "node", "id": 10243294926, "lat": 56.9069725, "lon": 12.487159}, {"type": "node", "id": 10243294927, "lat": 56.9071356, "lon": 12.4868894}, {"type": "node", "id": 10243294928, "lat": 56.9071361, "lon": 12.4868605}, {"type": "node", "id": 10289604564, "lat": 57.0687199, "lon": 12.5052666, "tags": {"addr:street": "Hunnestad", "amenity": "cafe", "entrance": "yes", "internet_access": "wlan", "outdoor_seating": "yes", "takeaway": "yes", "toilets": "yes", "wheelchair": "limited"}}, {"type": "node", "id": 11025372699, "lat": 56.8758401, "lon": 12.569501, "tags": {"amenity": "cafe", "changing_table": "no", "indoor_seating": "yes", "kids_area": "no", "kids_area:indoor": "no", "kids_area:outdoor": "no", "level": "0", "name": "Kull\u00e4ngs P\u00e5t\u00e5r", "outdoor_seating": "yes", "payment:swish": "yes", "reservation": "no", "smoking": "no", "takeaway": "yes", "toilets": "yes", "toilets:access": "customers", "toilets:wheelchair": "limited", "wheelchair": "limited"}}, {"type": "node", "id": 11030545079, "lat": 57.0576558, "lon": 12.4246785}, {"type": "node", "id": 11030582424, "lat": 57.0574846, "lon": 12.4247059}, {"type": "node", "id": 11030582433, "lat": 57.0575452, "lon": 12.424541}, {"type": "node", "id": 11030582438, "lat": 57.057517, "lon": 12.4246179, "tags": {"access": "customers", "entrance": "main"}}, {"type": "node", "id": 11030582439, "lat": 57.0575952, "lon": 12.4248434}, {"type": "node", "id": 11030582441, "lat": 57.0575396, "lon": 12.4247742}, {"type": "node", "id": 11030582467, "lat": 57.0576156, "lon": 12.4246275}, {"type": "node", "id": 11030582486, "lat": 57.0575704, "lon": 12.4248125}, {"type": "node", "id": 11030633378, "lat": 57.0575047, "lon": 12.4246513}, {"type": "node", "id": 11030633384, "lat": 57.0575809, "lon": 12.4245849}, {"type": "node", "id": 11117025965, "lat": 56.9028197, "lon": 12.4929856, "tags": {"addr:country": "SE", "addr:housenumber": "1", "addr:street": "Brogatan", "amenity": "restaurant", "check_date": "2023-08-15", "name": "Restaurang Gustaf Bratt", "opening_hours": "Mo,Su off; Tu 18:00-22:00; We-Th 18:00-23:00; Fr 16:00-01:00; Sa 16:00-03:00", "payment:mastercard": "yes", "payment:visa": "yes", "website": "https://www.gustafbratt.se/"}}, {"type": "node", "id": 11135770370, "lat": 57.0645673, "lon": 12.5555471}, {"type": "node", "id": 11135770371, "lat": 57.0646373, "lon": 12.5553339}, {"type": "node", "id": 11135770372, "lat": 57.0649091, "lon": 12.555636}, {"type": "node", "id": 11135770373, "lat": 57.064839, "lon": 12.5558493}, {"type": "node", "id": 11165586700, "lat": 57.1670133, "lon": 12.2795541, "tags": {"addr:city": "Varberg", "amenity": "restaurant", "brand:wikidata": "Q104631081", "cuisine": "asian", "name": "ChopChop", "website": "https://chopchop.se/"}}, {"type": "way", "id": 147163009, "nodes": [1603769668, 1603769666, 1603769727, 1603769742, 1603769747, 1603769753, 1603769744, 1603769752, 8914368901, 8914368900, 8914368899, 1876258633, 1603769649, 8914368903, 8914368902, 1603769644, 8914368904, 8914368905, 1603769668], "tags": {"addr:city": "Varberg", "addr:country": "SE", "addr:housenumber": "1", "addr:postcode": "432 54", "addr:street": "T\u00e5ngk\u00f6rarv\u00e4gen", "amenity": "restaurant", "building": "yes", "cuisine": "pizza;international", "name": "Restaurang Solviken", "phone": "+46340641313", "website": "https://www.apelviken.se/solviken"}}, {"type": "way", "id": 220488942, "nodes": [2295993887, 2295993888, 2295993889, 2295993890, 2295993891, 2295993892, 4954121589, 2295993887], "tags": {"amenity": "restaurant", "building": "yes", "cuisine": "regional", "name": "Restaurang Monark", "website": "https://www.restaurangmonark.se/"}}, {"type": "way", "id": 336648762, "nodes": [3437004254, 3437004255, 3437004256, 3437004257, 3437004258, 3437004259, 3437004254], "tags": {"amenity": "restaurant", "building": "yes"}}, {"type": "way", "id": 336661526, "nodes": [3437170484, 3437170485, 3437170486, 3437170487, 3437170484], "tags": {"addr:city": "Bua", "addr:country": "SE", "addr:housenumber": "1", "addr:street": "Buav\u00e4gen", "alt_name": "Marina Baren", "amenity": "restaurant", "building": "yes", "name": "Restaurang Marina"}}, {"type": "way", "id": 336666381, "nodes": [3437218418, 3437218420, 3437218421, 9712376799, 9712376800, 9712376801, 3437218418], "tags": {"amenity": "restaurant", "building": "yes"}}, {"type": "way", "id": 336668629, "nodes": [3437233247, 3437233252, 3437233240, 3437233250, 3437233249, 3437233253, 3437233251, 3437233245, 3437233246, 3437233248, 3437233242, 1876258642, 3437233244, 8989838597, 3437233241, 3437233239, 3437233238, 3437233247], "tags": {"amenity": "restaurant", "building": "yes", "cuisine": "steak_house", "name": "Johns Place"}}, {"type": "way", "id": 336668630, "nodes": [3437233254, 3437233255, 1876258637, 3437233257, 3437233258, 3437233259, 3437233260, 3437233261, 3437233254], "tags": {"amenity": "restaurant", "building": "yes", "name": "Majas vid Havet"}}, {"type": "way", "id": 336668634, "nodes": [3437233284, 8912341193, 8912341192, 3437233285, 8912270186, 8912341191, 8912270188, 8912270189, 8912270191, 8912270183, 8912270185, 8912270184, 8912270192, 3437233287, 3437233289, 3437233290, 3437233291, 3437233284], "tags": {"addr:city": "Tr\u00e4sl\u00f6vsl\u00e4ge", "addr:country": "SE", "addr:housenumber": "2", "addr:postcode": "432 75", "addr:street": "Fiskehamnsv\u00e4gen", "amenity": "restaurant", "building": "yes"}}, {"type": "way", "id": 336669547, "nodes": [3437249769, 3507798250, 3507798249, 3437249770, 3507798245, 3507798247, 3507798248, 3507798246, 3437249771, 3507798251, 3437249772, 3437249773, 3437249769], "tags": {"amenity": "restaurant", "building": "yes", "name": "Hatta Viken"}}, {"type": "way", "id": 336669549, "nodes": [3437249782, 3437249783, 3437249784, 3437249785, 3437249786, 3437249782], "tags": {"amenity": "restaurant", "building": "yes"}}, {"type": "way", "id": 366099379, "nodes": [3700881820, 3700881818, 5419186014, 6928712326, 5419186013, 3700881819, 5419186012, 3700881821, 3700881822, 3700881823, 3700881824, 6928712330, 3700881820], "tags": {"amenity": "restaurant", "building": "yes", "name": "Ocean Bar & Grill"}}, {"type": "way", "id": 514555498, "nodes": [6646812691, 5026772789, 5026772786, 6646812690, 6646812691], "tags": {"amenity": "restaurant", "building": "yes", "name": "Sibylla"}}, {"type": "way", "id": 607982331, "nodes": [5760824104, 5760824105, 5760824106, 5760824107, 5760824104], "tags": {"amenity": "restaurant", "building": "yes", "name": "Valencias pizzeria & restaurang"}}, {"type": "way", "id": 610645682, "nodes": [5783013058, 10243294928, 10243294927, 5783013059, 5783013060, 10243294926, 1707318082, 5783013061, 5783013058], "tags": {"amenity": "cafe", "building": "yes", "name": "St\u00e5lboms", "website": "https://stalboms.se/", "wheelchair": "yes"}}, {"type": "way", "id": 871857332, "nodes": [8120673065, 8120673066, 8120673067, 8120673068, 8120673069, 8120673070, 8120673071, 8120673072, 8120673073, 8120673074, 8120673075, 8120673076, 8120673077, 8120673078, 8120673079, 8120673080, 8120673065], "tags": {"amenity": "restaurant", "building": "yes", "cuisine": "burger;breakfast;tex-mex", "name": "Nisses Bodega", "phone": "+46340641315", "website": "https://www.apelviken.se/nisses-bodega"}}, {"type": "way", "id": 875652873, "nodes": [8150340910, 8150340911, 8150340912, 6053553930, 8150340910], "tags": {"addr:city": "Mj\u00f6b\u00e4ck", "addr:country": "SE", "addr:housenumber": "7", "addr:postcode": "51265", "addr:street": "\u00d6xab\u00e4cksv\u00e4gen", "amenity": "restaurant", "building": "yes", "cuisine": "burger;pizza", "name": "Mj\u00f6b\u00e4cksbaren Du & Jag", "opening_hours": "Mo 11:00-14:00, Tu-Fr 11:00-20:00, Sa-Su 12:00-20:00", "phone": "+46325-344 44"}}, {"type": "way", "id": 963480008, "nodes": [8912280432, 8912280433, 6126850279, 8912280431, 8912221402, 8912221403, 8912280432], "tags": {"addr:city": "Tr\u00e4sl\u00f6vsl\u00e4ge", "addr:country": "SE", "addr:housenumber": "124", "addr:postcode": "432 75", "addr:street": "Strandbackav\u00e4gen", "amenity": "restaurant", "building": "yes", "cuisine": "pizza", "internet_access": "wlan", "min_age": "0", "name": "L\u00e4jets Krog & Pizzeria", "opening_hours": "Mo-Sa 11:00-24:00; Su 12:00-21:00", "phone": "+46 340-67 00 33", "reservation": "yes", "takeaway": "yes", "website": "https://www.lajetskrog.se"}}, {"type": "way", "id": 969495611, "nodes": [8933344712, 8971734147, 8971734148, 8971734149, 8933344712], "tags": {"amenity": "cafe", "building": "yes", "name": "Jippies Veranda", "outdoor_seating": "yes"}}, {"type": "way", "id": 969495631, "nodes": [8971734321, 8971734330, 8971734329, 8971734324, 8933344713, 8971734332, 8971734333, 8971734334, 8971734323, 8971734331, 8971734328, 8971734327, 8971734322, 8971734326, 8971734325, 8971734321], "tags": {"amenity": "restaurant", "building": "yes", "name": "Fridas Restaurang"}}, {"type": "way", "id": 977576644, "nodes": [9045579418, 9045481612, 9045579417, 9045481607, 9045579418], "tags": {"addr:city": "Tr\u00e4sl\u00f6vsl\u00e4ge", "addr:country": "SE", "addr:housenumber": "134B", "addr:postcode": "432 75", "addr:street": "Strandbackav\u00e4gen", "amenity": "cafe", "building": "yes", "indoor_seating": "no", "outdoor_seating": "yes"}}, {"type": "way", "id": 977646242, "nodes": [9046139515, 9046139516, 9046296717, 9046296718, 9046139515], "tags": {"addr:city": "Mj\u00f6b\u00e4ck", "addr:country": "SE", "addr:housenumber": "2", "addr:postcode": "51265", "addr:street": "Lindsbo", "amenity": "cafe", "building": "yes", "name": "Caf\u00e9 Tostatorpet", "outdoor_seating": "yes", "phone": "+46706757070", "website": "https://www.facebook.com/caf%C3%A9-tostatorpet-291881947916528/"}}, {"type": "way", "id": 1024750305, "nodes": [9449166613, 9449166612, 9449166611, 9449166610, 9449166609, 1834988214, 9449166608, 9449166607, 9449166606, 9449166605, 9449166604, 9449166603, 9449166602, 9449166601, 9449166600, 9449166599, 9449166598, 9449166597, 9449166596, 9449166595, 9449166594, 9449166593, 9449166592, 9449166613], "tags": {"addr:city": "V\u00e4r\u00f6backa", "addr:place": "Ringhals K\u00e4rnkraftverk", "addr:postcode": "432 85", "amenity": "restaurant", "contact:phone": "+46 340 66 83 93", "name": "Restaurang Kantarellen"}}, {"type": "way", "id": 1067588289, "nodes": [9801556421, 9801556422, 9801556423, 10184888299, 9801556421], "tags": {"amenity": "cafe", "building": "yes", "contact:facebook": "https://www.facebook.com/gardenvidbron/", "contact:website": "https://www.gardenvidbron.se/", "name": "G\u00e5rden bid bron", "old_name": "\u00c5sbro G\u00e4stgiveri"}}, {"type": "way", "id": 1187900602, "nodes": [11030582424, 11030582441, 11030582486, 11030582439, 11030545079, 11030582467, 11030633384, 11030582433, 11030582438, 11030633378, 11030582424], "tags": {"amenity": "cafe", "building": "yes", "name": "Str\u00f6mma Kvarn"}}, {"type": "way", "id": 1201028421, "nodes": [11135770370, 11135770371, 11135770372, 11135770373, 11135770370], "tags": {"amenity": "restaurant", "building": "yes", "name": "\u00c4ng"}}]}