{"version": 0.6, "generator": "Overpass API 0.7.61.5 4133829e", "osm3s": {"timestamp_osm_base": "2024-03-14T21:59:00Z", "copyright": "The data included in this document is from www.openstreetmap.org. The data is made available under ODbL."}, "elements": [{"type": "node", "id": 769342011, "lat": 58.3333392, "lon": 12.6105604, "tags": {"amenity": "restaurant", "name": "V\u00e4rdshuset Tre \u00c4lgar"}}, {"type": "node", "id": 974356122, "lat": 58.3190058, "lon": 12.2721882, "tags": {"amenity": "restaurant", "cuisine": "pizza;burger", "name": "Skogsh\u00f6jdens pizzeria"}}, {"type": "node", "id": 1316878017, "lat": 58.3470985, "lon": 12.4303394, "tags": {"amenity": "cafe"}}, {"type": "node", "id": 1363421716, "lat": 58.563414, "lon": 12.367136, "tags": {"amenity": "cafe", "name": "Gula Huset", "opening_hours": "Tu-Su 10:00-18:00"}}, {"type": "node", "id": 1639748055, "lat": 58.289727, "lon": 12.275734}, {"type": "node", "id": 1639748058, "lat": 58.2898007, "lon": 12.2758329}, {"type": "node", "id": 1639748072, "lat": 58.2896806, "lon": 12.275859}, {"type": "node", "id": 1639748073, "lat": 58.2897543, "lon": 12.2759579}, {"type": "node", "id": 1696327310, "lat": 58.2870526, "lon": 12.2900288}, {"type": "node", "id": 1696327317, "lat": 58.2869356, "lon": 12.2899271}, {"type": "node", "id": 1696327321, "lat": 58.2869034, "lon": 12.2900043}, {"type": "node", "id": 1696327326, "lat": 58.2869092, "lon": 12.2901996}, {"type": "node", "id": 1696327332, "lat": 58.2869569, "lon": 12.290085}, {"type": "node", "id": 1696327334, "lat": 58.2869309, "lon": 12.2903208}, {"type": "node", "id": 1801974683, "lat": 58.379476, "lon": 12.322275, "tags": {"amenity": "cafe", "name": "Cafe Cult", "wheelchair": "yes"}}, {"type": "node", "id": 1801974686, "lat": 58.3814162, "lon": 12.3246727, "tags": {"amenity": "restaurant", "cuisine": "chinese", "name": "China", "opening_hours": "Tu-Th 11:00-22:00; Fr 11:00-23:00; Sa 12:00-23:00; PH,Su 12:00-22:00"}}, {"type": "node", "id": 1801974775, "lat": 58.3783145, "lon": 12.3217764, "tags": {"amenity": "restaurant", "cuisine": "italian", "name": "Italia"}}, {"type": "node", "id": 1801974803, "lat": 58.3791962, "lon": 12.3220779, "tags": {"amenity": "cafe", "name": "Nordfeldts"}}, {"type": "node", "id": 1801974807, "lat": 58.3814548, "lon": 12.3244021, "tags": {"amenity": "restaurant", "cuisine": "pizza", "name": "Pizza Amigo", "opening_hours": "Mo-Th 11:00-21:30; Fr,Sa 11:00-22:00; Su 12:00-21:00"}}, {"type": "node", "id": 1954486740, "lat": 58.2843429, "lon": 12.2897652, "tags": {"addr:city": "Trollh\u00e4ttan", "addr:country": "SE", "addr:housenumber": "36", "addr:street": "Kungsgatan", "amenity": "restaurant", "cuisine": "american", "name": "Boston Grill", "phone": "+46520448090", "website": "https://bostongrill.com/trollhattan/"}}, {"type": "node", "id": 1954491055, "lat": 58.2825961, "lon": 12.2885545, "tags": {"amenity": "restaurant", "cuisine": "american", "name": "Buddy's", "sport": "10pin", "wheelchair": "limited"}}, {"type": "node", "id": 1955897390, "lat": 58.274963, "lon": 12.2893296, "tags": {"addr:country": "SE", "addr:housenumber": "76", "addr:street": "Hjortmossegatan", "amenity": "restaurant", "cuisine": "pizza", "name": "Pizzeria Rozzana"}}, {"type": "node", "id": 1955900295, "lat": 58.2827625, "lon": 12.2878949, "tags": {"amenity": "cafe", "name": "Caf\u00e9 de la Creme"}}, {"type": "node", "id": 1955900296, "lat": 58.282647, "lon": 12.2883187, "tags": {"amenity": "restaurant", "name": "New Place"}}, {"type": "node", "id": 1969730874, "lat": 58.2851884, "lon": 12.2912216, "tags": {"amenity": "cafe", "brand": "Espresso House", "brand:wikidata": "Q10489162", "brand:wikipedia": "sv:Espresso House", "cuisine": "coffee_shop", "name": "Espresso House", "takeaway": "yes"}}, {"type": "node", "id": 1970886326, "lat": 58.2852306, "lon": 12.2852695}, {"type": "node", "id": 1970886329, "lat": 58.2851785, "lon": 12.2854208}, {"type": "node", "id": 1970886352, "lat": 58.2854415, "lon": 12.2855323}, {"type": "node", "id": 1970886356, "lat": 58.2853787, "lon": 12.285678}, {"type": "node", "id": 1979317932, "lat": 58.3123489, "lon": 12.306161, "tags": {"amenity": "cafe", "brand": "Espresso House", "brand:wikidata": "Q10489162", "brand:wikipedia": "sv:Espresso House", "cuisine": "coffee_shop", "name": "Espresso House", "takeaway": "yes"}}, {"type": "node", "id": 2384405204, "lat": 58.3549026, "lon": 12.3867968, "tags": {"addr:city": "Varg\u00f6n", "addr:country": "SE", "addr:housenumber": "18", "addr:postcode": "46830", "addr:street": "Parkv\u00e4gen", "amenity": "restaurant", "contact:email": "info@ronnum.se", "contact:phone": "+46 521-26 00 00", "contact:website": "https://ligula.se/ronnums-restaurang", "cuisine": "regional;international", "internet_access": "wlan", "name": "Ronnums Herrg\u00e5rds restaurang", "opening_hours": "Mo-Fr 11:30-14:00, Mo-Sa 17:00-21:00", "outdoor_seating": "yes"}}, {"type": "node", "id": 2385256123, "lat": 58.3409156, "lon": 12.3516564, "tags": {"amenity": "cafe", "cuisine": "ice_cream", "name": "Slusskafet"}}, {"type": "node", "id": 2756441448, "lat": 58.3842269, "lon": 12.7872254, "tags": {"addr:city": "Gr\u00e4storp", "addr:country": "SE", "addr:housenumber": "3", "addr:postcode": "467 91", "addr:street": "H\u00e5le Stommen", "amenity": "cafe", "cuisine": "glass", "internet_access": "no", "name": "M\u00e4jens glass", "smoking": "outside"}}, {"type": "node", "id": 3195481934, "lat": 58.2879555, "lon": 12.3073136}, {"type": "node", "id": 3197271607, "lat": 58.2855764, "lon": 12.288909, "tags": {"amenity": "restaurant", "cuisine": "indian", "name": "India Palace"}}, {"type": "node", "id": 3198815321, "lat": 58.284041, "lon": 12.289338, "tags": {"addr:city": "Trollh\u00e4ttan", "addr:country": "SE", "addr:housenumber": "14", "addr:postcode": "46130", "addr:street": "F\u00f6reningsgatan", "amenity": "restaurant", "cuisine": "western", "name": "Savoy", "phone": "+46520294400", "website": "https://savoy-thn.se/"}}, {"type": "node", "id": 3198815323, "lat": 58.2861513, "lon": 12.2925817, "tags": {"amenity": "restaurant", "cuisine": "greek", "name": "Resturang Akropolis"}}, {"type": "node", "id": 3198815337, "lat": 58.2841947, "lon": 12.2894733, "tags": {"addr:city": "Trollh\u00e4ttan", "addr:country": "SE", "addr:housenumber": "38", "addr:postcode": "46130", "addr:street": "Kungsgatan", "amenity": "restaurant", "cuisine": "italian", "name": "Nonno Antonio", "phone": "+4652010119", "website": "https://www.nonnoantonio.se/"}}, {"type": "node", "id": 3198815338, "lat": 58.2856732, "lon": 12.2918029, "tags": {"amenity": "restaurant", "name": "Rockbar Backstage"}}, {"type": "node", "id": 3198815345, "lat": 58.2838757, "lon": 12.2897181, "tags": {"addr:city": "Trollh\u00e4ttan", "addr:country": "SE", "addr:housenumber": "16", "addr:street": "F\u00f6reningsgatan", "amenity": "cafe", "cuisine": "salad;pasta;cake", "indoor_seating": "yes", "name": "Royal Caf\u00e9", "outdoor_seating": "yes", "phone": "+46762882037"}}, {"type": "node", "id": 3198815348, "lat": 58.2852696, "lon": 12.2897752, "tags": {"addr:country": "SE", "addr:housenumber": "13", "addr:street": "Spannm\u00e5lsgatan", "amenity": "nightclub", "name": "Butler's"}}, {"type": "node", "id": 3198815349, "lat": 58.2849877, "lon": 12.2884721, "tags": {"amenity": "cafe", "name": "caf\u00e9 Baggis"}}, {"type": "node", "id": 3367858804, "lat": 58.2863072, "lon": 12.2907539, "tags": {"amenity": "restaurant", "name": "Bacchus"}}, {"type": "node", "id": 3367858805, "lat": 58.2870011, "lon": 12.2899936, "tags": {"amenity": "cafe", "name": "Caf\u00e9 Gillet"}}, {"type": "node", "id": 3367860627, "lat": 58.2853748, "lon": 12.286816, "tags": {"addr:city": "Trollh\u00e4ttan", "addr:street": "Storgatan", "amenity": "restaurant", "name": "Mamma Mia"}}, {"type": "node", "id": 3367861897, "lat": 58.2838037, "lon": 12.2880378, "tags": {"addr:city": "Trollh\u00e4ttan", "addr:country": "SE", "addr:housenumber": "49A", "addr:postcode": "46130", "addr:street": "Kungsgatan", "amenity": "restaurant", "name": "Brasseriet"}}, {"type": "node", "id": 3367861898, "lat": 58.2843706, "lon": 12.2889621, "tags": {"amenity": "restaurant", "cuisine": "tapas", "name": "Pasion"}}, {"type": "node", "id": 3428138059, "lat": 58.2829578, "lon": 12.3016329, "tags": {"amenity": "restaurant", "cuisine": "pizza", "name": "Tingvalla Pizzeria", "takeaway": "yes"}}, {"type": "node", "id": 3752028136, "lat": 58.3563574, "lon": 12.3880612, "tags": {"addr:street": "Nybrov\u00e4gen", "amenity": "restaurant", "contact:phone": "+46521223511", "name": "Pizzeria Viking", "opening_hours": "Mo-Fr 11:00-22:00; Sa,Su 13:00-22:00"}}, {"type": "node", "id": 4052970598, "lat": 58.3889407, "lon": 12.1677965, "tags": {"amenity": "cafe", "name": "Spekeruds G\u00e5rdsbageri"}}, {"type": "node", "id": 4101219241, "lat": 58.3830913, "lon": 12.3085743, "tags": {"addr:street": "Bl\u00e5sut-Vassbotten", "amenity": "cafe", "cuisine": "sandwich;coffee_shop", "name": "Skogshyddans Caf\u00e9", "opening_hours": "Mo-Su 11:00-20:00"}}, {"type": "node", "id": 4228786082, "lat": 58.5962016, "lon": 12.5930566}, {"type": "node", "id": 4228786083, "lat": 58.5962024, "lon": 12.5929004}, {"type": "node", "id": 4228786084, "lat": 58.5962142, "lon": 12.5929006}, {"type": "node", "id": 4228786085, "lat": 58.5962143, "lon": 12.5928726}, {"type": "node", "id": 4228786087, "lat": 58.5962606, "lon": 12.5929072}, {"type": "node", "id": 4228786088, "lat": 58.5962608, "lon": 12.5928734}, {"type": "node", "id": 4228786089, "lat": 58.5962986, "lon": 12.5930582}, {"type": "node", "id": 4228786090, "lat": 58.5962993, "lon": 12.5929078}, {"type": "node", "id": 4335469701, "lat": 58.3334113, "lon": 12.6791804, "tags": {"amenity": "restaurant", "cuisine": "burger;coffee_shop;kebab;sausage;sandwich;hot_dog", "name": "Gr\u00e4storps gatuk\u00f6k", "opening_hours": "Mo-Su 10:00-21:00"}}, {"type": "node", "id": 4401290978, "lat": 58.3851487, "lon": 12.3290448}, {"type": "node", "id": 4401290979, "lat": 58.3852398, "lon": 12.3291181}, {"type": "node", "id": 4401290980, "lat": 58.3851818, "lon": 12.3293809}, {"type": "node", "id": 4401290981, "lat": 58.3850906, "lon": 12.3293076}, {"type": "node", "id": 4423937033, "lat": 58.4931248, "lon": 12.434261, "tags": {"amenity": "restaurant"}}, {"type": "node", "id": 4505090196, "lat": 58.3556179, "lon": 12.3904352, "tags": {"amenity": "restaurant", "name": "Rimini"}}, {"type": "node", "id": 4505126489, "lat": 58.37881, "lon": 12.3221738, "tags": {"amenity": "restaurant", "name": "Phaja Thai by Siri"}}, {"type": "node", "id": 4511023693, "lat": 58.2864434, "lon": 12.2946573, "tags": {"amenity": "restaurant", "name": "Shangai"}}, {"type": "node", "id": 4511035189, "lat": 58.2833421, "lon": 12.2859252, "tags": {"amenity": "bar"}}, {"type": "node", "id": 4511125190, "lat": 58.2848624, "lon": 12.2878251, "tags": {"amenity": "restaurant", "name": "Sushi Mikko"}}, {"type": "node", "id": 4511154989, "lat": 58.2860971, "lon": 12.2943033, "tags": {"amenity": "restaurant", "name": "Phasa Thai"}}, {"type": "node", "id": 4515765890, "lat": 58.3793078, "lon": 12.3221425, "tags": {"amenity": "cafe", "name": "Nordfeldts", "name:sv": "Nordfeldts"}}, {"type": "node", "id": 4515796991, "lat": 58.3796337, "lon": 12.3227508, "tags": {"amenity": "cafe", "diet:vegetarian": "yes", "indoor_seating": "yes", "name": "Espresso House", "opening_hours": "Mo-Fr 08:00-19:00; Sa 09:00-18:00; Su 10:00-18:00", "outdoor_seating": "yes", "wheelchair": "yes"}}, {"type": "node", "id": 4517820095, "lat": 58.3794128, "lon": 12.3236824, "tags": {"amenity": "restaurant", "name": "CyrAno"}}, {"type": "node", "id": 4520817390, "lat": 58.363932, "lon": 12.3546471, "tags": {"amenity": "restaurant", "name": "La Vacca Pizzeria"}}, {"type": "node", "id": 4675717241, "lat": 58.3803477, "lon": 12.3200553, "tags": {"addr:city": "V\u00e4nersborg", "addr:country": "SE", "addr:housenumber": "13", "addr:postcode": "46233", "addr:street": "Hamngatan", "amenity": "restaurant", "name": "Restaurang Koppargrillen", "opening_hours": "Mo-Tu 11:30-21:00; We-Th 11:30-22:00; Fr 11:30-23:00; Sa 12:00-23:00; Su 12:00-21:00", "phone": "+46 521 181 51", "source": "survey", "website": "http://www.koppargrillen.se"}}, {"type": "node", "id": 4849490360, "lat": 58.3629964, "lon": 12.3554781, "tags": {"amenity": "restaurant", "name": "Pizzeria Bruks"}}, {"type": "node", "id": 4914218436, "lat": 58.3807119, "lon": 12.3202743, "tags": {"amenity": "restaurant", "indoor_seating": "yes", "name": "Hamngatan Cafe\u00b4Pub Restaurang", "outdoor_seating": "yes", "wheelchair": "yes"}}, {"type": "node", "id": 4914218437, "lat": 58.3810223, "lon": 12.3205169, "tags": {"amenity": "cafe", "indoor_seating": "yes", "name": "Sessan", "outdoor_seating": "yes"}}, {"type": "node", "id": 4962218821, "lat": 58.2591952, "lon": 12.2837493, "tags": {"amenity": "restaurant", "name": "Hugin pizza"}}, {"type": "node", "id": 5781485044, "lat": 58.288068, "lon": 12.3071899}, {"type": "node", "id": 5781485045, "lat": 58.2880697, "lon": 12.3074246}, {"type": "node", "id": 5781485046, "lat": 58.2879776, "lon": 12.307427}, {"type": "node", "id": 5781485047, "lat": 58.2879133, "lon": 12.3073142}, {"type": "node", "id": 5781485048, "lat": 58.2879552, "lon": 12.3072073}, {"type": "node", "id": 5827812995, "lat": 58.4165297, "lon": 12.3264552}, {"type": "node", "id": 5827812996, "lat": 58.416585, "lon": 12.3262527}, {"type": "node", "id": 5827812997, "lat": 58.4167935, "lon": 12.3264308}, {"type": "node", "id": 5827812998, "lat": 58.4167901, "lon": 12.3265646}, {"type": "node", "id": 6328839517, "lat": 58.2857544, "lon": 12.2918981, "tags": {"amenity": "restaurant", "cuisine": "thai", "name": "Thai Palace"}}, {"type": "node", "id": 6504509617, "lat": 58.2989528, "lon": 12.317489}, {"type": "node", "id": 6504509618, "lat": 58.2987041, "lon": 12.3172394}, {"type": "node", "id": 6504509619, "lat": 58.2986182, "lon": 12.3175492}, {"type": "node", "id": 6504509620, "lat": 58.298867, "lon": 12.3177988}, {"type": "node", "id": 6608894411, "lat": 58.2856391, "lon": 12.287764, "tags": {"amenity": "restaurant", "name": "Pinchos"}}, {"type": "node", "id": 6608894412, "lat": 58.2859582, "lon": 12.2862112, "tags": {"amenity": "restaurant", "indoor_seating": "yes", "name": "Hamnmagasinet", "outdoor_seating": "yes"}}, {"type": "node", "id": 6827318823, "lat": 58.2875486, "lon": 12.2952487, "tags": {"addr:city": "Trollh\u00e4ttan", "addr:country": "SE", "addr:housenumber": "18", "addr:street": "J\u00e4rnv\u00e4gsgatan", "amenity": "cafe", "name": "Greek Pastry Factory", "outdoor_seating": "yes"}}, {"type": "node", "id": 9067929285, "lat": 58.379029, "lon": 12.2931216, "tags": {"addr:city": "V\u00e4nersborg", "addr:country": "SE", "addr:housenumber": "8", "addr:postcode": "462 60", "addr:street": "Duellv\u00e4gen", "amenity": "restaurant", "cuisine": "pizza", "name": "Bella Pizzeria", "phone": "+4652117770", "website": "https://pizzabella.se/"}}, {"type": "node", "id": 9067976478, "lat": 58.3812135, "lon": 12.304632}, {"type": "node", "id": 9067976479, "lat": 58.3811115, "lon": 12.3048195}, {"type": "node", "id": 9067976480, "lat": 58.3811618, "lon": 12.304919}, {"type": "node", "id": 9067976481, "lat": 58.3812637, "lon": 12.3047316}, {"type": "node", "id": 9916875519, "lat": 58.2850205, "lon": 12.2869106, "tags": {"addr:country": "SE", "addr:housenumber": "6", "addr:street": "F\u00f6reningsgatan", "amenity": "restaurant", "cuisine": "thai", "name": "Muang Thai"}}, {"type": "node", "id": 9931252979, "lat": 58.2869768, "lon": 12.2899145}, {"type": "node", "id": 9931252980, "lat": 58.2869577, "lon": 12.2899604}, {"type": "node", "id": 9931252981, "lat": 58.2868947, "lon": 12.2901777}, {"type": "node", "id": 9931252982, "lat": 58.286872, "lon": 12.290232}, {"type": "node", "id": 10984637393, "lat": 58.284311, "lon": 12.2847511, "tags": {"amenity": "restaurant"}}, {"type": "node", "id": 11018841460, "lat": 58.2832868, "lon": 12.2884678, "tags": {"addr:city": "Trollh\u00e4ttan", "addr:country": "SE", "addr:housenumber": "1", "addr:postcode": "46130", "addr:street": "Drottninggatan", "amenity": "restaurant", "bar": "yes", "cuisine": "pizza;salad;dessert;european;surdegspizza;bowls", "highchair": "yes", "name": "Sour Caf\u00e9 & Bar", "outdoor_seating": "yes", "payment:account_cards": "yes", "payment:cards": "yes", "payment:credit_cards": "yes", "payment:maestro": "yes", "payment:swish": "yes", "phone": "0520447171", "toilets": "yes", "website": "https://www.sourcafe.se/", "wheelchair": "yes"}}, {"type": "node", "id": 11018841461, "lat": 58.2832943, "lon": 12.2886435, "tags": {"addr:city": "Trollh\u00e4ttan", "addr:country": "SE", "addr:housenumber": "1", "addr:postcode": "46130", "addr:street": "Drottninggatan", "amenity": "cafe", "cuisine": "sandwich;ice_cream;cake;chocolate;dessert;coffee_shop;coffee;tea;paj;surdegsbullar", "highchair": "yes", "internet_access": "yes", "internet_access:fee": "customers", "name": "Godhem", "outdoor_seating": "yes", "phone": "0520447171", "toilets": "yes", "website": "https://www.godhem.se/", "wheelchair": "yes"}}, {"type": "node", "id": 11097550505, "lat": 58.3803457, "lon": 12.3217282, "tags": {"addr:country": "SE", "addr:housenumber": "4C", "addr:postcode": "462 33", "amenity": "restaurant", "name": "Sushi Ro", "opening_hours": "Mo-Sa 11:00-21:00", "website": "https://www.sushiro.se"}}, {"type": "node", "id": 11109494568, "lat": 58.3799638, "lon": 12.3230305, "tags": {"amenity": "restaurant", "cuisine": "indian", "diet:vegetarian": "yes", "indoor_seating": "yes", "name": "India Palace", "opening_hours": "Mo-Th 11:00-21:00; Fr 11:00-21:30; Sa 13:00-21:00; Su 13:00-20:30", "outdoor_seating": "pedestrian_zone", "phone": "052117450", "website": "https://www.indiapalacevanersborg.se"}}, {"type": "node", "id": 11113785688, "lat": 58.4167049, "lon": 12.3264935}, {"type": "node", "id": 11113785689, "lat": 58.416693, "lon": 12.3265737}, {"type": "node", "id": 11113785690, "lat": 58.4167155, "lon": 12.3267313}, {"type": "node", "id": 11113785691, "lat": 58.4166524, "lon": 12.3267297}, {"type": "node", "id": 11113785692, "lat": 58.4166231, "lon": 12.3265387}, {"type": "node", "id": 11195707603, "lat": 58.2873668, "lon": 12.2947576, "tags": {"addr:country": "SE", "addr:housenumber": "15", "addr:street": "J\u00e4rnv\u00e4gsgatan", "amenity": "restaurant", "contact:facebook": "https://www.facebook.com/profile.php?id=100087335504695", "cuisine": "asian", "diet:vegan": "yes", "indoor_seating": "yes", "name": "Asia Corner", "opening_hours": "Sa 12:00-20:00; Mo-Fr 11:00-20:00", "phone": "+46-520 333 44", "takeaway": "yes"}}, {"type": "node", "id": 11195720521, "lat": 58.2874699, "lon": 12.2946259, "tags": {"amenity": "cafe", "contact:facebook": "https://www.facebook.com/Bobahousethn", "cuisine": "bubble_tea", "diet:vegan": "yes", "name": "Boba House", "opening_hours": "Mo-Fr 11:00-20:00; Sa 12:00-20:00", "takeaway": "yes"}}, {"type": "node", "id": 11195761091, "lat": 58.2853839, "lon": 12.2872726, "tags": {"amenity": "cafe", "contact:facebook": "https://www.facebook.com/profile.php?id=100063570734240", "name": "Mejeriet kaf\u00e9 & skafferi", "opening_hours": "Mo-Fr 11:00-20:00; Sa, Su 11:00-18:00"}}, {"type": "node", "id": 11195946046, "lat": 58.2878616, "lon": 12.2855229, "tags": {"amenity": "cafe", "contact:facebook": "https://www.facebook.com/spikons", "contact:website": "https://www.spikon.nu/", "diet:vegan": "yes", "drink:coffee": "yes", "ice_cream": "yes", "name": "Spik\u00f6ns kaf\u00e9 & g\u00e4sthamn", "outdoor_seating": "only", "payment:contactless": "yes", "payment:swish": "yes"}}, {"type": "way", "id": 151150738, "nodes": [1639748073, 1639748072, 1639748055, 1639748058, 1639748073], "tags": {"addr:country": "SE", "addr:housenumber": "10", "addr:postcode": "46157", "addr:street": "Albertsv\u00e4gen", "amenity": "restaurant", "building": "yes", "cuisine": "pizza", "name": "Pizzeria Alberto"}}, {"type": "way", "id": 157412519, "nodes": [1696327310, 9931252979, 9931252980, 1696327317, 1696327321, 1696327332, 1696327326, 9931252981, 9931252982, 1696327334, 1696327310], "tags": {"amenity": "cafe", "building": "yes"}}, {"type": "way", "id": 186404980, "nodes": [1970886352, 1970886356, 1970886329, 1970886326, 1970886352], "tags": {"amenity": "cafe", "building": "yes", "indoor_seating": "yes", "name": "Strandgatans Cafe", "outdoor_seating": "yes"}}, {"type": "way", "id": 423198056, "nodes": [4228786090, 4228786087, 4228786088, 4228786085, 4228786084, 4228786083, 4228786082, 4228786089, 4228786090], "tags": {"amenity": "cafe", "building": "yes", "source": "Bing"}}, {"type": "way", "id": 442446474, "nodes": [4401290978, 4401290979, 4401290980, 4401290981, 4401290978], "tags": {"amenity": "restaurant", "building": "yes", "cuisine": "regional", "delivery": "no", "name": "Skr\u00e4cklestugan", "smoking": "no", "takeaway": "no"}}, {"type": "way", "id": 610490213, "nodes": [5781485044, 5781485045, 5781485046, 5781485047, 3195481934, 5781485048, 5781485044], "tags": {"amenity": "restaurant", "building": "yes", "cuisine": "thai"}}, {"type": "way", "id": 616383980, "nodes": [5827812995, 5827812996, 5827812997, 5827812998, 11113785688, 11113785689, 11113785690, 11113785691, 11113785692, 5827812995], "tags": {"amenity": "restaurant", "building": "yes", "name": "Ursand"}}, {"type": "way", "id": 692824342, "nodes": [6504509617, 6504509618, 6504509619, 6504509620, 6504509617], "tags": {"amenity": "restaurant", "building": "yes"}}, {"type": "way", "id": 980246970, "nodes": [9067976478, 9067976479, 9067976480, 9067976481, 9067976478], "tags": {"amenity": "cafe", "building": "yes"}}]}