{"version": 0.6, "generator": "Overpass API 0.7.61.5 4133829e", "osm3s": {"timestamp_osm_base": "2024-03-13T23:10:52Z", "copyright": "The data included in this document is from www.openstreetmap.org. The data is made available under ODbL."}, "elements": [{"type": "node", "id": 1159072377, "lat": 42.0953942, "lon": 43.415372, "tags": {"amenity": "restaurant", "source": "JumpStart International"}}, {"type": "node", "id": 1199800410, "lat": 42.0284461, "lon": 43.535861, "tags": {"amenity": "cafe", "check_date": "2023-09-30", "name": "\u10dc\u10d0\u10de\u10d4\u10e0\u10ec\u10d9\u10d0\u10da\u10d8", "name:en": "Napertskali", "name:ka": "\u10dc\u10d0\u10de\u10d4\u10e0\u10ec\u10d9\u10d0\u10da\u10d8", "source": "JumpStart International"}}, {"type": "node", "id": 1199800415, "lat": 42.0290979, "lon": 43.5307519, "tags": {"amenity": "restaurant", "name": "\u10d0\u10d8\u10d0 (Aia)", "name:en": "Aia", "name:ka": "\u10d0\u10d8\u10d0", "source": "JumpStart International"}}, {"type": "node", "id": 1199800420, "lat": 42.029177, "lon": 43.5288474, "tags": {"amenity": "restaurant", "name": "\u10e5\u10e3\u10d7\u10d0\u10d8\u10e1\u10d8", "name:en": "Kutaisi", "name:ka": "\u10e5\u10e3\u10d7\u10d0\u10d8\u10e1\u10d8", "name:ru": "\u041a\u0443\u0442\u0430\u0438\u0441\u0438", "source": "JumpStart International"}}, {"type": "node", "id": 1199800473, "lat": 42.0284001, "lon": 43.5336837, "tags": {"amenity": "restaurant", "name": "\u10d8\u10db\u10d4\u10d3\u10d8 (Imedi)", "name:en": "Imedi", "name:ka": "\u10d8\u10db\u10d4\u10d3\u10d8", "source": "JumpStart International"}}, {"type": "node", "id": 1199800477, "lat": 42.0287029, "lon": 43.532835, "tags": {"amenity": "restaurant", "name": "\u10e0\u10d4\u10e2\u10e0\u10dd", "name:en": "Retro", "name:ka": "\u10e0\u10d4\u10e2\u10e0\u10dd", "name:ru": "\u0420\u0435\u0442\u0440\u043e", "source": "JumpStart International"}}, {"type": "node", "id": 1199800491, "lat": 42.0269218, "lon": 43.5431843, "tags": {"amenity": "restaurant", "name": "\u10d2\u10dd\u10e0\u10d3\u10d0 (Gorda)", "name:en": "Gorda", "name:ka": "\u10d2\u10dd\u10e0\u10d3\u10d0", "source": "JumpStart International"}}, {"type": "node", "id": 1199800509, "lat": 42.0283574, "lon": 43.533981, "tags": {"amenity": "restaurant", "name": "\u10d2\u10e3\u10e0\u10d8\u10d0 (Guria)", "name:en": "Guria", "name:ka": "\u10d2\u10e3\u10e0\u10d8\u10d0", "source": "JumpStart International"}}, {"type": "node", "id": 1199800527, "lat": 42.0491649, "lon": 43.4979155, "tags": {"amenity": "restaurant", "name": "\u10dd\u10e0\u10ee\u10d4\u10d5\u10d8 (Orkhevi)", "name:en": "Orkhevi", "name:ka": "\u10dd\u10e0\u10ee\u10d4\u10d5\u10d8", "source": "JumpStart International"}}, {"type": "node", "id": 1199800618, "lat": 42.0279246, "lon": 43.5355536, "tags": {"amenity": "cafe", "check_date": "2023-09-30", "name": "\u10e1\u10e3\u10e0\u10d0\u10db\u10d8", "source": "JumpStart International"}}, {"type": "node", "id": 1199800628, "lat": 42.0278124, "lon": 43.5381773, "tags": {"amenity": "restaurant", "name": "\u10e4\u10dd\u10e0\u10e2\u10e3\u10dc\u10d0 (Portuna)", "name:en": "Portuna", "name:ka": "\u10e4\u10dd\u10e0\u10e2\u10e3\u10dc\u10d0", "source": "JumpStart International"}}, {"type": "node", "id": 1199899314, "lat": 42.0515657, "lon": 43.8516141, "tags": {"amenity": "restaurant", "source": "JumpStart International"}}, {"type": "node", "id": 1199899363, "lat": 42.0420775, "lon": 43.7070577, "tags": {"amenity": "cafe", "source": "JumpStart International"}}, {"type": "node", "id": 1199899862, "lat": 42.0513908, "lon": 43.851403, "tags": {"amenity": "cafe", "source": "JumpStart International"}}, {"type": "node", "id": 1199900759, "lat": 42.0151175, "lon": 43.7214948, "tags": {"amenity": "restaurant", "name": "\u10d2\u10dd\u10db\u10d8 (Gomi)", "name:en": "Gomi", "name:ka": "\u10d2\u10dd\u10db\u10d8", "name:ru": "\u0413\u043e\u043c\u0438", "source": "JumpStart International"}}, {"type": "node", "id": 1199900887, "lat": 42.008938, "lon": 43.6891174, "tags": {"amenity": "restaurant", "source": "JumpStart International"}}, {"type": "node", "id": 1203479940, "lat": 41.9865821, "lon": 43.5956394, "tags": {"amenity": "cafe", "name": "\u10e5\u10d4\u10d1\u10d0\u10d1 \u10da\u10d4\u10dc\u10d3\u10d8 (Kebab Land)", "name:en": "Kebab Land", "name:ka": "\u10e5\u10d4\u10d1\u10d0\u10d1 \u10da\u10d4\u10dc\u10d3\u10d8", "source": "JumpStart International"}}, {"type": "node", "id": 1203479974, "lat": 41.99746, "lon": 43.6004918, "tags": {"amenity": "cafe", "name": "\u10ee\u10d0\u10e8\u10e3\u10e0\u10d8 (Khashuri)", "name:en": "Khashuri", "name:ka": "\u10ee\u10d0\u10e8\u10e3\u10e0\u10d8", "source": "JumpStart International"}}, {"type": "node", "id": 1203480156, "lat": 41.9932002, "lon": 43.5981112, "tags": {"amenity": "restaurant", "cuisine": "georgian", "name": "\u10d9\u10d0\u10e4\u10d4 \u10dc\u10d0\u10d7\u10d8\u10d0", "name:en": "Cafe Natia", "name:ka": "\u10d9\u10d0\u10e4\u10d4 \u10dc\u10d0\u10d7\u10d8\u10d0", "name:ru": "\u041a\u043e\u0444\u0435 \u00ab\u041d\u0430\u0434\u044f\u00bb", "opening_hours": "10:00-22:00", "source": "JumpStart International"}}, {"type": "node", "id": 1203480493, "lat": 41.990948, "lon": 43.5948674, "tags": {"amenity": "cafe", "shop": "convenience", "source": "JumpStart International"}}, {"type": "node", "id": 1203480505, "lat": 41.98236, "lon": 43.5794, "tags": {"amenity": "restaurant", "name": "\u10d3\u10d8\u10d0\u10dd\u10ee\u10d8", "name:en": "Diaokhi", "name:ka": "\u10d3\u10d8\u10d0\u10dd\u10ee\u10d8", "name:ru": "\u0414\u0438\u0430\u043e\u0445\u0438\u044f", "source": "JumpStart International"}}, {"type": "node", "id": 1203480799, "lat": 41.9977909, "lon": 43.6018095, "tags": {"amenity": "cafe", "name": "\u10e1\u10d0\u10d5\u10d0\u10dc\u10d4 (Savane)", "name:en": "Savane", "name:ka": "\u10e1\u10d0\u10d5\u10d0\u10dc\u10d4", "source": "JumpStart International"}}, {"type": "node", "id": 1203480866, "lat": 41.9992168, "lon": 43.6053197, "tags": {"amenity": "cafe", "name": "\u10dd\u10d1\u10dd\u10da\u10d7\u10d0 \u10d9\u10d0\u10e4\u10d4 (Orphan's Cafe)", "name:en": "Orphan's Cafe", "name:ka": "\u10dd\u10d1\u10dd\u10da\u10d7\u10d0 \u10d9\u10d0\u10e4\u10d4", "source": "JumpStart International"}}, {"type": "node", "id": 1365220730, "lat": 41.9986605, "lon": 43.5948748}, {"type": "node", "id": 1365220731, "lat": 41.9991611, "lon": 43.5946014}, {"type": "node", "id": 1365220734, "lat": 41.9990502, "lon": 43.5946628}, {"type": "node", "id": 1365220735, "lat": 41.9991482, "lon": 43.5950503}, {"type": "node", "id": 1365220738, "lat": 41.9986562, "lon": 43.5950248}, {"type": "node", "id": 1365220744, "lat": 41.9990435, "lon": 43.5948946}, {"type": "node", "id": 1438104086, "lat": 42.0502899, "lon": 43.4923232, "tags": {"amenity": "restaurant", "brewery": "\u10e7\u10d0\u10d6\u10d1\u10d4\u10d2\u10d8", "cuisine": "local", "int_name": "Traktir Pereval", "name": "\u10e2\u10e0\u10d0\u10d9\u10e2\u10d8\u10e0\u10d8 \u10de\u10d4\u10e0\u10d4\u10d5\u10d0\u10da\u10d8", "name:tr": "Lokanta Dana Izgara"}}, {"type": "node", "id": 1441768323, "lat": 42.0935505, "lon": 43.4232924, "tags": {"amenity": "restaurant", "cuisine": "georgian", "name": "\u10ef\u10d0\u10e0\u10d2\u10d5\u10d0\u10da\u10d8 (Jargvali)"}}, {"type": "node", "id": 1870054693, "lat": 42.0991401, "lon": 43.3757939, "tags": {"amenity": "cafe", "name:ru": "\u041c\u0430\u0433\u0430\u0437\u0438\u043d", "smoking": "yes", "wheelchair": "no", "wifi": "no"}}, {"type": "node", "id": 2272353577, "lat": 42.0098285, "lon": 43.5782551, "tags": {"amenity": "restaurant"}}, {"type": "node", "id": 2837257876, "lat": 41.98886, "lon": 43.616847, "tags": {"amenity": "restaurant"}}, {"type": "node", "id": 2974216154, "lat": 42.1103604, "lon": 43.3583804, "tags": {"amenity": "restaurant", "name": "\u10eb\u10d5\u10d4\u10da\u10d8 \u10dd\u10d3\u10d0", "name:en": "Dzveli Oda", "name:ka": "\u10eb\u10d5\u10d4\u10da\u10d8 \u10dd\u10d3\u10d0"}}, {"type": "node", "id": 3004588529, "lat": 41.9621713, "lon": 43.5612776, "tags": {"addr:street": "damchkreula", "amenity": "restaurant", "cuisine": "regional", "name": "Apaga Jabastan", "smoking": "separated"}}, {"type": "node", "id": 4227919633, "lat": 42.0115119, "lon": 43.5787071, "tags": {"amenity": "restaurant", "name": "Kalakuri"}}, {"type": "node", "id": 4345408589, "lat": 42.1080135, "lon": 43.3388967, "tags": {"amenity": "restaurant", "name": "\u10e0\u10d4\u10e1\u10e2\u10dd\u10e0\u10d0\u10dc\u10d8 \"\u10e1\u10d0\u10dc\u10d0\u10de\u10d8\u10e0\u10dd\"  Restorant \"Sanapiro\" \u0420\u0435\u0441\u0442\u043e\u0440\u0430\u043d \" \u0421\u0430\u043d\u0430\u043f\u0438\u0440\u043e\""}}, {"type": "node", "id": 4347305393, "lat": 42.0776323, "lon": 43.4754572, "tags": {"amenity": "restaurant", "name": "\u10ee\u10d4\u10dd\u10d1\u10d0", "name:ru": "\u0425\u0435\u043e\u0431\u0430"}}, {"type": "node", "id": 4347329091, "lat": 42.0217212, "lon": 43.5655517, "tags": {"amenity": "cafe", "name": "Star Cafe"}}, {"type": "node", "id": 4347340189, "lat": 42.0947698, "lon": 43.4261466, "tags": {"amenity": "restaurant", "name": "Khevi"}}, {"type": "node", "id": 4347340389, "lat": 42.0972193, "lon": 43.435559, "tags": {"amenity": "restaurant", "name": "Edemi"}}, {"type": "node", "id": 4347340589, "lat": 42.0666305, "lon": 43.4798154, "tags": {"amenity": "cafe"}}, {"type": "node", "id": 4347359289, "lat": 42.0135535, "lon": 43.5758739, "tags": {"amenity": "restaurant", "name": "Surami"}}, {"type": "node", "id": 4360218592, "lat": 42.1064783, "lon": 43.339451, "tags": {"amenity": "restaurant", "name": "\u10e0\u10d4\u10e1\u10e2\u10dd\u10e0\u10d0\u10dc\u10d8 \"\u10db\u10d0\u10e0\u10d0\u10dc\u10d8\" Testourant \"Marani\" \u0420\u0435\u0441\u0442\u043e\u0440\u0430\u043d \"\"\u041c\u0430\u0440\u0430\u043d\u0438\"", "name:ka": "\u10e0\u10d4\u10e1\u10e2\u10dd\u10e0\u10d0\u10dc\u10d8 \"\u10db\u10d0\u10e0\u10d0\u10dc\u10d8\" Restaurant \"Marani\" \u0420\u0435\u0441\u0442\u043e\u0440\u0430\u043d \"\"\u041c\u0430\u0440\u0430\u043d\u0438\""}}, {"type": "node", "id": 4360249390, "lat": 42.0977307, "lon": 43.4364156, "tags": {"amenity": "restaurant", "name": "\u10e0\u10d4\u10e1\u10e2\u10dd\u10e0\u10d0\u10dc\u10d8 \"\u10d4\u10d3\u10d4\u10db\u10d8\u10e1 \u10d1\u10d0\u10e6\u10d8\"", "name:en": "Edemis Bagi", "name:ka": "\u10e0\u10d4\u10e1\u10e2\u10dd\u10e0\u10d0\u10dc\u10d8 \"\u10d4\u10d3\u10d4\u10db\u10d8\u10e1 \u10d1\u10d0\u10e6\u10d8\" Restourant \"Edemis Bagi\""}}, {"type": "node", "id": 4360334891, "lat": 42.0822785, "lon": 43.4757197, "tags": {"amenity": "restaurant", "name": "\u10e0\u10d4\u10e1\u10e2\u10dd\u10e0\u10d0\u10dc\u10d8 \"\u10ee\u10d4\u10dd\u10d1\u10d0\" Restaurant \"Kheoba\"", "name:ka": "\u10e0\u10d4\u10e1\u10e2\u10dd\u10e0\u10d0\u10dc\u10d8 \"\u10ee\u10d4\u10dd\u10d1\u10d0\" Restaurant \"Kheoba\"", "name:ru": "\u0420\u0435\u0441\u0442\u043b\u0440\u0430\u043d \"\u0425\u0435\u043e\u0431\u0430\""}}, {"type": "node", "id": 4366131591, "lat": 42.1056238, "lon": 43.3389567, "tags": {"amenity": "restaurant", "cuisine": "georgian", "name": "\u10db\u10d0\u10e0\u10d0\u10dc\u10d8", "name:en": "Marani", "name:ka": "\u10db\u10d0\u10e0\u10d0\u10dc\u10d8", "name:ru": "\u041c\u0430\u0440\u0430\u043d\u0438"}}, {"type": "node", "id": 4387394793, "lat": 42.0995179, "lon": 43.3747126, "tags": {"amenity": "cafe", "name": "\u10e6\u10e0\u10dd\u10db\u10d4\u10d7\u10d8", "name:ka": "\u10e6\u10e0\u10dd\u10db\u10d4\u10d7\u10d8"}}, {"type": "node", "id": 4387451690, "lat": 42.042435, "lon": 43.5000036, "tags": {"amenity": "cafe"}}, {"type": "node", "id": 4459544690, "lat": 42.0287556, "lon": 43.5311812, "tags": {"amenity": "cafe", "name": "\u10e1\u10d0\u10e1\u10d0\u10e3\u10db\u10d4 \u10d1\u10d0\u10d7\u10e3\u10db\u10d8", "name:en": "Batumi", "opening_hours": "24/7"}}, {"type": "node", "id": 4835263321, "lat": 42.0148567, "lon": 43.5739744, "tags": {"amenity": "restaurant", "check_date": "2023-05-10", "name": "\u1ca3\u10d0\u10e0\u10d3\u10d8"}}, {"type": "node", "id": 5110361521, "lat": 42.0093402, "lon": 43.6910775, "tags": {"amenity": "restaurant", "name:ru": "\u0420\u0435\u0441\u0442\u043e\u0440\u0430\u043d \u0432 \u0411\u043e\u0440\u0434\u0436\u043e\u043c"}}, {"type": "node", "id": 5163082622, "lat": 41.9838944, "lon": 43.586041, "tags": {"amenity": "restaurant", "name": "\u10e1\u10d0\u10da\u10ee\u10d8\u10dc\u10dd"}}, {"type": "node", "id": 5694892722, "lat": 41.9981962, "lon": 43.6000439, "tags": {"addr:housenumber": "10", "addr:street": "\u10d9\u10dd\u10e1\u10e2\u10d0\u10d5\u10d0\u10e1 \u10e5\u10e3\u10e9\u10d0 (Kostava Str)", "amenity": "cafe", "contact:facebook": "%E1%83%99%E1%83%90%E1%83%A4%E1%83%94-%E1%83%9B%E1%83%90%E1%83%92%E1%83%9C%E1%83%98%E1%83%A4%E1%83%98%E1%83%99%E1%83%9D-cafe-magnifiko-972403739600327/", "fixme": "Does it moved? I couldn't spot it here, but there FB page still exists.", "internet_access": "wlan", "name": "MAGNIFIKO", "opening_hours": "Mo-Su 09:00-00:00", "phone": "+995 368 27 39 09"}}, {"type": "node", "id": 6229043581, "lat": 41.9976342, "lon": 43.5983069, "tags": {"amenity": "cafe", "name": "Melbros", "outdoor_seating": "yes"}}, {"type": "node", "id": 6312169585, "lat": 41.9897242, "lon": 43.6123159, "tags": {"amenity": "restaurant", "name": "\u10d9\u10d0\u10e0\u10d8\u10d1\u10ed\u10d4", "name:en": "Karibche"}}, {"type": "node", "id": 6470421093, "lat": 42.0011137, "lon": 43.6648948, "tags": {"amenity": "restaurant"}}, {"type": "node", "id": 7997862920, "lat": 41.9991101, "lon": 43.5946659}, {"type": "node", "id": 7997862921, "lat": 41.999112, "lon": 43.5945989}, {"type": "node", "id": 11476356987, "lat": 41.9567719, "lon": 43.5101779, "tags": {"amenity": "cafe"}}, {"type": "way", "id": 122102874, "nodes": [1365220731, 1365220735, 1365220738, 1365220730, 1365220744, 1365220734, 7997862920, 7997862921, 1365220731], "tags": {"amenity": "cafe", "building": "yes", "name": "\u10e1\u10d0\u10ea\u10e3\u10e0\u10d0\u10dd \u10d0\u10e3\u10d6\u10d8"}}]}