{"version": 0.6, "generator": "Overpass API 0.7.61.5 4133829e", "osm3s": {"timestamp_osm_base": "2024-03-13T22:42:40Z", "copyright": "The data included in this document is from www.openstreetmap.org. The data is made available under ODbL."}, "elements": [{"type": "node", "id": 1147784008, "lat": 42.1634181, "lon": 42.3483551, "tags": {"addr:housenumber": "13", "addr:street": "Rustaveli St - \u10e0\u10e3\u10e1\u10d7\u10d0\u10d5\u10d4\u10da\u10d8\u10e1 \u10e5\u10e3\u10e9\u10d0", "amenity": "bank", "atm": "yes", "brand": "\u10d9\u10e0\u10d8\u10e1\u10e2\u10d0\u10da\u10d8", "brand:en": "Crystal", "brand:ru": "\u041a\u0440\u0438\u0441\u0442\u0430\u043b", "contact:facebook": "https://www.facebook.com/CrystalJscMfo", "contact:phone": "+995322022020", "contact:website": "https://crystal.ge", "contact:youtube": "https://www.youtube.com/user/MFOCrystal", "name": "\u10d9\u10e0\u10d8\u10e1\u10e2\u10d0\u10da\u10d8", "name:en": "Crystal", "name:ka": "\u10d9\u10e0\u10d8\u10e1\u10e2\u10d0\u10da\u10d8", "name:ru": "\u041a\u0440\u0438\u0441\u0442\u0430\u043b", "source": "JumpStart International"}}, {"type": "node", "id": 1147784226, "lat": 42.1636747, "lon": 42.3492916, "tags": {"addr:housenumber": "10", "addr:street": "Rustaveli St - \u10e0\u10e3\u10e1\u10d7\u10d0\u10d5\u10d4\u10da\u10d8\u10e1 \u10e5\u10e3\u10e9\u10d0", "amenity": "bank", "atm": "yes", "bic": "JSCRGE22", "brand": "\u10d9\u10e0\u10d4\u10d3\u10dd \u10d1\u10d0\u10dc\u10d9\u10d8", "brand:en": "Credo Bank", "brand:ru": "\u041a\u0440\u0435\u0434\u043e \u0411\u0430\u043d\u043a", "contact:email": "info@credo.ge", "contact:facebook": "https://facebook.com/CredoBank", "contact:instagram": "https://instagram.com/credobank", "contact:linkedin": "https://linkedin.com/company/credo-bank", "contact:phone": "+995322424242", "contact:website": "https://credobank.ge", "contact:youtube": "https://youtube.com/channel/UC2Y_pR9O5bmlCiFGfoX5bmw", "name": "\u10d9\u10e0\u10d4\u10d3\u10dd \u10d1\u10d0\u10dc\u10d9\u10d8", "name:en": "Credo Bank", "name:ka": "\u10d9\u10e0\u10d4\u10d3\u10dd \u10d1\u10d0\u10dc\u10d9\u10d8", "name:ru": "\u041a\u0440\u0435\u0434\u043e \u0411\u0430\u043d\u043a", "note": "micro-finance", "short_name:en": "Credo", "short_name:ka": "\u10d9\u10e0\u10d4\u10d3\u10dd", "short_name:ru": "\u041a\u0440\u0435\u0434\u043e", "source": "JumpStart International"}}, {"type": "node", "id": 1148682139, "lat": 42.0829237, "lon": 42.5133323, "tags": {"amenity": "bank", "atm": "yes", "bic": "LBRTGE22", "brand": "\u10da\u10d8\u10d1\u10d4\u10e0\u10d7\u10d8", "brand:en": "Liberty", "brand:ru": "\u041b\u0438\u0431\u0435\u0440\u0442\u0438", "brand:wikidata": "Q6541585", "contact:email": "info@lb.ge", "contact:facebook": "https://facebook.com/libertybank.ge", "contact:instagram": "https://instagram.com/liberty_bank_", "contact:linkedin": "https://linkedin.com/company/libertybankge", "contact:phone": "+995322555500", "contact:website": "https://libertybank.ge", "name": "\u10da\u10d8\u10d1\u10d4\u10e0\u10d7\u10d8", "name:en": "Liberty", "name:ka": "\u10da\u10d8\u10d1\u10d4\u10e0\u10d7\u10d8", "name:ru": "\u041b\u0438\u0431\u0435\u0440\u0442\u0438", "operator:wikidata": "Q6541585", "source": "JumpStart International"}}, {"type": "node", "id": 1164536286, "lat": 42.2688274, "lon": 42.7039271, "tags": {"addr:city": "\u10e5\u10e3\u10d7\u10d0\u10d8\u10e1\u10d8", "amenity": "bank", "atm": "yes", "name": "\u10e1\u10d0\u10e5\u10d0\u10e0\u10d7\u10d5\u10d4\u10da\u10dd\u10e1 \u10d4\u10e0\u10dd\u10d5\u10dc\u10e3\u10da\u10d8 \u10d1\u10d0\u10dc\u10d9\u10d8", "name:en": "National Bank of Georgia", "name:ka": "\u10e1\u10d0\u10e5\u10d0\u10e0\u10d7\u10d5\u10d4\u10da\u10dd\u10e1 \u10d4\u10e0\u10dd\u10d5\u10dc\u10e3\u10da\u10d8 \u10d1\u10d0\u10dc\u10d9\u10d8", "name:ru": "\u041d\u0430\u0446\u0438\u043e\u043d\u0430\u043b\u044c\u043d\u044b\u0439 \u0431\u0430\u043d\u043a \u0413\u0440\u0443\u0437\u0438\u0438", "source": "JumpStart International"}}, {"type": "node", "id": 1164536494, "lat": 42.2679106, "lon": 42.6980841, "tags": {"addr:housenumber": "23", "amenity": "bank", "atm": "yes", "bic": "LBRTGE22", "brand": "\u10da\u10d8\u10d1\u10d4\u10e0\u10d7\u10d8", "brand:en": "Liberty", "brand:ru": "\u041b\u0438\u0431\u0435\u0440\u0442\u0438", "brand:wikidata": "Q6541585", "contact:email": "info@lb.ge", "contact:facebook": "https://facebook.com/libertybank.ge", "contact:instagram": "https://instagram.com/liberty_bank_", "contact:linkedin": "https://linkedin.com/company/libertybankge", "contact:phone": "+995322555500", "contact:website": "https://libertybank.ge", "name": "\u10da\u10d8\u10d1\u10d4\u10e0\u10d7\u10d8", "name:en": "Liberty", "name:ka": "\u10da\u10d8\u10d1\u10d4\u10e0\u10d7\u10d8", "name:ru": "\u041b\u0438\u0431\u0435\u0440\u0442\u0438", "operator:wikidata": "Q6541585", "source": "JumpStart International"}}, {"type": "node", "id": 1164536563, "lat": 42.2674151, "lon": 42.6956924, "tags": {"amenity": "bank", "atm": "yes", "fixme": "This bank as a brand doesn't exist now. Please, check", "name": "Terabank", "name:en": "Kor Standard Bank", "name:ka": "\u10d9\u10dd\u10e0 \u10e1\u10e2\u10d0\u10dc\u10d3\u10d0\u10e0\u10e2 \u10d1\u10d0\u10dc\u10d9\u10d8", "source": "JumpStart International"}}, {"type": "node", "id": 1164536744, "lat": 42.2707885, "lon": 42.7051569, "tags": {"addr:street": "\u10d0\u10d9\u10d0\u10d9\u10d8 \u10ec\u10d4\u10e0\u10d4\u10d7\u10da\u10d8\u10e1 \u10e5\u10e3\u10e9\u10d0", "amenity": "bank", "atm": "yes", "bic": "TBCBGE22", "brand": "\u10d7\u10d8\u10d1\u10d8\u10e1\u10d8 \u10d1\u10d0\u10dc\u10d9\u10d8", "brand:en": "TBC Bank", "brand:ru": "\u0422\u0438\u0411\u0438\u0421\u0438 \u0411\u0430\u043d\u043a", "brand:wikidata": "Q2620975", "check_date": "2023-08-26", "contact:facebook": "https://www.facebook.com/tbcbank", "contact:linkedin": "https://www.linkedin.com/company/tbc-bank/", "contact:phone": "+995322272727", "contact:twitter": "https://twitter.com/JSCTBC", "contact:website": "https://www.tbcbank.ge", "contact:youtube": "https://www.youtube.com/user/TBCBankTV", "name": "\u10d7\u10d8\u10d1\u10d8\u10e1\u10d8 \u10d1\u10d0\u10dc\u10d9\u10d8", "name:en": "TBC Bank", "name:ka": "\u10d7\u10d8\u10d1\u10d8\u10e1\u10d8 \u10d1\u10d0\u10dc\u10d9\u10d8", "name:ru": "\u0422\u0438\u0411\u0438\u0421\u0438 \u0411\u0430\u043d\u043a", "operator:wikidata": "Q2620975", "short_name:en": "TBC", "short_name:ka": "\u10d7\u10d8\u10d1\u10d8\u10e1\u10d8", "short_name:ru": "\u0422\u0438\u0411\u0438\u0421\u0438", "source": "JumpStart International"}}, {"type": "node", "id": 1164536793, "lat": 42.2721291, "lon": 42.7048887, "tags": {"amenity": "bank", "atm": "yes", "bic": "TBCBGE22", "brand": "\u10d7\u10d8\u10d1\u10d8\u10e1\u10d8 \u10d1\u10d0\u10dc\u10d9\u10d8", "brand:en": "TBC Bank", "brand:ka": "\u10d7\u10d8\u10d1\u10d8\u10e1\u10d8 \u10d1\u10d0\u10dc\u10d9\u10d8", "brand:ru": "\u0422\u0438\u0411\u0438\u0421\u0438 \u0411\u0430\u043d\u043a", "brand:wikidata": "Q2620975", "check_date": "2023-02-24", "contact:facebook": "https://www.facebook.com/tbcbank", "contact:linkedin": "https://www.linkedin.com/company/tbc-bank/", "contact:phone": "+995322272727", "contact:twitter": "https://twitter.com/JSCTBC", "contact:website": "https://www.tbcbank.ge", "contact:youtube": "https://www.youtube.com/user/TBCBankTV", "level": "0", "name": "\u10d7\u10d8\u10d1\u10d8\u10e1\u10d8 \u10d1\u10d0\u10dc\u10d9\u10d8", "name:en": "TBC Bank", "name:ka": "\u10d7\u10d8\u10d1\u10d8\u10e1\u10d8 \u10d1\u10d0\u10dc\u10d9\u10d8", "name:ru": "\u0422\u0438\u0411\u0438\u0421\u0438 \u0411\u0430\u043d\u043a", "operator:wikidata": "Q2620975", "short_name:en": "TBC", "short_name:ka": "\u10d7\u10d8\u10d1\u10d8\u10e1\u10d8", "short_name:ru": "\u0422\u0438\u0411\u0438\u0421\u0438", "source": "JumpStart International"}}, {"type": "node", "id": 1164537206, "lat": 42.269528, "lon": 42.707619, "tags": {"amenity": "bank", "atm": "yes", "bic": "JSCRGE22", "brand": "\u10d9\u10e0\u10d4\u10d3\u10dd \u10d1\u10d0\u10dc\u10d9\u10d8", "brand:en": "Credo Bank", "brand:ru": "\u041a\u0440\u0435\u0434\u043e \u0411\u0430\u043d\u043a", "contact:email": "info@credo.ge", "contact:facebook": "https://facebook.com/CredoBank", "contact:instagram": "https://instagram.com/credobank", "contact:linkedin": "https://linkedin.com/company/credo-bank", "contact:phone": "+995322424242", "contact:website": "https://credobank.ge", "contact:youtube": "https://youtube.com/channel/UC2Y_pR9O5bmlCiFGfoX5bmw", "name": "\u10d9\u10e0\u10d4\u10d3\u10dd \u10d1\u10d0\u10dc\u10d9\u10d8", "name:en": "Credo Bank", "name:ka": "\u10d9\u10e0\u10d4\u10d3\u10dd \u10d1\u10d0\u10dc\u10d9\u10d8", "name:ru": "\u041a\u0440\u0435\u0434\u043e \u0411\u0430\u043d\u043a", "short_name:en": "Credo", "short_name:ka": "\u10d9\u10e0\u10d4\u10d3\u10dd", "short_name:ru": "\u041a\u0440\u0435\u0434\u043e", "source": "JumpStart International"}}, {"type": "node", "id": 1164537236, "lat": 42.2705352, "lon": 42.7050272, "tags": {"addr:city": "\u10e5\u10e3\u10d7\u10d0\u10d8\u10e1\u10d8", "addr:housenumber": "1", "addr:street": "\u10d0\u10d9\u10d0\u10d9\u10d8 \u10ec\u10d4\u10e0\u10d4\u10d7\u10da\u10d8\u10e1 \u10e5\u10e3\u10e9\u10d0", "amenity": "bank", "atm": "yes", "bic": "BAGAGE22", "brand": "\u10e1\u10d0\u10e5\u10d0\u10e0\u10d7\u10d5\u10d4\u10da\u10dd\u10e1 \u10d1\u10d0\u10dc\u10d9\u10d8", "brand:en": "Bank of Georgia", "brand:ru": "\u0411\u0430\u043d\u043a \u0413\u0440\u0443\u0437\u0438\u0438", "brand:tr": "G\u00fcrcistan Bankas\u0131", "brand:wikidata": "Q2469733", "check_date": "2023-08-26", "contact:email": "customerservice@bog.ge", "contact:instagram": "https://instagram.com/bankofgeorgia", "contact:linkedin": "https://linkedin.com/company/bank-of-georgia", "contact:phone": "+995322444444", "contact:website": "https://bankofgeorgia.ge", "contact:youtube": "https://youtube.com/user/BankofGeorgiaTV", "name": "\u10e1\u10d0\u10e5\u10d0\u10e0\u10d7\u10d5\u10d4\u10da\u10dd\u10e1 \u10d1\u10d0\u10dc\u10d9\u10d8", "name:en": "Bank of Georgia", "name:ka": "\u10e1\u10d0\u10e5\u10d0\u10e0\u10d7\u10d5\u10d4\u10da\u10dd\u10e1 \u10d1\u10d0\u10dc\u10d9\u10d8", "name:ru": "\u0411\u0430\u043d\u043a \u0413\u0440\u0443\u0437\u0438\u0438", "name:tr": "G\u00fcrcistan Bankas\u0131", "opening_hours": "Mo-Fr 09:30-19:00; Sa 10:00-14:00", "operator:wikidata": "Q2469733", "short_name:en": "BoG", "source": "JumpStart International", "wikidata": "Q2469733"}}, {"type": "node", "id": 1164537241, "lat": 42.2462969, "lon": 42.6932177, "tags": {"addr:city": "\u10e5\u10e3\u10d7\u10d0\u10d8\u10e1\u10d8", "addr:postcode": "4600", "addr:street": "\u10dc\u10d8\u10d9\u10d4\u10d0\u10e1 \u10e5\u10e3\u10e9\u10d0", "amenity": "bank", "atm": "yes", "bic": "LBRTGE22", "brand": "\u10da\u10d8\u10d1\u10d4\u10e0\u10d7\u10d8", "brand:en": "Liberty", "brand:ru": "\u041b\u0438\u0431\u0435\u0440\u0442\u0438", "brand:wikidata": "Q6541585", "contact:email": "info@lb.ge", "contact:facebook": "https://facebook.com/libertybank.ge", "contact:instagram": "https://instagram.com/liberty_bank_", "contact:linkedin": "https://linkedin.com/company/libertybankge", "contact:phone": "+995322555500", "contact:website": "https://libertybank.ge", "name": "\u10da\u10d8\u10d1\u10d4\u10e0\u10d7\u10d8", "name:en": "Liberty", "name:ka": "\u10da\u10d8\u10d1\u10d4\u10e0\u10d7\u10d8", "name:ru": "\u041b\u0438\u0431\u0435\u0440\u0442\u0438", "operator:wikidata": "Q6541585", "source": "JumpStart International"}}, {"type": "node", "id": 1164537332, "lat": 42.253935, "lon": 42.6784311, "tags": {"amenity": "bank", "atm": "yes", "bic": "JSCRGE22", "brand": "\u10d9\u10e0\u10d4\u10d3\u10dd \u10d1\u10d0\u10dc\u10d9\u10d8", "brand:en": "Credo Bank", "brand:ru": "\u041a\u0440\u0435\u0434\u043e \u0411\u0430\u043d\u043a", "contact:email": "info@credo.ge", "contact:facebook": "https://facebook.com/CredoBank", "contact:instagram": "https://instagram.com/credobank", "contact:linkedin": "https://linkedin.com/company/credo-bank", "contact:phone": "+995322424242", "contact:website": "https://credobank.ge", "contact:youtube": "https://youtube.com/channel/UC2Y_pR9O5bmlCiFGfoX5bmw", "name": "\u10d9\u10e0\u10d4\u10d3\u10dd \u10d1\u10d0\u10dc\u10d9\u10d8", "name:en": "Credo Bank", "name:ka": "\u10d9\u10e0\u10d4\u10d3\u10dd \u10d1\u10d0\u10dc\u10d9\u10d8", "name:ru": "\u041a\u0440\u0435\u0434\u043e \u0411\u0430\u043d\u043a", "short_name:en": "Credo", "short_name:ka": "\u10d9\u10e0\u10d4\u10d3\u10dd", "short_name:ru": "\u041a\u0440\u0435\u0434\u043e", "source": "JumpStart International"}}, {"type": "node", "id": 1164537985, "lat": 42.2713571, "lon": 42.7025183, "tags": {"addr:city": "\u10e5\u10e3\u10d7\u10d0\u10d8\u10e1\u10d8", "addr:housenumber": "17", "addr:street": "\u10ec\u10db\u10d8\u10dc\u10d3\u10d0 \u10dc\u10d8\u10dc\u10dd\u10e1 \u10e5\u10e3\u10e9\u10d0", "amenity": "bank", "atm": "yes", "bic": "BAGAGE22", "brand": "\u10e1\u10d0\u10e5\u10d0\u10e0\u10d7\u10d5\u10d4\u10da\u10dd\u10e1 \u10d1\u10d0\u10dc\u10d9\u10d8", "brand:en": "Bank of Georgia", "brand:ru": "\u0411\u0430\u043d\u043a \u0413\u0440\u0443\u0437\u0438\u0438", "brand:tr": "G\u00fcrcistan Bankas\u0131", "brand:wikidata": "Q2469733", "check_date": "2023-08-28", "contact:email": "customerservice@bog.ge", "contact:instagram": "https://instagram.com/bankofgeorgia", "contact:linkedin": "https://linkedin.com/company/bank-of-georgia", "contact:phone": "+995322444444", "contact:website": "https://bankofgeorgia.ge", "contact:youtube": "https://youtube.com/user/BankofGeorgiaTV", "name": "\u10e1\u10d0\u10e5\u10d0\u10e0\u10d7\u10d5\u10d4\u10da\u10dd\u10e1 \u10d1\u10d0\u10dc\u10d9\u10d8", "name:en": "Bank of Georgia", "name:ka": "\u10e1\u10d0\u10e5\u10d0\u10e0\u10d7\u10d5\u10d4\u10da\u10dd\u10e1 \u10d1\u10d0\u10dc\u10d9\u10d8", "name:ru": "\u0411\u0430\u043d\u043a \u0413\u0440\u0443\u0437\u0438\u0438", "name:tr": "G\u00fcrcistan Bankas\u0131", "opening_hours": "Mo-Fr 10:00-17:30; Sa 10:00-14:00", "operator:wikidata": "Q2469733", "short_name:en": "BoG", "source": "JumpStart International", "wikidata": "Q2469733"}}, {"type": "node", "id": 1164538324, "lat": 42.2652544, "lon": 42.6787859, "tags": {"addr:city": "\u10e5\u10e3\u10d7\u10d0\u10d8\u10e1\u10d8", "addr:housenumber": "124", "addr:street": "\u10e8\u10dd\u10d7\u10d0 \u10e0\u10e3\u10e1\u10d7\u10d0\u10d5\u10d4\u10da\u10d8\u10e1 \u10d2\u10d0\u10db\u10d6\u10d8\u10e0\u10d8", "amenity": "bank", "atm": "yes", "bic": "BAGAGE22", "brand": "\u10e1\u10d0\u10e5\u10d0\u10e0\u10d7\u10d5\u10d4\u10da\u10dd\u10e1 \u10d1\u10d0\u10dc\u10d9\u10d8", "brand:en": "Bank of Georgia", "brand:ru": "\u0411\u0430\u043d\u043a \u0413\u0440\u0443\u0437\u0438\u0438", "brand:tr": "G\u00fcrcistan Bankas\u0131", "brand:wikidata": "Q2469733", "contact:email": "customerservice@bog.ge", "contact:instagram": "https://instagram.com/bankofgeorgia", "contact:linkedin": "https://linkedin.com/company/bank-of-georgia", "contact:phone": "+995322444444", "contact:website": "https://bankofgeorgia.ge", "contact:youtube": "https://youtube.com/user/BankofGeorgiaTV", "name": "\u10e1\u10d0\u10e5\u10d0\u10e0\u10d7\u10d5\u10d4\u10da\u10dd\u10e1 \u10d1\u10d0\u10dc\u10d9\u10d8", "name:en": "Bank of Georgia", "name:ka": "\u10e1\u10d0\u10e5\u10d0\u10e0\u10d7\u10d5\u10d4\u10da\u10dd\u10e1 \u10d1\u10d0\u10dc\u10d9\u10d8", "name:ru": "\u0411\u0430\u043d\u043a \u0413\u0440\u0443\u0437\u0438\u0438", "name:tr": "G\u00fcrcistan Bankas\u0131", "opening_hours": "Mo-Fr 09:30-19:00; Sa 10:00-14:00", "operator:wikidata": "Q2469733", "short_name:en": "BoG", "source": "JumpStart International", "wikidata": "Q2469733"}}, {"type": "node", "id": 1164538543, "lat": 42.2508501, "lon": 42.6848172, "tags": {"amenity": "bank", "atm": "yes", "bic": "LBRTGE22", "brand": "\u10da\u10d8\u10d1\u10d4\u10e0\u10d7\u10d8", "brand:en": "Liberty", "brand:ru": "\u041b\u0438\u0431\u0435\u0440\u0442\u0438", "brand:wikidata": "Q6541585", "contact:email": "info@lb.ge", "contact:facebook": "https://facebook.com/libertybank.ge", "contact:instagram": "https://instagram.com/liberty_bank_", "contact:linkedin": "https://linkedin.com/company/libertybankge", "contact:phone": "+995322555500", "contact:website": "https://libertybank.ge", "name": "\u10da\u10d8\u10d1\u10d4\u10e0\u10d7\u10d8", "name:en": "Liberty", "name:ka": "\u10da\u10d8\u10d1\u10d4\u10e0\u10d7\u10d8", "name:ru": "\u041b\u0438\u0431\u0435\u0440\u0442\u0438", "operator:wikidata": "Q6541585", "source": "JumpStart International"}}, {"type": "node", "id": 1164538972, "lat": 42.2714325, "lon": 42.7014184, "tags": {"amenity": "bank", "atm": "yes", "bic": "CRTUGE22", "brand": "\u10d1\u10d0\u10dc\u10d9\u10d8 \u10e5\u10d0\u10e0\u10d7\u10e3", "brand:en": "Cartu Bank", "brand:ru": "\u041a\u0430\u0440\u0442\u0443 \u0411\u0430\u043d\u043a", "check_date": "2023-08-15", "contact:email": "info@cartubank.ge", "contact:facebook": "https://facebook.com/cartubank", "contact:linkedin": "https://linkedin.com/company/cartu-bank", "contact:phone": "+995322008080", "contact:twitter": "https://twitter.com/CartuBank", "contact:website": "https://cartubank.ge", "name": "\u10d1\u10d0\u10dc\u10d9\u10d8 \u10e5\u10d0\u10e0\u10d7\u10e3", "name:en": "Cartu Bank", "name:ka": "\u10d1\u10d0\u10dc\u10d9\u10d8 \u10e5\u10d0\u10e0\u10d7\u10e3", "name:ru": "\u041a\u0430\u0440\u0442\u0443 \u0411\u0430\u043d\u043a", "source": "JumpStart International"}}, {"type": "node", "id": 1169744984, "lat": 42.0185467, "lon": 42.2397201, "tags": {"amenity": "bank", "atm": "yes", "bic": "LBRTGE22", "brand": "\u10da\u10d8\u10d1\u10d4\u10e0\u10d7\u10d8", "brand:en": "Liberty", "brand:ru": "\u041b\u0438\u0431\u0435\u0440\u0442\u0438", "brand:wikidata": "Q6541585", "contact:email": "info@lb.ge", "contact:facebook": "https://facebook.com/libertybank.ge", "contact:instagram": "https://instagram.com/liberty_bank_", "contact:linkedin": "https://linkedin.com/company/libertybankge", "contact:phone": "+995322555500", "contact:website": "https://libertybank.ge", "name": "\u10da\u10d8\u10d1\u10d4\u10e0\u10d7\u10d8", "name:en": "Liberty", "name:ka": "\u10da\u10d8\u10d1\u10d4\u10e0\u10d7\u10d8", "name:ru": "\u041b\u0438\u0431\u0435\u0440\u0442\u0438", "operator:wikidata": "Q6541585", "source": "JumpStart International"}}, {"type": "node", "id": 1185726024, "lat": 42.2036309, "lon": 42.205329, "tags": {"amenity": "bank", "atm": "yes", "bic": "LBRTGE22", "brand": "\u10da\u10d8\u10d1\u10d4\u10e0\u10d7\u10d8", "brand:en": "Liberty", "brand:ru": "\u041b\u0438\u0431\u0435\u0440\u0442\u0438", "brand:wikidata": "Q6541585", "contact:email": "info@lb.ge", "contact:facebook": "https://facebook.com/libertybank.ge", "contact:instagram": "https://instagram.com/liberty_bank_", "contact:linkedin": "https://linkedin.com/company/libertybankge", "contact:phone": "+995322555500", "contact:website": "https://libertybank.ge", "name": "\u10da\u10d8\u10d1\u10d4\u10e0\u10d7\u10d8", "name:en": "Liberty", "name:ka": "\u10da\u10d8\u10d1\u10d4\u10e0\u10d7\u10d8", "name:ru": "\u041b\u0438\u0431\u0435\u0440\u0442\u0438", "operator:wikidata": "Q6541585", "source": "JumpStart International"}}, {"type": "node", "id": 2417753689, "lat": 42.1637755, "lon": 42.3422206, "tags": {"addr:street": "\u10ef\u10d0\u10d5\u10d0\u10ee\u10d8\u10e8\u10d5\u10d8\u10da\u10d8\u10e1 \u10e5\u10e3\u10e9\u10d0 (Javakhishvili St)", "amenity": "bank", "atm": "yes", "bic": "BAGAGE22", "brand": "\u10e1\u10d0\u10e5\u10d0\u10e0\u10d7\u10d5\u10d4\u10da\u10dd\u10e1 \u10d1\u10d0\u10dc\u10d9\u10d8", "brand:en": "Bank of Georgia", "brand:ru": "\u0411\u0430\u043d\u043a \u0413\u0440\u0443\u0437\u0438\u0438", "brand:tr": "G\u00fcrcistan Bankas\u0131", "brand:wikidata": "Q2469733", "contact:email": "customerservice@bog.ge", "contact:instagram": "https://instagram.com/bankofgeorgia", "contact:linkedin": "https://linkedin.com/company/bank-of-georgia", "contact:phone": "+995322444444", "contact:website": "https://bankofgeorgia.ge", "contact:youtube": "https://youtube.com/user/BankofGeorgiaTV", "name": "\u10e1\u10d0\u10e5\u10d0\u10e0\u10d7\u10d5\u10d4\u10da\u10dd\u10e1 \u10d1\u10d0\u10dc\u10d9\u10d8", "name:en": "Bank of Georgia", "name:ka": "\u10e1\u10d0\u10e5\u10d0\u10e0\u10d7\u10d5\u10d4\u10da\u10dd\u10e1 \u10d1\u10d0\u10dc\u10d9\u10d8", "name:ru": "\u0411\u0430\u043d\u043a \u0413\u0440\u0443\u0437\u0438\u0438", "name:tr": "G\u00fcrcistan Bankas\u0131", "opening_hours": "Mo-Fr 10:00-17:30; Sa 10:00-14:00", "operator:wikidata": "Q2469733", "short_name:en": "BoG", "wikidata": "Q2469733"}}, {"type": "node", "id": 2417755515, "lat": 42.1640002, "lon": 42.3421991, "tags": {"amenity": "bank", "fixme": "Is it a bank?", "name": "\u10e4\u10d8\u10dc\u10d9\u10d0 \u10d1\u10d0\u10dc\u10d9\u10d8"}}, {"type": "node", "id": 3596393735, "lat": 42.2678434, "lon": 42.695162}, {"type": "node", "id": 3596393736, "lat": 42.2677804, "lon": 42.6947599}, {"type": "node", "id": 3596393738, "lat": 42.2675984, "lon": 42.695232}, {"type": "node", "id": 3598541880, "lat": 42.2701984, "lon": 42.7049133}, {"type": "node", "id": 3598541881, "lat": 42.2699289, "lon": 42.70484}, {"type": "node", "id": 3598541883, "lat": 42.2698711, "lon": 42.7050949}, {"type": "node", "id": 3598541884, "lat": 42.2699791, "lon": 42.7051302}, {"type": "node", "id": 3598541885, "lat": 42.2699899, "lon": 42.7050701}, {"type": "node", "id": 3598541886, "lat": 42.2700425, "lon": 42.7050873}, {"type": "node", "id": 3598541887, "lat": 42.2700515, "lon": 42.7050367}, {"type": "node", "id": 3598541888, "lat": 42.2701694, "lon": 42.7050753}, {"type": "node", "id": 4269953019, "lat": 42.2666499, "lon": 42.6846886, "tags": {"amenity": "bank", "atm": "yes", "bic": "TBCBGE22", "brand": "\u10d7\u10d8\u10d1\u10d8\u10e1\u10d8 \u10d1\u10d0\u10dc\u10d9\u10d8", "brand:en": "TBC Bank", "brand:ru": "\u0422\u0438\u0411\u0438\u0421\u0438 \u0411\u0430\u043d\u043a", "brand:wikidata": "Q2620975", "check_date": "2023-08-21", "contact:facebook": "https://www.facebook.com/tbcbank", "contact:linkedin": "https://www.linkedin.com/company/tbc-bank/", "contact:phone": "+995322272727", "contact:twitter": "https://twitter.com/JSCTBC", "contact:website": "https://www.tbcbank.ge", "contact:youtube": "https://www.youtube.com/user/TBCBankTV", "name": "\u10d7\u10d8\u10d1\u10d8\u10e1\u10d8 \u10d1\u10d0\u10dc\u10d9\u10d8", "name:en": "TBC Bank", "name:ka": "\u10d7\u10d8\u10d1\u10d8\u10e1\u10d8 \u10d1\u10d0\u10dc\u10d9\u10d8", "name:ru": "\u0422\u0438\u0411\u0438\u0421\u0438 \u0411\u0430\u043d\u043a", "opening_hours": "Mo-Fr 10:00-18:00; Sa 10:00-14:00", "operator:wikidata": "Q2620975", "short_name:en": "TBC", "short_name:ka": "\u10d7\u10d8\u10d1\u10d8\u10e1\u10d8", "short_name:ru": "\u0422\u0438\u0411\u0438\u0421\u0438"}}, {"type": "node", "id": 4325642414, "lat": 42.2613615, "lon": 42.6458642, "tags": {"addr:street": "\u10d0\u10d5\u10e2\u10dd\u10db\u10e8\u10d4\u10dc\u10d4\u10d1\u10da\u10d8\u10e1 \u10d2\u10d0\u10db\u10d6\u10d8\u10e0\u10d8", "amenity": "bank", "fixme": "Is it a bank?", "name": "\u10e1\u10db\u10d0\u10e0\u10e2 \u10e4\u10d8\u10dc\u10d0\u10dc\u10e1\u10d8", "opening_hours": "24/7"}}, {"type": "node", "id": 4401431948, "lat": 42.1623938, "lon": 42.3439017}, {"type": "node", "id": 4401431951, "lat": 42.1625062, "lon": 42.3438512}, {"type": "node", "id": 4540172290, "lat": 42.2704054, "lon": 42.7026382, "tags": {"addr:street": "\u10ec\u10db\u10d8\u10dc\u10d3\u10d0 \u10dc\u10d8\u10dc\u10dd\u10e1 \u10e5\u10e3\u10e9\u10d0", "amenity": "bank", "atm": "yes", "bic": "CBASGE22", "brand": "\u10d1\u10d0\u10d6\u10d8\u10e1\u10d1\u10d0\u10dc\u10d9\u10d8", "brand:en": "BasisBank", "brand:ru": "\u0411\u0430\u0437\u0438\u0441\u0411\u0430\u043d\u043a", "brand:wikidata": "Q16365625", "check_date": "2023-07-01", "contact:facebook": "https://facebook.com/Basisbank", "contact:instagram": "https://instagram.com/basis_bank", "contact:linkedin": "https://linkedin.com/company/jsc-basisbank", "contact:phone": "+995322922922", "contact:website": "https://bb.ge", "contact:youtube": "https://youtube.com/user/basisbankhualing", "name": "\u10d1\u10d0\u10d6\u10d8\u10e1\u10d1\u10d0\u10dc\u10d9\u10d8", "name:en": "BasisBank", "name:ka": "\u10d1\u10d0\u10d6\u10d8\u10e1\u10d1\u10d0\u10dc\u10d9\u10d8", "name:ru": "\u0411\u0430\u0437\u0438\u0441\u0411\u0430\u043d\u043a", "opening_hours": "Mo-Fr 10:00-18:00; Sa 10:00-14:30", "operator:wikidata": "Q16365625", "wheelchair": "limited"}}, {"type": "node", "id": 4540240799, "lat": 42.2562952, "lon": 42.6722172, "tags": {"addr:street": "\u10d8\u10da\u10d8\u10d0 \u10ed\u10d0\u10d5\u10ed\u10d0\u10d5\u10d0\u10eb\u10d8\u10e1 \u10d2\u10d0\u10db\u10d6\u10d8\u10e0\u10d8", "amenity": "bank", "bic": "BAGAGE22", "brand": "\u10e1\u10d0\u10e5\u10d0\u10e0\u10d7\u10d5\u10d4\u10da\u10dd\u10e1 \u10d1\u10d0\u10dc\u10d9\u10d8", "brand:en": "Bank of Georgia", "brand:ru": "\u0411\u0430\u043d\u043a \u0413\u0440\u0443\u0437\u0438\u0438", "brand:tr": "G\u00fcrcistan Bankas\u0131", "brand:wikidata": "Q2469733", "contact:phone": "+995322444444", "contact:website": "https://expresssesxi.ge", "name": "\u10e1\u10d0\u10e5\u10d0\u10e0\u10d7\u10d5\u10d4\u10da\u10dd\u10e1 \u10d1\u10d0\u10dc\u10d9\u10d8 \u10d4\u10e5\u10e1\u10de\u10e0\u10d4\u10e1\u10d8", "name:en": "Bank of Georgia Express", "name:ka": "\u10e1\u10d0\u10e5\u10d0\u10e0\u10d7\u10d5\u10d4\u10da\u10dd\u10e1 \u10d1\u10d0\u10dc\u10d9\u10d8 \u10d4\u10e5\u10e1\u10de\u10e0\u10d4\u10e1\u10d8", "name:ru": "\u0411\u0430\u043d\u043a \u0413\u0440\u0443\u0437\u0438\u0438 \u042d\u043a\u0441\u043f\u0440\u0435\u0441\u0441", "opening_hours": "Mo-Fr 10:00-20:00; Sa-Su 10:00-18:00", "operator:wikidata": "Q2469733", "phone": "0322444444"}}, {"type": "node", "id": 4796440422, "lat": 42.1640324, "lon": 42.3432657, "tags": {"amenity": "bank", "atm": "yes", "bic": "LBRTGE22", "brand": "\u10da\u10d8\u10d1\u10d4\u10e0\u10d7\u10d8", "brand:en": "Liberty", "brand:ru": "\u041b\u0438\u0431\u0435\u0440\u0442\u0438", "brand:wikidata": "Q6541585", "contact:email": "info@lb.ge", "contact:facebook": "https://facebook.com/libertybank.ge", "contact:instagram": "https://instagram.com/liberty_bank_", "contact:linkedin": "https://linkedin.com/company/libertybankge", "contact:phone": "+995322555500", "contact:website": "https://libertybank.ge", "name": "\u10da\u10d8\u10d1\u10d4\u10e0\u10d7\u10d8", "name:en": "Liberty", "name:ka": "\u10da\u10d8\u10d1\u10d4\u10e0\u10d7\u10d8", "name:ru": "\u041b\u0438\u0431\u0435\u0440\u0442\u0438", "operator:wikidata": "Q6541585"}}, {"type": "node", "id": 5451629511, "lat": 42.1625673, "lon": 42.3440986}, {"type": "node", "id": 5451629513, "lat": 42.1625747, "lon": 42.3441284}, {"type": "node", "id": 5451629514, "lat": 42.1624622, "lon": 42.3441789}, {"type": "node", "id": 5451629738, "lat": 42.1624582, "lon": 42.3441652}, {"type": "node", "id": 5543528819, "lat": 42.1625261, "lon": 42.3441502}, {"type": "node", "id": 5543529223, "lat": 42.1624278, "lon": 42.3440409}, {"type": "node", "id": 6003194091, "lat": 42.2356347, "lon": 42.6920943, "tags": {"amenity": "bank"}}, {"type": "node", "id": 6322523590, "lat": 42.2541804, "lon": 42.7098514, "tags": {"amenity": "bank", "atm": "yes", "bic": "LBRTGE22", "brand": "\u10da\u10d8\u10d1\u10d4\u10e0\u10d7\u10d8", "brand:en": "Liberty", "brand:ru": "\u041b\u0438\u0431\u0435\u0440\u0442\u0438", "brand:wikidata": "Q6541585", "contact:email": "info@lb.ge", "contact:facebook": "https://facebook.com/libertybank.ge", "contact:instagram": "https://instagram.com/liberty_bank_", "contact:linkedin": "https://linkedin.com/company/libertybankge", "contact:phone": "+995322555500", "contact:website": "https://libertybank.ge", "name": "\u10da\u10d8\u10d1\u10d4\u10e0\u10d7\u10d8", "name:en": "Liberty", "name:ka": "\u10da\u10d8\u10d1\u10d4\u10e0\u10d7\u10d8", "name:ru": "\u041b\u0438\u0431\u0435\u0440\u0442\u0438", "operator:wikidata": "Q6541585"}}, {"type": "node", "id": 6968977585, "lat": 42.2704906, "lon": 42.701986, "tags": {"amenity": "bank", "atm": "yes", "bic": "BAGAGE22", "brand": "\u10e1\u10d0\u10e5\u10d0\u10e0\u10d7\u10d5\u10d4\u10da\u10dd\u10e1 \u10d1\u10d0\u10dc\u10d9\u10d8", "brand:en": "Bank of Georgia", "brand:ru": "\u0411\u0430\u043d\u043a \u0413\u0440\u0443\u0437\u0438\u0438", "brand:tr": "G\u00fcrcistan Bankas\u0131", "brand:wikidata": "Q2469733", "check_date": "2023-07-01", "contact:email": "customerservice@bog.ge", "contact:instagram": "https://instagram.com/bankofgeorgia", "contact:linkedin": "https://linkedin.com/company/bank-of-georgia", "contact:phone": "+995322444444", "contact:website": "https://bankofgeorgia.ge", "contact:youtube": "https://youtube.com/user/BankofGeorgiaTV", "name": "\u10e1\u10d0\u10e5\u10d0\u10e0\u10d7\u10d5\u10d4\u10da\u10dd\u10e1 \u10d1\u10d0\u10dc\u10d9\u10d8", "name:en": "Bank of Georgia", "name:ka": "\u10e1\u10d0\u10e5\u10d0\u10e0\u10d7\u10d5\u10d4\u10da\u10dd\u10e1 \u10d1\u10d0\u10dc\u10d9\u10d8", "name:ru": "\u0411\u0430\u043d\u043a \u0413\u0440\u0443\u0437\u0438\u0438", "name:tr": "G\u00fcrcistan Bankas\u0131", "opening_hours": "Mo-Fr 09:30-19:00; Sa 10:00-14:00", "operator:wikidata": "Q2469733", "short_name:en": "BoG", "wikidata": "Q2469733"}}, {"type": "node", "id": 7002670886, "lat": 42.2524261, "lon": 42.6819221, "tags": {"addr:housenumber": "28", "amenity": "bank"}}, {"type": "node", "id": 7266902238, "lat": 42.0853872, "lon": 42.5117123, "tags": {"amenity": "bank", "atm": "yes", "bic": "BAGAGE22", "brand": "\u10e1\u10d0\u10e5\u10d0\u10e0\u10d7\u10d5\u10d4\u10da\u10dd\u10e1 \u10d1\u10d0\u10dc\u10d9\u10d8", "brand:en": "Bank of Georgia", "brand:ru": "\u0411\u0430\u043d\u043a \u0413\u0440\u0443\u0437\u0438\u0438", "brand:tr": "G\u00fcrcistan Bankas\u0131", "brand:wikidata": "Q2469733", "contact:email": "customerservice@bog.ge", "contact:instagram": "https://instagram.com/bankofgeorgia", "contact:linkedin": "https://linkedin.com/company/bank-of-georgia", "contact:phone": "+995322444444", "contact:website": "https://bankofgeorgia.ge", "contact:youtube": "https://youtube.com/user/BankofGeorgiaTV", "name": "\u10e1\u10d0\u10e5\u10d0\u10e0\u10d7\u10d5\u10d4\u10da\u10dd\u10e1 \u10d1\u10d0\u10dc\u10d9\u10d8", "name:en": "Bank of Georgia", "name:ka": "\u10e1\u10d0\u10e5\u10d0\u10e0\u10d7\u10d5\u10d4\u10da\u10dd\u10e1 \u10d1\u10d0\u10dc\u10d9\u10d8", "name:ru": "\u0411\u0430\u043d\u043a \u0413\u0440\u0443\u0437\u0438\u0438", "name:tr": "G\u00fcrcistan Bankas\u0131", "operator:wikidata": "Q2469733", "short_name:en": "BoG"}}, {"type": "node", "id": 7266902239, "lat": 42.0848266, "lon": 42.511938, "tags": {"amenity": "bank", "atm": "yes", "bic": "TBCBGE22", "brand": "\u10d7\u10d8\u10d1\u10d8\u10e1\u10d8 \u10d1\u10d0\u10dc\u10d9\u10d8", "brand:en": "TBC Bank", "brand:ru": "\u0422\u0438\u0411\u0438\u0421\u0438 \u0411\u0430\u043d\u043a", "brand:wikidata": "Q2620975", "check_date": "2023-08-28", "contact:facebook": "https://www.facebook.com/tbcbank", "contact:linkedin": "https://www.linkedin.com/company/tbc-bank/", "contact:phone": "+995322272727", "contact:twitter": "https://twitter.com/JSCTBC", "contact:website": "https://www.tbcbank.ge", "contact:youtube": "https://www.youtube.com/user/TBCBankTV", "name": "\u10d7\u10d8\u10d1\u10d8\u10e1\u10d8 \u10d1\u10d0\u10dc\u10d9\u10d8", "name:en": "TBC Bank", "name:ka": "\u10d7\u10d8\u10d1\u10d8\u10e1\u10d8 \u10d1\u10d0\u10dc\u10d9\u10d8", "name:ru": "\u0422\u0438\u0411\u0438\u0421\u0438 \u0411\u0430\u043d\u043a", "operator:wikidata": "Q2620975", "short_name:en": "TBC", "short_name:ka": "\u10d7\u10d8\u10d1\u10d8\u10e1\u10d8", "short_name:ru": "\u0422\u0438\u0411\u0438\u0421\u0438"}}, {"type": "node", "id": 7266902240, "lat": 42.0843192, "lon": 42.5113498, "tags": {"amenity": "bank", "atm": "yes", "bic": "JSCRGE22", "brand": "\u10d9\u10e0\u10d4\u10d3\u10dd \u10d1\u10d0\u10dc\u10d9\u10d8", "brand:en": "Credo Bank", "brand:ru": "\u041a\u0440\u0435\u0434\u043e \u0411\u0430\u043d\u043a", "contact:email": "info@credo.ge", "contact:facebook": "https://facebook.com/CredoBank", "contact:instagram": "https://instagram.com/credobank", "contact:linkedin": "https://linkedin.com/company/credo-bank", "contact:phone": "+995322424242", "contact:website": "https://credobank.ge", "contact:youtube": "https://youtube.com/channel/UC2Y_pR9O5bmlCiFGfoX5bmw", "name": "\u10d9\u10e0\u10d4\u10d3\u10dd \u10d1\u10d0\u10dc\u10d9\u10d8", "name:en": "Credo Bank", "name:ka": "\u10d9\u10e0\u10d4\u10d3\u10dd \u10d1\u10d0\u10dc\u10d9\u10d8", "name:ru": "\u041a\u0440\u0435\u0434\u043e \u0411\u0430\u043d\u043a", "short_name:en": "Credo", "short_name:ka": "\u10d9\u10e0\u10d4\u10d3\u10dd", "short_name:ru": "\u041a\u0440\u0435\u0434\u043e"}}, {"type": "node", "id": 7266920297, "lat": 42.0844944, "lon": 42.5158545, "tags": {"amenity": "bank", "brand": "\u10d9\u10e0\u10d8\u10e1\u10e2\u10d0\u10da\u10d8", "brand:en": "Crystal", "brand:ru": "\u041a\u0440\u0438\u0441\u0442\u0430\u043b", "contact:facebook": "https://www.facebook.com/CrystalJscMfo", "contact:phone": "+995322022020", "contact:website": "https://crystal.ge", "contact:youtube": "https://www.youtube.com/user/MFOCrystal", "name": "\u10d9\u10e0\u10d8\u10e1\u10e2\u10d0\u10da\u10d8", "name:en": "Crystal", "name:ka": "\u10d9\u10e0\u10d8\u10e1\u10e2\u10d0\u10da\u10d8", "name:ru": "\u041a\u0440\u0438\u0441\u0442\u0430\u043b"}}, {"type": "node", "id": 10680640795, "lat": 42.2575921, "lon": 42.6675564, "tags": {"amenity": "bank", "atm": "yes", "bic": "CBASGE22", "brand": "\u10d1\u10d0\u10d6\u10d8\u10e1\u10d1\u10d0\u10dc\u10d9\u10d8", "brand:en": "BasisBank", "brand:ka": "\u10d1\u10d0\u10d6\u10d8\u10e1\u10d1\u10d0\u10dc\u10d9\u10d8", "brand:ru": "\u0411\u0430\u0437\u0438\u0441\u0411\u0430\u043d\u043a", "brand:wikidata": "Q16365625", "check_date": "2023-08-29", "contact:email": "info@basisbank.ge", "contact:facebook": "https://facebook.com/Basisbank", "contact:instagram": "https://instagram.com/basis_bank", "contact:linkedin": "https://linkedin.com/company/jsc-basisbank", "contact:phone": "+995322922922", "contact:website": "https://bb.ge", "contact:youtube": "https://youtube.com/user/basisbankhualing", "name": "\u10d1\u10d0\u10d6\u10d8\u10e1\u10d1\u10d0\u10dc\u10d9\u10d8", "name:en": "BasisBank", "name:ka": "\u10d1\u10d0\u10d6\u10d8\u10e1\u10d1\u10d0\u10dc\u10d9\u10d8", "name:ru": "\u0411\u0430\u0437\u0438\u0441\u0411\u0430\u043d\u043a", "opening_hours": "Mo-Fr 10:00-18:00; Sa 10:00-14:30", "operator:wikidata": "Q16365625"}}, {"type": "node", "id": 10754408956, "lat": 42.2602882, "lon": 42.6339146, "tags": {"amenity": "bank", "atm": "yes", "bic": "LBRTGE22", "brand": "\u10da\u10d8\u10d1\u10d4\u10e0\u10d7\u10d8", "brand:en": "Liberty", "brand:ru": "\u041b\u0438\u0431\u0435\u0440\u0442\u0438", "brand:wikidata": "Q6541585", "contact:email": "info@lb.ge", "contact:facebook": "https://facebook.com/libertybank.ge", "contact:instagram": "https://instagram.com/liberty_bank_", "contact:linkedin": "https://linkedin.com/company/libertybankge", "contact:phone": "+995322555500", "contact:website": "https://libertybank.ge", "name": "\u10da\u10d8\u10d1\u10d4\u10e0\u10d7\u10d8", "name:en": "Liberty", "name:ka": "\u10da\u10d8\u10d1\u10d4\u10e0\u10d7\u10d8", "name:ru": "\u041b\u0438\u0431\u0435\u0440\u0442\u0438", "operator:wikidata": "Q6541585"}}, {"type": "node", "id": 10754408959, "lat": 42.2675355, "lon": 42.6948299}, {"type": "node", "id": 10754408960, "lat": 42.270935, "lon": 42.706088, "tags": {"amenity": "bank", "bic": "BAGAGE22", "brand": "\u10e1\u10d0\u10e5\u10d0\u10e0\u10d7\u10d5\u10d4\u10da\u10dd\u10e1 \u10d1\u10d0\u10dc\u10d9\u10d8", "brand:en": "Bank of Georgia", "brand:ka": "\u10e1\u10d0\u10e5\u10d0\u10e0\u10d7\u10d5\u10d4\u10da\u10dd\u10e1 \u10d1\u10d0\u10dc\u10d9\u10d8", "brand:ru": "\u0411\u0430\u043d\u043a \u0413\u0440\u0443\u0437\u0438\u0438", "brand:tr": "G\u00fcrcistan Bankas\u0131", "brand:wikidata": "Q2469733", "contact:email": "customerservice@bog.ge", "contact:instagram": "https://instagram.com/bankofgeorgia", "contact:linkedin": "https://linkedin.com/company/bank-of-georgia", "contact:phone": "+995322444444", "contact:website": "https://bankofgeorgia.ge", "contact:youtube": "https://youtube.com/user/BankofGeorgiaTV", "name": "\u10e1\u10d0\u10e5\u10d0\u10e0\u10d7\u10d5\u10d4\u10da\u10dd\u10e1 \u10d1\u10d0\u10dc\u10d9\u10d8", "name:en": "Solo", "name:ka": "\u10e1\u10dd\u10da\u10dd", "name:ru": "\u0421\u043e\u043b\u043e", "name:tr": "G\u00fcrcistan Bankas\u0131", "operator:wikidata": "Q2469733"}}, {"type": "node", "id": 10910659760, "lat": 42.2566144, "lon": 42.6692516, "tags": {"amenity": "bank", "atm": "yes", "bic": "BAGAGE22", "brand": "\u10e1\u10d0\u10e5\u10d0\u10e0\u10d7\u10d5\u10d4\u10da\u10dd\u10e1 \u10d1\u10d0\u10dc\u10d9\u10d8", "brand:en": "Bank of Georgia", "brand:ru": "\u0411\u0430\u043d\u043a \u0413\u0440\u0443\u0437\u0438\u0438", "brand:tr": "G\u00fcrcistan Bankas\u0131", "brand:wikidata": "Q2469733", "contact:email": "customerservice@bog.ge", "contact:instagram": "https://instagram.com/bankofgeorgia", "contact:linkedin": "https://linkedin.com/company/bank-of-georgia", "contact:phone": "+995322444444", "contact:website": "https://bankofgeorgia.ge", "contact:youtube": "https://youtube.com/user/BankofGeorgiaTV", "name": "\u10e1\u10d0\u10e5\u10d0\u10e0\u10d7\u10d5\u10d4\u10da\u10dd\u10e1 \u10d1\u10d0\u10dc\u10d9\u10d8", "name:en": "Bank of Georgia", "name:ka": "\u10e1\u10d0\u10e5\u10d0\u10e0\u10d7\u10d5\u10d4\u10da\u10dd\u10e1 \u10d1\u10d0\u10dc\u10d9\u10d8", "name:ru": "\u0411\u0430\u043d\u043a \u0413\u0440\u0443\u0437\u0438\u0438", "name:tr": "G\u00fcrcistan Bankas\u0131", "opening_hours": "Mo-Fr 09:30-19:00; Sa 10:00-14:00", "operator:wikidata": "Q2469733", "payment:cash": "yes", "payment:cash:EUR": "yes", "payment:cash:USD": "yes", "payment:coins": "no", "short_name:en": "BoG"}}, {"type": "node", "id": 10910659783, "lat": 42.2571123, "lon": 42.671335, "tags": {"amenity": "bank", "atm": "yes", "bic": "BAGAGE22", "brand": "\u10e1\u10d0\u10e5\u10d0\u10e0\u10d7\u10d5\u10d4\u10da\u10dd\u10e1 \u10d1\u10d0\u10dc\u10d9\u10d8", "brand:en": "Bank of Georgia", "brand:ru": "\u0411\u0430\u043d\u043a \u0413\u0440\u0443\u0437\u0438\u0438", "brand:tr": "G\u00fcrcistan Bankas\u0131", "brand:wikidata": "Q2469733", "check_date": "2023-08-16", "contact:email": "customerservice@bog.ge", "contact:instagram": "https://instagram.com/bankofgeorgia", "contact:linkedin": "https://linkedin.com/company/bank-of-georgia", "contact:phone": "+995322444444", "contact:website": "https://bankofgeorgia.ge", "contact:youtube": "https://youtube.com/user/BankofGeorgiaTV", "name": "\u10e1\u10d0\u10e5\u10d0\u10e0\u10d7\u10d5\u10d4\u10da\u10dd\u10e1 \u10d1\u10d0\u10dc\u10d9\u10d8", "name:en": "Bank of Georgia", "name:ka": "\u10e1\u10d0\u10e5\u10d0\u10e0\u10d7\u10d5\u10d4\u10da\u10dd\u10e1 \u10d1\u10d0\u10dc\u10d9\u10d8", "name:ru": "\u0411\u0430\u043d\u043a \u0413\u0440\u0443\u0437\u0438\u0438", "name:tr": "G\u00fcrcistan Bankas\u0131", "opening_hours": "Mo-Fr 09:30-19:00; Sa 10:00-14:00", "operator:wikidata": "Q2469733", "payment:cash": "yes", "payment:cash:EUR": "yes", "payment:cash:USD": "yes", "payment:coins": "no", "short_name:en": "BoG"}}, {"type": "node", "id": 10918132258, "lat": 42.2584494, "lon": 42.6687756, "tags": {"amenity": "bank", "atm": "yes", "bic": "BAGAGE22", "brand": "\u10e1\u10d0\u10e5\u10d0\u10e0\u10d7\u10d5\u10d4\u10da\u10dd\u10e1 \u10d1\u10d0\u10dc\u10d9\u10d8", "brand:en": "Bank of Georgia", "brand:ru": "\u0411\u0430\u043d\u043a \u0413\u0440\u0443\u0437\u0438\u0438", "brand:tr": "G\u00fcrcistan Bankas\u0131", "brand:wikidata": "Q2469733", "check_date": "2023-08-07", "contact:email": "customerservice@bog.ge", "contact:instagram": "https://instagram.com/bankofgeorgia", "contact:linkedin": "https://linkedin.com/company/bank-of-georgia", "contact:phone": "+995322444444", "contact:website": "https://bankofgeorgia.ge", "contact:youtube": "https://youtube.com/user/BankofGeorgiaTV", "name": "\u10e1\u10d0\u10e5\u10d0\u10e0\u10d7\u10d5\u10d4\u10da\u10dd\u10e1 \u10d1\u10d0\u10dc\u10d9\u10d8", "name:en": "Bank of Georgia", "name:ka": "\u10e1\u10d0\u10e5\u10d0\u10e0\u10d7\u10d5\u10d4\u10da\u10dd\u10e1 \u10d1\u10d0\u10dc\u10d9\u10d8", "name:ru": "\u0411\u0430\u043d\u043a \u0413\u0440\u0443\u0437\u0438\u0438", "name:tr": "G\u00fcrcistan Bankas\u0131", "opening_hours": "Mo-Fr 10:00-17:30; Sa 10:00-14:00", "operator:wikidata": "Q2469733", "short_name:en": "BoG"}}, {"type": "node", "id": 10989248158, "lat": 42.2628862, "lon": 42.6695082, "tags": {"amenity": "bank", "atm": "yes", "bic": "BAGAGE22", "brand": "\u10e1\u10d0\u10e5\u10d0\u10e0\u10d7\u10d5\u10d4\u10da\u10dd\u10e1 \u10d1\u10d0\u10dc\u10d9\u10d8", "brand:en": "Bank of Georgia", "brand:ru": "\u0411\u0430\u043d\u043a \u0413\u0440\u0443\u0437\u0438\u0438", "brand:tr": "G\u00fcrcistan Bankas\u0131", "brand:wikidata": "Q2469733", "contact:email": "customerservice@bog.ge", "contact:instagram": "https://instagram.com/bankofgeorgia", "contact:linkedin": "https://linkedin.com/company/bank-of-georgia", "contact:phone": "+995322444444", "contact:website": "https://bankofgeorgia.ge", "contact:youtube": "https://youtube.com/user/BankofGeorgiaTV", "name": "\u10e1\u10d0\u10e5\u10d0\u10e0\u10d7\u10d5\u10d4\u10da\u10dd\u10e1 \u10d1\u10d0\u10dc\u10d9\u10d8", "name:en": "Bank of Georgia", "name:ka": "\u10e1\u10d0\u10e5\u10d0\u10e0\u10d7\u10d5\u10d4\u10da\u10dd\u10e1 \u10d1\u10d0\u10dc\u10d9\u10d8", "name:ru": "\u0411\u0430\u043d\u043a \u0413\u0440\u0443\u0437\u0438\u0438", "name:tr": "G\u00fcrcistan Bankas\u0131", "opening_hours": "Mo-Su 10:00-22:00", "operator:wikidata": "Q2469733", "short_name:en": "BoG"}}, {"type": "node", "id": 10989248174, "lat": 42.26323, "lon": 42.6710676}, {"type": "node", "id": 10989248175, "lat": 42.262961, "lon": 42.6711065}, {"type": "node", "id": 10989248176, "lat": 42.2629488, "lon": 42.6709528}, {"type": "node", "id": 10989248177, "lat": 42.2632178, "lon": 42.6709139}, {"type": "node", "id": 11007966540, "lat": 42.2666911, "lon": 42.6931257, "tags": {"amenity": "bank", "atm": "yes", "bic": "JSCRGE22", "brand": "\u10d9\u10e0\u10d4\u10d3\u10dd \u10d1\u10d0\u10dc\u10d9\u10d8", "brand:en": "Credo Bank", "brand:ru": "\u041a\u0440\u0435\u0434\u043e \u0411\u0430\u043d\u043a", "check_date": "2023-06-26", "contact:email": "info@credo.ge", "contact:facebook": "https://facebook.com/CredoBank", "contact:instagram": "https://instagram.com/credobank", "contact:linkedin": "https://linkedin.com/company/credo-bank", "contact:phone": "+995322424242", "contact:website": "https://credobank.ge", "contact:youtube": "https://youtube.com/channel/UC2Y_pR9O5bmlCiFGfoX5bmw", "name": "\u10d9\u10e0\u10d4\u10d3\u10dd \u10d1\u10d0\u10dc\u10d9\u10d8", "name:en": "Credo Bank", "name:ka": "\u10d9\u10e0\u10d4\u10d3\u10dd \u10d1\u10d0\u10dc\u10d9\u10d8", "name:ru": "\u041a\u0440\u0435\u0434\u043e \u0411\u0430\u043d\u043a", "short_name:en": "Credo", "short_name:ka": "\u10d9\u10e0\u10d4\u10d3\u10dd", "short_name:ru": "\u041a\u0440\u0435\u0434\u043e"}}, {"type": "node", "id": 11033111004, "lat": 42.2645953, "lon": 42.675892, "tags": {"amenity": "bank", "atm": "yes", "bic": "JSCRGE22", "brand": "\u10d9\u10e0\u10d4\u10d3\u10dd \u10d1\u10d0\u10dc\u10d9\u10d8", "brand:en": "Credo Bank", "brand:ru": "\u041a\u0440\u0435\u0434\u043e \u0411\u0430\u043d\u043a", "check_date": "2023-08-05", "contact:email": "info@credo.ge", "contact:facebook": "https://facebook.com/CredoBank", "contact:instagram": "https://instagram.com/credobank", "contact:linkedin": "https://linkedin.com/company/credo-bank", "contact:phone": "+995322424242", "contact:website": "https://credobank.ge", "contact:youtube": "https://youtube.com/channel/UC2Y_pR9O5bmlCiFGfoX5bmw", "name": "\u10d9\u10e0\u10d4\u10d3\u10dd \u10d1\u10d0\u10dc\u10d9\u10d8", "name:en": "Credo Bank", "name:ka": "\u10d9\u10e0\u10d4\u10d3\u10dd \u10d1\u10d0\u10dc\u10d9\u10d8", "name:ru": "\u041a\u0440\u0435\u0434\u043e \u0411\u0430\u043d\u043a", "opening_hours": "Mo-Fr 10:00-17:30; Sa 10:15-12:15", "short_name:en": "Credo", "short_name:ka": "\u10d9\u10e0\u10d4\u10d3\u10dd", "short_name:ru": "\u041a\u0440\u0435\u0434\u043e", "wheelchair": "no"}}, {"type": "node", "id": 11034272880, "lat": 42.2690231, "lon": 42.7043056, "tags": {"amenity": "bank", "atm": "yes", "bic": "LBRTGE22", "brand": "\u10da\u10d8\u10d1\u10d4\u10e0\u10d7\u10d8", "brand:en": "Liberty", "brand:ru": "\u041b\u0438\u0431\u0435\u0440\u0442\u0438", "brand:wikidata": "Q6541585", "check_date": "2023-07-08", "contact:email": "info@lb.ge", "contact:facebook": "https://facebook.com/libertybank.ge", "contact:instagram": "https://instagram.com/liberty_bank_", "contact:linkedin": "https://linkedin.com/company/libertybankge", "contact:phone": "+995322555500", "contact:website": "https://libertybank.ge", "name": "\u10da\u10d8\u10d1\u10d4\u10e0\u10d7\u10d8", "name:en": "Liberty", "name:ka": "\u10da\u10d8\u10d1\u10d4\u10e0\u10d7\u10d8", "name:ru": "\u041b\u0438\u0431\u0435\u0440\u0442\u0438", "opening_hours": "Mo-Fr 10:00-17:30; Sa 10:00-14:30", "operator:wikidata": "Q6541585"}}, {"type": "node", "id": 11091648023, "lat": 42.2647539, "lon": 42.676514, "tags": {"amenity": "bank", "atm": "yes", "bic": "LBRTGE22", "brand": "\u10da\u10d8\u10d1\u10d4\u10e0\u10d7\u10d8", "brand:en": "Liberty", "brand:ka": "\u10da\u10d8\u10d1\u10d4\u10e0\u10d7\u10d8 \u10d1\u10d0\u10dc\u10d9\u10d8", "brand:ru": "\u041b\u0438\u0431\u0435\u0440\u0442\u0438", "brand:wikidata": "Q6541585", "check_date": "2023-08-05", "contact:email": "info@lb.ge", "contact:facebook": "https://facebook.com/libertybank.ge", "contact:instagram": "https://instagram.com/liberty_bank_", "contact:linkedin": "https://linkedin.com/company/libertybankge", "contact:phone": "+995322555500", "contact:website": "https://libertybank.ge", "name": "\u10da\u10d8\u10d1\u10d4\u10e0\u10d7\u10d8", "name:en": "Liberty", "name:ka": "\u10da\u10d8\u10d1\u10d4\u10e0\u10d7\u10d8", "name:ru": "\u041b\u0438\u0431\u0435\u0440\u0442\u0438", "opening_hours": "Mo-Fr 10:00-17:30; Sa 10:00-14:30", "operator:wikidata": "Q6541585", "wheelchair": "yes"}}, {"type": "node", "id": 11097912862, "lat": 42.2578223, "lon": 42.6688474, "tags": {"amenity": "bank", "atm": "yes", "bic": "LBRTGE22", "brand": "\u10da\u10d8\u10d1\u10d4\u10e0\u10d7\u10d8", "brand:en": "Liberty", "brand:ka": "\u10da\u10d8\u10d1\u10d4\u10e0\u10d7\u10d8 \u10d1\u10d0\u10dc\u10d9\u10d8", "brand:ru": "\u041b\u0438\u0431\u0435\u0440\u0442\u0438", "brand:wikidata": "Q6541585", "check_date": "2023-08-07", "contact:email": "info@lb.ge", "contact:facebook": "https://facebook.com/libertybank.ge", "contact:instagram": "https://instagram.com/liberty_bank_", "contact:linkedin": "https://linkedin.com/company/libertybankge", "contact:phone": "+995322555500", "contact:website": "https://libertybank.ge", "name": "\u10da\u10d8\u10d1\u10d4\u10e0\u10d7\u10d8", "name:en": "Liberty", "name:ka": "\u10da\u10d8\u10d1\u10d4\u10e0\u10d7\u10d8", "name:ru": "\u041b\u0438\u0431\u0435\u0440\u0442\u0438", "operator:wikidata": "Q6541585"}}, {"type": "node", "id": 11146059084, "lat": 42.2697496, "lon": 42.7047614, "tags": {"amenity": "bank", "atm": "yes", "bic": "PAHAGE22", "brand": "\u10e0\u10d4|\u10d1\u10d0\u10dc\u10d9\u10d8", "brand:en": "Re|Bank", "brand:ru": "\u0420\u0435|\u0411\u0430\u043d\u043a", "check_date": "2023-08-26", "contact:email": "info@rebank.ge", "contact:facebook": "https://www.facebook.com/rebank.ge", "contact:instagram": "https://www.instagram.com/rebankforchanges", "contact:linkedin": "https://www.linkedin.com/company/rebank-ge", "contact:phone": "+995322222525", "contact:website": "https://rebank.ge", "contact:youtube": "https://www.youtube.com/channel/UCYZ6WinOLhj0a3hru8Yu1IA", "name": "\u10e0\u10d4|\u10d1\u10d0\u10dc\u10d9\u10d8", "name:en": "Re|Bank", "name:ka": "\u10e0\u10d4|\u10d1\u10d0\u10dc\u10d9\u10d8", "name:ru": "\u0420\u0435|\u0411\u0430\u043d\u043a", "opening_hours": "Mo-Fr 10:00-18:00; Sa 10:00-14:00", "operator": "\u10de\u10d0\u10e8\u10d0 \u10d1\u10d0\u10dc\u10d9\u10d8 \u10e1\u10d0\u10e5\u10d0\u10e0\u10d7\u10d5\u10d4\u10da\u10dd"}}, {"type": "node", "id": 11146064417, "lat": 42.2703278, "lon": 42.7049527, "tags": {"amenity": "bank", "brand": "\u10d9\u10e0\u10d8\u10e1\u10e2\u10d0\u10da\u10d8", "brand:en": "Crystal", "brand:ru": "\u041a\u0440\u0438\u0441\u0442\u0430\u043b", "check_date": "2023-08-26", "contact:facebook": "https://www.facebook.com/CrystalJscMfo", "contact:phone": "+995322022020", "contact:website": "https://crystal.ge", "contact:youtube": "https://www.youtube.com/user/MFOCrystal", "name": "\u10d9\u10e0\u10d8\u10e1\u10e2\u10d0\u10da\u10d8", "name:en": "Crystal", "name:ka": "\u10d9\u10e0\u10d8\u10e1\u10e2\u10d0\u10da\u10d8", "name:ru": "\u041a\u0440\u0438\u0441\u0442\u0430\u043b", "opening_hours": "Mo-Fr 09:30-19:00; Sa 09:30-17:30; Su 09:30-14:00"}}, {"type": "node", "id": 11594329705, "lat": 42.2700591, "lon": 42.7048911}, {"type": "way", "id": 353840658, "nodes": [3596393735, 3596393736, 10754408959, 3596393738, 3596393735], "tags": {"amenity": "bank", "atm": "yes", "bic": "TBCBGE22", "brand": "\u10d7\u10d8\u10d1\u10d8\u10e1\u10d8 \u10d1\u10d0\u10dc\u10d9\u10d8", "brand:en": "TBC Bank", "brand:ru": "\u0422\u0438\u0411\u0438\u0421\u0438 \u0411\u0430\u043d\u043a", "brand:wikidata": "Q2620975", "building": "yes", "check_date": "2023-08-28", "contact:facebook": "https://www.facebook.com/tbcbank", "contact:linkedin": "https://www.linkedin.com/company/tbc-bank/", "contact:phone": "+995322272727", "contact:twitter": "https://twitter.com/JSCTBC", "contact:website": "https://www.tbcbank.ge", "contact:youtube": "https://www.youtube.com/user/TBCBankTV", "name": "\u10d7\u10d8\u10d1\u10d8\u10e1\u10d8 \u10d1\u10d0\u10dc\u10d9\u10d8", "name:en": "TBC Bank", "name:ka": "\u10d7\u10d8\u10d1\u10d8\u10e1\u10d8 \u10d1\u10d0\u10dc\u10d9\u10d8", "name:ru": "\u0422\u0438\u0411\u0438\u0421\u0438 \u0411\u0430\u043d\u043a", "operator:wikidata": "Q2620975", "short_name:en": "TBC", "short_name:ka": "\u10d7\u10d8\u10d1\u10d8\u10e1\u10d8", "short_name:ru": "\u0422\u0438\u0411\u0438\u0421\u0438"}}, {"type": "way", "id": 354077066, "nodes": [3598541880, 11594329705, 3598541881, 3598541883, 3598541884, 3598541885, 3598541886, 3598541887, 3598541888, 3598541880], "tags": {"addr:city": "\u10e5\u10e3\u10d7\u10d0\u10d8\u10e1\u10d8", "addr:city:en": "Kutaisi", "addr:housenumber": "3\u10d0", "addr:housenumber2": "3A", "addr:postcode": "4600", "addr:street": "\u10d0\u10d9\u10d0\u10d9\u10d8 \u10ec\u10d4\u10e0\u10d4\u10d7\u10da\u10d8\u10e1 \u10e5\u10e3\u10e9\u10d0", "addr:street:en": "Akaki Tsereteli Street", "amenity": "bank", "atm": "yes", "bic": "MIBGGE22", "brand": "ProCredit Bank", "brand:en": "ProCredit Bank", "brand:ru": "\u041f\u0440\u043e\u041a\u0440\u0435\u0434\u0438\u0442 \u0411\u0430\u043d\u043a", "building": "yes", "building:levels": "2", "check_date": "2023-08-26", "contact:email": "geo.info@procredit-group.com", "contact:facebook": "https://facebook.com/procreditbankgeorgia", "contact:instagram": "https://instagram.com/procreditbankgeorgia", "contact:phone": "+995322202222", "contact:website": "https://procreditbank.ge", "name": "\u10de\u10e0\u10dd\u10d9\u10e0\u10d4\u10d3\u10d8\u10e2 \u10d1\u10d0\u10dc\u10d9\u10d8", "name:en": "ProCredit Bank", "name:ka": "\u10de\u10e0\u10dd\u10d9\u10e0\u10d4\u10d3\u10d8\u10e2 \u10d1\u10d0\u10dc\u10d9\u10d8", "name:ru": "\u041f\u0440\u043e\u041a\u0440\u0435\u0434\u0438\u0442 \u0411\u0430\u043d\u043a", "opening_hours": "10:00-18:00"}}, {"type": "way", "id": 442463899, "nodes": [4401431948, 5543529223, 5451629738, 5451629514, 5543528819, 5451629513, 5451629511, 4401431951, 4401431948], "tags": {"amenity": "bank", "building": "yes", "building:levels": "4"}}, {"type": "way", "id": 1183372912, "nodes": [10989248177, 10989248174, 10989248175, 10989248176, 10989248177], "tags": {"amenity": "bank", "atm": "yes", "bic": "TBCBGE22", "brand": "\u10d7\u10d8\u10d1\u10d8\u10e1\u10d8 \u10d1\u10d0\u10dc\u10d9\u10d8", "brand:en": "TBC Bank", "brand:ru": "\u0422\u0438\u0411\u0438\u0421\u0438 \u0411\u0430\u043d\u043a", "brand:wikidata": "Q2620975", "building": "yes", "contact:facebook": "https://www.facebook.com/tbcbank", "contact:linkedin": "https://www.linkedin.com/company/tbc-bank/", "contact:phone": "+995322272727", "contact:twitter": "https://twitter.com/JSCTBC", "contact:website": "https://www.tbcbank.ge", "contact:youtube": "https://www.youtube.com/user/TBCBankTV", "name": "\u10d7\u10d8\u10d1\u10d8\u10e1\u10d8 \u10d1\u10d0\u10dc\u10d9\u10d8", "name:en": "TBC Bank", "name:ka": "\u10d7\u10d8\u10d1\u10d8\u10e1\u10d8 \u10d1\u10d0\u10dc\u10d9\u10d8", "name:ru": "\u0422\u0438\u0411\u0438\u0421\u0438 \u0411\u0430\u043d\u043a", "operator:wikidata": "Q2620975", "short_name:en": "TBC", "short_name:ka": "\u10d7\u10d8\u10d1\u10d8\u10e1\u10d8", "short_name:ru": "\u0422\u0438\u0411\u0438\u0421\u0438"}}]}