{"version": 0.6, "generator": "Overpass API 0.7.61.5 4133829e", "osm3s": {"timestamp_osm_base": "2024-03-13T23:10:52Z", "copyright": "The data included in this document is from www.openstreetmap.org. The data is made available under ODbL."}, "elements": [{"type": "node", "id": 1148161682, "lat": 42.4191051, "lon": 42.4921657, "tags": {"amenity": "restaurant", "check_date": "2023-07-22", "name": "\u10ee\u10d8\u10d3\u10d8", "name:en": "Khidi", "name:ka": "\u10ee\u10d8\u10d3\u10d8", "source": "JumpStart International"}}, {"type": "node", "id": 1148161689, "lat": 42.3236346, "lon": 42.4209773, "tags": {"amenity": "restaurant", "name": "\u10ee\u10dd\u10dc\u10d8 (Khoni)", "name:en": "Kalakis Chrdilshi", "name:fr": "Kalakis Chrdilshi", "name:ka": "\u10e5\u10d0\u10da\u10d0\u10e5\u10d8\u10e1 \u10e9\u10e0\u10d3\u10d8\u10da\u10e8\u10d8", "source": "JumpStart International"}}, {"type": "node", "id": 1148161691, "lat": 42.3270528, "lon": 42.4182332, "tags": {"addr:city": "Khoni", "addr:country": "GE", "addr:housenumber": "24", "addr:street": "Chavchavadze st. 8", "amenity": "nightclub", "name": "\u10e6\u10d0\u10db\u10d8\u10e1 \u10d1\u10d0\u10e0\u10d8 (Gamis Bar)", "name:en": "Gamis Bar", "name:ka": "\u10e6\u10d0\u10db\u10d8\u10e1 \u10d1\u10d0\u10e0\u10d8", "source": "JumpStart International"}}, {"type": "node", "id": 1148161715, "lat": 42.3246511, "lon": 42.4234591, "tags": {"amenity": "restaurant", "name": "\u10db\u10d4\u10d2\u10dd\u10d1\u10d0\u10e0\u10d8 (Megobari)", "name:en": "Megobari", "name:ka": "\u10db\u10d4\u10d2\u10dd\u10d1\u10d0\u10e0\u10d8", "source": "JumpStart International"}}, {"type": "node", "id": 1148161730, "lat": 42.3249252, "lon": 42.4234748, "tags": {"amenity": "restaurant", "name": "\u10e1\u10d0\u10de\u10e3\u10e0\u10db\u10d0\u10e0\u10d8\u10da\u10dd (Sapurmarilo)", "name:en": "Sapurmarilo", "name:ka": "\u10e1\u10d0\u10de\u10e3\u10e0\u10db\u10d0\u10e0\u10d8\u10da\u10dd", "source": "JumpStart International"}}, {"type": "node", "id": 1164536498, "lat": 42.3565622, "lon": 42.5965058, "tags": {"amenity": "restaurant", "name": "\u10e1\u10e2\u10d0\u10da\u10d0\u10e5\u10e2\u10d8\u10e2\u10d0 (Stalaktita)", "name:en": "Stalaktita", "name:ka": "\u10e1\u10e2\u10d0\u10da\u10d0\u10e5\u10e2\u10d8\u10e2\u10d0", "source": "JumpStart International"}}, {"type": "node", "id": 1164538222, "lat": 42.3754645, "lon": 42.6001507, "tags": {"amenity": "restaurant", "name": "Prometheus Veranda", "source": "JumpStart International"}}, {"type": "node", "id": 1164538282, "lat": 42.3734647, "lon": 42.5971763, "tags": {"amenity": "restaurant", "source": "JumpStart International"}}, {"type": "node", "id": 1185723357, "lat": 42.6327979, "lon": 42.1758173, "tags": {"amenity": "cafe", "source": "JumpStart International"}}, {"type": "node", "id": 1185724729, "lat": 42.4147522, "lon": 42.3805387, "tags": {"amenity": "cafe", "source": "JumpStart International"}}, {"type": "node", "id": 1185728694, "lat": 42.4144699, "lon": 42.3786001, "tags": {"amenity": "cafe", "source": "JumpStart International"}}, {"type": "node", "id": 1185729380, "lat": 42.3468416, "lon": 42.1913429, "tags": {"amenity": "restaurant", "cuisine": "regional", "name": "\u10e4\u10d0\u10ea\u10ee\u10d0 (Patska)", "name:en": "Patska", "name:ka": "\u10e4\u10d0\u10ea\u10ee\u10d0", "source": "JumpStart International"}}, {"type": "node", "id": 1185733112, "lat": 42.3572932, "lon": 42.1978549, "tags": {"amenity": "restaurant", "cuisine": "regional", "name": "\u10ef\u10d8\u10ee\u10d0 (Jikha)", "name:en": "Jikha", "name:ka": "\u10ef\u10d8\u10ee\u10d0", "source": "JumpStart International"}}, {"type": "node", "id": 4308973400, "lat": 42.4957524, "lon": 42.5557592, "tags": {"amenity": "cafe"}}, {"type": "node", "id": 4311649892, "lat": 42.4546277, "lon": 42.5268994, "tags": {"amenity": "bar", "name": "Twins"}}, {"type": "node", "id": 4311649894, "lat": 42.3758308, "lon": 42.6005359, "tags": {"amenity": "restaurant"}}, {"type": "node", "id": 4339442692, "lat": 42.3756971, "lon": 42.6005868, "tags": {"amenity": "restaurant"}}, {"type": "node", "id": 4358474689, "lat": 42.4571159, "lon": 42.3775488, "tags": {"amenity": "restaurant", "check_date": "2023-07-22", "name": "\u10d2\u10dd\u10ed\u10d9\u10d0\u10d3\u10d8\u10da\u10d8", "name:en": "Gochkadili", "name:ka": "\u10d2\u10dd\u10ed\u10d9\u10d0\u10d3\u10d8\u10da\u10d8"}}, {"type": "node", "id": 4384365489, "lat": 42.4555515, "lon": 42.5272208, "tags": {"amenity": "cafe", "check_date": "2023-07-22"}}, {"type": "node", "id": 4395915811, "lat": 42.3898718, "lon": 42.4325051, "tags": {"amenity": "cafe", "cuisine": "georgian", "name:ru": "\u0448\u0430\u0448\u043b\u044b\u0447\u043d\u0430\u044f"}}, {"type": "node", "id": 4398596592, "lat": 42.491306, "lon": 42.4257422, "tags": {"amenity": "cafe"}}, {"type": "node", "id": 4445860490, "lat": 42.4141157, "lon": 42.3779172, "tags": {"addr:street": "\u10ed\u10d0\u10d5\u10ed\u10d0\u10d5\u10d0\u10eb\u10d8\u10e1 \u10e5\u10e3\u10e9\u10d0 (Chavchavadze St)", "amenity": "restaurant", "cuisine": "georgian", "name": "oda", "name:ka": "oda", "name:ru": "\u043e\u0434\u0430"}}, {"type": "node", "id": 4864791621, "lat": 42.3153375, "lon": 42.5954171, "tags": {"addr:street": "\u10e0\u10e3\u10e1\u10d7\u10d0\u10d5\u10d4\u10da\u10d8\u10e1 \u10e5\u10e3\u10e9\u10d0 (Rustaveli St)", "amenity": "bar", "cuisine": "tapas", "email": "imeretitravel@gmail.com", "internet_access": "wlan", "name": "\u10e2\u10d0\u10de\u10d0\u10e1", "name:en": "Tapas", "name:ka": "\u10e2\u10d0\u10de\u10d0\u10e1", "name:ru": "\u0422\u0430\u043f\u0430\u0441", "opening_hours": "Mo-Su 12:00-00:00", "phone": "+995598327377", "website": "http://www.facebook.com/tapasbarandcafe"}}, {"type": "node", "id": 4873696122, "lat": 42.3161444, "lon": 42.5963088, "tags": {"addr:street": "\u0446\u0435\u043d\u0442\u0440\u0430\u043b\u044c\u043d\u044b\u0439 \u043f\u0430\u0440\u043a", "amenity": "cafe", "cuisine": "italian;international;spanish;cake;tea;coffee_shop;tapas", "internet_access": "wlan", "name:en": "Tapas", "name:ru": "\u0422\u0430\u043f\u0430\u0441", "opening_hours": "Mo-Su 12:00-00:00"}}, {"type": "node", "id": 4924391821, "lat": 42.3294581, "lon": 42.5999045, "tags": {"addr:housenumber": "8", "addr:street": "\u10d0\u10d5\u10d0\u10da\u10d8\u10d0\u10dc\u10d8\u10e1 \u10e5\u10e3\u10e9\u10d0", "amenity": "cafe", "cuisine": "breakfast;georgian;pizza", "internet_access": "wlan", "name": "\u10db\u10d8\u10d2\u10d4\u10da\u10d8", "name:en": "Migel", "name:ka": "\u10db\u10d8\u10d2\u10d4\u10da\u10d8", "name:ru": "\u041c\u0438\u0433\u0435\u043b", "opening_hours": "Mo-Su 10:00-00:00", "operator": "\u041c\u0438\u0445\u0430\u0438\u043b", "phone": "+995574401796"}}, {"type": "node", "id": 4933665621, "lat": 42.414396, "lon": 42.3785784, "tags": {"amenity": "bar", "name:it": "Martvili per il canion"}}, {"type": "node", "id": 5647630621, "lat": 42.3294294, "lon": 42.5984741, "tags": {"amenity": "cafe", "name:de": "Caf\u00e9"}}, {"type": "node", "id": 5964596687, "lat": 42.3626216, "lon": 42.5997378, "tags": {"amenity": "cafe", "cuisine": "georgian", "name:en": "sweet village"}}, {"type": "node", "id": 6120206607, "lat": 42.3303247, "lon": 42.5980289, "tags": {"amenity": "restaurant", "name": "Restaurant Khvanli"}}, {"type": "node", "id": 6120206611, "lat": 42.3284186, "lon": 42.5989381, "tags": {"amenity": "cafe", "cuisine": "georgian", "internet_access": "wlan", "name": "\u10e9\u10d5\u10d4\u10dc\u10d8 \u10e7\u10d0\u10da\u10d0\u10e7\u10d8", "name:en": "Chveni Qalaqi"}}, {"type": "node", "id": 6120208247, "lat": 42.3312268, "lon": 42.6082386}, {"type": "node", "id": 6120208248, "lat": 42.3311157, "lon": 42.6082399}, {"type": "node", "id": 6120208249, "lat": 42.3311178, "lon": 42.6085698}, {"type": "node", "id": 6120208250, "lat": 42.3312289, "lon": 42.6085685}, {"type": "node", "id": 6120209305, "lat": 42.32681, "lon": 42.6008893}, {"type": "node", "id": 6120209306, "lat": 42.3271806, "lon": 42.6008196}, {"type": "node", "id": 6120209307, "lat": 42.3268186, "lon": 42.600771}, {"type": "node", "id": 6120209308, "lat": 42.3268072, "lon": 42.600927}, {"type": "node", "id": 6120209309, "lat": 42.3271692, "lon": 42.6009756}, {"type": "node", "id": 6130546886, "lat": 42.3470409, "lon": 42.3248184, "tags": {"addr:postcode": "3100", "addr:street": "Vil. Lekhaindrao", "amenity": "restaurant", "cuisine": "georgian", "internet_access": "wlan", "name": "\u10da\u10d0\u10e8\u10d0\u10e1 \u10d4\u10d7\u10dc\u10dd\u10e1\u10d0\u10ee\u10da\u10d8", "name:en": "Lasha's EthnoHouse", "opening_hours": "24/7", "phone": "551091299"}}, {"type": "node", "id": 6445303819, "lat": 42.3980471, "lon": 42.3541676, "tags": {"amenity": "restaurant", "name:en": "Sanapiro", "name:ru": "\u0421\u0430\u043d\u0430\u043f\u0438\u0440\u043e"}}, {"type": "node", "id": 6775009186, "lat": 42.4173135, "lon": 42.3802241, "tags": {"amenity": "restaurant", "name:en": "Georgian restaurant"}}, {"type": "node", "id": 7133389885, "lat": 42.3270943, "lon": 42.6042823, "tags": {"amenity": "restaurant", "name:en": "Violino"}}, {"type": "node", "id": 9035807194, "lat": 42.4554877, "lon": 42.5278486, "tags": {"amenity": "cafe", "check_date": "2023-07-22", "cuisine": "georgian"}}, {"type": "node", "id": 10102922517, "lat": 42.3305899, "lon": 42.5984168, "tags": {"amenity": "cafe", "name": "\u10ee\u10d8\u10dc\u10d9\u10da\u10d8\u10e1 \u10e1\u10d0\u10ee\u10da\u10d8", "name:en": "Khinkli's house", "name:ka": "\u10ee\u10d8\u10dc\u10d9\u10da\u10d8\u10e1 \u10e1\u10d0\u10ee\u10da\u10d8", "name:ru": "\u0414\u043e\u043c \u0425\u0438\u043d\u043a\u0430\u043b\u0435\u0439"}}, {"type": "node", "id": 10118977717, "lat": 42.3264286, "lon": 42.6013024, "tags": {"amenity": "restaurant", "name:en": "Magnolia"}}, {"type": "node", "id": 10886232305, "lat": 42.4576696, "lon": 42.3771107, "tags": {"amenity": "cafe", "check_date": "2023-07-22", "name": "\u10d9\u10d0\u10dc\u10d8\u10dd\u10dc\u10d4\u10da", "name:en": "Canionel", "name:ka": "\u10d9\u10d0\u10dc\u10d8\u10dd\u10dc\u10d4\u10da"}}, {"type": "node", "id": 11061339202, "lat": 42.4490923, "lon": 42.5477539, "tags": {"amenity": "cafe", "check_date": "2023-07-22"}}, {"type": "node", "id": 11061593282, "lat": 42.4057891, "lon": 42.3790166, "tags": {"amenity": "cafe", "check_date": "2023-07-22"}}, {"type": "node", "id": 11203983637, "lat": 42.3692183, "lon": 42.5994487, "tags": {"amenity": "restaurant", "cuisine": "georgian", "name": "Old Marani", "name:fr": "Restaurant", "outdoor_seating": "yes"}}, {"type": "way", "id": 652975812, "nodes": [6120208247, 6120208248, 6120208249, 6120208250, 6120208247], "tags": {"amenity": "restaurant", "building": "yes", "name": "Lakeside Restaurant"}}, {"type": "way", "id": 652976819, "nodes": [6120209306, 6120209307, 6120209305, 6120209308, 6120209309, 6120209306], "tags": {"amenity": "cafe", "building": "yes", "name": "Cafe Nektari"}}]}