{"version": 0.6, "generator": "Overpass API 0.7.61.5 4133829e", "osm3s": {"timestamp_osm_base": "2024-03-13T23:10:01Z", "copyright": "The data included in this document is from www.openstreetmap.org. The data is made available under ODbL."}, "elements": [{"type": "node", "id": 963409562, "lat": 42.505094, "lon": 41.871055, "tags": {"addr:city": "Zugdidi", "addr:country": "GE", "amenity": "bar", "fixme": "address? operator? tenant?", "name": "\u10e1\u10d8\u10e2\u10d8 \u10d1\u10d0\u10e0\u10d8", "name:en": "City Bar", "name:ka": "\u10e1\u10d8\u10e2\u10d8 \u10d1\u10d0\u10e0\u10d8", "source": "JumpStart International"}}, {"type": "node", "id": 1185723362, "lat": 42.5044205, "lon": 41.8700323, "tags": {"amenity": "cafe", "name": "\u10dd\u10ea\u10dc\u10d4\u10d1\u10d0", "name:en": "Otsneba", "name:ka": "\u10dd\u10ea\u10dc\u10d4\u10d1\u10d0", "name:ru": "\u041e\u0446\u043d\u0435\u0431\u0430", "source": "JumpStart International"}}, {"type": "node", "id": 1185723548, "lat": 42.5100619, "lon": 41.869586, "tags": {"amenity": "cafe", "name": "\u10ef\u10d8\u10ee\u10d0", "name:en": "Jikha", "name:ka": "\u10ef\u10d8\u10ee\u10d0", "name:ru": "\u0414\u0436\u0438\u0445\u0430", "source": "JumpStart International"}}, {"type": "node", "id": 1185724912, "lat": 42.5056094, "lon": 41.8703319, "tags": {"amenity": "cafe", "name": "\u10dd\u10d0\u10d6\u10d8\u10e1\u10d8", "name:en": "Oasis", "name:ka": "\u10dd\u10d0\u10d6\u10d8\u10e1\u10d8", "source": "JumpStart International"}}, {"type": "node", "id": 1185725121, "lat": 42.5083516, "lon": 41.8719453, "tags": {"amenity": "cafe", "name": "\u10d0\u10ee\u10d0\u10da\u10d8 \u10d2\u10d4\u10db\u10dd", "name:en": "Akhali Gemo", "name:ka": "\u10d0\u10ee\u10d0\u10da\u10d8 \u10d2\u10d4\u10db\u10dd", "name:ru": "\u0410\u0445\u0430\u043b\u0438 \u0413\u0435\u043c\u043e", "source": "JumpStart International"}}, {"type": "node", "id": 1185725911, "lat": 42.5041781, "lon": 41.8802317, "tags": {"amenity": "bar", "name": "\u10d1\u10dd\u10e0\u10d0-\u10d1\u10dd\u10e0\u10d0", "name:en": "Bora-Bora", "name:ka": "\u10d1\u10dd\u10e0\u10d0-\u10d1\u10dd\u10e0\u10d0", "name:ru": "\u0411\u043e\u0440\u0430-\u0411\u043e\u0440\u0430", "source": "JumpStart International"}}, {"type": "node", "id": 1185726089, "lat": 42.5089723, "lon": 41.8690571, "tags": {"amenity": "cafe", "source": "JumpStart International"}}, {"type": "node", "id": 1185726218, "lat": 42.4961742, "lon": 41.8615928, "tags": {"amenity": "cafe", "name": "\u10dc\u10d8\u10dc\u10dd (Nino)", "name:en": "Nino", "name:ka": "\u10dc\u10d8\u10dc\u10dd", "source": "JumpStart International"}}, {"type": "node", "id": 1185726436, "lat": 42.5191326, "lon": 42.1268142, "tags": {"amenity": "restaurant", "cuisine": "regional", "name": "\u10d1\u10d0\u10e0\u10ef\u10d0", "name:en": "Barja", "name:ka": "\u10d1\u10d0\u10e0\u10ef\u10d0", "name:ru": "\u0411\u0430\u0440\u0434\u0436\u0430", "source": "JumpStart International"}}, {"type": "node", "id": 1185726601, "lat": 42.5028494, "lon": 41.8694433, "tags": {"amenity": "cafe", "name": "\u10ee\u10d8\u10dc\u10d9\u10da\u10d8\u10e1 \u10d3\u10d0\u10e0\u10d1\u10d0\u10d6\u10d8 (Khinklis Darbazi)", "name:en": "Khinklis Darbazi", "name:ka": "\u10ee\u10d8\u10dc\u10d9\u10da\u10d8\u10e1 \u10d3\u10d0\u10e0\u10d1\u10d0\u10d6\u10d8", "source": "JumpStart International"}}, {"type": "node", "id": 1185727619, "lat": 42.5059195, "lon": 41.8736146, "tags": {"addr:housenumber": "85", "addr:street": "\u10e0\u10e3\u10e1\u10d7\u10d0\u10d5\u10d4\u10da\u10d8\u10e1 \u10e5\u10e3\u10e9\u10d0", "amenity": "restaurant", "cuisine": "regional", "internet_access": "wlan", "name": "\u10db\u10d4\u10d9\u10dd\u10d1\u10e0\u10d4", "name:de": "El Barco", "name:en": "El barco", "name:ka": "\u10db\u10d4\u10d9\u10dd\u10d1\u10e0\u10d4", "source": "JumpStart International"}}, {"type": "node", "id": 1185727773, "lat": 42.5035475, "lon": 41.8674382, "tags": {"amenity": "cafe", "name": "\u10d3\u10e3\u10e5\u10d0\u10dc\u10d8 \u10db\u10dd\u10d4\u10d3\u10d0\u10dc\u10d6\u10d4 (Dukani Moedanze)", "name:en": "Dukani Moedanze", "name:ka": "\u10d3\u10e3\u10e5\u10d0\u10dc\u10d8 \u10db\u10dd\u10d4\u10d3\u10d0\u10dc\u10d6\u10d4", "source": "JumpStart International"}}, {"type": "node", "id": 1185727796, "lat": 42.5099204, "lon": 41.85924, "tags": {"amenity": "cafe", "source": "JumpStart International"}}, {"type": "node", "id": 1185727893, "lat": 42.5075332, "lon": 41.8693825, "tags": {"amenity": "cafe", "source": "JumpStart International"}}, {"type": "node", "id": 1185728008, "lat": 42.5044479, "lon": 41.8678068, "tags": {"amenity": "bar", "name": "\u10da\u10e3\u10d3\u10d8\u10e1 \u10d1\u10d0\u10e0\u10d8 (Beer Bar)", "name:en": "Beer Bar", "name:ka": "\u10da\u10e3\u10d3\u10d8\u10e1 \u10d1\u10d0\u10e0\u10d8", "source": "JumpStart International"}}, {"type": "node", "id": 1185728023, "lat": 42.4828605, "lon": 41.867357, "tags": {"amenity": "cafe", "source": "JumpStart International"}}, {"type": "node", "id": 1185728130, "lat": 42.5053923, "lon": 41.8709821, "tags": {"amenity": "cafe", "name": "\u10d0\u10e5\u10d0\u10e2\u10d8", "name:en": "Akati", "name:ka": "\u10d0\u10e5\u10d0\u10e2\u10d8", "name:ru": "\u0410\u043a\u0430\u0442\u0438", "source": "JumpStart International"}}, {"type": "node", "id": 1185728481, "lat": 42.5077947, "lon": 41.8701023, "tags": {"amenity": "cafe", "name": "\u10e9\u10d4\u10e0\u10dd (Chero)", "name:en": "Chero", "name:ka": "\u10e9\u10d4\u10e0\u10dd", "source": "JumpStart International"}}, {"type": "node", "id": 1185728547, "lat": 42.333449, "lon": 41.873247, "tags": {"amenity": "restaurant", "name": "\u10e0\u10d4\u10e1\u10e2\u10dd\u10e0\u10d0\u10dc\u10d8 \u10d9\u10dd\u10da\u10ee\u10d4\u10d7\u10d8 (Kolkheti Restaurant)", "name:en": "Kolkheti Restaurant", "name:ka": "\u10e0\u10d4\u10e1\u10e2\u10dd\u10e0\u10d0\u10dc\u10d8 \u10d9\u10dd\u10da\u10ee\u10d4\u10d7\u10d8", "source": "JumpStart International"}}, {"type": "node", "id": 1185728702, "lat": 42.5048926, "lon": 41.8742162, "tags": {"amenity": "restaurant", "cuisine": "regional", "name": "\u10e4\u10d0\u10ea\u10ee\u10d0 \u10db\u10d0\u10e0\u10d2\u10d0\u10da\u10d8\u10e8\u10d8", "name:en": "Patskha Margalishi", "name:ka": "\u10e4\u10d0\u10ea\u10ee\u10d0 \u10db\u10d0\u10e0\u10d2\u10d0\u10da\u10d8\u10e8\u10d8", "name:ru": "\u041f\u0430\u0446\u0445\u0430 \u041c\u0430\u0440\u0433\u0430\u043b\u0438\u0448\u0438", "source": "JumpStart International"}}, {"type": "node", "id": 1185728792, "lat": 42.500249, "lon": 41.8378205, "tags": {"amenity": "restaurant", "cuisine": "regional", "name": "\u10d3\u10d8\u10d3\u10d4\u10d1\u10e3\u10da\u10d8 (Didebuli)", "name:en": "Didebuli", "name:ka": "\u10d3\u10d8\u10d3\u10d4\u10d1\u10e3\u10da\u10d8", "source": "JumpStart International"}}, {"type": "node", "id": 1185728838, "lat": 42.5078961, "lon": 41.8779897, "tags": {"amenity": "restaurant", "name": "\u10e0\u10d4\u10e1\u10e2\u10dd\u10e0\u10d0\u10dc\u10d8 \u10e3\u10d9\u10e0\u10d0\u10d8\u10dc\u10d0", "name:en": "Ukraina Restaurant", "name:ka": "\u10e0\u10d4\u10e1\u10e2\u10dd\u10e0\u10d0\u10dc\u10d8 \u10e3\u10d9\u10e0\u10d0\u10d8\u10dc\u10d0", "name:ru": "\u0423\u043a\u0440\u0430\u0438\u043d\u0430", "name:uk": "\u0423\u043a\u0440\u0430\u0457\u043d\u0430", "source": "JumpStart International"}}, {"type": "node", "id": 1185728948, "lat": 42.6092099, "lon": 42.0713236, "tags": {"amenity": "restaurant", "cuisine": "regional", "name": "\u10da\u10d0\u10d9\u10d0\u10d3\u10d0", "name:en": "Lakada", "name:ka": "\u10da\u10d0\u10d9\u10d0\u10d3\u10d0", "name:ru": "\u041b\u0430\u043a\u0430\u0434\u0430", "source": "JumpStart International"}}, {"type": "node", "id": 1185729074, "lat": 42.5044469, "lon": 41.8681479, "tags": {"amenity": "cafe", "name": "\u10d6\u10e3\u10d2\u10d3\u10d8\u10d3\u10d8 (Zugdidi)", "name:en": "Zugdidi", "name:ka": "\u10d6\u10e3\u10d2\u10d3\u10d8\u10d3\u10d8", "source": "JumpStart International"}}, {"type": "node", "id": 1185729619, "lat": 42.4685022, "lon": 41.8381209, "tags": {"amenity": "restaurant", "cuisine": "georgian", "name": "\u10e0\u10d4\u10e2\u10e0\u10dd (Retro)", "name:en": "Retro", "name:ka": "\u10e0\u10d4\u10e2\u10e0\u10dd", "source": "JumpStart International"}}, {"type": "node", "id": 1185729775, "lat": 42.4892949, "lon": 41.811984, "tags": {"amenity": "restaurant", "name": "\u10e1\u10d0\u10db\u10d4\u10e4\u10dd (Samepo)", "name:en": "Samepo", "name:ka": "\u10e1\u10d0\u10db\u10d4\u10e4\u10dd", "source": "JumpStart International"}}, {"type": "node", "id": 1185729896, "lat": 42.5073629, "lon": 41.8711986, "tags": {"amenity": "restaurant", "name": "\u10d2\u10e3\u10e0\u10db\u10d0\u10dc\u10d8 (Gurmani)", "name:en": "Gurmani", "name:ka": "\u10d2\u10e3\u10e0\u10db\u10d0\u10dc\u10d8", "source": "JumpStart International"}}, {"type": "node", "id": 1185730961, "lat": 42.507283, "lon": 41.8694652, "tags": {"amenity": "restaurant", "name": "\u10da\u10d0\u10ea\u10d0\u10e0\u10dd", "name:en": "Latsaro", "name:ka": "\u10da\u10d0\u10ea\u10d0\u10e0\u10dd", "name:ru": "\u041b\u0430\u0446\u0430\u0440\u043e+", "source": "JumpStart International"}}, {"type": "node", "id": 1185731107, "lat": 42.6107847, "lon": 42.0744762, "tags": {"amenity": "restaurant", "cuisine": "regional", "name": "\u10e0\u10d4\u10e1\u10e2\u10dd\u10e0\u10d0\u10dc\u10d8 \u10d1\u10d0\u10d7\u10e3", "name:en": "Batu Restaurant", "name:ka": "\u10e0\u10d4\u10e1\u10e2\u10dd\u10e0\u10d0\u10dc\u10d8 \u10d1\u10d0\u10d7\u10e3", "name:ru": "\u0411\u0430\u0442\u0443", "source": "JumpStart International"}}, {"type": "node", "id": 1185731448, "lat": 42.5073701, "lon": 41.8725551, "tags": {"amenity": "cafe", "name": "\u10db\u10d4\u10d2\u10e0\u10e3\u10da\u10d8 \u10da\u10e3\u10da\u10d0 (Megruli Lula)", "name:en": "Megruli Lula", "name:ka": "\u10db\u10d4\u10d2\u10e0\u10e3\u10da\u10d8 \u10da\u10e3\u10da\u10d0", "source": "JumpStart International"}}, {"type": "node", "id": 1185731501, "lat": 42.5056928, "lon": 41.8693923, "tags": {"amenity": "cafe", "name": "\u10e8\u10d0\u10d9\u10dd (Shako)", "name:en": "Shako", "name:ka": "\u10e8\u10d0\u10d9\u10dd", "source": "JumpStart International"}}, {"type": "node", "id": 1185731535, "lat": 42.5070997, "lon": 41.8518939, "tags": {"amenity": "cafe", "source": "JumpStart International"}}, {"type": "node", "id": 1185731901, "lat": 42.4892269, "lon": 41.8594046, "tags": {"amenity": "restaurant", "name": "\u10d0\u10dc\u10e2\u10e0\u10d4 (Entree)", "name:en": "Entree", "name:ka": "\u10d0\u10dc\u10e2\u10e0\u10d4", "source": "JumpStart International"}}, {"type": "node", "id": 1185732171, "lat": 42.5208343, "lon": 42.1286306, "tags": {"amenity": "cafe", "source": "JumpStart International"}}, {"type": "node", "id": 1185732385, "lat": 42.5069414, "lon": 41.8732815, "tags": {"amenity": "restaurant", "cuisine": "regional", "name": "\u10d3\u10d8\u10d0\u10e0\u10dd\u10dc\u10d8", "name:en": "Diaroni", "name:ka": "\u10d3\u10d8\u10d0\u10e0\u10dd\u10dc\u10d8", "name:ru": "\u0414\u0438\u0430\u0440\u043e\u043d\u0438", "source": "JumpStart International"}}, {"type": "node", "id": 1185732544, "lat": 42.5095287, "lon": 41.859193, "tags": {"amenity": "cafe", "source": "JumpStart International"}}, {"type": "node", "id": 1185732690, "lat": 42.3952057, "lon": 41.7909991, "tags": {"amenity": "restaurant", "name": "\u10e0\u10d4\u10e1\u10e2\u10dd\u10e0\u10d0\u10dc\u10d8 \u10ef\u10d4\u10d2\u10d4\u10d7\u10d0 (Jegeta Restaurant)", "name:en": "Jegeta Restaurant", "name:ka": "\u10e0\u10d4\u10e1\u10e2\u10dd\u10e0\u10d0\u10dc\u10d8 \u10ef\u10d4\u10d2\u10d4\u10d7\u10d0", "source": "JumpStart International"}}, {"type": "node", "id": 1185732751, "lat": 42.3166095, "lon": 41.9032083, "tags": {"amenity": "cafe", "source": "JumpStart International"}}, {"type": "node", "id": 1185732877, "lat": 42.4914484, "lon": 41.8610814, "tags": {"amenity": "restaurant", "source": "JumpStart International"}}, {"type": "node", "id": 1185733037, "lat": 42.5051099, "lon": 41.8691398, "tags": {"amenity": "cafe", "name": "\u10e8\u10e3\u10d0 \u10e5\u10d0\u10da\u10d0\u10e5\u10e8\u10d8 (Shua Kalakshi)", "name:en": "Shua Kalakshi", "name:ka": "\u10e8\u10e3\u10d0 \u10e5\u10d0\u10da\u10d0\u10e5\u10e8\u10d8", "source": "JumpStart International"}}, {"type": "node", "id": 1185733319, "lat": 42.6108477, "lon": 42.0746755, "tags": {"amenity": "cafe", "name": "\u10d9\u10d0\u10e4\u10d4 \u10dc\u10d0\u10e2\u10d0\u10da\u10d8", "name:en": "Natali Cafe", "name:ka": "\u10d9\u10d0\u10e4\u10d4 \u10dc\u10d0\u10e2\u10d0\u10da\u10d8", "name:ru": "Natali Cafe", "source": "JumpStart International"}}, {"type": "node", "id": 1185733547, "lat": 42.6091815, "lon": 42.0713293, "tags": {"amenity": "bar", "name": "\u10da\u10d0\u10d9\u10d0\u10d3\u10d0", "name:en": "Lakada", "name:ka": "\u10da\u10d0\u10d9\u10d0\u10d3\u10d0", "name:ru": "\u041b\u0430\u043a\u0430\u0434\u0430", "source": "JumpStart International"}}, {"type": "node", "id": 1185733605, "lat": 42.5079223, "lon": 41.8687755, "tags": {"amenity": "cafe", "name": "\u10d8\u10d5\u10d4\u10e0\u10d8\u10d0", "name:en": "Iveria", "name:ka": "\u10d8\u10d5\u10d4\u10e0\u10d8\u10d0", "name:ru": "\u0418\u0432\u0435\u0440\u0438\u044f", "source": "JumpStart International"}}, {"type": "node", "id": 1185733746, "lat": 42.5020821, "lon": 41.8671177, "tags": {"amenity": "restaurant", "cuisine": "regional", "name": "\u10d3\u10d8\u10dd\u10e1\u10d9\u10e3\u10e0\u10d8\u10d0", "name:en": "Dioskuria", "name:ka": "\u10d3\u10d8\u10dd\u10e1\u10d9\u10e3\u10e0\u10d8\u10d0", "name:ru": "\u0414\u0438\u043e\u0441\u043a\u0443\u0440\u0438\u044f", "source": "JumpStart International"}}, {"type": "node", "id": 1185733896, "lat": 42.505957, "lon": 41.8727659, "tags": {"amenity": "cafe", "name": "\u10d1\u10d8\u10e1\u10e2\u10e0\u10dd \u10d5\u10d8\u10e2\u10dd (Bistro Vito)", "name:en": "Bistro Vito", "name:ka": "\u10d1\u10d8\u10e1\u10e2\u10e0\u10dd \u10d5\u10d8\u10e2\u10dd", "source": "JumpStart International"}}, {"type": "node", "id": 1185733925, "lat": 42.5082562, "lon": 41.8726129, "tags": {"amenity": "cafe", "name": "\u10d9\u10d0\u10e4\u10d4 \u10d0\u10da\u10d4\u10e0\u10e2\u10d8", "name:en": "Alerti Cafe", "name:ka": "\u10d9\u10d0\u10e4\u10d4 \u10d0\u10da\u10d4\u10e0\u10e2\u10d8", "name:ru": "Alerti Cafe", "source": "JumpStart International"}}, {"type": "node", "id": 1185734211, "lat": 42.3892728, "lon": 41.8003307, "tags": {"amenity": "cafe", "source": "JumpStart International"}}, {"type": "node", "id": 2338960742, "lat": 42.5040583, "lon": 41.8674566, "tags": {"addr:housenumber": "32", "addr:street": "Kostavas", "alt_name": "The American Bar", "amenity": "bar", "int_name": "\u10d1\u10d0\u10e0\u10d8 \u10d0\u10db\u10d4\u10e0\u10d8\u10d9\u10d8\u10d3\u10d0\u10dc", "internet_access": "wlan", "internet_access:fee": "no", "name": "Bari Amerikidan", "source": "Survey"}}, {"type": "node", "id": 2972874633, "lat": 42.5085228, "lon": 41.8721297, "tags": {"amenity": "cafe", "name": "Coffee Boom", "name:en": "Coffee Boom", "name:ka": "\u10d9\u10dd\u10e4\u10d8 \u10d1\u10e3\u10db"}}, {"type": "node", "id": 4139551685, "lat": 42.5074176, "lon": 41.8505888, "tags": {"addr:city": "Zugdidi", "addr:housenumber": "3", "addr:street": "\u10da\u10d4\u10d5 \u10e2\u10dd\u10da\u10e1\u10e2\u10dd\u10d8\u10e1 \u10e5\u10e3\u10e9", "amenity": "restaurant", "capacity": "500", "cuisine": "regional;georgian", "delivery": "no", "name": "\u10d7\u10d0\u10d5\u10d0\u10d3\u10e3\u10e0\u10d8", "name:en": "Tavaduri", "name:ru": "\u0422\u0430\u0432\u0430\u0434\u0443\u0440\u0438", "opening_hours": "24/7", "takeaway": "no"}}, {"type": "node", "id": 4139554726, "lat": 42.5086014, "lon": 41.8514344, "tags": {"addr:city": "Zugdidi", "addr:street": "\u10d7\u10d0\u10db\u10d0\u10e0 \u10db\u10d4\u10e4\u10d8\u10e1 \u10e5\u10e3\u10e9\u10d0 (Tamar Mepe Str.)", "amenity": "restaurant", "capacity": "400", "cuisine": "regional", "name": "\u10db\u10dd\u10dc\u10dd\u10de\u10dd\u10da\u10d8 (Monopoli)", "opening_hours": "24/7", "takeaway": "no"}}, {"type": "node", "id": 4139671603, "lat": 42.5074082, "lon": 41.8503464, "tags": {"addr:street": "\u10da\u10d4\u10d5 \u10e2\u10dd\u10da\u10e1\u10e2\u10dd\u10d8\u10e1 \u10e5\u10e3\u10e9 (Lev Tolstoi St)", "amenity": "restaurant", "name": "\u10d7\u10d0\u10d5\u10d0\u10d3\u10e3\u10e0\u10d8 (Tavaduri)"}}, {"type": "node", "id": 4139672191, "lat": 42.5085432, "lon": 41.8513735, "tags": {"addr:street": "\u10d7\u10d0\u10db\u10d0\u10e0 \u10db\u10d4\u10e4\u10d8\u10e1 \u10e5\u10e3\u10e9\u10d0 (Tamar Mepe Str.)", "amenity": "restaurant", "internet_access": "wlan", "name": "\u10e0\u10d4\u10e1\u10e2\u10dd\u10e0\u10d0\u10dc\u10d8 \"\u10db\u10dd\u10dc\u10dd\u10de\u10dd\u10da\u10d8\"", "name:en": "Restaurant \"MONOPOLI\"", "name:ru": "\u0420\u0435\u0441\u0442\u043e\u0440\u0430\u043d \"\u041c\u041e\u041d\u041e\u041f\u041e\u041b\"", "opening_hours": "24/7"}}, {"type": "node", "id": 4384127397, "lat": 42.5185069, "lon": 41.8789007, "tags": {"amenity": "cafe"}}, {"type": "node", "id": 4447001394, "lat": 42.5272508, "lon": 41.8613738, "tags": {"amenity": "restaurant", "name": "\u10e0\u10d4\u10e1\u10e2\u10dd\u10e0\u10d0\u10dc\u10d8 \"\u10d0\u10e0\u10d2\u10dd\"", "name:en": "Restaurant \"Argo\"", "name:ru": "\u0420\u0435\u0441\u0442\u043e\u0440\u0430\u043d \"\u0410\u0440\u0433\u043e\""}}, {"type": "node", "id": 4507290789, "lat": 42.3706996, "lon": 41.824194, "tags": {"addr:housenumber": "3", "addr:street": "\u10ec\u10d4\u10e0\u10d4\u10d7\u10d4\u10da\u10d8\u10e1 \u10e5.", "amenity": "bar", "internet_access": "wlan", "name": "\u10ee\u10e3\u10e0\u10ea\u10d8\u10da\u10d0\u10d5\u10d0", "name:en": "Khurtsilava", "name:ka": "\u10ee\u10e3\u10e0\u10ea\u10d8\u10da\u10d0\u10d5\u10d0"}}, {"type": "node", "id": 4778830621, "lat": 42.5063243, "lon": 41.8716988, "tags": {"addr:housenumber": "24", "addr:street": "zv. gamsaxurdia ave", "amenity": "cafe", "cuisine": "cake;local;coffee_shop;ice_cream;breakfast", "internet_access": "wlan", "name": "\u10d0\u10de\u10d4\u10e2\u10d8\u10e2\u10dd \u10d6\u10e3\u10d2\u10d3\u10d8\u10d3\u10d8", "name:en": "Apetito Zugdidi", "name:ka": "\u10d0\u10de\u10d4\u10e2\u10d8\u10e2\u10dd \u10d6\u10e3\u10d2\u10d3\u10d8\u10d3\u10d8", "name:ru": "\u0410\u043f\u0435\u0442\u0438\u0442\u043e \u0417\u0443\u0433\u0434\u0438\u0434\u0438", "opening_hours": "Mo-Su 09:00-20:00", "phone": "592172121"}}, {"type": "node", "id": 4918972221, "lat": 42.5032356, "lon": 41.8699582, "tags": {"amenity": "cafe"}}, {"type": "node", "id": 4956687121, "lat": 42.5063197, "lon": 41.8714657, "tags": {"addr:housenumber": "24/1", "addr:street": "\u10d6\u10d5\u10d8\u10d0\u10d3 \u10d2\u10d0\u10db\u10e1\u10d0\u10ee\u10e3\u10e0\u10d3\u10d8\u10d0\u10e1 \u10d2\u10d0\u10db\u10d6\u10d8\u10e0\u10d8 (Zviad Gamsakhurdia Ave.)", "amenity": "cafe", "name:en": "Apetito zugdidi"}}, {"type": "node", "id": 4990112523, "lat": 42.5052676, "lon": 41.8706888, "tags": {"addr:housenumber": "26", "addr:postcode": "2100", "addr:street": "\u10d6\u10d5\u10d8\u10d0\u10d3 \u10d2\u10d0\u10db\u10e1\u10d0\u10ee\u10e3\u10e0\u10d3\u10d8\u10d0\u10e1 \u10d2\u10d0\u10db\u10d6\u10d8\u10e0\u10d8", "amenity": "restaurant", "cuisine": "georgian;local;tea;coffee_shop;breakfast", "diet:vegetarian": "yes", "internet_access": "wlan", "name": "\u10d3\u10d4\u10da\u10d4\u10e5\u10e2\u10dd", "name:en": "Delecto", "name:ka": "\u10d3\u10d4\u10da\u10d4\u10e5\u10e2\u10dd", "name:ru": "\u0414\u0435\u043b\u0435\u043a\u0442\u043e", "opening_hours": "Mo-Su 09:00-23:00", "phone": "+995592172121"}}, {"type": "node", "id": 5080928221, "lat": 42.507691, "lon": 41.8700769, "tags": {"amenity": "cafe", "internet_access": "wlan", "name:en": "Blinis-sakhli"}}, {"type": "node", "id": 5113806621, "lat": 42.5105067, "lon": 41.8822885, "tags": {"amenity": "bar", "name:en": "Megobar", "opening_hours": "Mo-Su 18:00-02:00"}}, {"type": "node", "id": 5137619226, "lat": 42.5090297, "lon": 41.8667001, "tags": {"addr:housenumber": "102", "addr:postcode": "2100", "addr:street": "\u10e0\u10e3\u10e1\u10d7\u10d0\u10d5\u10d4\u10da\u10d8\u10e1 \u10e5\u10e3\u10e9\u10d0", "amenity": "bar", "name:ru": "Rustaveli 102", "phone": "557001218"}}, {"type": "node", "id": 5342797030, "lat": 42.5065969, "lon": 41.8717803, "tags": {"amenity": "cafe", "name:ca": "Galeria d\u2019Art", "name:en": "Art Gallery"}}, {"type": "node", "id": 5405650322, "lat": 42.5014294, "lon": 41.84378, "tags": {"amenity": "restaurant", "name": "\u10e0\u10d4\u10e1\u10e2\u10dd\u10e0\u10d0\u10dc\u10d8 \u10db\u10d4\u10d2\u10d0\u10de\u10dd\u10da\u10d8\u10e1\u10d8", "name:en": "Megapolice", "name:ru": "\u0440\u0435\u0441\u0442\u043e\u0440\u0430\u043d \u043c\u0435\u0433\u0430\u043f\u043e\u043b\u0438\u0441"}}, {"type": "node", "id": 5659850622, "lat": 42.5075786, "lon": 41.8700584, "tags": {"amenity": "restaurant", "name": "\u10d3\u10d0\u10e0\u10d8\u10d0\u10da\u10d8", "name:en": "Dariali", "opening_hours": "24/7"}}, {"type": "node", "id": 5846293285, "lat": 42.5073332, "lon": 41.8755414, "tags": {"amenity": "cafe"}}, {"type": "node", "id": 5887767485, "lat": 42.501906, "lon": 41.8670219, "tags": {"amenity": "restaurant", "cuisine": "german;georgian;greek;international;italian", "internet_access": "wlan", "name:en": "Hugo\u2019s Taverna"}}, {"type": "node", "id": 6473052685, "lat": 42.5038443, "lon": 41.8675047, "tags": {"amenity": "restaurant", "name:ru": "\u041c\u0435\u043d\u0434\u0435\u043b (\u0445\u043e\u0437\u044f\u0438\u043d)"}}, {"type": "node", "id": 6473234685, "lat": 42.5041951, "lon": 41.8675012, "tags": {"amenity": "restaurant", "internet_access": "wlan", "name": "\u10db\u10d0\u10e1\u10de\u10d8\u10dc\u10eb\u10d4\u10da\u10d8 (The Host)", "name:en": "The Host", "name:ka": "\u10db\u10d0\u10e1\u10de\u10d8\u10dc\u10eb\u10d4\u10da\u10d8", "name:ru": "\u041c\u0435\u043d\u0434\u0437\u0435\u043b", "source": "JumpStart International"}}, {"type": "node", "id": 8230424817, "lat": 42.6270135, "lon": 41.7377331, "tags": {"amenity": "cafe", "name": "\u041a\u0430\u0444\u0435"}}, {"type": "node", "id": 8230425017, "lat": 42.6245364, "lon": 41.7408844, "tags": {"amenity": "cafe", "name": "\u0414\u043e\u043c\u0430\u0448\u043d\u0435\u0435 \u0433\u0440\u0443\u0437\u0438\u043d\u0441\u043a\u043e\u0435 \u043a\u0430\u0444\u0435"}}, {"type": "node", "id": 8292851428, "lat": 42.6249212, "lon": 41.7338765, "tags": {"amenity": "cafe", "name": "\u041a\u0430\u0444\u0435 \u043f\u043e \u0434\u043e\u043c\u0430\u0448\u043d\u0435\u043c\u0443."}}, {"type": "node", "id": 9222065793, "lat": 42.6105605, "lon": 42.0684703, "tags": {"alt_name": "Nino's Food", "amenity": "restaurant", "name": "Iriatoni", "name:ka": "\u10d8\u10e0\u10d8\u10d0\u10d7\u10dd\u10dc\u10d8"}}, {"type": "node", "id": 9789610918, "lat": 42.50668, "lon": 41.8721202, "tags": {"amenity": "cafe", "contact:email": "tamtini.zugdidi@gmail.com", "contact:facebook": "https://www.facebook.com/tamtini.in.zugdidi", "contact:phone": "+995 595 01 40 69", "name": "Tamtini Bakery Zugdidi", "shop": "bakery"}}, {"type": "node", "id": 9995875915, "lat": 42.5702281, "lon": 41.8608213, "tags": {"amenity": "cafe"}}, {"type": "node", "id": 9995875956, "lat": 42.5831361, "lon": 41.8467392, "tags": {"amenity": "cafe"}}, {"type": "node", "id": 10226276017, "lat": 42.5057555, "lon": 41.8712547, "tags": {"amenity": "restaurant", "cuisine": "asian", "name": "WOK", "name:en": "Wok Spot", "name:ka": "Wok Spot"}}, {"type": "node", "id": 11694921397, "lat": 42.5036377, "lon": 41.8720454, "tags": {"amenity": "restaurant"}}]}