{"version": 0.6, "generator": "Overpass API 0.7.61.5 4133829e", "osm3s": {"timestamp_osm_base": "2024-03-14T21:59:00Z", "copyright": "The data included in this document is from www.openstreetmap.org. The data is made available under ODbL."}, "elements": [{"type": "node", "id": 35131886, "lat": 58.1921752, "lon": 16.8520672, "tags": {"amenity": "restaurant", "name": "Ida p\u00e5 Udden", "url": "http://www.fyrudden.se/"}}, {"type": "node", "id": 472409257, "lat": 57.903408, "lon": 16.6969282}, {"type": "node", "id": 472409259, "lat": 57.903292, "lon": 16.6969454}, {"type": "node", "id": 472409261, "lat": 57.9033079, "lon": 16.6973258}, {"type": "node", "id": 472409263, "lat": 57.9034239, "lon": 16.6973086}, {"type": "node", "id": 490888101, "lat": 58.1607333, "lon": 16.5436, "tags": {"amenity": "restaurant", "name": "Cafe K\u00e5rtorp"}}, {"type": "node", "id": 561176302, "lat": 57.9789431, "lon": 16.4830291, "tags": {"amenity": "restaurant", "name": "Tindered"}}, {"type": "node", "id": 1489392912, "lat": 57.8998207, "lon": 16.40873, "tags": {"amenity": "cafe", "name": "Cafe Byfiket", "website": "https://gamleby.se/byfiket.html"}}, {"type": "node", "id": 1489392913, "lat": 57.8999747, "lon": 16.4084672, "tags": {"amenity": "restaurant", "contact:phone": "+46 493 122 06", "contact:website": "gamleby.se/ubbes.html", "name": "Mamma Dalton"}}, {"type": "node", "id": 1859093123, "lat": 58.2030187, "lon": 16.6017979, "tags": {"addr:country": "SE", "addr:housenumber": "11B", "addr:postcode": "615 30", "addr:street": "Storgatan", "amenity": "restaurant", "cuisine": "pizza", "email": "info@Melkeskrog.com", "name": "Melke's Bar & K\u00f6k", "note:sv": "Det ska finnas pizza men jag \u00e4r ej s\u00e4ker p\u00e5 om de bara serverar pizza. Jag tror inte det \u00e4r n\u00e5gon pizzeria det h\u00e4r.", "opening_hours": "Mo 11:00-21:00;Tu-Th 11:00-22:00;Fr 11:00-23:00;Sa 12:00-23:00;Su 12:00-21:00", "phone": "+46 0123 10910", "website": "https://www.melkeskrog.com/"}}, {"type": "node", "id": 1866266254, "lat": 58.2068623, "lon": 16.5951899, "tags": {"amenity": "restaurant", "cuisine": "pizza", "name": "Perkas Pizzeria", "note": "Det finns ocks\u00e5 Gyros och Kebab om jag minns r\u00e4tt mm. Kommer inte ih\u00e5g allt."}}, {"type": "node", "id": 1959537023, "lat": 57.8275336, "lon": 16.4519181}, {"type": "node", "id": 1959537042, "lat": 57.8274517, "lon": 16.4518905}, {"type": "node", "id": 1959537097, "lat": 57.827524, "lon": 16.4520189}, {"type": "node", "id": 1959537099, "lat": 57.8274421, "lon": 16.4519913}, {"type": "node", "id": 2320377223, "lat": 58.2030679, "lon": 16.6012725, "tags": {"amenity": "cafe", "leisure": "pitch", "sport": "9pin"}}, {"type": "node", "id": 2395114175, "lat": 58.1934745, "lon": 16.620659, "tags": {"amenity": "restaurant"}}, {"type": "node", "id": 2395125141, "lat": 58.2038662, "lon": 16.6045362, "tags": {"amenity": "cafe"}}, {"type": "node", "id": 2458021334, "lat": 57.9370654, "lon": 16.4614474, "tags": {"addr:city": "Gamleby", "addr:housename": "Lofta gamla skola", "addr:postcode": "59493", "amenity": "cafe", "cuisine": "regional;german;swiss", "name": "Lofta Caff\u00e8", "outdoor_seating": "yes", "website": "https://lofta-caffe.com/"}}, {"type": "node", "id": 2623926555, "lat": 57.7800703, "lon": 16.2502873, "tags": {"amenity": "cafe", "internet_access": "no", "name": "Falkens Cafeteria", "opening_hours": "\"vid arrangement\"", "operator": "Falkens H\u00e4sts\u00e4llskap", "smoking": "no"}}, {"type": "node", "id": 2626324396, "lat": 58.014652, "lon": 16.4235924, "tags": {"amenity": "cafe", "name": "Smultronboda Cafe"}}, {"type": "node", "id": 2921795716, "lat": 58.1737925, "lon": 16.8520862, "tags": {"amenity": "restaurant", "cuisine": "pizza", "name": "Resturang Ek\u00f6n"}}, {"type": "node", "id": 3070310427, "lat": 57.8908786, "lon": 16.1662465, "tags": {"amenity": "cafe", "name": "Odensvi lanthandels fik", "wheelchair": "yes"}}, {"type": "node", "id": 3148990603, "lat": 57.8683417, "lon": 16.2335002, "tags": {"amenity": "cafe"}}, {"type": "node", "id": 4176684275, "lat": 57.988179, "lon": 16.3137552, "tags": {"amenity": "restaurant", "cuisine": "pizza", "name": "Pizzeria 12:an"}}, {"type": "node", "id": 4181870692, "lat": 57.8996082, "lon": 16.4081347, "tags": {"amenity": "restaurant", "cuisine": "steak_house;seafood", "name": "Monte Christo"}}, {"type": "node", "id": 4463234553, "lat": 57.8998593, "lon": 16.4074025}, {"type": "node", "id": 4463234554, "lat": 57.8999434, "lon": 16.4075151}, {"type": "node", "id": 4463234556, "lat": 57.9000574, "lon": 16.4068955}, {"type": "node", "id": 4463234557, "lat": 57.9000717, "lon": 16.4071745}, {"type": "node", "id": 4463234559, "lat": 57.9001258, "lon": 16.4072576}, {"type": "node", "id": 4463234560, "lat": 57.9001857, "lon": 16.4071128}, {"type": "node", "id": 4587685366, "lat": 58.0095735, "lon": 16.5759944}, {"type": "node", "id": 4587685367, "lat": 58.0096155, "lon": 16.5758411}, {"type": "node", "id": 4587685368, "lat": 58.0097289, "lon": 16.5759519}, {"type": "node", "id": 4587685369, "lat": 58.0096868, "lon": 16.5761052}, {"type": "node", "id": 4637035280, "lat": 58.1595993, "lon": 16.8095946, "tags": {"addr:city": "Gryt", "addr:postcode": "610 42", "addr:street": "Gryts Varv", "amenity": "restaurant", "cuisine": "regional", "name": "Gryts varv", "takeaway": "no"}}, {"type": "node", "id": 5821941007, "lat": 58.0008505, "lon": 16.6546404}, {"type": "node", "id": 5821941008, "lat": 58.0009247, "lon": 16.6545788}, {"type": "node", "id": 5821941009, "lat": 58.0007763, "lon": 16.6543223}, {"type": "node", "id": 5821941010, "lat": 58.0008505, "lon": 16.6542607}, {"type": "node", "id": 6355414670, "lat": 58.2018893, "lon": 16.6023478}, {"type": "node", "id": 6355414671, "lat": 58.2018409, "lon": 16.6024047}, {"type": "node", "id": 6355414672, "lat": 58.2019173, "lon": 16.6026373}, {"type": "node", "id": 6355414673, "lat": 58.2019656, "lon": 16.6025804}, {"type": "node", "id": 6355414674, "lat": 58.2018651, "lon": 16.602264}, {"type": "node", "id": 6355414675, "lat": 58.2018214, "lon": 16.6023223}, {"type": "node", "id": 6355414676, "lat": 58.2017398, "lon": 16.6021027}, {"type": "node", "id": 6355414677, "lat": 58.2017834, "lon": 16.6020444}, {"type": "node", "id": 7951448065, "lat": 58.2013441, "lon": 16.603278, "tags": {"addr:city": "Valdemarsvik", "addr:country": "SE", "addr:housenumber": "3", "addr:postcode": "615 33", "addr:street": "Idrottsv\u00e4gen", "amenity": "restaurant", "cuisine": "pizza", "name": "Vikens Pizzeria", "opening_hours": "Mo-Su 11:00-22:00", "phone": "+46 123 121 35"}}, {"type": "node", "id": 7961238150, "lat": 58.2011581, "lon": 16.6008147, "tags": {"amenity": "restaurant", "cuisine": "thai", "delivery": "no", "email": "kontakt@vikensthai.se", "name": "Vikens Thai Chilli", "opening_hours": "Mo-Fr 11:00-21:00; Sa-Su 12:00-21:00", "phone": "+46 123 46600", "takeaway": "yes", "website": "https://vikensthai.se/"}}, {"type": "node", "id": 7966133697, "lat": 58.2020636, "lon": 16.6015287, "tags": {"addr:city": "Valdemarsvik", "addr:country": "SE", "addr:housenumber": "8", "addr:postcode": "615 30", "addr:street": "Storgatan", "amenity": "cafe", "name": "Lilla Bl\u00e5 Caf\u00e9 & Restaurang", "opening_hours": "Mo-Fr 08:00-18:00; Sa 9:00-16:00; Su closed", "outdoor_seating": "yes", "website": "https://www.lillabla.biz/"}}, {"type": "node", "id": 9046313151, "lat": 57.8991148, "lon": 16.4057614}, {"type": "node", "id": 9046313152, "lat": 57.899148, "lon": 16.4058979}, {"type": "node", "id": 9046313153, "lat": 57.8992568, "lon": 16.4058041}, {"type": "node", "id": 9046313154, "lat": 57.8992236, "lon": 16.4056676}, {"type": "node", "id": 9046313188, "lat": 57.8979958, "lon": 16.3993605, "tags": {"amenity": "restaurant", "cuisine": "pizza", "name": "Pizzeria Fungi", "website": "http://www.pizzeriafungi.se/"}}, {"type": "node", "id": 9914996212, "lat": 57.8335918, "lon": 16.4432663}, {"type": "node", "id": 9914996213, "lat": 57.8334033, "lon": 16.4435506}, {"type": "node", "id": 9914996214, "lat": 57.8334605, "lon": 16.443682}, {"type": "node", "id": 9914996215, "lat": 57.8336432, "lon": 16.4434004}, {"type": "node", "id": 9939123037, "lat": 57.9061145, "lon": 16.6954804, "tags": {"addr:city": "Loftahammar", "addr:country": "SE", "addr:housenumber": "57", "addr:postcode": "590 95", "addr:street": "Bjursundsv\u00e4gen", "amenity": "restaurant", "cuisine": "pizza", "name": "Sandbyhof", "phone": "+4649351010", "website": "https://sandbyhof.se/"}}, {"type": "way", "id": 39440306, "nodes": [472409257, 472409259, 472409261, 472409263, 472409257], "tags": {"amenity": "restaurant", "cuisine": "regional", "name": "Sj\u00f6krogen"}}, {"type": "way", "id": 185367469, "nodes": [1959537023, 1959537097, 1959537099, 1959537042, 1959537023], "tags": {"amenity": "cafe", "building": "yes", "cuisine": "pizza", "name": "Almviks mathantverk"}}, {"type": "way", "id": 449354367, "nodes": [4463234554, 4463234553, 4463234556, 4463234560, 4463234559, 4463234557, 4463234554], "tags": {"amenity": "restaurant", "building": "yes", "cuisine": "international", "name": "Gamleby hotell", "tourism": "hotel"}}, {"type": "way", "id": 463503073, "nodes": [4587685366, 4587685367, 4587685368, 4587685369, 4587685366], "tags": {"amenity": "cafe", "building": "yes", "cuisine": "regional", "fixme": "Check name of cafe.", "name": "Vraka Magasinet", "opening_hours": "Summer months"}}, {"type": "way", "id": 615697428, "nodes": [5821941007, 5821941009, 5821941010, 5821941008, 5821941007], "tags": {"amenity": "restaurant", "building": "yes", "name": "Kaggeboden"}}, {"type": "way", "id": 678750525, "nodes": [6355414673, 6355414672, 6355414671, 6355414670, 6355414673], "tags": {"addr:city": "Valdemarsvik", "addr:country": "SE", "addr:housenumber": "1", "addr:place": "Salutorget", "addr:postcode": "615 30", "amenity": "restaurant", "building": "service", "cuisine": "pizza", "diet:gluten_free": "yes", "email": "info@hamnkrogen-valdemarsvik.com", "name": "Hamnkrogen", "phone": "+46 123 120 46", "website": "https://hamnkrogen-valdemarsvik.com/"}}, {"type": "way", "id": 678750526, "nodes": [6355414677, 6355414674, 6355414675, 6355414676, 6355414677], "tags": {"addr:city": "Valdemarsvik", "addr:country": "SE", "addr:housenumber": "1", "addr:place": "Salutorget", "addr:postcode": "615 30", "amenity": "restaurant", "building": "service", "building:levels": "1", "cuisine": "pizza", "email": "info@myriamsveranda.se", "name": "Myriams Veranda", "opening_hours": "Mo-Fr 11:00-21:30; Sa-Su 12:00-21:30", "phone": "+46 123 120 45", "roof:shape": "flat", "website": "https://myriamsveranda.se/"}}, {"type": "way", "id": 977649300, "nodes": [9046313151, 9046313152, 9046313153, 9046313154, 9046313151], "tags": {"amenity": "cafe", "building": "yes", "name": "Linneas Konditori & Catering"}}, {"type": "way", "id": 1081832705, "nodes": [9914996215, 9914996214, 9914996213, 9914996212, 9914996215], "tags": {"amenity": "cafe", "building": "yes", "cuisine": "vafflor", "name": "v\u00e5ffelbruket"}}]}