{"version": 0.6, "generator": "Overpass API 0.7.61.5 4133829e", "osm3s": {"timestamp_osm_base": "2024-03-14T22:00:01Z", "copyright": "The data included in this document is from www.openstreetmap.org. The data is made available under ODbL."}, "elements": [{"type": "node", "id": 447891613, "lat": 59.048185, "lon": 17.3115986, "tags": {"amenity": "restaurant", "name": "Gnesta Bistro & Bar"}}, {"type": "node", "id": 450940423, "lat": 58.9527555, "lon": 17.1566537, "tags": {"amenity": "restaurant", "name": "\u00d6ster-Malma"}}, {"type": "node", "id": 453541753, "lat": 59.0489509, "lon": 17.6891073, "tags": {"amenity": "restaurant", "name": "Skansholmens Sj\u00f6krog"}}, {"type": "node", "id": 559929781, "lat": 58.6577984, "lon": 17.1130431, "tags": {"amenity": "restaurant", "name": "Sailor"}}, {"type": "node", "id": 687492400, "lat": 59.0478945, "lon": 17.3148011, "tags": {"amenity": "cafe", "cuisine": "chinese", "name": "Wokhuset Karpen"}}, {"type": "node", "id": 687505306, "lat": 59.0485181, "lon": 17.3082967, "tags": {"addr:city": "Gnesta", "addr:country": "SE", "addr:housenumber": "14", "addr:street": "V\u00e4stra Storgatan", "amenity": "cafe", "name": "Cafe Thekannan"}}, {"type": "node", "id": 691540608, "lat": 58.8959621, "lon": 17.5486436, "tags": {"addr:city": "Trosa", "addr:country": "SE", "addr:housenumber": "27", "addr:postcode": "619 30", "addr:street": "\u00d6stra L\u00e5nggatan", "amenity": "cafe", "name": "Visthuset"}}, {"type": "node", "id": 833733252, "lat": 58.895783, "lon": 17.54948, "tags": {"amenity": "restaurant", "cuisine": "greek", "name": "Ankaret"}}, {"type": "node", "id": 833733541, "lat": 58.8941196, "lon": 17.5522418, "tags": {"amenity": "cafe", "name": "Caf\u00e9 N\u00e4ra"}}, {"type": "node", "id": 833733791, "lat": 58.892836, "lon": 17.5517848, "tags": {"amenity": "restaurant", "name": "Tullhuset"}}, {"type": "node", "id": 834744811, "lat": 58.9210407, "lon": 17.3723013, "tags": {"amenity": "cafe", "tourism": "guest_house"}}, {"type": "node", "id": 1329787778, "lat": 59.0639761, "lon": 17.1627152, "tags": {"amenity": "restaurant", "name": "Bj\u00f6rnlunda Bykrog", "wheelchair": "yes", "wheelchair:description": "Handikapp WC"}}, {"type": "node", "id": 1365795873, "lat": 58.9520387, "lon": 17.5812176, "tags": {"amenity": "cafe", "name": "Caf\u00e9 Drottning Victorias stall"}}, {"type": "node", "id": 1365795882, "lat": 58.951769, "lon": 17.5815904, "tags": {"amenity": "restaurant", "name": "Tullgarns v\u00e4rdshus", "source": "http://www.tullgarnsvardshus.com/"}}, {"type": "node", "id": 1633246260, "lat": 58.9462589, "lon": 17.4971409}, {"type": "node", "id": 1633246277, "lat": 58.9462836, "lon": 17.4972382}, {"type": "node", "id": 1633246297, "lat": 58.9464106, "lon": 17.4969958}, {"type": "node", "id": 1633246301, "lat": 58.9464354, "lon": 17.4970931}, {"type": "node", "id": 1715831422, "lat": 59.0816748, "lon": 17.5992514, "tags": {"amenity": "cafe", "contact:phone": "+46 8 551 508 09", "level": "0", "name": "Salt\u00e5 Kaf\u00e9", "opening_hours": "Mo-Fr 09:00-18:00; Sa, Su 10:00-16:00", "operator": "Salt\u00e5 Kvarn AB", "outdoor_seating": "yes", "website": "https://www.saltakvarn.se/butikochkafe/butiken-i-jarna/"}}, {"type": "node", "id": 1752833314, "lat": 58.9558528, "lon": 17.5783799, "tags": {"amenity": "restaurant", "name": "Orangeriet"}}, {"type": "node", "id": 1834406671, "lat": 58.9830702, "lon": 17.8956763, "tags": {"amenity": "restaurant", "name": "\u00d6smokiosken"}}, {"type": "node", "id": 1853561179, "lat": 59.0474185, "lon": 17.4198692, "tags": {"amenity": "restaurant", "check_date": "2023-06-09", "cuisine": "pizza;burger;kebab", "name": "Abbe's restaurang, caf\u00e9 och livs", "opening_hours": "Mo-Sa 10:30-20:00"}}, {"type": "node", "id": 1855147578, "lat": 59.009099, "lon": 17.8831443, "tags": {"amenity": "restaurant"}}, {"type": "node", "id": 2266083358, "lat": 59.0249549, "lon": 17.5349933}, {"type": "node", "id": 2266083359, "lat": 59.0249959, "lon": 17.5347954}, {"type": "node", "id": 2266083361, "lat": 59.0250603, "lon": 17.5350759}, {"type": "node", "id": 2266083364, "lat": 59.0251013, "lon": 17.5348779}, {"type": "node", "id": 2288151981, "lat": 58.8950109, "lon": 17.5477201, "tags": {"amenity": "restaurant", "name": "Trosa matstudio"}}, {"type": "node", "id": 2288151985, "lat": 58.8939098, "lon": 17.5524455, "tags": {"amenity": "restaurant", "name": "Bomans Hotell & Restaurang"}}, {"type": "node", "id": 2344206331, "lat": 59.0208177, "lon": 17.8253036}, {"type": "node", "id": 2344206332, "lat": 59.0207503, "lon": 17.8255661}, {"type": "node", "id": 2344206333, "lat": 59.0206817, "lon": 17.8254996}, {"type": "node", "id": 2344206334, "lat": 59.0207491, "lon": 17.8252371}, {"type": "node", "id": 2356131854, "lat": 58.89608, "lon": 17.547336, "tags": {"amenity": "restaurant", "name": "Punschk\u00e4llaren"}}, {"type": "node", "id": 2356135321, "lat": 58.8961911, "lon": 17.5467359, "tags": {"amenity": "restaurant", "name": "Trosa bistro & bar"}}, {"type": "node", "id": 2358689043, "lat": 58.6622835, "lon": 17.1294404, "tags": {"addr:city": "Oxel\u00f6sund", "addr:country": "SE", "addr:housenumber": "28", "addr:postcode": "613 31", "addr:street": "Gamla Oxel\u00f6sundsv\u00e4gen", "amenity": "cafe", "name": "Bygdeg\u00e5rden"}}, {"type": "node", "id": 2511325654, "lat": 58.6679801, "lon": 17.0541264}, {"type": "node", "id": 2511325655, "lat": 58.667872, "lon": 17.0542825}, {"type": "node", "id": 2511325656, "lat": 58.6679628, "lon": 17.0545149}, {"type": "node", "id": 2511325657, "lat": 58.6678733, "lon": 17.0546442}, {"type": "node", "id": 2511325658, "lat": 58.6679363, "lon": 17.0548057}, {"type": "node", "id": 2511325659, "lat": 58.6680065, "lon": 17.0547044}, {"type": "node", "id": 2511325660, "lat": 58.6680591, "lon": 17.0548393}, {"type": "node", "id": 2511325661, "lat": 58.6681866, "lon": 17.0546552}, {"type": "node", "id": 2583214829, "lat": 58.80191, "lon": 17.8355134}, {"type": "node", "id": 2583214830, "lat": 58.8018185, "lon": 17.8357566}, {"type": "node", "id": 2583214831, "lat": 58.801768, "lon": 17.835686}, {"type": "node", "id": 2583214863, "lat": 58.8018199, "lon": 17.835387}, {"type": "node", "id": 2583214864, "lat": 58.8017766, "lon": 17.8355024}, {"type": "node", "id": 2583214865, "lat": 58.8018161, "lon": 17.8355577}, {"type": "node", "id": 2583214961, "lat": 58.8017988, "lon": 17.835604}, {"type": "node", "id": 2622583188, "lat": 59.0492173, "lon": 17.3041656}, {"type": "node", "id": 2622583189, "lat": 59.0491504, "lon": 17.3040637}, {"type": "node", "id": 2622583190, "lat": 59.0490765, "lon": 17.3042474}, {"type": "node", "id": 2622583191, "lat": 59.0491635, "lon": 17.3043799}, {"type": "node", "id": 2622811203, "lat": 59.0491331, "lon": 17.3101191}, {"type": "node", "id": 2622811204, "lat": 59.049046, "lon": 17.3100675}, {"type": "node", "id": 2622811206, "lat": 59.0489915, "lon": 17.3104153}, {"type": "node", "id": 2622811207, "lat": 59.0490786, "lon": 17.3104669}, {"type": "node", "id": 2622860225, "lat": 59.0474448, "lon": 17.3121437, "tags": {"addr:country": "SE", "addr:housenumber": "5", "addr:street": "Stora torget", "amenity": "restaurant", "cuisine": "greek", "name": "Il forno"}}, {"type": "node", "id": 2622860228, "lat": 59.0472634, "lon": 17.3118247}, {"type": "node", "id": 2622860230, "lat": 59.0472414, "lon": 17.3118321}, {"type": "node", "id": 2622860232, "lat": 59.0472339, "lon": 17.3117477}, {"type": "node", "id": 2622860235, "lat": 59.0471872, "lon": 17.3117613}, {"type": "node", "id": 2622860236, "lat": 59.0472052, "lon": 17.3119642}, {"type": "node", "id": 2622860238, "lat": 59.0472739, "lon": 17.3119432}, {"type": "node", "id": 2725108125, "lat": 58.9907814, "lon": 17.6552993, "tags": {"amenity": "cafe", "name": "Idala"}}, {"type": "node", "id": 2905780385, "lat": 58.8072147, "lon": 17.3653114, "tags": {"amenity": "restaurant", "cuisine": "regional", "name": "Restaurang Nyn\u00e4s", "website": "https://www.nynasslott.se/%C3%A4ta-bo-mm/restaurang-nyn%C3%A4s"}}, {"type": "node", "id": 3082074425, "lat": 58.6733079, "lon": 17.0969186}, {"type": "node", "id": 3082074426, "lat": 58.673412, "lon": 17.0971176}, {"type": "node", "id": 3082074427, "lat": 58.6732489, "lon": 17.0974335}, {"type": "node", "id": 3082074428, "lat": 58.6731448, "lon": 17.0972345}, {"type": "node", "id": 3084501212, "lat": 58.6704781, "lon": 17.101132}, {"type": "node", "id": 3084501213, "lat": 58.6704948, "lon": 17.1011213}, {"type": "node", "id": 3084501214, "lat": 58.6705436, "lon": 17.1012071}, {"type": "node", "id": 3084501215, "lat": 58.6704823, "lon": 17.1013278}, {"type": "node", "id": 3084501216, "lat": 58.6704739, "lon": 17.101309}, {"type": "node", "id": 3084501217, "lat": 58.670453, "lon": 17.101368}, {"type": "node", "id": 3084501218, "lat": 58.670439, "lon": 17.1013385}, {"type": "node", "id": 3084501219, "lat": 58.6704502, "lon": 17.1013171}, {"type": "node", "id": 3084501220, "lat": 58.6704279, "lon": 17.1012822}, {"type": "node", "id": 3084501221, "lat": 58.6704488, "lon": 17.1012473}, {"type": "node", "id": 3084501222, "lat": 58.6704293, "lon": 17.1011964}, {"type": "node", "id": 3084501223, "lat": 58.670446, "lon": 17.1011561}, {"type": "node", "id": 3084501224, "lat": 58.6704669, "lon": 17.1011776}, {"type": "node", "id": 3084933091, "lat": 58.6700534, "lon": 17.1072575}, {"type": "node", "id": 3084933092, "lat": 58.6699489, "lon": 17.1071814}, {"type": "node", "id": 3084933093, "lat": 58.6698727, "lon": 17.107568}, {"type": "node", "id": 3084933094, "lat": 58.6699772, "lon": 17.1076441}, {"type": "node", "id": 3085087031, "lat": 58.6909391, "lon": 17.0916272}, {"type": "node", "id": 3085087032, "lat": 58.6911119, "lon": 17.0917452}, {"type": "node", "id": 3085087333, "lat": 58.6910729, "lon": 17.0919383}, {"type": "node", "id": 3085087334, "lat": 58.6909029, "lon": 17.091831}, {"type": "node", "id": 3101851702, "lat": 58.6689433, "lon": 17.1069011}, {"type": "node", "id": 3101851703, "lat": 58.6688492, "lon": 17.1066906}, {"type": "node", "id": 3101851704, "lat": 58.668753, "lon": 17.1068497}, {"type": "node", "id": 3101851705, "lat": 58.6688731, "lon": 17.1070849}, {"type": "node", "id": 3101851706, "lat": 58.6688502, "lon": 17.1070337}, {"type": "node", "id": 3101851707, "lat": 58.6688416, "lon": 17.107048}, {"type": "node", "id": 3101851708, "lat": 58.6689023, "lon": 17.1070366}, {"type": "node", "id": 3101851709, "lat": 58.6688849, "lon": 17.1069978}, {"type": "node", "id": 3103377702, "lat": 58.663903, "lon": 17.1022651}, {"type": "node", "id": 3103377703, "lat": 58.66386, "lon": 17.1024067}, {"type": "node", "id": 3103377704, "lat": 58.6638326, "lon": 17.1023759}, {"type": "node", "id": 3103377705, "lat": 58.6638134, "lon": 17.1024392}, {"type": "node", "id": 3103377706, "lat": 58.6637768, "lon": 17.1023982}, {"type": "node", "id": 3103377707, "lat": 58.6637568, "lon": 17.1024641}, {"type": "node", "id": 3103377708, "lat": 58.6636428, "lon": 17.1023362}, {"type": "node", "id": 3103377709, "lat": 58.6636749, "lon": 17.1022305}, {"type": "node", "id": 3103377710, "lat": 58.6636651, "lon": 17.1022195}, {"type": "node", "id": 3103377711, "lat": 58.6637109, "lon": 17.1020684}, {"type": "node", "id": 3103377712, "lat": 58.6636813, "lon": 17.1020352}, {"type": "node", "id": 3103377713, "lat": 58.6637209, "lon": 17.1019048}, {"type": "node", "id": 3103377714, "lat": 58.6638428, "lon": 17.1020416}, {"type": "node", "id": 3103377715, "lat": 58.6638075, "lon": 17.1021581}, {"type": "node", "id": 3103378131, "lat": 58.6634118, "lon": 17.1033121}, {"type": "node", "id": 3103378132, "lat": 58.6633263, "lon": 17.1032572}, {"type": "node", "id": 3103378133, "lat": 58.6632976, "lon": 17.1034224}, {"type": "node", "id": 3103378134, "lat": 58.6633831, "lon": 17.1034773}, {"type": "node", "id": 3326892500, "lat": 58.9453784, "lon": 17.4881412, "tags": {"amenity": "restaurant", "cuisine": "pizza;regional", "name": "Pizzeria Mira", "outdoor_seating": "yes", "takeaway": "yes"}}, {"type": "node", "id": 3551480351, "lat": 58.6700977, "lon": 17.1030781, "tags": {"amenity": "cafe"}}, {"type": "node", "id": 3554625942, "lat": 58.8959053, "lon": 17.5481431, "tags": {"addr:city": "Torsa", "addr:country": "SE", "addr:housenumber": "3", "addr:street": "Torget", "amenity": "cafe", "name": "Trosa stadscaf\u00e9", "outdoor_seating": "yes"}}, {"type": "node", "id": 3670738520, "lat": 58.6698855, "lon": 17.1052028, "tags": {"amenity": "cafe", "name": "Harrys"}}, {"type": "node", "id": 4145148490, "lat": 58.9832053, "lon": 17.8962192, "tags": {"amenity": "cafe", "name": "Charinas", "opening_hours": "Mo-Fr 08:00-17:00"}}, {"type": "node", "id": 4223819721, "lat": 59.0723489, "lon": 17.1398771, "tags": {"amenity": "cafe", "name": "Dagaborg"}}, {"type": "node", "id": 4380292391, "lat": 58.8966468, "lon": 17.546394, "tags": {"amenity": "cafe", "name": "Mekka konditori"}}, {"type": "node", "id": 4380750027, "lat": 58.8962754, "lon": 17.5498872, "tags": {"amenity": "cafe", "name": "Deli Delight", "opening_hours": "Tu-Sa 11:00-16:00"}}, {"type": "node", "id": 4803097075, "lat": 58.8477892, "lon": 17.2363299, "tags": {"addr:city": "Tystberga", "addr:country": "SE", "addr:housenumber": "16", "addr:postcode": "611 74", "addr:street": "Stationsv\u00e4gen", "amenity": "restaurant", "cuisine": "regional", "name": "R\u00f6da Lycktan", "opening_hours": "11:00-18:00", "outdoor_seating": "yes", "smoking": "outside", "takeaway": "yes"}}, {"type": "node", "id": 4803109575, "lat": 58.8474743, "lon": 17.2345549, "tags": {"addr:city": "Tystberga", "addr:country": "SE", "addr:housenumber": "20", "addr:postcode": "611 74", "addr:street": "Stationsv\u00e4gen", "amenity": "restaurant", "cuisine": "pizza", "name": "Amigo", "opening_hours": "Tu-Su 11:00-20:00", "outdoor_seating": "yes", "phone": "+46155260166", "smoking": "outside", "takeaway": "yes"}}, {"type": "node", "id": 4878983855, "lat": 59.0684118, "lon": 17.6157169, "tags": {"amenity": "restaurant", "delivery": "no", "level": "0", "name": "KulturMat", "website": "https://kulturhuset.nu/kafe-och-restaurang/"}}, {"type": "node", "id": 4878983857, "lat": 59.0690122, "lon": 17.6170092, "tags": {"amenity": "restaurant", "level": "0", "name": "matbyygge"}}, {"type": "node", "id": 4991061928, "lat": 59.0491414, "lon": 17.3040862}, {"type": "node", "id": 4991061947, "lat": 59.0492008, "lon": 17.3042872}, {"type": "node", "id": 4991061948, "lat": 59.0491807, "lon": 17.3042565}, {"type": "node", "id": 5353466958, "lat": 58.8997123, "lon": 17.8022251}, {"type": "node", "id": 5353466959, "lat": 58.8997705, "lon": 17.8024584}, {"type": "node", "id": 5353466960, "lat": 58.8998898, "lon": 17.8023469}, {"type": "node", "id": 5353466961, "lat": 58.8998316, "lon": 17.8021136}, {"type": "node", "id": 5792299160, "lat": 58.6568704, "lon": 17.0788426}, {"type": "node", "id": 5792299161, "lat": 58.6568368, "lon": 17.0788561}, {"type": "node", "id": 5792299162, "lat": 58.6567292, "lon": 17.0788047}, {"type": "node", "id": 5792299163, "lat": 58.6567453, "lon": 17.0789528}, {"type": "node", "id": 5792299164, "lat": 58.6567755, "lon": 17.0787909}, {"type": "node", "id": 5792299165, "lat": 58.6567911, "lon": 17.0789345}, {"type": "node", "id": 5792299166, "lat": 58.6568608, "lon": 17.0790767}, {"type": "node", "id": 5792299167, "lat": 58.6567038, "lon": 17.0791398}, {"type": "node", "id": 5792299168, "lat": 58.65667, "lon": 17.0788285}, {"type": "node", "id": 5792299169, "lat": 58.6568611, "lon": 17.0787565}, {"type": "node", "id": 5838699193, "lat": 59.038826, "lon": 17.3293349, "tags": {"amenity": "restaurant", "contact:phone": "+46 158 26337", "cuisine": "pizza", "name": "Pizzeria Arena", "opening_hours": "May 1-Sep 1 Mo-Su 11:00-22:00; Sep 2-Apr 30 Mo-Th,Su 11:00-21:00; Sep 2-Apr 30 Fr-Sa 11:00-22:00; PH closed", "outdoor_seating": "yes", "takeaway": "yes", "wheelchair": "limited"}}, {"type": "node", "id": 6465139329, "lat": 58.9827127, "lon": 17.9039574, "tags": {"amenity": "bar", "name": "\u00d6smo Krog"}}, {"type": "node", "id": 6489394005, "lat": 59.0207293, "lon": 17.8253142, "tags": {"amenity": "waste_basket", "waste": "trash"}}, {"type": "node", "id": 8589472032, "lat": 58.8946182, "lon": 17.5510581, "tags": {"amenity": "restaurant", "name": "\u00c5g\u00e5rden"}}, {"type": "node", "id": 8589476672, "lat": 58.8948676, "lon": 17.551338, "tags": {"amenity": "cafe", "name": "Tre sm\u00e5 rum"}}, {"type": "node", "id": 8589478713, "lat": 58.8933812, "lon": 17.5528597, "tags": {"amenity": "restaurant", "name": "Fina fisken"}}, {"type": "node", "id": 8589485441, "lat": 58.8909104, "lon": 17.5522807, "tags": {"amenity": "restaurant", "name": "K\u00f6lsvinet"}}, {"type": "node", "id": 8589488237, "lat": 58.8939712, "lon": 17.5514591, "tags": {"amenity": "cafe", "name": "Strand cafeet"}}, {"type": "node", "id": 8593034462, "lat": 58.9086464, "lon": 17.0958545, "tags": {"addr:city": "Nyk\u00f6ping", "addr:postcode": "611 91", "addr:street": "Uvsta \u00d6sterg\u00e5rden 1", "amenity": "cafe", "name": "Caf\u00e9 \u00d6sterg\u00e5rden", "opening_hours": "We-Su 11:00-16:00", "outdoor_seating": "yes", "phone": "+46 73 945 16 15", "website": "https://cafeostergarden.se/"}}, {"type": "node", "id": 9811489171, "lat": 58.8684714, "lon": 17.4380788, "tags": {"amenity": "cafe", "operator": "Bergs g\u00e5rd", "outdoor_seating": "yes"}}, {"type": "node", "id": 9899913181, "lat": 58.904491, "lon": 17.5169602, "tags": {"amenity": "cafe", "cuisine": "french", "level": "0", "name": "Tarte Tatin", "payment:contactless": "yes", "payment:credit_cards": "yes", "takeaway": "yes", "website": "https://emilsbacke.se/cafe-tarte-tatin/", "wheelchair": "yes"}}, {"type": "node", "id": 10845569505, "lat": 58.746633, "lon": 17.0761403, "tags": {"amenity": "cafe", "cuisine": "cake", "name": "Caf\u00e9 \u00c4ngstugan", "opening_hours": "Maj till september.", "website": "https://www.fralsningsarmen.se/nykoping/cafe-angsstugan-i-nykoping-ett-populart-utflyktsmal/"}}, {"type": "node", "id": 11139692224, "lat": 58.9463171, "lon": 17.4971639, "tags": {"amenity": "restaurant", "cuisine": "pizza"}}, {"type": "way", "id": 150407225, "nodes": [1633246260, 1633246297, 1633246301, 1633246277, 1633246260], "tags": {"amenity": "restaurant", "building": "yes", "cuisine": "pizza", "name": "Pizzeria Piccolino"}}, {"type": "way", "id": 217335954, "nodes": [2266083361, 2266083358, 2266083359, 2266083364, 2266083361], "tags": {"addr:country": "SE", "addr:housenumber": "16", "addr:street": "Centralv\u00e4gen", "amenity": "restaurant", "building": "yes", "name": "H\u00f6l\u00f6 Pizzeria & Restaurang"}}, {"type": "way", "id": 225662864, "nodes": [2344206331, 2344206332, 2344206333, 6489394005, 2344206334, 2344206331], "tags": {"addr:country": "SE", "addr:housenumber": "1b", "addr:street": "Carl Bondes v\u00e4g", "amenity": "restaurant", "building": "retail", "building:colour": "brown", "building:levels": "1", "building:material": "wood", "building:use": "retail", "cuisine": "burger;kebab;pasta;pizza", "diet:vegan": "yes", "diet:vegetarian": "yes", "name": "Ruby's Pizzeria", "opening_hours": "Mo-Su 10:00-19:00", "outdoor_seating": "yes", "phone": "+46 8 530 444 66", "roof:colour": "black", "roof:material": "metal", "roof:shape": "gabled", "takeaway": "yes"}}, {"type": "way", "id": 243764279, "nodes": [2511325654, 2511325655, 2511325656, 2511325657, 2511325658, 2511325659, 2511325660, 2511325661, 2511325654], "tags": {"amenity": "restaurant", "building": "yes", "name": "K\u00e4llan"}}, {"type": "way", "id": 252233089, "nodes": [2583214829, 2583214830, 2583214831, 2583214961, 2583214865, 2583214864, 2583214863, 2583214829], "tags": {"amenity": "restaurant", "building": "yes", "indoor_seating": "yes", "name": "Sj\u00f6bodarna", "outdoor_seating": "yes"}}, {"type": "way", "id": 256609787, "nodes": [2622583188, 2622583189, 4991061928, 2622583190, 2622583191, 4991061947, 4991061948, 2622583188], "tags": {"amenity": "restaurant", "building": "yes", "cuisine": "pizza", "name": "Vita Villan"}}, {"type": "way", "id": 256637541, "nodes": [2622811203, 2622811204, 2622811206, 2622811207, 2622811203], "tags": {"addr:housenumber": "4", "addr:street": "Margretedalsv\u00e4gen", "amenity": "restaurant", "building": "yes", "cuisine": "regional", "name": "Fr\u00f6sj\u00f6 W\u00e4rdshus", "opening_hours": "We, Th 11:00-23:00; Fr 11:00-01:00; Sa 12:00-01:00; Su 12:00-23:00", "phone": "+46700356965", "website": "https://www.frosjowardshus.se/"}}, {"type": "way", "id": 256645787, "nodes": [2622860228, 2622860230, 2622860232, 2622860235, 2622860236, 2622860238, 2622860228], "tags": {"amenity": "restaurant", "building": "yes", "cuisine": "pizza", "name": "Gnesta Pizzeria"}}, {"type": "way", "id": 303786974, "nodes": [3082074425, 3082074426, 3082074427, 3082074428, 3082074425], "tags": {"amenity": "restaurant", "building": "yes", "name": "Long"}}, {"type": "way", "id": 303942194, "nodes": [3084501212, 3084501213, 3084501214, 3084501215, 3084501216, 3084501217, 3084501218, 3084501219, 3084501220, 3084501221, 3084501222, 3084501223, 3084501224, 3084501212], "tags": {"amenity": "restaurant", "building": "yes", "cuisine": "pizza"}}, {"type": "way", "id": 303976531, "nodes": [3084933091, 3084933092, 3084933093, 3084933094, 3084933091], "tags": {"amenity": "restaurant", "building": "yes", "building:levels": "2", "name": "Restaurang Polishuset", "roof:shape": "gabled"}}, {"type": "way", "id": 303992845, "nodes": [3085087031, 3085087032, 3085087333, 3085087334, 3085087031], "tags": {"amenity": "restaurant", "building": "yes"}}, {"type": "way", "id": 305544065, "nodes": [3101851702, 3101851703, 3101851704, 3101851707, 3101851706, 3101851705, 3101851708, 3101851709, 3101851702], "tags": {"addr:city": "Oxel\u00f6sund", "addr:country": "SE", "addr:housenumber": "7", "addr:postcode": "61331", "addr:street": "Styrmansgatan", "amenity": "restaurant", "building": "yes", "building:levels": "1", "cuisine": "burger", "name": "Camilla & Puttes", "phone": "+46 15545 65 53", "roof:shape": "gabled", "website": "https://www.facebook.com/pages/Camilla-Puttes/1487503528138300"}}, {"type": "way", "id": 305671912, "nodes": [3103377702, 3103377703, 3103377704, 3103377705, 3103377706, 3103377707, 3103377708, 3103377709, 3103377710, 3103377711, 3103377712, 3103377713, 3103377714, 3103377715, 3103377702], "tags": {"addr:city": "Oxel\u00f6sund", "addr:country": "SE", "addr:housenumber": "3", "addr:postcode": "61335", "addr:street": "Strandv\u00e4gen", "amenity": "restaurant", "building": "yes", "cuisine": "regional", "name": "Restaurang L\u00e4get", "phone": "+46-15535540", "website": "https://www.restauranglaget.com/"}}, {"type": "way", "id": 305671917, "nodes": [3103378131, 3103378132, 3103378133, 3103378134, 3103378131], "tags": {"addr:city": "Oxel\u00f6sund", "addr:country": "SE", "addr:housenumber": "1", "addr:postcode": "61335", "addr:street": "Strandv\u00e4gen", "amenity": "restaurant", "building": "yes", "name": "Glasskiosk & Gatukiosk"}}, {"type": "way", "id": 554743055, "nodes": [5353466961, 5353466960, 5353466959, 5353466958, 5353466961], "tags": {"amenity": "cafe", "building": "yes", "name": "Bl\u00e5klockan"}}, {"type": "way", "id": 611823244, "nodes": [5792299169, 5792299160, 5792299161, 5792299166, 5792299167, 5792299168, 5792299162, 5792299163, 5792299165, 5792299164, 5792299169], "tags": {"amenity": "cafe", "building": "yes", "contact:email": "info@skargardsvafflan.se", "contact:phone": "+46763497029", "cuisine": "Dessert- och matv\u00e5fflor", "name": "Sk\u00e4rg\u00e5rdsv\u00e5fflan", "website": "https://www.skargardsvafflan.se/"}}]}