{"version": 0.6, "generator": "Overpass API 0.7.61.5 4133829e", "osm3s": {"timestamp_osm_base": "2024-03-14T21:59:00Z", "copyright": "The data included in this document is from www.openstreetmap.org. The data is made available under ODbL."}, "elements": [{"type": "node", "id": 276538026, "lat": 56.3013745, "lon": 12.4530135, "tags": {"amenity": "cafe", "name": "Kullens fyrservering"}}, {"type": "node", "id": 276540650, "lat": 56.2914098, "lon": 12.4760802, "tags": {"addr:city": "M\u00f6lle", "addr:country": "SE", "addr:housenumber": "151-159", "addr:postcode": "263 77", "addr:street": "Italienska V\u00e4gen", "amenity": "cafe", "cuisine": "regional", "indoor_seating": "yes", "name": "Ransvik Havsveranda", "old_name": "Ellens Caf\u00e9", "opening_hours:covid19": "closed", "outdoor_seating": "yes", "phone": "+46 423 47666", "website": "https://www.ransvik.se/", "wheelchair": "yes"}}, {"type": "node", "id": 277027230, "lat": 56.2754284, "lon": 12.5729999, "tags": {"amenity": "cafe", "created_by": "Potlatch 0.9c"}}, {"type": "node", "id": 343704251, "lat": 56.0374502, "lon": 12.6990921, "tags": {"amenity": "restaurant", "name": "Restaurang Amica"}}, {"type": "node", "id": 388577922, "lat": 56.0535662, "lon": 12.6832143, "tags": {"amenity": "cafe", "wheelchair": "yes"}}, {"type": "node", "id": 401573611, "lat": 56.0688649, "lon": 12.6871107, "tags": {"amenity": "cafe", "name": "P\u00e5lsj\u00f6paviljongen", "website": "http://paviljongen.com/"}}, {"type": "node", "id": 427551579, "lat": 56.1434178, "lon": 12.5777017, "tags": {"addr:city": "Viken", "addr:country": "SE", "addr:housenumber": "6", "addr:postcode": "263 61", "addr:street": "B\u00f6\u00f6se Backe", "amenity": "restaurant", "name": "MAVI Restaurang och hotell", "outdoor_seating": "yes", "phone": "+46 42-236 212", "website": "https://www.mavi-viken.se/"}}, {"type": "node", "id": 427692163, "lat": 56.2804291, "lon": 12.5435561, "tags": {"amenity": "cafe", "delivery": "no", "name": "Himmelstorpsg\u00e5rden", "outdoor_seating": "only"}}, {"type": "node", "id": 442893710, "lat": 56.2600267, "lon": 12.6142221, "tags": {"amenity": "restaurant", "name": "Flickorna Lundgren", "website": "http://www.fl-lundgren.se/"}}, {"type": "node", "id": 449952887, "lat": 56.4204219, "lon": 12.8831533, "tags": {"amenity": "cafe", "name": "Niv\u00e5 125"}}, {"type": "node", "id": 449961180, "lat": 56.4212289, "lon": 12.8901989, "tags": {"amenity": "cafe", "name": "Caf\u00e9 Utsikten"}}, {"type": "node", "id": 457135524, "lat": 56.0446129, "lon": 12.697122, "tags": {"addr:city": "Helsingborg", "addr:country": "SE", "addr:housenumber": "1A", "addr:postcode": "252 24", "addr:street": "Karlsgatan", "amenity": "restaurant", "branch": "Helsingborg", "cuisine": "sushi;japanese", "email": "hbg@zushi.se", "name": "Zushi", "opening_hours": "Tu-Th 11:30-21:00; Fr 11:30-22:00; Sa 12:00-22:00; Su 15:00-20:30", "payment:cards": "yes", "payment:cash": "no", "payment:credit_cards": "yes", "payment:debit_cards": "yes", "payment:mastercard": "yes", "payment:visa": "yes", "phone": "+46 42 449 90 89", "website": "https://helsingborg.zushi.se/", "wheelchair": "no"}}, {"type": "node", "id": 467693587, "lat": 56.0435927, "lon": 12.6976095, "tags": {"amenity": "restaurant", "cuisine": "hungarian", "name": "Glada \u00c4nkan", "wheelchair": "no"}}, {"type": "node", "id": 475362800, "lat": 56.087526, "lon": 12.6608668, "tags": {"amenity": "cafe", "cuisine": "ice_cream", "name": "Sofierokiosken", "wheelchair": "yes"}}, {"type": "node", "id": 478161348, "lat": 56.0450219, "lon": 12.6963565, "tags": {"amenity": "cafe", "diet:vegetarian": "yes", "email": "ebbasfik@ebbasfik.se", "fax": "+46 42 271440", "name": "Ebbas fik", "opening_hours": "Mo-Fr 11:00-17:00; Sa 11:00-16:00", "phone": "+46 42 281440", "website": "http://www.ebbasfik.se/", "wheelchair": "limited", "wikidata": "Q10478962", "wikipedia": "sv:Ebbas fik"}}, {"type": "node", "id": 478161349, "lat": 56.0443563, "lon": 12.6967392, "tags": {"amenity": "restaurant", "cuisine": "korean", "name": "Koreana"}}, {"type": "node", "id": 490024738, "lat": 56.0459236, "lon": 12.6980857, "tags": {"addr:city": "Helsingborg", "addr:country": "SE", "addr:housenumber": "15", "addr:postcode": "252 23", "addr:street": "S\u00f6dra Storgatan", "amenity": "cafe", "name": "Avant la For\u00eat", "opening_hours": "Mo-Fr 17:00-22:00; Sa 13:00-22:00; 2023 jul 4-2023 aug 11 Tu-Sa 12:00-20:00", "opening_hours:url": "https://avantlaforet.se/#Opening-Hours", "outdoor_seating": "no", "phone": "0732-00 10 45", "website": "https://avantlaforet.se/", "wheelchair": "no"}}, {"type": "node", "id": 490024742, "lat": 56.0457863, "lon": 12.698415, "tags": {"amenity": "restaurant", "cuisine": "french", "name": "Ch\u00e2teau For\u00eat", "opening_hours": "Fr-Sa 11:00-15:00; Tu-Sa 18:00-24:00", "website": "http://chforet.se/", "wheelchair": "no"}}, {"type": "node", "id": 494178377, "lat": 56.0470017, "lon": 12.6947797, "tags": {"addr:city": "Helsingborg", "addr:country": "SE", "addr:housenumber": "1", "addr:postcode": "252 20", "addr:street": "Kullagatan", "amenity": "cafe", "diet:kosher": "no", "diet:vegan": "no", "diet:vegetarian": "yes", "email": "order@fahlmans.se", "name": "Fahlmans Konditori", "opening_hours": "Mo-Fr 08:00-18:00; Sa 08:30-16:30; Su 10:00-16:30", "outdoor_seating": "yes", "payment:cash": "no", "phone": "+46 42 21 30 60", "website": "https://www.fahlmans.se/", "wheelchair": "limited", "wikidata": "Q10493610", "wikipedia": "sv:Fahlmans conditori"}}, {"type": "node", "id": 499507838, "lat": 56.0458047, "lon": 12.6978378, "tags": {"amenity": "restaurant", "name": "Manda'rin", "website": "http://www.manda-rin.se/", "wheelchair": "no"}}, {"type": "node", "id": 528870794, "lat": 56.0447054, "lon": 12.6966395, "tags": {"amenity": "restaurant", "name": "Old Times", "opening_hours": "Mo-Th 11:00-22:00; Fr,Sa 11:00-23:00", "wheelchair": "limited"}}, {"type": "node", "id": 528870799, "lat": 56.044599, "lon": 12.6969235, "tags": {"amenity": "restaurant", "cuisine": "french", "email": "info@lapetite.se", "name": "La Petite", "opening_hours": "Mo 18:00-22:00; Tu-Fr 11:30-14:00; Tu-Fr 18:00-22:00; Sa 12:30-22:30", "phone": "+46 42 219727", "website": "https://www.lapetite.se/"}}, {"type": "node", "id": 529971979, "lat": 56.0445974, "lon": 12.6965286, "tags": {"amenity": "restaurant", "cuisine": "italian", "name": "Italy House", "opening_hours": "Mo-Th 10:00-22:00;Fr-Sa 10:00-23:00;Su 12:00-21:00"}}, {"type": "node", "id": 534298876, "lat": 56.0461576, "lon": 12.6973007, "tags": {"amenity": "cafe", "name": "Caf\u00e9 Viva", "wheelchair": "no"}}, {"type": "node", "id": 535673432, "lat": 56.0443813, "lon": 12.700027, "tags": {"amenity": "restaurant", "cuisine": "asian", "email": "info@mommees.se", "internet_access": "no", "name": "Mommee's", "opening_hours": "Mo-Fr 08:00-10:00; Mo-Sa 11:00-16:00", "website": "https://mommees.se/", "wheelchair": "yes"}}, {"type": "node", "id": 560536144, "lat": 56.0477698, "lon": 12.6917867, "tags": {"addr:city": "Helsingborg", "addr:country": "SE", "addr:housenumber": "20", "addr:street": "Drottninggatan", "amenity": "cafe", "indoor_seating": "yes", "name": "Il Caff\u00e8 Brutale", "outdoor_seating": "yes", "phone": "+46 42 180623", "website": "https://caffebrutale.se/"}}, {"type": "node", "id": 575249804, "lat": 56.0671659, "lon": 12.7234856, "tags": {"addr:city": "Helsingborg", "addr:country": "SE", "addr:housenumber": "5", "addr:street": "Drottningh\u00f6gsv\u00e4gen", "amenity": "restaurant", "name": "Restaurang Camilla", "opening_hours": "Mo-Fr 11:00-19:30; Sa-Su 12:00-20:00", "wheelchair": "yes"}}, {"type": "node", "id": 603170949, "lat": 56.0475929, "lon": 12.6910506, "tags": {"addr:city": "Helsingborg", "addr:country": "SE", "addr:housenumber": "11", "addr:street": "Drottninggatan", "amenity": "restaurant", "cuisine": "sandwich", "name": "Bagelshoppen", "opening_hours": "11:00-18:00", "takeaway": "yes"}}, {"type": "node", "id": 603170952, "lat": 56.0486428, "lon": 12.690105, "tags": {"addr:city": "Helsingborg", "addr:country": "SE", "addr:housenumber": "7", "addr:postcode": "252 21", "addr:street": "Sundstorget", "amenity": "restaurant", "cuisine": "vietnamese", "diet:vegan": "only", "name": "Restaurang Chay", "website": "https://www.chayvegan.se/"}}, {"type": "node", "id": 606997059, "lat": 56.0496536, "lon": 12.6909222, "tags": {"amenity": "restaurant", "name": "Haket", "wheelchair": "no"}}, {"type": "node", "id": 606997060, "lat": 56.0493337, "lon": 12.6911833, "tags": {"addr:city": "Helsingborg", "addr:country": "SE", "addr:housenumber": "47", "addr:postcode": "252 20", "addr:street": "Kullagatan", "amenity": "restaurant", "cuisine": "spanish", "name": "Barrica"}}, {"type": "node", "id": 642285133, "lat": 56.0393343, "lon": 12.7040413, "tags": {"amenity": "restaurant", "cuisine": "chinese", "name": "Chopstick House"}}, {"type": "node", "id": 648309284, "lat": 56.0417026, "lon": 12.698859, "tags": {"amenity": "nightclub", "name": "Wallmans Golden Hits"}}, {"type": "node", "id": 648309286, "lat": 56.0420192, "lon": 12.7002177, "tags": {"amenity": "restaurant", "cuisine": "thai", "indoor_seating": "yes", "name": "Absolute Thai", "opening_hours": "Mo-Th 11:00-21:00; Fr 11:00-22:00; Sa 12:00-22:00; Su 12:00-21:00", "outdoor_seating": "yes", "phone": "+46424490917"}}, {"type": "node", "id": 649078628, "lat": 56.0383532, "lon": 12.7016355, "tags": {"addr:city": "Helsingborg", "addr:country": "SE", "addr:housenumber": "36", "addr:street": "Carl Krooks gata", "amenity": "restaurant", "cuisine": "chinese", "name": "Restaurang Panda"}}, {"type": "node", "id": 656642153, "lat": 56.0462294, "lon": 12.6956699, "tags": {"amenity": "restaurant", "email": "info@olsonsskafferi.se", "fax": "+46 42 124623", "name": "Olson's Skafferi", "opening_hours": "Mo-Sa 11:00-22:30", "phone": "+46 42 140780", "website": "https://www.olsonsskafferi.se/"}}, {"type": "node", "id": 656642155, "lat": 56.046126, "lon": 12.6957723, "tags": {"amenity": "restaurant", "cuisine": "spanish", "name": "La Venta"}}, {"type": "node", "id": 656642175, "lat": 56.0460186, "lon": 12.6967172, "tags": {"amenity": "restaurant", "cuisine": "asian", "name": "JouSan", "website": "https://jousan.se/"}}, {"type": "node", "id": 656642180, "lat": 56.0472898, "lon": 12.6924491, "tags": {"amenity": "cafe", "brand": "Wayne's Coffee", "brand:wikidata": "Q2637272", "brand:wikipedia": "en:Wayne's Coffee", "cuisine": "coffee_shop", "internet_access": "wlan", "name": "Wayne's Coffee", "takeaway": "yes"}}, {"type": "node", "id": 656642202, "lat": 56.046859, "lon": 12.6955828, "tags": {"amenity": "restaurant", "name": "At Mollberg", "opening_hours": "Mo-Sa 12:00-22:00", "phone": "+46 42 373750", "website": "https://www.atmollberg.se"}}, {"type": "node", "id": 658739377, "lat": 56.0436323, "lon": 12.6960261, "tags": {"amenity": "restaurant", "cuisine": "asian", "name": "Asian Garden"}}, {"type": "node", "id": 658739388, "lat": 56.043485, "lon": 12.6961788, "tags": {"amenity": "restaurant", "diet:vegetarian": "only", "name": "Vegeriet"}}, {"type": "node", "id": 658739395, "lat": 56.0441401, "lon": 12.6955474, "tags": {"amenity": "restaurant", "cuisine": "chinese", "name": "\u00d6sterns p\u00e4rla", "wheelchair": "limited"}}, {"type": "node", "id": 658739426, "lat": 56.0471492, "lon": 12.6961524, "tags": {"addr:city": "Helsingborg", "addr:country": "SE", "addr:housenumber": "20", "addr:postcode": "252 23", "addr:street": "Stortorget", "amenity": "bar", "name": "The Atrium Bar", "opening_hours": "We-Th 16:00-00:00; Fr-Sa 16:00-01:00"}}, {"type": "node", "id": 658739437, "lat": 56.0468228, "lon": 12.6966132, "tags": {"amenity": "cafe", "cuisine": "lebanese", "name": "Caf\u00e9 Mezo"}}, {"type": "node", "id": 675631263, "lat": 56.0478954, "lon": 12.6926058, "tags": {"amenity": "restaurant", "cuisine": "chinese", "name": "Golden Bamboo"}}, {"type": "node", "id": 675631282, "lat": 56.0486253, "lon": 12.6929923, "tags": {"addr:city": "Helsingborg", "addr:country": "SE", "addr:housenumber": "7", "addr:street": "Nedre L\u00e5ngvinkelsgatan", "amenity": "cafe", "name": "K & Co", "wheelchair": "no"}}, {"type": "node", "id": 675631284, "lat": 56.0488539, "lon": 12.6936243, "tags": {"amenity": "restaurant", "name": "Restaurang Bara Vara", "wheelchair": "no"}}, {"type": "node", "id": 676198332, "lat": 56.0458902, "lon": 12.6956543, "tags": {"amenity": "restaurant", "email": "info@lecardinal.se", "name": "Le Cardinal", "phone": "+46 42 131312", "website": "https://www.lecardinal.se/"}}, {"type": "node", "id": 676198337, "lat": 56.0479961, "lon": 12.6916296, "tags": {"addr:city": "Helsingborg", "addr:country": "SE", "addr:housenumber": "24", "addr:postcode": "252 20", "addr:street": "Drottninggatan", "amenity": "restaurant", "cuisine": "indian", "diet:vegetarian": "yes", "indoor_seating": "yes", "name": "Restaurang Taj Mahal", "opening_hours": "Mo-Fr 11:00-22:00; Sa-Su 12:00-22:00", "outdoor_seating": "yes", "phone": "+46 42 141007", "website": "http://www.restaurangtajmahal.com/"}}, {"type": "node", "id": 676198365, "lat": 56.0423917, "lon": 12.7009482, "tags": {"addr:city": "Helsingborg", "addr:country": "SE", "addr:housenumber": "12", "addr:postcode": "252 25", "addr:street": "S\u00f6dergatan", "amenity": "cafe", "name": "Caf\u00e9 Bagels", "phone": "+46 42 241500", "shop": "bakery", "wheelchair": "no"}}, {"type": "node", "id": 701012667, "lat": 56.0911904, "lon": 12.6548602, "tags": {"amenity": "restaurant", "cuisine": "pizza", "name": "La Rossa Lar\u00f6d", "opening_hours": "Mo-Fr 16:00-21:00; Sa,Su 13:00-21:00"}}, {"type": "node", "id": 715788234, "lat": 56.054442, "lon": 12.7020676, "tags": {"addr:city": "Helsingborg", "addr:country": "SE", "addr:housenumber": "11b", "addr:street": "Rektorsgatan", "amenity": "cafe", "name": "Aldas caf\u00e9"}}, {"type": "node", "id": 717410155, "lat": 56.0462359, "lon": 12.6921103, "tags": {"addr:city": "Helsingborg", "addr:country": "SE", "addr:housenumber": "1", "addr:postcode": "252 21", "addr:street": "Drottninggatan", "amenity": "restaurant", "cuisine": "steak_house", "name": "Kings Corner", "opening_hours": "Tu-Th 14:00-22:00; Fr-Sa 14:00-23:00; Su 14:00-21:00", "wheelchair": "no"}}, {"type": "node", "id": 762217706, "lat": 56.0486101, "lon": 12.6937721, "tags": {"amenity": "cafe", "name": "Koppi", "wheelchair": "no"}}, {"type": "node", "id": 800762821, "lat": 56.0529001, "lon": 12.6834981, "tags": {"amenity": "cafe", "cuisine": "ice_cream", "name": "Helsingborgs glassfabrik", "wheelchair": "yes"}}, {"type": "node", "id": 801088258, "lat": 56.0644966, "lon": 12.6781308, "tags": {"addr:city": "Helsingborg", "addr:country": "SE", "addr:housenumber": "151", "addr:street": "Drottninggatan", "amenity": "restaurant", "name": "P\u00e5lsj\u00f6 krog", "wheelchair": "yes"}}, {"type": "node", "id": 815027324, "lat": 56.1452016, "lon": 12.5744532, "tags": {"addr:city": "Viken", "addr:country": "SE", "addr:housenumber": "13", "addr:postcode": "260 40", "addr:street": "Bygatan", "amenity": "cafe", "name": "Conditori \u00d6resund", "opening_hours": "Mo-Fr 08:30-18:00; Sa-Su 08:30-16:30"}}, {"type": "node", "id": 826216000, "lat": 56.2374439, "lon": 12.8660219, "tags": {"addr:city": "\u00c4ngelholm", "addr:country": "SE", "addr:housenumber": "24", "addr:postcode": "262 52", "addr:street": "H\u00f6jav\u00e4gen", "amenity": "cafe", "name": "Nisses Konditori", "opening_hours": "Mo-Fr 07:30-18:00; Sa 07:30-16:00; Su 08:00-16:00", "shop": "bakery"}}, {"type": "node", "id": 826216072, "lat": 56.2424986, "lon": 12.8619793, "tags": {"addr:city": "\u00c4ngelholm", "addr:country": "SE", "addr:housenumber": "21", "addr:postcode": "262 32", "addr:street": "Storgatan", "amenity": "cafe", "name": "Mormor Olgas Caf\u00e9", "opening_hours": "Mo-Fr 10:00-17:00; Sa 10:00-15:00; Su 12:00-16:00"}}, {"type": "node", "id": 845263599, "lat": 56.2535828, "lon": 12.8639734, "tags": {"amenity": "restaurant", "name": "Hembygdsparkens v\u00e4rdshus"}}, {"type": "node", "id": 849894869, "lat": 56.0458172, "lon": 12.6953295, "tags": {"amenity": "restaurant", "name": "Sirocco"}}, {"type": "node", "id": 907187125, "lat": 56.0999164, "lon": 12.8616316, "tags": {"addr:city": "Hyllinge", "addr:country": "SE", "addr:housenumber": "5", "addr:postcode": "26061", "addr:street": "Dragaregatan", "amenity": "cafe", "brand": "Espresso House", "brand:wikidata": "Q10489162", "brand:wikipedia": "sv:Espresso House", "cuisine": "coffee_shop", "internet_access": "wlan", "internet_access:fee": "no", "name": "Espresso House", "takeaway": "yes"}}, {"type": "node", "id": 907187555, "lat": 56.0995574, "lon": 12.8620607, "tags": {"amenity": "cafe", "name": "Graffiti Caf\u00e9"}}, {"type": "node", "id": 907200063, "lat": 56.0927469, "lon": 12.7632041, "tags": {"amenity": "restaurant", "name": "IKEA Restaurant", "opening_hours": "Mo-Su 09:30-19:30", "wheelchair": "yes"}}, {"type": "node", "id": 927161762, "lat": 56.0651866, "lon": 12.7008063, "tags": {"amenity": "restaurant", "cuisine": "thai", "name": "Thai-Krogen", "opening_hours": "Mo-Fr 11:30-22:00; Sa-Su 12:00-23:00", "phone": "+46 42 217700", "website": "http://www.thaikrogen.se/", "wheelchair": "limited"}}, {"type": "node", "id": 937158645, "lat": 56.0577512, "lon": 12.6981642, "tags": {"amenity": "cafe", "cuisine": "cake", "name": "Conditori Viktoria", "shop": "bakery", "wheelchair": "limited"}}, {"type": "node", "id": 982107104, "lat": 56.0505725, "lon": 12.6847855, "tags": {"amenity": "restaurant", "name": "Pub Ro"}}, {"type": "node", "id": 1035298107, "lat": 56.0477936, "lon": 12.6880786, "tags": {"addr:country": "SE", "addr:housenumber": "11", "addr:postcode": "252 21", "addr:street": "Kungsgatan", "amenity": "restaurant", "email": "rc@dunkermatsalar.com", "fax": "+46 42 374310", "name": "Dunker Bar & Matsalar", "phone": "+46 42 322996", "toilets:wheelchair": "yes", "website": "http://www.dunkermatsalar.com/", "wheelchair": "yes"}}, {"type": "node", "id": 1039921363, "lat": 56.0457304, "lon": 12.700136}, {"type": "node", "id": 1039921522, "lat": 56.0458027, "lon": 12.7003035}, {"type": "node", "id": 1039921654, "lat": 56.0457611, "lon": 12.700361}, {"type": "node", "id": 1039922097, "lat": 56.0456889, "lon": 12.7001934}, {"type": "node", "id": 1069564132, "lat": 56.0414633, "lon": 12.7121635, "tags": {"amenity": "restaurant", "name": "Burek Huset Shkupi Helsingborg", "opening_hours": "Mo-Fr 11:30-18:00; Sa 11:00-16:00"}}, {"type": "node", "id": 1126750680, "lat": 56.0439437, "lon": 12.6875373}, {"type": "node", "id": 1126750830, "lat": 56.0442874, "lon": 12.6877149}, {"type": "node", "id": 1126750902, "lat": 56.0443365, "lon": 12.6876863}, {"type": "node", "id": 1126751070, "lat": 56.0443072, "lon": 12.6878238}, {"type": "node", "id": 1126751131, "lat": 56.0441, "lon": 12.688045}, {"type": "node", "id": 1126751261, "lat": 56.0442746, "lon": 12.687345}, {"type": "node", "id": 1126751280, "lat": 56.0441737, "lon": 12.6879014}, {"type": "node", "id": 1126751295, "lat": 56.0440652, "lon": 12.6878531}, {"type": "node", "id": 1126751315, "lat": 56.0440071, "lon": 12.6878869}, {"type": "node", "id": 1126751347, "lat": 56.0441902, "lon": 12.6879926}, {"type": "node", "id": 1127146121, "lat": 56.0695925, "lon": 12.7202324, "tags": {"amenity": "restaurant", "name": "Nya k\u00f6ket", "opening_hours": "Mo-Fr 11:00-14:30"}}, {"type": "node", "id": 1143023399, "lat": 56.0500611, "lon": 12.6842068}, {"type": "node", "id": 1143023402, "lat": 56.0500806, "lon": 12.6842068}, {"type": "node", "id": 1143023403, "lat": 56.0499173, "lon": 12.684129}, {"type": "node", "id": 1143023407, "lat": 56.0499143, "lon": 12.6840432}, {"type": "node", "id": 1143023420, "lat": 56.0500941, "lon": 12.6840244}, {"type": "node", "id": 1143023424, "lat": 56.0500776, "lon": 12.6841156}, {"type": "node", "id": 1143023449, "lat": 56.0500611, "lon": 12.6842336}, {"type": "node", "id": 1143023454, "lat": 56.0498904, "lon": 12.684129}, {"type": "node", "id": 1143023455, "lat": 56.0498934, "lon": 12.6842256}, {"type": "node", "id": 1143023458, "lat": 56.0499862, "lon": 12.6842148}, {"type": "node", "id": 1143023473, "lat": 56.0499877, "lon": 12.6842443}, {"type": "node", "id": 1143023477, "lat": 56.0500986, "lon": 12.6841129}, {"type": "node", "id": 1150877892, "lat": 56.047257, "lon": 12.6944189, "tags": {"amenity": "cafe", "brand": "Espresso House", "brand:wikidata": "Q10489162", "brand:wikipedia": "sv:Espresso House", "cuisine": "coffee_shop", "name": "Espresso House", "opening_hours": "Mo-Fr 08:00-21:00; Sa 08:00-17:00; Su 09:00-17:00", "operator": "Espresso House", "phone": "+46 42 133100", "takeaway": "yes", "wheelchair": "no"}}, {"type": "node", "id": 1161607412, "lat": 56.0481264, "lon": 12.6878077, "tags": {"addr:city": "Helsingborg", "addr:country": "SE", "addr:housenumber": "2", "addr:postcode": "252 67", "addr:street": "Kajpromenaden", "amenity": "restaurant", "name": "Oz emellan", "phone": "+46 42 146161", "website": "http://www.ozemellan.se/"}}, {"type": "node", "id": 1161607455, "lat": 56.0486787, "lon": 12.6874159, "tags": {"addr:city": "Helsingborg", "addr:country": "SE", "addr:housenumber": "10", "addr:postcode": "252 67", "addr:street": "Kajpromenaden", "amenity": "restaurant", "bar": "yes", "cuisine": "danish;swedish", "delivery": "yes", "email": "info@mittimellan.se", "name": "MittiMellan", "outdoor_seating": "yes", "phone": "+46 42 246303", "takeaway": "yes", "website": "https://www.mittimellan.se/", "wheelchair": "yes"}}, {"type": "node", "id": 1162021314, "lat": 56.0507114, "lon": 12.685424, "tags": {"amenity": "restaurant", "cuisine": "seafood", "name": "Roys fisk", "shop": "seafood", "toilets:wheelchair": "yes", "wheelchair": "yes"}}, {"type": "node", "id": 1162021353, "lat": 56.0544953, "lon": 12.6853117, "tags": {"amenity": "restaurant", "cuisine": "italian", "email": "info@bonasera.se", "name": "BonaseraBonasera", "opening_hours": "Mo-Su 18:00-24:00", "phone": "+46 42 147827", "website": "http://www.bonasera.se/"}}, {"type": "node", "id": 1202263168, "lat": 56.0410681, "lon": 12.7008051, "tags": {"addr:city": "Helsingborg", "addr:country": "SE", "addr:housenumber": "15", "addr:postcode": "252 25", "addr:street": "Gasverksgatan", "amenity": "restaurant", "name": "Yazhou", "opening_hours": "Mo-Th 11:00-21:00; Fr 11:00-22:00; Sa 12:00-22:00; Su 12:00-21:00", "outdoor_seating": "yes", "phone": "+46 42 121245", "smoking": "outside", "website": "https://www.yazhou.se/"}}, {"type": "node", "id": 1210998961, "lat": 56.0459553, "lon": 12.6959284, "tags": {"amenity": "bar", "name": "Bikten", "wheelchair": "no"}}, {"type": "node", "id": 1248871423, "lat": 56.0558645, "lon": 12.6967995, "tags": {"amenity": "cafe", "name": "Hermanssons konditori & caf\u00e9", "shop": "bakery", "wheelchair": "limited"}}, {"type": "node", "id": 1252427310, "lat": 55.9989547, "lon": 12.7410806}, {"type": "node", "id": 1252427320, "lat": 55.998999, "lon": 12.7410134}, {"type": "node", "id": 1252427322, "lat": 55.999093, "lon": 12.740868}, {"type": "node", "id": 1252427330, "lat": 55.9990672, "lon": 12.7409911}, {"type": "node", "id": 1252427332, "lat": 55.9990403, "lon": 12.7407568}, {"type": "node", "id": 1252427354, "lat": 55.9989012, "lon": 12.7409679}, {"type": "node", "id": 1252427356, "lat": 55.9990214, "lon": 12.7410606}, {"type": "node", "id": 1252427365, "lat": 55.9990441, "lon": 12.7409424}, {"type": "node", "id": 1252490682, "lat": 55.9989183, "lon": 12.7410038}, {"type": "node", "id": 1268876750, "lat": 56.4262541, "lon": 12.6246229, "tags": {"amenity": "restaurant"}}, {"type": "node", "id": 1286550453, "lat": 56.0507637, "lon": 12.6890876, "tags": {"amenity": "restaurant", "cuisine": "sushi", "name": "Wakarini", "opening_hours": "Mo-Fr 11:00-22:00; Sa 12:00-23:00; Su 12:00-22:00", "phone": "+46 42 181066", "website": "http://www.malaysiarestaurang.se/", "wheelchair": "no"}}, {"type": "node", "id": 1286550467, "lat": 56.0514109, "lon": 12.6878102, "tags": {"amenity": "cafe", "name": "\u00c9toile", "opening_hours": "Mo-Fr 08:00-18:00; Sa 10:00-17:00; Su 11:00-17:00", "phone": "+46 70 9410900", "wheelchair": "no"}}, {"type": "node", "id": 1286550490, "lat": 56.0453477, "lon": 12.6960455, "tags": {"amenity": "restaurant", "cuisine": "indian", "email": "info@papadamindisk.se", "name": "Papadam", "opening_hours": "Mo-Th 11:00-22:00; Fr-Sa 11:00-23:00; Su 13:00-22:00", "phone": "+46 42 121600", "website": "http://www.papadamindisk.se/"}}, {"type": "node", "id": 1286550527, "lat": 56.0468165, "lon": 12.6915136, "tags": {"amenity": "restaurant", "cuisine": "sushi", "name": "Nihonsushi", "opening_hours": "Mo-Fr 11:30-21:00; Sa 12:00-21:00", "phone": "+46 42 123126", "website": "http://www.nihonsushi.se/"}}, {"type": "node", "id": 1286550536, "lat": 56.0522112, "lon": 12.686655, "tags": {"amenity": "restaurant", "name": "Drottninggatan 35", "website": "https://drottninggatan35.se/", "wheelchair": "no"}}, {"type": "node", "id": 1286550563, "lat": 56.0497926, "lon": 12.6866485, "tags": {"amenity": "cafe", "brand": "Espresso House", "brand:wikidata": "Q10489162", "brand:wikipedia": "sv:Espresso House", "cuisine": "coffee_shop", "name": "Espresso House", "operator": "Espresso House", "phone": "+46 42 142222", "takeaway": "yes", "wheelchair": "no"}}, {"type": "node", "id": 1286550564, "lat": 56.0485472, "lon": 12.6896537, "tags": {"amenity": "restaurant", "cuisine": "chinese", "name": "Restaurang Chinatown", "opening_hours": "Mo-Th 11:30-22:30; Fr 11:30-23:30; Sa 12:00-23:30; Su 12:00-22:00", "phone": "+46 42 147855", "website": "http://www.chinatownihelsingborg.se/"}}, {"type": "node", "id": 1286550585, "lat": 56.0466111, "lon": 12.6958105, "tags": {"addr:city": "Helsingborg", "addr:country": "SE", "addr:housenumber": "17", "addr:postcode": "252 23", "addr:street": "Norra Kyrkogatan", "amenity": "restaurant", "cuisine": "mexican", "email": "boka@tacosyburritos.se", "name": "Tacos y Burritos", "opening_hours": "Mo-Sa 11:30-22:00", "outdoor_seating": "yes", "phone": "+46 42 544 01", "website": "https://tacosyburritos.se/"}}, {"type": "node", "id": 1286550627, "lat": 56.0450186, "lon": 12.6954779, "tags": {"amenity": "restaurant", "name": "Pub Nessie", "opening_hours": "Mo-We 15:00-23:00; Th 15:00-24:00; Fr,Sa 13:00-24:00; Su 13:00-23:00"}}, {"type": "node", "id": 1286550643, "lat": 56.0489208, "lon": 12.6900408, "tags": {"amenity": "restaurant", "cuisine": "german", "email": "info@edelweissrestaurang.se", "name": "Edelweiss", "opening_hours": "Tu-Th 17:00-22:00; Fr-Sa 17:00-01:00, Su 16:00-22:00", "phone": "+46 42 213737", "website": "https://www.restaurangedelweiss.se/", "wheelchair": "limited"}}, {"type": "node", "id": 1286550656, "lat": 56.0460106, "lon": 12.6978974, "tags": {"amenity": "restaurant", "cuisine": "steak_house", "name": "KOL & Cocktails"}}, {"type": "node", "id": 1290862340, "lat": 56.0831741, "lon": 12.6856458, "tags": {"amenity": "restaurant", "email": "info@linneatradgarden.se", "fax": "+46 42 242429", "name": "Linneatr\u00e4dg\u00e5rden", "phone": "+46 42 242427", "website": "http://www.linneatradgarden.se/", "wheelchair": "yes"}}, {"type": "node", "id": 1329575805, "lat": 56.0482727, "lon": 12.691432, "tags": {"addr:city": "Helsingborg", "addr:country": "SE", "addr:housenumber": "30", "addr:street": "Drottninggatan", "amenity": "cafe", "diet:vegan": "yes", "diet:vegetarian": "yes", "indoor_seating": "yes", "internet_access": "wlan", "internet_access:password": "yes", "name": "Zo\u00e9gas Caf\u00e9 & Butik", "opening_hours": "Mo-Fr 10:00-18:00; Sa 10:00-16:00", "operator": "Zo\u00e9gas", "outdoor_seating": "yes", "phone": "+46 42 216300", "website": "http://www.nestle-nordic.com/zoegas/om_zoegas/cafe.htm", "wheelchair": "limited"}}, {"type": "node", "id": 1329575811, "lat": 56.0488419, "lon": 12.6912648, "tags": {"addr:city": "Helsingborg", "addr:country": "SE", "addr:housenumber": "1", "addr:postcode": "252 20", "addr:street": "\u00c5lgr\u00e4nden", "amenity": "restaurant", "cuisine": "thai;chinese", "fax": "+46 42 128126", "name": "Big Buddha", "opening_hours": "Mo 11:30-15:00; Tu-Th 11:30-22:00; Fr 11:30-23:00; Sa 12:00-23:00; Su 13:00-22:00", "phone": "+46 42 128128", "website": "http://www.bigbuddha.se/"}}, {"type": "node", "id": 1329575814, "lat": 56.0467196, "lon": 12.6910743, "tags": {"addr:city": "Helsingborg", "addr:country": "SE", "addr:housenumber": "4", "addr:postcode": "25221", "addr:street": "Badhusgatan", "amenity": "restaurant", "cuisine": "Husmanskost", "email": "Redimat.Catering@gmail.com", "name": "RediMat", "opening_hours": "Mo-Fr 11:00-15:00", "phone": "+46 42 130 200", "website": "https://www.redimat.se/", "wheelchair": "no"}}, {"type": "node", "id": 1329575817, "lat": 56.046616, "lon": 12.6906111, "tags": {"addr:city": "Helsingborg", "addr:country": "SE", "addr:housenumber": "6", "addr:postcode": "252 21", "addr:street": "Kungsgatan", "amenity": "cafe", "diet:vegetarian": "yes", "name": "Thores bageri & caf\u00e9", "opening_hours": "Mo-Fr 07:00-14:00; Sa 08:00-12:00", "phone": "+46 42 15 06 89", "shop": "bakery", "website": "https://thoresbageri.se/", "wheelchair": "no"}}, {"type": "node", "id": 1329575820, "lat": 56.0461242, "lon": 12.6915408, "tags": {"amenity": "restaurant", "cuisine": "thai", "email": "info@phuunthai.com", "name": "Phuun Thai", "opening_hours": "Mo-Fr 11:00-22:00; Sa 13:00-22:00; Su 14:00-20:00", "phone": "+46 42 141414", "website": "https://phuunthai.com/", "wheelchair": "no"}}, {"type": "node", "id": 1330910600, "lat": 56.0584112, "lon": 12.6816485}, {"type": "node", "id": 1330910602, "lat": 56.0585728, "lon": 12.6814364}, {"type": "node", "id": 1330910603, "lat": 56.0585908, "lon": 12.6815717}, {"type": "node", "id": 1330910606, "lat": 56.0583932, "lon": 12.6815131}, {"type": "node", "id": 1338437221, "lat": 56.0599948, "lon": 12.6898284, "tags": {"amenity": "cafe", "email": "info@fikahosida.se", "name": "Fika hos Ida", "opening_hours": "Mo-Fr 07:00-16:00; Sa-Su 08:00-14:00", "phone": "+46 42 121960", "website": "http://www.fikahosida.com/"}}, {"type": "node", "id": 1356782539, "lat": 56.2750308, "lon": 12.8382635, "tags": {"addr:city": "\u00c4ngelholm", "addr:country": "SE", "addr:housenumber": "1", "addr:postcode": "262 61", "addr:street": "Torgv\u00e4gen", "amenity": "restaurant", "fax": "+46 431 25444", "internet_access": "wlan", "internet_access:fee": "no", "name": "Restaurang Carl Fredrik", "phone": "+46 431 25444", "website": "http://www.carlfredrik.nu/"}}, {"type": "node", "id": 1364437519, "lat": 56.0456007, "lon": 12.6974501, "tags": {"amenity": "restaurant", "cuisine": "thai", "name": "Brasseri G", "opening_hours": "Mo-Fr 11:00-20:00; Sa 12:00-16:00", "phone": "+46 42 150010"}}, {"type": "node", "id": 1364437537, "lat": 56.0456721, "lon": 12.6956599, "tags": {"amenity": "restaurant", "name": "Pinchos", "website": "https://www.pinchos.se/helsingborg/"}}, {"type": "node", "id": 1364437542, "lat": 56.043898, "lon": 12.6970635, "tags": {"amenity": "restaurant", "cuisine": "thai", "email": "info@thaicorner.se", "name": "Thai Corner", "opening_hours": "Mo-Fr 11:30-15:00; Tu-Th 18:00-23:00; Fr-Sa 17:00-23:00; Su 16:00-22:00", "website": "https://www.thaicorner.se/"}}, {"type": "node", "id": 1364437544, "lat": 56.0441085, "lon": 12.6972538, "tags": {"amenity": "restaurant", "fax": "+46 42 128071", "name": "Restaurang Oasen", "phone": "+46 42 128074", "website": "https://www.oasenfondue.se/"}}, {"type": "node", "id": 1374024341, "lat": 56.0548697, "lon": 12.7018708, "tags": {"amenity": "restaurant", "cuisine": "thai", "name": "Thai Restaurang", "phone": "+46 42 121458"}}, {"type": "node", "id": 1375624708, "lat": 56.0482948, "lon": 12.6938222, "tags": {"addr:city": "Helsingborg", "addr:country": "SE", "addr:housenumber": "15", "addr:postcode": "252 20", "addr:street": "Norra Storgatan", "amenity": "restaurant", "cuisine": "pizza", "email": "info@mogwaibar.se", "name": "Mogwai", "opening_hours": "Mo-Th 17:00-01:00, Fr 17:00-03:00, Sa 18:00-03:00, Su 18:00-01:00", "phone": "+46 42 137400", "website": "https://mogwaibar.se/", "wheelchair": "no"}}, {"type": "node", "id": 1375629351, "lat": 56.0501538, "lon": 12.6884804, "tags": {"amenity": "restaurant", "name": "Mento", "phone": "+46 42 123800", "website": "http://www.mento.se/"}}, {"type": "node", "id": 1377914657, "lat": 55.999348, "lon": 12.739951, "tags": {"amenity": "restaurant", "description": "Excellent Asian food", "name": "Nanny's", "takeaway": "yes"}}, {"type": "node", "id": 1394044882, "lat": 56.2463394, "lon": 12.8696024, "tags": {"addr:city": "\u00c4ngelholm", "addr:country": "SE", "addr:housenumber": "24", "addr:postcode": "26231", "addr:street": "Vaktgatan", "amenity": "restaurant", "name": "Natalie"}}, {"type": "node", "id": 1394044900, "lat": 56.2465804, "lon": 12.8686514, "tags": {"addr:city": "\u00c4ngelholm", "addr:country": "SE", "addr:housenumber": "20", "addr:postcode": "262 31", "addr:street": "Vaktgatan", "amenity": "restaurant", "cuisine": "sushi"}}, {"type": "node", "id": 1405825773, "lat": 56.0437051, "lon": 12.6991158, "tags": {"amenity": "restaurant", "name": "Tv\u00e5 Tusen Tio"}}, {"type": "node", "id": 1405825851, "lat": 56.0436547, "lon": 12.6988804, "tags": {"amenity": "restaurant", "cuisine": "chinese", "email": "info@delihouse.se", "name": "Delicious House", "opening_hours": "Mo-Fr 11:00-21:00; Sa 15:00-21:00", "phone": "+46 42 126566", "website": "http://www.delicioushouse.nu/"}}, {"type": "node", "id": 1413310856, "lat": 56.0367939, "lon": 12.7051188, "tags": {"addr:city": "Helsingborg", "addr:country": "SE", "addr:housenumber": "8", "addr:postcode": "254 61", "addr:street": "Fyrverkaregatan", "amenity": "restaurant", "cuisine": "indian", "name": "Shahi Masala", "opening_hours": "Mo-Fr 11:00-22:00; Sa,Su 12:00-22:00"}}, {"type": "node", "id": 1423337310, "lat": 56.2429728, "lon": 12.8604987, "tags": {"addr:city": "\u00c4ngelholm", "addr:country": "SE", "addr:housenumber": "13", "addr:postcode": "262 32", "addr:street": "J\u00e4rnv\u00e4gsgatan", "amenity": "restaurant", "cuisine": "thai", "email": "info@thaiasia.se", "name": "Restaurang Thai Asia", "phone": "+46 431 83428", "website": "http://www.thaiasia.se/"}}, {"type": "node", "id": 1423337314, "lat": 56.2430001, "lon": 12.8603318, "tags": {"addr:city": "\u00c4ngelholm", "addr:country": "SE", "addr:housenumber": "15", "addr:postcode": "262 32", "addr:street": "J\u00e4rnv\u00e4gsgatan", "amenity": "restaurant", "cuisine": "indian", "name": "Curry Nam Nam"}}, {"type": "node", "id": 1430464372, "lat": 56.1938597, "lon": 12.854563, "tags": {"amenity": "restaurant", "name": "Erikslunds w\u00e4rdshus"}}, {"type": "node", "id": 1469898959, "lat": 56.0475332, "lon": 12.6931672, "tags": {"addr:city": "Helsingborg", "addr:country": "SE", "addr:housenumber": "7", "addr:postcode": "252 20", "addr:street": "Kolm\u00e4taregr\u00e4nd", "amenity": "restaurant", "email": "info@kgrand.se", "name": "Kgr\u00e4nd Bistro och Deli", "opening_hours": "Mo-Fr 09:00-16:00; Sa 11:30-16:00", "phone": "+46 42 281055", "website": "https://www.kgrand.se/"}}, {"type": "node", "id": 1469898984, "lat": 56.0474602, "lon": 12.6933327, "tags": {"addr:city": "Helsingborg", "addr:country": "SE", "addr:housenumber": "8", "addr:postcode": "252 20", "addr:street": "Kolm\u00e4taregr\u00e4nden", "amenity": "restaurant", "cuisine": "burger", "delivery": "yes", "email": "Ellinor@tuggburgers.se", "name": "Tugg Burgers", "opening_hours": "Mo-Th 11:00-15:00, 16:00-22:00; Fr 11:00-15:00, 16:00-23:00; Sa 12:00-23:00; Su 12:00-20:00", "outdoor_seating": "yes", "phone": "+46 42 12 10 20", "source": "survey;local knowledge", "website": "https://helsingborg.tuggburgers.se/"}}, {"type": "node", "id": 1470979171, "lat": 56.0471839, "lon": 12.6961404, "tags": {"amenity": "restaurant", "cuisine": "italian", "name": "Trattoria Venti", "opening_hours": "Mo-Th 07:00-10:00,11:30-14:00,15:00-23:00; Fr 07:00-10:00,11:30-14:00,15:00-01:00, Sa 07:00-10:00,15:00-01:00, Su 07:00-11:00", "phone": "+46 (0)42-37 18 00", "website": "https://thevaulthotel.se/food-and-drinks/venti/"}}, {"type": "node", "id": 1470979195, "lat": 56.0421561, "lon": 12.6990276, "tags": {"addr:city": "Helsingborg", "addr:country": "SE", "addr:housenumber": "1", "addr:postcode": "252 25", "addr:street": "Bollbrogatan", "amenity": "cafe", "name": "Caf\u00e9 Birger", "wheelchair": "yes"}}, {"type": "node", "id": 1471161281, "lat": 56.2464258, "lon": 12.8641934, "tags": {"addr:city": "\u00c4ngelholm", "addr:country": "SE", "addr:housenumber": "57", "addr:postcode": "26235", "addr:street": "Storgatan", "amenity": "restaurant", "name": "19Hundra Restaurang & Cocktailbar", "opening_hours": "Mo-Th,Su 17:00-18:01; Fr,Sa 17:00-03:00", "phone": "+46 431 19099", "website": "https://bar19hundra.se/"}}, {"type": "node", "id": 1479468901, "lat": 56.0409895, "lon": 12.6994812, "tags": {"amenity": "restaurant", "name": "Restaurang Entr\u00e9"}}, {"type": "node", "id": 1492519595, "lat": 56.0441332, "lon": 12.6940321, "tags": {"amenity": "cafe", "brand": "Espresso House", "brand:wikidata": "Q10489162", "brand:wikipedia": "sv:Espresso House", "cuisine": "coffee_shop", "internet_access": "wlan", "name": "Espresso House", "opening_hours": "Mo-Fr 05:30-20:00; Sa 08:00-18:00; Su 09:00-17:00", "operator": "Espresso House", "phone": "+46 10 5101184", "takeaway": "yes", "wheelchair": "yes"}}, {"type": "node", "id": 1492519649, "lat": 56.0442078, "lon": 12.6942141, "tags": {"amenity": "restaurant", "cuisine": "thai", "name": "R\u00fcan Thai"}}, {"type": "node", "id": 1492519654, "lat": 56.0516111, "lon": 12.688047, "tags": {"addr:city": "Helsingborg", "addr:country": "SE", "addr:housenumber": "88", "addr:postcode": "252 21", "addr:street": "Drottninggatan", "amenity": "restaurant", "cuisine": "italian", "name": "Orange", "phone": "+46 42 135311", "website": "https://restorange.n.nu/helsingborg"}}, {"type": "node", "id": 1500044271, "lat": 56.020015, "lon": 12.5718827, "tags": {"alt_name": "Kardusen Bodega", "amenity": "bar", "fvst:navnelbnr": "736536", "name": "Kardusen", "ref:DK:cvr": "18516187", "smoking": "yes"}}, {"type": "node", "id": 1501550590, "lat": 56.0264534, "lon": 12.7136713, "tags": {"amenity": "restaurant", "name": "Restaurang R\u00f6dbetan"}}, {"type": "node", "id": 1565136903, "lat": 56.043688, "lon": 12.6990358, "tags": {"amenity": "restaurant", "cuisine": "indian", "name": "Tara indisk restaurang"}}, {"type": "node", "id": 1607069889, "lat": 56.1075253, "lon": 12.7920726}, {"type": "node", "id": 1607069891, "lat": 56.1075614, "lon": 12.7918713}, {"type": "node", "id": 1607069897, "lat": 56.1076713, "lon": 12.7921795}, {"type": "node", "id": 1607069899, "lat": 56.107711, "lon": 12.7919574}, {"type": "node", "id": 1607134019, "lat": 56.1349105, "lon": 12.9452736, "tags": {"addr:city": "\u00c5storp", "addr:country": "SE", "addr:housenumber": "1C", "addr:postcode": "26534", "addr:street": "Nya torg", "amenity": "restaurant", "contact:phone": "+46-42-586 48", "contact:website": "http://www.chinatowns.se/roma/", "cuisine": "pizza", "name": "Pizzeria Roma", "opening_hours": "Mo-Fr 11:30-22:00; Sa-Su 13:00-22:00", "website": "http://www.chinatowns.se/roma/"}}, {"type": "node", "id": 1771807659, "lat": 56.0577686, "lon": 12.8790436, "tags": {"amenity": "restaurant", "name": "M\u00f6rarps Pizzeria"}}, {"type": "node", "id": 1774374709, "lat": 56.0704841, "lon": 12.6756076, "tags": {"amenity": "restaurant", "name": "Villa Thalassa", "tourism": "hotel"}}, {"type": "node", "id": 1778422567, "lat": 56.1347736, "lon": 12.9442003, "tags": {"amenity": "restaurant", "cuisine": "chinese", "name": "Kina Draken"}}, {"type": "node", "id": 1778422571, "lat": 56.1274941, "lon": 12.9489819, "tags": {"addr:city": "\u00c5storp", "addr:country": "SE", "addr:housenumber": "14", "addr:street": "Vramsv\u00e4gen", "amenity": "restaurant", "name": "Restaurang B\u00e4ckag\u00e5rd"}}, {"type": "node", "id": 1778422574, "lat": 56.135889, "lon": 12.9469593, "tags": {"amenity": "restaurant", "name": "Restaurant Viking"}}, {"type": "node", "id": 1778422580, "lat": 56.133938, "lon": 12.9481961, "tags": {"amenity": "restaurant", "check_date": "2023-03-21", "cuisine": "thai", "name": "Suriysthai", "opening_hours": "Tu-Th 11:00-20:00; Fr 11:00-21:00; Sa 12:00-21:00; Su 12:00-20:00"}}, {"type": "node", "id": 1778422759, "lat": 56.135005, "lon": 12.9476926}, {"type": "node", "id": 1778422761, "lat": 56.1350137, "lon": 12.947761, "tags": {"entrance": "main"}}, {"type": "node", "id": 1778422764, "lat": 56.1350202, "lon": 12.9478114}, {"type": "node", "id": 1778422765, "lat": 56.1350283, "lon": 12.9476233}, {"type": "node", "id": 1778422766, "lat": 56.1350356, "lon": 12.94768}, {"type": "node", "id": 1778422771, "lat": 56.1350508, "lon": 12.9477988}, {"type": "node", "id": 1778422773, "lat": 56.1350597, "lon": 12.947869}, {"type": "node", "id": 1778422780, "lat": 56.1350945, "lon": 12.947596}, {"type": "node", "id": 1778422782, "lat": 56.1351017, "lon": 12.9476527}, {"type": "node", "id": 1778422784, "lat": 56.1351169, "lon": 12.9477715}, {"type": "node", "id": 1778422791, "lat": 56.1351259, "lon": 12.9478417}, {"type": "node", "id": 1778422796, "lat": 56.1351419, "lon": 12.9476362}, {"type": "node", "id": 1778422798, "lat": 56.1351571, "lon": 12.947755}, {"type": "node", "id": 1796966046, "lat": 56.0571187, "lon": 12.7101568}, {"type": "node", "id": 1796966072, "lat": 56.0570836, "lon": 12.7103198}, {"type": "node", "id": 1796966091, "lat": 56.0566981, "lon": 12.7104522}, {"type": "node", "id": 1796966095, "lat": 56.0571387, "lon": 12.710294}, {"type": "node", "id": 1796966116, "lat": 56.0567834, "lon": 12.7105246}, {"type": "node", "id": 1796966131, "lat": 56.056749, "lon": 12.7104052}, {"type": "node", "id": 1796966139, "lat": 56.0570636, "lon": 12.7101826}, {"type": "node", "id": 1796966200, "lat": 56.0567325, "lon": 12.7105716}, {"type": "node", "id": 1807267441, "lat": 56.0583956, "lon": 12.6815315}, {"type": "node", "id": 1807267456, "lat": 56.0558118, "lon": 12.6810643}, {"type": "node", "id": 1807267497, "lat": 56.0556474, "lon": 12.6807267}, {"type": "node", "id": 1807267515, "lat": 56.0557416, "lon": 12.6806726}, {"type": "node", "id": 1807267558, "lat": 56.0557176, "lon": 12.6811185}, {"type": "node", "id": 1807275085, "lat": 56.0521075, "lon": 12.6838493}, {"type": "node", "id": 1807275087, "lat": 56.0520753, "lon": 12.6838914}, {"type": "node", "id": 1807275088, "lat": 56.0520959, "lon": 12.6839943}, {"type": "node", "id": 1807275091, "lat": 56.0523088, "lon": 12.6837161}, {"type": "node", "id": 1807275093, "lat": 56.0520873, "lon": 12.6839206}, {"type": "node", "id": 1807275095, "lat": 56.0520734, "lon": 12.6839388}, {"type": "node", "id": 1807275096, "lat": 56.0520966, "lon": 12.6838223}, {"type": "node", "id": 1807275098, "lat": 56.0522633, "lon": 12.6836044}, {"type": "node", "id": 1808197647, "lat": 56.0440813, "lon": 12.6879415}, {"type": "node", "id": 1814944608, "lat": 56.4295883, "lon": 12.8417937, "tags": {"addr:city": "B\u00e5stad", "addr:country": "SE", "addr:housenumber": "40", "addr:postcode": "26938", "addr:street": "K\u00f6pmansgatan", "amenity": "restaurant", "cuisine": "italian", "name": "Capri"}}, {"type": "node", "id": 1814944611, "lat": 56.3163092, "lon": 12.7628615, "tags": {"amenity": "cafe", "cuisine": "ice_cream", "name": "Glassb\u00e5ten"}}, {"type": "node", "id": 1814945760, "lat": 56.3166835, "lon": 12.7625635, "tags": {"amenity": "restaurant"}}, {"type": "node", "id": 1828091852, "lat": 55.9938705, "lon": 12.7427699}, {"type": "node", "id": 1828091853, "lat": 55.994097, "lon": 12.7427082}, {"type": "node", "id": 1828091854, "lat": 55.9941235, "lon": 12.7425517}, {"type": "node", "id": 1828091855, "lat": 55.9939695, "lon": 12.7428719}, {"type": "node", "id": 1828091857, "lat": 55.9942575, "lon": 12.7428665}, {"type": "node", "id": 1828091858, "lat": 55.9941885, "lon": 12.742947}, {"type": "node", "id": 1828091861, "lat": 55.993956, "lon": 12.7428289}, {"type": "node", "id": 1828091862, "lat": 55.993929, "lon": 12.742904}, {"type": "node", "id": 1828091863, "lat": 55.99392, "lon": 12.7428665}, {"type": "node", "id": 1828091864, "lat": 55.9938975, "lon": 12.7428799}, {"type": "node", "id": 1841990392, "lat": 56.0450685, "lon": 12.6965568, "tags": {"amenity": "cafe", "brand": "Espresso House", "brand:wikidata": "Q10489162", "brand:wikipedia": "sv:Espresso House", "cuisine": "coffee_shop", "name": "Espresso House", "opening_hours": "Mo-Fr 07:30-18:00; Sa 09:00-18:00; Su 09:00-17:00", "phone": "+46 10 5101244", "takeaway": "yes"}}, {"type": "node", "id": 1853352831, "lat": 56.2990072, "lon": 12.4691288, "tags": {"amenity": "restaurant", "name": "Kullag\u00e5rdens W\u00e4rdshus", "tourism": "hotel"}}, {"type": "node", "id": 1999377694, "lat": 56.0863896, "lon": 12.9157512, "tags": {"addr:street": "Norra Storgatan", "amenity": "restaurant", "cuisine": "pizza", "name": "Pizzeria Ferrara", "phone": "+46-42-708 88"}}, {"type": "node", "id": 1999377704, "lat": 56.0835855, "lon": 12.9198566, "tags": {"addr:country": "SE", "addr:housenumber": "15", "addr:postcode": "26731", "addr:street": "S\u00f6dra Storgatan", "amenity": "restaurant", "cuisine": "pizza", "name": "Bjuvs Restaurang & Pizzeria", "phone": "+46-42-822 79", "website": "www.bjuvspizzeria.se"}}, {"type": "node", "id": 2012911632, "lat": 56.0868913, "lon": 12.915144, "tags": {"addr:country": "SE", "addr:housenumber": "20", "addr:postcode": "26731", "addr:street": "Norra Storgatan", "amenity": "restaurant", "cuisine": "kebab", "name": "Bjuvs Kebabhouse", "phone": "+46-42-826 90"}}, {"type": "node", "id": 2144632632, "lat": 56.0119246, "lon": 12.715727}, {"type": "node", "id": 2144632651, "lat": 56.011754, "lon": 12.7151459}, {"type": "node", "id": 2144632654, "lat": 56.0118408, "lon": 12.7150649}, {"type": "node", "id": 2144632658, "lat": 56.0118766, "lon": 12.7157718}, {"type": "node", "id": 2144632663, "lat": 56.0119464, "lon": 12.7158015}, {"type": "node", "id": 2144632666, "lat": 56.0120789, "lon": 12.7155544}, {"type": "node", "id": 2144632668, "lat": 56.0121148, "lon": 12.715521}, {"type": "node", "id": 2144632680, "lat": 56.0117771, "lon": 12.7152252}, {"type": "node", "id": 2144632685, "lat": 56.012143, "lon": 12.7156179}, {"type": "node", "id": 2144632707, "lat": 56.0118994, "lon": 12.7149389}, {"type": "node", "id": 2144632712, "lat": 56.01173, "lon": 12.7152692}, {"type": "node", "id": 2144632715, "lat": 56.0118245, "lon": 12.7150088}, {"type": "node", "id": 2150190468, "lat": 55.9871677, "lon": 12.7578023, "tags": {"FIXME": "Position estimated", "amenity": "restaurant", "name": "\u00d6rby \u00c4ngar"}}, {"type": "node", "id": 2273805622, "lat": 55.9876001, "lon": 12.7585708, "tags": {"amenity": "cafe", "name": "Teatercaf\u00e9et", "note": "It is a cafe for students though I do not know if it is a business", "operator": "Sundsg\u00e5rdens folkh\u00f6gskola"}}, {"type": "node", "id": 2309762251, "lat": 55.9915876, "lon": 12.7458053, "tags": {"addr:city": "R\u00e5\u00e5", "addr:country": "SE", "addr:housenumber": "22", "addr:postcode": "252 71", "addr:street": "V\u00e4stindiegatan", "amenity": "cafe", "cuisine": "ice_cream", "description": "Cafe, Restaurang, Catering, Konferens", "name": "Ankaret", "source:address": "Helsingborgs kommun"}}, {"type": "node", "id": 2426886501, "lat": 56.0654713, "lon": 12.7006017, "tags": {"amenity": "restaurant", "name": "DHS caf\u00e9", "phone": "+46 42 177878", "wheelchair": "yes"}}, {"type": "node", "id": 2429455087, "lat": 56.1833551, "lon": 12.5580536, "tags": {"amenity": "restaurant", "name": "Skogsbrynet"}}, {"type": "node", "id": 2456549772, "lat": 56.0131329, "lon": 12.7317706}, {"type": "node", "id": 2456549774, "lat": 56.0131214, "lon": 12.7317197}, {"type": "node", "id": 2456549776, "lat": 56.0130982, "lon": 12.7317365}, {"type": "node", "id": 2456549778, "lat": 56.0131016, "lon": 12.7317514}, {"type": "node", "id": 2456549780, "lat": 56.0130662, "lon": 12.7317771}, {"type": "node", "id": 2456549782, "lat": 56.0130774, "lon": 12.7318266}, {"type": "node", "id": 2456549784, "lat": 56.0131129, "lon": 12.7318008}, {"type": "node", "id": 2456549786, "lat": 56.0131098, "lon": 12.7317874}, {"type": "node", "id": 2497034503, "lat": 55.9881386, "lon": 12.80528}, {"type": "node", "id": 2497034505, "lat": 55.9881015, "lon": 12.8050303}, {"type": "node", "id": 2753455902, "lat": 56.201683, "lon": 12.5506766, "tags": {"addr:city": "H\u00f6gan\u00e4s", "addr:country": "SE", "addr:housenumber": "1", "addr:postcode": "263 38", "addr:street": "Bruksgatan", "amenity": "cafe", "cuisine": "sandwich;soppa;cake", "name": "Caf\u00e9 Bistro", "opening_hours": "Mo-Fr 09:00-18:00; Sa 09:00-17:00; Su 09:00-17:00", "outdoor_seating": "yes", "phone": "+46-42-342847", "takeaway": "yes"}}, {"type": "node", "id": 3315252610, "lat": 56.0453526, "lon": 12.6979566, "tags": {"addr:city": "Helsingborg", "addr:country": "SE", "addr:housenumber": "9", "addr:postcode": "25224", "addr:street": "Karlsgatan", "amenity": "restaurant", "cuisine": "sushi;japanese", "name": "Restaurang Kristall", "website": "https://www.restaurangkristall.se/"}}, {"type": "node", "id": 3558221483, "lat": 56.0419092, "lon": 12.7243708, "tags": {"amenity": "cafe", "name": "R\u00f6da Korset Second handbutik & Caf\u00e9", "shop": "second_hand"}}, {"type": "node", "id": 3591733537, "lat": 56.2064192, "lon": 12.5558259, "tags": {"addr:city": "H\u00f6gan\u00e4s", "addr:country": "SE", "addr:housenumber": "36", "addr:postcode": "263 39", "addr:street": "Bruksgatan", "amenity": "restaurant", "name": "Barbara", "phone": "+46 709 751468", "shop": "deli", "website": "https://www.barbara.restaurant/"}}, {"type": "node", "id": 3595880921, "lat": 56.0083973, "lon": 12.5875206, "tags": {"amenity": "cafe", "fvst:navnelbnr": "741632", "name": "Caf\u00e9 Vitus", "opening_hours": "Apr-Sep 11:00-22:00", "ref:DK:cvr": "38479938", "ref:DK:cvr:pnummer": "1022261831"}}, {"type": "node", "id": 3598477580, "lat": 56.0584068, "lon": 12.6820762}, {"type": "node", "id": 3598477581, "lat": 56.0584271, "lon": 12.6822248}, {"type": "node", "id": 3598477582, "lat": 56.0582986, "lon": 12.6822811}, {"type": "node", "id": 3598477583, "lat": 56.0582783, "lon": 12.6821326}, {"type": "node", "id": 3633647779, "lat": 56.1075392, "lon": 12.7922073}, {"type": "node", "id": 3633647780, "lat": 56.1075598, "lon": 12.7920924}, {"type": "node", "id": 3633647781, "lat": 56.1076172, "lon": 12.7922522}, {"type": "node", "id": 3633647782, "lat": 56.107634, "lon": 12.7921581}, {"type": "node", "id": 3634958935, "lat": 56.0329454, "lon": 12.6090468, "tags": {"amenity": "restaurant", "cuisine": "italian", "fvst:name": "Ristorante Amici Mie\u00ed", "fvst:navnelbnr": "91814", "name": "Ristorante Amici Miei", "opening_hours": "12:00-22:00", "phone": "+45 49262671", "ref:DK:cvr": "25181867", "ref:DK:cvr:pnummer": "1007434215", "source": "survey"}}, {"type": "node", "id": 3635750242, "lat": 56.046529, "lon": 12.6955993, "tags": {"amenity": "restaurant", "cuisine": "latin_american", "name": "Tikal", "opening_hours": "We-Sa 17:00-01:00", "website": "https://www.tikal.nu/"}}, {"type": "node", "id": 3662233725, "lat": 56.0571605, "lon": 12.7126947, "tags": {"amenity": "cafe", "name": "Fredriksdals tr\u00e4dg\u00e5rdskaf\u00e9", "opening_hours": "\"Restaurangen \u00e4r \u00f6ppen med parken vid evenemang och vissa delar av sommaren.\"", "outdoor_seating": "yes", "website": "http://fredriksdalstradgardskafe.se/", "wheelchair": "yes"}}, {"type": "node", "id": 3686460723, "lat": 56.1998232, "lon": 12.5594528, "tags": {"amenity": "restaurant", "name": "Pataya Thai"}}, {"type": "node", "id": 3686465858, "lat": 56.1988722, "lon": 12.5489635, "tags": {"addr:city": "H\u00f6gan\u00e4s", "addr:country": "SE", "addr:housenumber": "16b", "addr:postcode": "263 39", "addr:street": "Sm\u00e5b\u00e5tshamnen", "amenity": "restaurant", "email": "info@hoganasbrygga.se", "name": "Bryggan", "phone": "+46 42 340 360", "website": "https://hoganasbrygga.se/"}}, {"type": "node", "id": 3686465865, "lat": 56.1984449, "lon": 12.5503675, "tags": {"addr:city": "H\u00f6gan\u00e4s", "addr:country": "SE", "addr:housenumber": "26", "addr:postcode": "263 39", "addr:street": "Sm\u00e5b\u00e5tshamnen", "amenity": "restaurant", "indoor_seating": "yes", "name": "H\u00f6gan\u00e4s Hamnkrog", "outdoor_seating": "yes", "phone": "-46 42 343434", "website": "https://www.hoganashamnkrog.se/"}}, {"type": "node", "id": 3735852731, "lat": 56.033738, "lon": 12.6106573, "tags": {"amenity": "cafe", "fvst:navnelbnr": "546172", "name": "Caf\u00e9 Kaiser", "opening_hours": "Su-Th 10:00-22:00; Fr-Sa 10:00-23:00", "outdoor_seating": "yes", "phone": "+45 48481414", "ref:DK:cvr": "32354262", "ref:DK:cvr:pnummer": "1019249030", "website": "https://cafekaiser.dk/"}}, {"type": "node", "id": 3737372100, "lat": 56.0394713, "lon": 12.7130781, "tags": {"addr:city": "Helsingborg", "addr:country": "SE", "addr:housenumber": "67", "addr:postcode": "252 46", "addr:street": "Faktorsgatan", "amenity": "restaurant", "cuisine": "thai", "name": "Namjai Thai", "takeaway": "yes"}}, {"type": "node", "id": 3742735886, "lat": 56.0004883, "lon": 12.7387471}, {"type": "node", "id": 3742735900, "lat": 56.0005334, "lon": 12.7388446}, {"type": "node", "id": 3742735911, "lat": 56.000559, "lon": 12.7388068}, {"type": "node", "id": 3742735917, "lat": 56.0005806, "lon": 12.7388535}, {"type": "node", "id": 3742735918, "lat": 56.0005828, "lon": 12.7386075}, {"type": "node", "id": 3742736128, "lat": 56.0006372, "lon": 12.7387253}, {"type": "node", "id": 3742736133, "lat": 56.0006494, "lon": 12.7387518}, {"type": "node", "id": 3744446646, "lat": 56.2607082, "lon": 12.5505179, "tags": {"addr:city": "Nyhamnsl\u00e4ge", "addr:country": "SE", "addr:housenumber": "137", "addr:postcode": "263 76", "addr:street": "Krapperups Kyrkov\u00e4g", "amenity": "restaurant", "cuisine": "barbecue", "email": "info@holysmokebbq.se", "name": "Holy Smoke BBQ", "phone": "+46 42 773 03", "website": "https://www.holysmokebbq.se/"}}, {"type": "node", "id": 3748292963, "lat": 56.0407555, "lon": 12.6998825, "tags": {"amenity": "restaurant", "name": "Nelly's Food Etc."}}, {"type": "node", "id": 3778757574, "lat": 56.2445035, "lon": 12.8629478, "tags": {"addr:city": "\u00c4ngelholm", "addr:housenumber": "48", "addr:postcode": "26232", "addr:street": "Storgatan", "amenity": "restaurant", "cuisine": "sushi", "name": "Sumo Sushi", "outdoor_seating": "yes", "website": "https://www.sumosushi.se/meny-sumo-sushi-angelholm"}}, {"type": "node", "id": 3778757583, "lat": 56.4265229, "lon": 12.8490245, "tags": {"addr:city": "B\u00e5stad", "addr:country": "SE", "addr:housenumber": "76", "addr:postcode": "269 31", "addr:street": "K\u00f6pmansgatan", "addr:unit": "c", "amenity": "restaurant", "cuisine": "pizza;burger;pasta;kebab", "diet:vegetarian": "yes", "name": "Restaurang Lyckan", "opening_hours": "Mo off; Tu-Su 11:00-21:00;", "phone": "+46 431 702 20", "website": "https://restauranglyckan.com", "wheelchair": "limited"}}, {"type": "node", "id": 3778757584, "lat": 56.4270592, "lon": 12.8585833, "tags": {"addr:city": "B\u00e5stad", "addr:country": "SE", "addr:housenumber": "113", "addr:postcode": "269 36", "addr:street": "K\u00f6pmansgatan", "amenity": "restaurant", "cuisine": "asian", "name": "Malens Krog", "phone": "+46-431-369896", "website": "https://www.malenskrog.se"}}, {"type": "node", "id": 3778946188, "lat": 56.2260509, "lon": 12.6741238, "tags": {"amenity": "restaurant", "name": "Pizzeria Mona Lisa"}}, {"type": "node", "id": 3778946189, "lat": 56.224676, "lon": 12.6744704, "tags": {"amenity": "restaurant", "name": "Tunneberga G\u00e4stgivareg\u00e5rd"}}, {"type": "node", "id": 3883985814, "lat": 56.2671898, "lon": 12.8396675}, {"type": "node", "id": 3883985815, "lat": 56.2670472, "lon": 12.839666}, {"type": "node", "id": 3883985816, "lat": 56.2670457, "lon": 12.8401166}, {"type": "node", "id": 3883985817, "lat": 56.2671884, "lon": 12.8401181}, {"type": "node", "id": 3921974217, "lat": 56.0636495, "lon": 12.5673756, "tags": {"amenity": "restaurant", "cuisine": "seasonal", "fvst:navnelbnr": "109950", "name": "Restaurant Sevel Hovedhuset", "opening_hours": "easter-Dec 31 12:00-22:00; Mo off; Jun-Sep 12:00-22:00", "phone": "+45 49707172", "ref:DK:cvr": "26704588", "ref:DK:cvr:pnummer": "1009222029", "website": "https://www.sevel.net/restaurant/"}}, {"type": "node", "id": 3922310485, "lat": 56.0452304, "lon": 12.6038733, "tags": {"amenity": "restaurant", "fvst:navnelbnr": "108584", "name": "Marienlyst Brasserie 1861", "opening_hours": "12:00-15:00,18:00-21:45; Mo 12:00-15:00; Fr-Sa 12:00-15:00,17:30-21:45", "phone": "+45 49214000", "ref:DK:cvr": "16985104", "ref:DK:cvr:pnummer": "1001197729", "website": "https://www.marienlyst.dk/en/restaurants-bars/brasserie-1861"}}, {"type": "node", "id": 3922310497, "lat": 56.0364774, "lon": 12.6098594, "tags": {"amenity": "cafe", "cuisine": "buffet", "fvst:navnelbnr": "110565", "name": "Cafe Chaplin", "opening_hours": "11:00-16:00; Sa,Su,PH 09:00-16:00", "phone": "+45 30535456", "ref:DK:cvr": "14527702", "ref:DK:cvr:pnummer": "1013215258", "website": "https://www.cafechaplin.dk/"}}, {"type": "node", "id": 3922310498, "lat": 56.0348024, "lon": 12.610301, "tags": {"amenity": "restaurant", "check_date": "2022-10-18", "cuisine": "regional", "fvst:navnelbnr": "988123", "name": "Cafe Olai", "opening_hours": "Mo-Fr 10:30-23:00; Sa 10:00-23:00; Su 12:00-23:00; Dec 25-27 off; Jan 01 off", "phone": "+45 49201607", "ref:DK:cvr": "41614102", "ref:DK:cvr:pnummer": "1026182081", "website": "https://cafeolai.dk/"}}, {"type": "node", "id": 3923669978, "lat": 56.0450771, "lon": 12.6040198, "tags": {"amenity": "restaurant", "fvst:navnelbnr": "90227", "name": "Marienlyst Restaurant", "phone": "+45 49214000", "ref:DK:cvr": "16985104", "ref:DK:cvr:pnummer": "1001197729", "website": "https://www.marienlyst.dk/en/restaurants-bars/restaurant-marienlyst"}}, {"type": "node", "id": 3923669979, "lat": 56.0361705, "lon": 12.6111267, "tags": {"amenity": "cafe", "fvst:navnelbnr": "573029", "name": "Torve cafen", "ref:DK:cvr": "36079703", "ref:DK:cvr:pnummer": "1021825642"}}, {"type": "node", "id": 3923669985, "lat": 56.0345632, "lon": 12.6128848, "tags": {"amenity": "cafe", "cuisine": "coffee_shop", "fvst:navnelbnr": "98068", "name": "Cafe Karisma", "opening_hours": "09:00-17:30; Sa 10:00-16:00; Su,PH off", "phone": "+45 32118119", "ref:DK:cvr": "16344249", "ref:DK:cvr:pnummer": "1014495173", "website": "https://cafekarisma.dk/"}}, {"type": "node", "id": 3923669986, "lat": 56.0345519, "lon": 12.6123452, "tags": {"amenity": "cafe", "check_date": "2022-10-18", "fvst:name": "Cafeteria San Remo", "fvst:navnelbnr": "786633", "name": "San Remo", "phone": "+45 49210055", "ref:DK:cvr": "40063412", "ref:DK:cvr:pnummer": "1024179687"}}, {"type": "node", "id": 3923669990, "lat": 56.0339384, "lon": 12.6110247, "tags": {"amenity": "restaurant", "cuisine": "steak;steak_house", "fvst:navnelbnr": "524789", "name": "Rib House Helsing\u00f8r", "opening_hours": "11:00-22:00; Fr-Sa 11:00-23:00", "outdoor_seating": "yes", "phone": "+45 49200300", "ref:DK:cvr": "35024808", "ref:DK:cvr:pnummer": "1018199269", "toilets:wheelchair": "yes", "website": "https://ribhouse.dk/start/?sted=Helsing%C3%B8r"}}, {"type": "node", "id": 3924012721, "lat": 56.0366326, "lon": 12.6103663, "tags": {"amenity": "restaurant", "cuisine": "sm\u00f8rrebr\u00f8d", "fvst:navnelbnr": "95185", "name": "G\u00e6stgiverg\u00e5rden", "opening_hours": "10:00-23:00; Su off; Fr-Sa 10:00-01:00", "phone": "+45 49211978", "ref:DK:cvr": "18790289", "ref:DK:cvr:pnummer": "1002339412", "website": "https://www.gaestgivergaarden.dk/"}}, {"type": "node", "id": 3924012722, "lat": 56.033991, "lon": 12.614211, "tags": {"alt_name": "Toldkammeret", "amenity": "cafe", "fvst:name": "Kammercafeen", "fvst:navnelbnr": "93777", "name": "Toldkammercafeen", "ref:DK:cvr": "64502018", "ref:DK:cvr:pnummer": "1009225915", "website": "https://kuto.dk/cafeer/toldkammercaf%C3%A9en"}}, {"type": "node", "id": 3924047013, "lat": 56.0319364, "lon": 12.608241, "tags": {"amenity": "restaurant", "branch": "Helsing\u00f8r", "check_date": "2022-10-18", "cuisine": "sushi", "fvst:navnelbnr": "1223410", "name": "Sushi Taro", "opening_hours": "16:00-21:00; Fr-Sa 13:00-21:00; Mo off", "phone": "+45 49211200", "ref:DK:cvr": "42301086", "ref:DK:cvr:pnummer": "1027036127", "website": "http://sushitaro.dk/"}}, {"type": "node", "id": 3924047015, "lat": 56.032388, "lon": 12.608456, "tags": {"amenity": "cafe", "branch": "Helsing\u00f8r", "brand": "Cafe Vivaldi", "cuisine": "french;mexican", "fvst:navnelbnr": "95654", "name": "Caf\u00e9 Vivaldi Helsing\u00f8r", "opening_hours": "10:00-22:00; Fr-Sa 10:00-02:00", "phone": "+45 49260038", "ref:DK:cvr": "30691474", "ref:DK:cvr:pnummer": "1013383827", "website": "https://www.vivaldihelsingor.dk/"}}, {"type": "node", "id": 3971433042, "lat": 56.0336523, "lon": 12.6135604, "tags": {"amenity": "restaurant", "cuisine": "chinese", "fvst:navnelbnr": "121212", "name": "HaiYi", "opening_hours": "17:00-22:00", "phone": "+45 49201126", "ref:DK:cvr": "33110081", "ref:DK:cvr:pnummer": "1016332859", "takeaway": "yes", "website": "http://haiyi.dk/"}}, {"type": "node", "id": 3994107651, "lat": 56.0458251, "lon": 12.6937192, "tags": {"amenity": "restaurant", "email": "info@gastro.nu", "name": "Gastro", "phone": "+46 42 243470", "website": "https://www.gastro.nu/"}}, {"type": "node", "id": 4017583319, "lat": 56.244585, "lon": 12.8626529, "tags": {"amenity": "restaurant", "name": "Torstens Smakar Mera"}}, {"type": "node", "id": 4017812443, "lat": 56.242814, "lon": 12.8622838, "tags": {"amenity": "cafe", "brand": "Espresso House", "brand:wikidata": "Q10489162", "brand:wikipedia": "sv:Espresso House", "cuisine": "coffee_shop", "name": "Espresso House", "takeaway": "yes"}}, {"type": "node", "id": 4017821901, "lat": 56.2451883, "lon": 12.8614486, "tags": {"amenity": "cafe"}}, {"type": "node", "id": 4017836016, "lat": 56.2427556, "lon": 12.8618012, "tags": {"amenity": "restaurant", "name": "Pepelinos"}}, {"type": "node", "id": 4146150839, "lat": 56.2149204, "lon": 12.5629943, "tags": {"amenity": "restaurant", "cuisine": "pancakes", "name": "Pannkaksladan", "opening_hours": "seasonal", "wheelchair": "yes"}}, {"type": "node", "id": 4261836180, "lat": 56.033396, "lon": 12.614632, "tags": {"amenity": "restaurant", "cuisine": "seafood;steak_house", "fvst:name": "Strejf - Restaurant og Bar Restaurant Strejf", "fvst:navnelbnr": "653831", "name": "Strejf", "opening_hours": "11:30-15:00,17:30-21:30; Su-Mo off", "phone": "+45 49211111", "ref:DK:cvr": "25834852", "ref:DK:cvr:pnummer": "1020900225", "website": "https://www.restaurant-strejf.dk/"}}, {"type": "node", "id": 4329279633, "lat": 56.1340415, "lon": 12.9483674, "tags": {"amenity": "restaurant", "check_date": "2023-03-21", "cuisine": "asian", "name": "Golden Jade", "opening_hours": "Mo-Th 11:30-20:00; Fr 11:30-21:00; Sa 13:00-21:00"}}, {"type": "node", "id": 4401117967, "lat": 56.0054162, "lon": 12.5788725, "tags": {"amenity": "restaurant", "cuisine": "steak_house", "fvst:navnelbnr": "805779", "name": "Vores Skotterup", "old_name": "Det Nye Skotterup", "opening_hours": "17:00-23:00; Mo-Tu off", "opening_hours:kitchen": "17:00-21:30; Mo-Tu off", "phone": "+45 78762543", "ref:DK:cvr": "40451323", "ref:DK:cvr:pnummer": "1024624931", "website": "https://www.detnyeskotterup.dk/"}}, {"type": "node", "id": 4401164245, "lat": 56.0338096, "lon": 12.6129686, "tags": {"amenity": "cafe", "fvst:navnelbnr": "90369", "name": "R\u00e5dmand Davids Hus", "opening_hours": "10:00-17:30; Su off", "phone": "+45 49261043", "ref:DK:cvr": "17108700", "ref:DK:cvr:pnummer": "1001224191"}}, {"type": "node", "id": 4401164248, "lat": 56.033592, "lon": 12.612487, "tags": {"amenity": "cafe", "fvst:navnelbnr": "94997", "name": "Frelsens H\u00e6r Cafeterie", "ref:DK:cvr": "43417312", "ref:DK:cvr:pnummer": "1003075284"}}, {"type": "node", "id": 4401164249, "lat": 56.0320028, "lon": 12.6088099, "tags": {"alt_name": "Lagoni Cafe", "amenity": "cafe", "cuisine": "coffee_shop", "diet:vegan": "yes", "diet:vegetarian": "yes", "drink:coffee": "yes", "drink:espresso": "yes", "fvst:navnelbnr": "961299", "name": "Lagoni Kaffebar", "outdoor_seating": "yes", "phone": "+45 22 49 42 49", "ref:DK:cvr": "41294256", "ref:DK:cvr:pnummer": "1025736814", "website": "https://www.lagonikaffebar.dk"}}, {"type": "node", "id": 4402291754, "lat": 56.0340847, "lon": 12.6132962, "tags": {"alt_name": "Restaurant Strandborg", "amenity": "bar", "fvst:navnelbnr": "1238860", "name": "Strandborg", "ref:DK:cvr": "42851574", "ref:DK:cvr:pnummer": "1027751551"}}, {"type": "node", "id": 4402291758, "lat": 56.041319, "lon": 12.613274, "tags": {"amenity": "cafe", "cuisine": "sandwich", "fvst:navnelbnr": "565191", "name": "Cafe Kronborg", "opening_hours": "12:00-20:00", "ref:DK:cvr": "33341350", "ref:DK:cvr:pnummer": "1022652989"}}, {"type": "node", "id": 4535121250, "lat": 56.0349982, "lon": 12.6138886, "tags": {"amenity": "bar", "fvst:navnelbnr": "120877", "name": "Holger Danske", "ref:DK:cvr": "32407218", "ref:DK:cvr:pnummer": "1016406070"}}, {"type": "node", "id": 4556122303, "lat": 56.032188, "lon": 12.608836, "tags": {"amenity": "bar", "fvst:navnelbnr": "668622", "name": "Skum", "opening_hours": "12:00-24:00, Th-Sa 12:00-03:00", "phone": "+45 25308308", "ref:DK:cvr": "25382277", "ref:DK:cvr:pnummer": "1007670075", "website": "https://www.skumhelsingor.dk/"}}, {"type": "node", "id": 4564119170, "lat": 56.050507, "lon": 12.578359, "tags": {"amenity": "restaurant", "fvst:name": "Restaurant Helsing\u00f8r Golfklub", "fvst:navnelbnr": "722146", "name": "Sweet Spot Restaurant", "phone": "+45 49212950", "ref:DK:cvr": "39082799", "ref:DK:cvr:pnummer": "1023016865", "website": "https://sweet-spot.one/"}}, {"type": "node", "id": 4565626875, "lat": 56.033327, "lon": 12.612952, "tags": {"amenity": "cafe", "fvst:navnelbnr": "123528", "name": "Cafe Kringlen", "opening_hours": "07:00-18:00", "phone": "+45 49264903", "ref:DK:cvr": "33213956", "ref:DK:cvr:pnummer": "1016428317"}}, {"type": "node", "id": 4671550952, "lat": 56.0171976, "lon": 12.7227952, "tags": {"addr:city": "Helsingborg", "addr:country": "SE", "addr:housenumber": "123", "addr:postcode": "252 31", "addr:street": "Planteringsv\u00e4gen", "amenity": "cafe", "contact:phone": "+46-42-12 88 19", "entrance": "yes", "name": "Gunnars Konditori", "opening_hours": "Mo-Fr 06:00-17:00; Sa 06:00-15:00; Su off", "source:address": "Helsingborgs kommun"}}, {"type": "node", "id": 4709009471, "lat": 56.2124516, "lon": 12.5592068}, {"type": "node", "id": 4709009472, "lat": 56.2123632, "lon": 12.5591954}, {"type": "node", "id": 4709009473, "lat": 56.2123568, "lon": 12.5593553}, {"type": "node", "id": 4709009478, "lat": 56.2124582, "lon": 12.5590404}, {"type": "node", "id": 4709009479, "lat": 56.2125335, "lon": 12.559378}, {"type": "node", "id": 4709009480, "lat": 56.2125464, "lon": 12.5590517}, {"type": "node", "id": 4712898853, "lat": 56.2457343, "lon": 12.8635361}, {"type": "node", "id": 4712947713, "lat": 56.2457815, "lon": 12.863368}, {"type": "node", "id": 4712957036, "lat": 56.2456503, "lon": 12.863254}, {"type": "node", "id": 4712957037, "lat": 56.2456059, "lon": 12.8634195}, {"type": "node", "id": 4714622275, "lat": 56.046644, "lon": 12.6888562, "tags": {"addr:city": "Helsingborg", "addr:country": "SE", "addr:housenumber": "10", "addr:postcode": "252 66", "addr:street": "Helsing\u00f6rskajen", "amenity": "restaurant", "name": "Lenoteque Vinbar", "source:address": "Helsingborgs kommun", "website": "https://lenoteque.se"}}, {"type": "node", "id": 4714622280, "lat": 56.0464064, "lon": 12.6890168, "tags": {"addr:city": "Helsingborg", "addr:country": "SE", "addr:housenumber": "2", "addr:postcode": "252 66", "addr:street": "Helsing\u00f6rskajen", "amenity": "restaurant", "name": "Benchwarmers Taproom", "source:address": "Helsingborgs kommun", "website": "https://benchwarmers.se/taproom"}}, {"type": "node", "id": 4740568533, "lat": 56.0817322, "lon": 12.696521, "tags": {"addr:city": "Helsingborg", "addr:country": "SE", "addr:housenumber": "20", "addr:postcode": "254 50", "addr:street": "Marieh\u00e4llsv\u00e4gen", "amenity": "restaurant", "cuisine": "pizza", "entrance": "yes", "name": "Pizzeria La Marina Torino", "source:address": "Helsingborgs kommun"}}, {"type": "node", "id": 4742710145, "lat": 56.0810653, "lon": 12.7053852, "tags": {"addr:city": "Helsingborg", "addr:country": "SE", "addr:housenumber": "36", "addr:postcode": "254 48", "addr:street": "Grepgatan", "amenity": "restaurant", "cuisine": "pizza;burger;sandwich", "name": "B\u00e5gen Mat & Bar Maria Park", "phone": "+46423033333", "source:address": "Helsingborgs kommun", "website": "http://bagenmariapark.se/"}}, {"type": "node", "id": 4777575841, "lat": 56.0576121, "lon": 12.7018099, "tags": {"addr:city": "Helsingborg", "addr:country": "SE", "addr:housenumber": "15", "addr:postcode": "254 44", "addr:street": "Stattena centrum", "amenity": "restaurant", "cuisine": "pizza", "name": "Pizzeria Chattanoga", "source:address": "Helsingborgs kommun"}}, {"type": "node", "id": 4848269076, "lat": 56.2822519, "lon": 12.4930174}, {"type": "node", "id": 4848269077, "lat": 56.2823326, "lon": 12.4928486}, {"type": "node", "id": 4848269082, "lat": 56.2820629, "lon": 12.4931549}, {"type": "node", "id": 4848269083, "lat": 56.2819858, "lon": 12.4933591}, {"type": "node", "id": 4848269084, "lat": 56.2819338, "lon": 12.4932953}, {"type": "node", "id": 4848269085, "lat": 56.282011, "lon": 12.4930912}, {"type": "node", "id": 4848269660, "lat": 56.2823808, "lon": 12.4929234}, {"type": "node", "id": 4848269661, "lat": 56.2823001, "lon": 12.4930922}, {"type": "node", "id": 4853232589, "lat": 56.2825916, "lon": 12.4923471}, {"type": "node", "id": 4853232590, "lat": 56.2825209, "lon": 12.4924933}, {"type": "node", "id": 4853232591, "lat": 56.282587, "lon": 12.492597}, {"type": "node", "id": 4853232592, "lat": 56.2826577, "lon": 12.4924508}, {"type": "node", "id": 4876774940, "lat": 56.1929035, "lon": 12.8512439}, {"type": "node", "id": 4876774941, "lat": 56.1930975, "lon": 12.8513458}, {"type": "node", "id": 4876774942, "lat": 56.1930587, "lon": 12.8516677}, {"type": "node", "id": 4876774943, "lat": 56.193193, "lon": 12.8517294}, {"type": "node", "id": 4876774944, "lat": 56.1932885, "lon": 12.8511661}, {"type": "node", "id": 4876774945, "lat": 56.1929438, "lon": 12.8510159}, {"type": "node", "id": 4949880201, "lat": 56.144517, "lon": 12.5752722}, {"type": "node", "id": 4949880202, "lat": 56.1445766, "lon": 12.5751785}, {"type": "node", "id": 4949880203, "lat": 56.1445016, "lon": 12.5752407}, {"type": "node", "id": 4949880204, "lat": 56.1445612, "lon": 12.575147}, {"type": "node", "id": 4949880205, "lat": 56.1445955, "lon": 12.5751488}, {"type": "node", "id": 4949880206, "lat": 56.1444871, "lon": 12.5753192}, {"type": "node", "id": 4949880207, "lat": 56.1445477, "lon": 12.5754434}, {"type": "node", "id": 4949880208, "lat": 56.1446561, "lon": 12.575273}, {"type": "node", "id": 5017560380, "lat": 56.0388675, "lon": 12.6135367, "tags": {"amenity": "bar", "fvst:navnelbnr": "708135", "name": "V\u00e6rftets Bar", "ref:DK:cvr": "38490621", "ref:DK:cvr:pnummer": "1022456268"}}, {"type": "node", "id": 5017913421, "lat": 56.0499251, "lon": 12.6865384, "tags": {"amenity": "cafe", "cuisine": "ice_cream", "name": "Gelato House", "name:sv": "Gelato House"}}, {"type": "node", "id": 5124178833, "lat": 56.0363584, "lon": 12.6094345, "tags": {"amenity": "restaurant", "check_date": "2022-10-18", "cuisine": "asian", "fvst:navnelbnr": "712368", "name": "\u00d8", "ref:DK:cvr": "38751786", "ref:DK:cvr:pnummer": "1022809586", "takeaway": "yes"}}, {"type": "node", "id": 5137430570, "lat": 56.2006302, "lon": 12.5624263, "tags": {"amenity": "restaurant", "cuisine": "pizza", "name": "Pizzeria Eld & L\u00e5gor"}}, {"type": "node", "id": 5233265119, "lat": 56.24225, "lon": 12.5400091}, {"type": "node", "id": 5233265120, "lat": 56.2419861, "lon": 12.5401634}, {"type": "node", "id": 5233265621, "lat": 56.2420085, "lon": 12.5402874}, {"type": "node", "id": 5233265622, "lat": 56.2422723, "lon": 12.5401331}, {"type": "node", "id": 5235552098, "lat": 56.255126, "lon": 12.891549, "tags": {"amenity": "restaurant", "name": "Linnea och Basilika"}}, {"type": "node", "id": 5274074015, "lat": 56.2987701, "lon": 12.7863882, "tags": {"amenity": "restaurant", "contact:phone": "+46 431 45 23 00", "contact:website": "http://www.magnarpshamn.se/restaurang-och-fiskaffar/", "name": "Bj\u00e4re Fisk & Skaldjur"}}, {"type": "node", "id": 5299693671, "lat": 56.0452714, "lon": 12.6037034, "tags": {"amenity": "restaurant", "fvst:name": "STRAND- og BADEHOTEL MARIENLYST", "fvst:navnelbnr": "717707", "name": "Salon Marienlyst", "ref:DK:cvr": "16985104", "ref:DK:cvr:pnummer": "1001197729", "website": "https://www.marienlyst.dk/"}}, {"type": "node", "id": 5306966891, "lat": 56.254971, "lon": 12.8915926, "tags": {"amenity": "cafe", "name": "AuM"}}, {"type": "node", "id": 5479068363, "lat": 56.038695, "lon": 12.619735, "tags": {"amenity": "cafe", "fvst:navnelbnr": "735660", "name": "Caf\u00e9 Kadetten", "opening_hours": "PH,Mo-Su 10:00-17:00", "phone": "+45 42901011", "ref:DK:cvr": "38827243", "ref:DK:cvr:pnummer": "1022714356", "website": "https://www.kadetten.dk/"}}, {"type": "node", "id": 5520900028, "lat": 56.0498911, "lon": 12.7268042, "tags": {"amenity": "restaurant", "cuisine": "pizza", "name": "Roseng\u00e5rdens Restaurang & Pizzeria"}}, {"type": "node", "id": 5527633329, "lat": 56.2457445, "lon": 12.8633359}, {"type": "node", "id": 5631301776, "lat": 56.0501773, "lon": 12.588144, "tags": {"access": "private", "amenity": "restaurant", "fvst:navnelbnr": "741287", "name": "Birkebo - Birkevangen", "private": "residents", "ref:DK:cvr": "25524217", "ref:DK:cvr:pnummer": "1001584414", "website": "https://www.birkebo-dsi.dk/restaurant.html"}}, {"type": "node", "id": 5679588525, "lat": 56.3296099, "lon": 12.7752908, "tags": {"amenity": "cafe", "name": "Lillaro Caf\u00e9"}}, {"type": "node", "id": 5795159168, "lat": 56.1013565, "lon": 12.8552248, "tags": {"amenity": "restaurant", "cuisine": "thai", "name": "Linn\u00e9a & Basilika"}}, {"type": "node", "id": 5812310600, "lat": 56.0015757, "lon": 12.7323918}, {"type": "node", "id": 5812310601, "lat": 56.0016163, "lon": 12.7324838}, {"type": "node", "id": 5812310602, "lat": 56.0015384, "lon": 12.7325953}, {"type": "node", "id": 5812310603, "lat": 56.0015124, "lon": 12.7325386}, {"type": "node", "id": 5812310604, "lat": 56.0015527, "lon": 12.732424}, {"type": "node", "id": 5814410570, "lat": 55.9919983, "lon": 12.7424187}, {"type": "node", "id": 5814410571, "lat": 55.9919734, "lon": 12.7424499}, {"type": "node", "id": 5814410572, "lat": 55.9920587, "lon": 12.7426569}, {"type": "node", "id": 5814410573, "lat": 55.992066, "lon": 12.7425916}, {"type": "node", "id": 5814410574, "lat": 55.9920439, "lon": 12.7426193}, {"type": "node", "id": 5814410575, "lat": 55.9920164, "lon": 12.7427099}, {"type": "node", "id": 5814410576, "lat": 55.9920411, "lon": 12.7426226}, {"type": "node", "id": 5814410577, "lat": 55.9920016, "lon": 12.7426721}, {"type": "node", "id": 5814840538, "lat": 56.2065977, "lon": 12.5552186, "tags": {"amenity": "restaurant", "cuisine": "burger", "name": "Garage"}}, {"type": "node", "id": 5875650174, "lat": 56.0759021, "lon": 12.5435902, "tags": {"access": "private", "amenity": "restaurant", "fvst:navnelbnr": "1111648", "name": "Restaurant Lille Odinsh\u00f8j", "private": "residents", "ref:DK:cvr": "33030436", "ref:DK:cvr:pnummer": "1024540835", "website": "http://www.lilleodinshoej.dk/page5.html"}}, {"type": "node", "id": 5875650181, "lat": 56.0728997, "lon": 12.5245541, "tags": {"amenity": "cafe", "fvst:navnelbnr": "760862", "name": "Tikkas", "ref:DK:cvr": "39719185", "ref:DK:cvr:pnummer": "1023792806"}}, {"type": "node", "id": 5892268574, "lat": 56.3009728, "lon": 12.4516312, "tags": {"amenity": "restaurant", "name": "Kullens fyr"}}, {"type": "node", "id": 5908189806, "lat": 56.0500866, "lon": 12.5878832, "tags": {"access": "private", "amenity": "restaurant", "fvst:navnelbnr": "741289", "name": "Birkebo - Birkedalen", "private": "residents", "ref:DK:cvr": "25524217", "ref:DK:cvr:pnummer": "1001584414", "website": "https://www.birkebo-dsi.dk/restaurant.html"}}, {"type": "node", "id": 5909947944, "lat": 56.0502978, "lon": 12.5883231, "tags": {"access": "private", "amenity": "restaurant", "fvst:navnelbnr": "741286", "name": "Birkebo - Birkelyet", "private": "residents", "ref:DK:cvr": "25524217", "ref:DK:cvr:pnummer": "1001584414", "website": "https://www.birkebo-dsi.dk/restaurant.html"}}, {"type": "node", "id": 5940449422, "lat": 56.242983, "lon": 12.8620441, "tags": {"amenity": "restaurant", "cuisine": "regional", "name": "Simons K\u00f6k & Bar", "outdoor_seating": "yes"}}, {"type": "node", "id": 5940624853, "lat": 56.4303807, "lon": 12.8626014, "tags": {"amenity": "restaurant", "cuisine": "bistro", "name": "Veranda", "outdoor_seating": "yes"}}, {"type": "node", "id": 6070580526, "lat": 56.0360072, "lon": 12.6108544, "tags": {"amenity": "bar", "fvst:navnelbnr": "95409", "name": "Hold-An Pavillion", "ref:DK:cvr": "27071902", "ref:DK:cvr:pnummer": "1009768234"}}, {"type": "node", "id": 6225183702, "lat": 56.051116, "lon": 12.6886578, "tags": {"addr:city": "Helsingborg", "addr:country": "SE", "addr:housenumber": "78", "addr:postcode": "252 21", "addr:street": "Drottninggatan", "amenity": "restaurant", "cuisine": "pizza;italian", "name": "Marconi", "opening_hours": "Tu-Sa 12:00-22:00, Su 12:00-21:00", "phone": "+4642147970", "website": "https://marconi.se"}}, {"type": "node", "id": 6225183730, "lat": 56.0487613, "lon": 12.6933999, "tags": {"amenity": "restaurant", "name": "Bistro V"}}, {"type": "node", "id": 6225183764, "lat": 56.0504064, "lon": 12.691348, "tags": {"amenity": "restaurant", "name": "BAB Al Yemen Restaurang"}}, {"type": "node", "id": 6225230891, "lat": 56.3888516, "lon": 12.7741197, "tags": {"amenity": "cafe"}}, {"type": "node", "id": 6237856201, "lat": 56.2516238, "lon": 12.8877595, "tags": {"amenity": "restaurant", "name": "Eld & Vin"}}, {"type": "node", "id": 6239400992, "lat": 56.0366699, "lon": 12.7547138}, {"type": "node", "id": 6239400993, "lat": 56.0368052, "lon": 12.7545808}, {"type": "node", "id": 6239400994, "lat": 56.0366611, "lon": 12.7546271}, {"type": "node", "id": 6239400995, "lat": 56.0366362, "lon": 12.7547247}, {"type": "node", "id": 6239400996, "lat": 56.0366724, "lon": 12.7550856}, {"type": "node", "id": 6239400997, "lat": 56.0366523, "lon": 12.7548856}, {"type": "node", "id": 6239400998, "lat": 56.0368501, "lon": 12.7550284}, {"type": "node", "id": 6239400999, "lat": 56.0368276, "lon": 12.7545736}, {"type": "node", "id": 6239401000, "lat": 56.0366526, "lon": 12.7546299}, {"type": "node", "id": 6239401001, "lat": 56.0366366, "lon": 12.7544705}, {"type": "node", "id": 6239401002, "lat": 56.0368115, "lon": 12.7544142}, {"type": "node", "id": 6337458910, "lat": 56.0446173, "lon": 12.6880664, "tags": {"amenity": "restaurant", "contact:website": "http://www.studioh55.se/", "name": "Studio H55", "wheelchair": "yes"}}, {"type": "node", "id": 6680612956, "lat": 56.0415606, "lon": 12.6119741, "tags": {"amenity": "restaurant", "cuisine": "steak_house;seafood", "fvst:navnelbnr": "795249", "name": "Restaurant Kaj", "opening_hours": "12:00-16:00, 18:00-21:30", "phone": "+45 49202045", "ref:DK:cvr": "40252290", "ref:DK:cvr:pnummer": "1024399172", "website": "https://rkaj.dk/"}}, {"type": "node", "id": 6698116612, "lat": 56.0331898, "lon": 12.6098702, "tags": {"amenity": "restaurant", "check_date": "2022-10-18", "cuisine": "italian", "fvst:navnelbnr": "782982", "name": "Dangelo", "opening_hours": "11:00-22:00; Fr-Sa 11:00-23:00", "phone": "+45 48311110", "ref:DK:cvr": "25158539", "ref:DK:cvr:pnummer": "1023806254", "website": "https://www.dangelo.dk/"}}, {"type": "node", "id": 6705404191, "lat": 56.198598, "lon": 12.5575152, "tags": {"amenity": "restaurant", "cuisine": "pizza", "indoor_seating": "yes", "name": "Pizzeria Plaza", "outdoor_seating": "no"}}, {"type": "node", "id": 6742668528, "lat": 56.2461995, "lon": 12.8652064, "tags": {"addr:country": "SE", "addr:housenumber": "1", "addr:street": "Skolgatan", "amenity": "restaurant", "name": "Pinchos", "phone": "+46 (0) 72-229 77 88", "website": "https://www.pinchos.se/restaurant/se-angelholm-skol/"}}, {"type": "node", "id": 6742668530, "lat": 56.2465829, "lon": 12.8644193, "tags": {"addr:city": "\u00c4ngelholm", "addr:country": "SE", "addr:housenumber": "57", "addr:postcode": "262 35", "addr:street": "Storgatan", "amenity": "restaurant", "cuisine": "burger", "name": "Rost", "phone": "+4643119666", "website": "https://www.rostbar.se/"}}, {"type": "node", "id": 6772592338, "lat": 56.318109, "lon": 12.9158396, "tags": {"amenity": "restaurant", "cuisine": "pizza", "name": "Hj\u00e4rnarps pizzeria"}}, {"type": "node", "id": 6779902372, "lat": 56.3509501, "lon": 12.8178813, "tags": {"amenity": "restaurant", "name": "Ellis Restaurang"}}, {"type": "node", "id": 7095467085, "lat": 56.2065927, "lon": 12.5552047, "tags": {"amenity": "bar", "name": "Garage Bar", "name:en": "Garage Bar"}}, {"type": "node", "id": 7197782334, "lat": 56.0383355, "lon": 12.6153765, "tags": {"amenity": "restaurant", "fvst:navnelbnr": "928253", "name": "Kulturv\u00e6rftets Spisehus", "ref:DK:cvr": "37777005", "ref:DK:cvr:pnummer": "1025388689", "website": "https://kuto.dk/besoeg-os/cafeer/spisehuset/"}}, {"type": "node", "id": 7414307072, "lat": 56.0455296, "lon": 12.6930946}, {"type": "node", "id": 7414307073, "lat": 56.0455323, "lon": 12.6931048}, {"type": "node", "id": 7414307074, "lat": 56.0455339, "lon": 12.6931178}, {"type": "node", "id": 7414307075, "lat": 56.0455331, "lon": 12.6931312}, {"type": "node", "id": 7414307076, "lat": 56.0455307, "lon": 12.6931428}, {"type": "node", "id": 7414307077, "lat": 56.0455271, "lon": 12.6931535}, {"type": "node", "id": 7414307078, "lat": 56.0455226, "lon": 12.6931633}, {"type": "node", "id": 7414307079, "lat": 56.0455163, "lon": 12.6931743}, {"type": "node", "id": 7414307080, "lat": 56.0455081, "lon": 12.6931859}, {"type": "node", "id": 7414307081, "lat": 56.045499, "lon": 12.6931945}, {"type": "node", "id": 7414307082, "lat": 56.0454905, "lon": 12.6932003}, {"type": "node", "id": 7414307083, "lat": 56.0454856, "lon": 12.6932025}, {"type": "node", "id": 7414307084, "lat": 56.0454806, "lon": 12.6932043}, {"type": "node", "id": 7414319685, "lat": 56.0454745, "lon": 12.6932051}, {"type": "node", "id": 7414319686, "lat": 56.0454694, "lon": 12.6932047}, {"type": "node", "id": 7414319687, "lat": 56.0454641, "lon": 12.6932037}, {"type": "node", "id": 7414319688, "lat": 56.0454595, "lon": 12.6932001}, {"type": "node", "id": 7414319689, "lat": 56.0454548, "lon": 12.6931935}, {"type": "node", "id": 7414319690, "lat": 56.0454513, "lon": 12.6931873}, {"type": "node", "id": 7414319691, "lat": 56.0454489, "lon": 12.6931811}, {"type": "node", "id": 7414319692, "lat": 56.0454472, "lon": 12.6931719}, {"type": "node", "id": 7414319693, "lat": 56.0454467, "lon": 12.6931615}, {"type": "node", "id": 7414319694, "lat": 56.0454473, "lon": 12.6931527}, {"type": "node", "id": 7414319695, "lat": 56.045449, "lon": 12.6931434}, {"type": "node", "id": 7414319696, "lat": 56.0454507, "lon": 12.6931366}, {"type": "node", "id": 7414319697, "lat": 56.045453, "lon": 12.6931296}, {"type": "node", "id": 7414319698, "lat": 56.0454558, "lon": 12.6931226}, {"type": "node", "id": 7414319699, "lat": 56.0454608, "lon": 12.6931146}, {"type": "node", "id": 7414319700, "lat": 56.0454677, "lon": 12.693104}, {"type": "node", "id": 7414319701, "lat": 56.0454769, "lon": 12.6930934}, {"type": "node", "id": 7414319702, "lat": 56.0454853, "lon": 12.6930856}, {"type": "node", "id": 7414319703, "lat": 56.0454961, "lon": 12.6930786}, {"type": "node", "id": 7414319704, "lat": 56.0455063, "lon": 12.6930762}, {"type": "node", "id": 7414319705, "lat": 56.0455136, "lon": 12.6930772}, {"type": "node", "id": 7414319706, "lat": 56.0455186, "lon": 12.693079}, {"type": "node", "id": 7414319707, "lat": 56.0455231, "lon": 12.6930834}, {"type": "node", "id": 7414319708, "lat": 56.0455265, "lon": 12.693088}, {"type": "node", "id": 7414551760, "lat": 56.0452908, "lon": 12.690709, "tags": {"addr:city": "Helsingborg", "addr:country": "SE", "addr:housenumber": "1", "addr:postcode": "252 21", "addr:street": "K\u00f6penhamnskajen", "amenity": "bar", "email": "info@thetivoli.se", "name": "The Tivoli", "operator": "K\u00f6penhamnskajen Drift AB", "outdoor_seating": "yes", "source": "local knowledge", "website": "https://www.thetivoli.se/"}}, {"type": "node", "id": 7555712879, "lat": 56.004383, "lon": 12.9652081, "tags": {"addr:city": "Ekeby", "addr:country": "SE", "addr:housenumber": "52", "addr:postcode": "260 51", "addr:street": "Storgatan", "amenity": "restaurant", "cuisine": "pizza", "name": "Ekeby restaurang & pizzeria"}}, {"type": "node", "id": 7640569368, "lat": 56.0505986, "lon": 12.7003338, "tags": {"addr:city": "Helsingborg", "addr:country": "SE", "addr:housenumber": "91", "addr:postcode": "254 36", "addr:street": "\u00d6vre L\u00e5ngvinkelsgatan", "amenity": "cafe", "cuisine": "coffee_shop;sandwich;international", "name": "Tv\u00e5 systrar", "opening_hours": "Mo-Fr 07:00-18:00; Sa-Su 08:00-17:00", "outdoor_seating": "yes", "phone": "+46(0)42135700"}}, {"type": "node", "id": 7684847303, "lat": 56.036152, "lon": 12.610057, "tags": {"amenity": "cafe", "fvst:navnelbnr": "979654", "name": "Cafe Typhon", "ref:DK:cvr": "38281844"}}, {"type": "node", "id": 7702955775, "lat": 56.036492, "lon": 12.609942, "tags": {"amenity": "cafe", "branch": "Helsing\u00f8r", "brand": "Cafe Korn", "fvst:navnelbnr": "942031", "name": "Cafe Korn", "opening_hours": "10:00-22:00", "phone": "+45 50833000", "ref:DK:cvr": "37448699", "ref:DK:cvr:pnummer": "1025741133", "website": "https://cafekorn.dk/cafe-korn-helsingoer/"}}, {"type": "node", "id": 7711562986, "lat": 56.0460994, "lon": 12.6971116, "tags": {"amenity": "restaurant", "name": "VED by Maria"}}, {"type": "node", "id": 7790495250, "lat": 56.2821402, "lon": 12.4935643}, {"type": "node", "id": 7790495251, "lat": 56.2821394, "lon": 12.493528}, {"type": "node", "id": 7790495252, "lat": 56.2821323, "lon": 12.4934941}, {"type": "node", "id": 7790495253, "lat": 56.2820291, "lon": 12.4934767}, {"type": "node", "id": 7790495254, "lat": 56.2820181, "lon": 12.4935098}, {"type": "node", "id": 7790495255, "lat": 56.2820139, "lon": 12.4935476}, {"type": "node", "id": 7790495256, "lat": 56.2820169, "lon": 12.4935857}, {"type": "node", "id": 7790495257, "lat": 56.2821196, "lon": 12.4934659}, {"type": "node", "id": 7790495258, "lat": 56.2821027, "lon": 12.4934463}, {"type": "node", "id": 7790495259, "lat": 56.2820832, "lon": 12.4934372}, {"type": "node", "id": 7790495260, "lat": 56.2820631, "lon": 12.4934396}, {"type": "node", "id": 7790495261, "lat": 56.2820444, "lon": 12.4934532}, {"type": "node", "id": 7790495262, "lat": 56.2820268, "lon": 12.4936199}, {"type": "node", "id": 7790495263, "lat": 56.2820424, "lon": 12.4936463}, {"type": "node", "id": 7790495264, "lat": 56.282062, "lon": 12.4936617}, {"type": "node", "id": 7790495265, "lat": 56.2820834, "lon": 12.4936645}, {"type": "node", "id": 7790495266, "lat": 56.282104, "lon": 12.4936544}, {"type": "node", "id": 7790495267, "lat": 56.2821216, "lon": 12.4936325}, {"type": "node", "id": 7790495268, "lat": 56.2821342, "lon": 12.4936013}, {"type": "node", "id": 7790495275, "lat": 56.2821137, "lon": 12.4929148}, {"type": "node", "id": 7790495276, "lat": 56.2820269, "lon": 12.4927984}, {"type": "node", "id": 7790495277, "lat": 56.2820594, "lon": 12.4927198}, {"type": "node", "id": 7790495278, "lat": 56.2821461, "lon": 12.4928362}, {"type": "node", "id": 7975990664, "lat": 56.2331694, "lon": 12.8603682, "tags": {"addr:city": "\u00c4ngelholm", "addr:country": "SE", "addr:housenumber": "32", "addr:street": "Helsingborgsv\u00e4gen", "amenity": "restaurant", "check_date": "2023-02-09", "name": "Vaktkurens Mos", "opening_hours": "Mo-Fr 11:00-14:00; Sa-Su off", "payment:mastercard": "yes", "payment:visa": "yes", "phone": "+4673-0313977", "website": "http://www.vaktkuren.se/"}}, {"type": "node", "id": 8000736753, "lat": 56.0469688, "lon": 12.6958046, "tags": {"addr:street": "Stortorget", "amenity": "restaurant", "cuisine": "italian", "name": "Paolo's"}}, {"type": "node", "id": 8127677330, "lat": 56.0751516, "lon": 12.5392297, "tags": {"amenity": "bar", "fvst:navnelbnr": "652627", "name": "\u00c5lsg\u00e5rde Bodega", "ref:DK:cvr": "36439041"}}, {"type": "node", "id": 8127677331, "lat": 56.034551, "lon": 12.612288, "tags": {"amenity": "nightclub", "fvst:navnelbnr": "94671", "name": "Diskotek Retro", "ref:DK:cvr": "27559646", "website": "https://www.retro.dk/"}}, {"type": "node", "id": 8127677332, "lat": 56.039685, "lon": 12.587421, "tags": {"amenity": "bar", "fvst:navnelbnr": "745363", "name": "Gefion Bodega", "ref:DK:cvr": "39424665"}}, {"type": "node", "id": 8144046283, "lat": 56.0349392, "lon": 12.6121718, "tags": {"amenity": "cafe", "cuisine": "sm\u00f8rrebr\u00f8d", "fvst:navnelbnr": "701384", "name": "Cafe Dix", "opening_hours": "11:00-18:00", "phone": "+45 28354808", "ref:DK:cvr": "38487361", "ref:DK:cvr:pnummer": "1022270407"}}, {"type": "node", "id": 8144046284, "lat": 56.0357259, "lon": 12.6103044, "tags": {"amenity": "bar", "fvst:navnelbnr": "91298", "name": "Cafe Valdemar", "opening_hours": "07:00-01:00", "ref:DK:cvr": "51756118", "ref:DK:cvr:pnummer": "1001974456", "smoking": "yes"}}, {"type": "node", "id": 8144046285, "lat": 56.0361262, "lon": 12.6113375, "tags": {"amenity": "bar", "fvst:navnelbnr": "924421", "name": "Axelhus Bodega", "ref:DK:cvr": "37963747", "ref:DK:cvr:pnummer": "1021699191"}}, {"type": "node", "id": 8144046286, "lat": 56.0363508, "lon": 12.6110359, "tags": {"amenity": "cafe", "check_date": "2023-04-20", "fvst:navnelbnr": "95409", "name": "Hold-An", "phone": "+45 49212198", "ref:DK:cvr": "27071902", "ref:DK:cvr:pnummer": "1009768234"}}, {"type": "node", "id": 8144046287, "lat": 56.0366326, "lon": 12.6103311, "tags": {"amenity": "bar", "fvst:navnelbnr": "807382", "name": "Pavillonen G\u00e6stgivergaarden", "ref:DK:cvr": "18790289", "ref:DK:cvr:pnummer": "1002339412"}}, {"type": "node", "id": 8144046296, "lat": 56.0458941, "lon": 12.6026317, "tags": {"amenity": "bar", "fvst:navnelbnr": "660433", "name": "Joker Bar", "ref:DK:cvr": "13239398", "ref:DK:cvr:pnummer": "1019330350", "website": "https://casinomarienlyst.dk/da/joker-bar"}}, {"type": "node", "id": 8201997810, "lat": 56.034053, "lon": 12.613022, "tags": {"amenity": "restaurant", "check_date": "2022-10-17", "fvst:navnelbnr": "1238703", "name": "Francisco", "ref:DK:cvr": "42298042", "ref:DK:cvr:pnummer": "1027014387"}}, {"type": "node", "id": 8282924523, "lat": 55.9880761, "lon": 12.8053133}, {"type": "node", "id": 8282924524, "lat": 55.988041, "lon": 12.8053227}, {"type": "node", "id": 8282924525, "lat": 55.9880023, "lon": 12.8050721}, {"type": "node", "id": 8365317041, "lat": 56.0825033, "lon": 12.7085743, "tags": {"addr:city": "Helsingborg", "addr:postcode": "25449", "addr:street": "Kullav\u00e4gen", "amenity": "restaurant", "cuisine": "thai", "name": "Siam Street Food Mariastaden", "opening_hours": "Mo-Fr 11:00-20:00; Sa-Su 13:00-20:00", "phone": "+4642156800"}}, {"type": "node", "id": 8394077720, "lat": 56.0492204, "lon": 12.689893, "tags": {"addr:city": "Helsingborg", "addr:country": "SE", "addr:housenumber": "17", "addr:postcode": "252 21", "addr:street": "Drottninggatan", "amenity": "restaurant", "cuisine": "thai", "name": "Linnea & Basilika", "opening_hours": "Mo 11:00-21:00, Tu-Fr 11:00-22:00, Sa 12:00-22:00, Su 12:00-21:00", "opening_hours:covid19": "Mo-Fr 11:00-20:00, Sa-Su 12:00-20:00", "phone": "+46 42 28 24 98", "website": "https://www.linneabasilika.se/helsingborg/"}}, {"type": "node", "id": 8452830288, "lat": 56.0453042, "lon": 12.6904209, "tags": {"addr:city": "Helsingborg", "addr:country": "SE", "addr:housenumber": "1", "addr:postcode": "252 21", "addr:street": "K\u00f6penhamnskajen", "amenity": "bar", "name": "Solsidan"}}, {"type": "node", "id": 8452830289, "lat": 56.0452203, "lon": 12.6909923, "tags": {"addr:city": "Helsingborg", "addr:country": "SE", "addr:housenumber": "1", "addr:postcode": "252 21", "addr:street": "K\u00f6penhamnskajen", "amenity": "bar", "name": "Vinylbaren"}}, {"type": "node", "id": 8453383202, "lat": 56.046331, "lon": 12.6951205, "tags": {"amenity": "restaurant", "name": "Tannorin"}}, {"type": "node", "id": 8453482156, "lat": 56.0464157, "lon": 12.6955242, "tags": {"amenity": "restaurant", "name": "M2 Tapas"}}, {"type": "node", "id": 8453482157, "lat": 56.04637, "lon": 12.6955671, "tags": {"amenity": "restaurant", "cuisine": "poke", "name": "Vibes"}}, {"type": "node", "id": 8467526238, "lat": 56.0382011, "lon": 12.6199091, "tags": {"amenity": "cafe", "cuisine": "coffee_shop", "email": "info@strandvejsristeriet.dk", "fvst:navnelbnr": "110080", "internet_access": "yes", "internet_access:fee": "customers", "name": "Strandvejsristeriet", "opening_hours": "Mo-Fr 09:30-17:00; Sa-Su 10:00-17:00", "outdoor_seating": "yes", "payment:credit_cards": "yes", "phone": "+45 26818987", "ref:DK:cvr": "34596123", "ref:DK:cvr:pnummer": "1017744298", "reservation": "no", "website": "https://www.strandvejsristeriet.dk/"}}, {"type": "node", "id": 8679188329, "lat": 56.0440251, "lon": 12.6963894, "tags": {"addr:city": "Helsingborg", "addr:country": "SE", "addr:housenumber": "6", "addr:postcode": "252 24", "addr:street": "Pr\u00e4stgatan", "amenity": "restaurant", "cuisine": "sushi;Sushi", "name": "Kyoto Sushi", "phone": "+46 42 12 57 13", "website": "https://kyotosushi.se", "wheelchair": "no"}}, {"type": "node", "id": 8940851197, "lat": 56.422946, "lon": 12.6295473, "tags": {"amenity": "restaurant", "cuisine": "pizza", "name": "Torekov Pizzeria", "website": "https://torekovmat.com/"}}, {"type": "node", "id": 9214176195, "lat": 56.0407438, "lon": 12.7013723, "tags": {"addr:city": "Helsingborg", "addr:country": "SE", "addr:housenumber": "30", "addr:postcode": "252 25", "addr:street": "S\u00f6dergatan", "amenity": "restaurant", "name": "Pitchers", "opening_hours": "Mo-Th 15:00-23:00; Fr 15:00-02:00; Sa 13:00-02:00; Su 13:00-23:00", "phone": "+46 42 495 40 70", "website": "https://www.pitchers.se/restauranger/helsingborg/"}}, {"type": "node", "id": 9217256263, "lat": 56.0326465, "lon": 12.6080744, "tags": {"amenity": "restaurant", "cuisine": "sushi", "fvst:navnelbnr": "974639", "name": "Maki Sushi Helsing\u00f8r", "phone": "+45 50697887", "ref:DK:cvr": "41230738", "ref:DK:cvr:pnummer": "1025650154", "takeaway": "yes"}}, {"type": "node", "id": 9218033026, "lat": 56.0357011, "lon": 12.6105783, "tags": {"alt_name": "Om Indisk Indian restaurant and cafe", "amenity": "restaurant", "cuisine": "indian", "fvst:navnelbnr": "1229714", "name": "OM Indisk Caf\u00e9 og Restaurant", "opening_hours": "10:00-21:00", "phone": "+45 41363300", "ref:DK:cvr": "42353965", "ref:DK:cvr:pnummer": "1028223788", "takeaway": "yes", "website": "https://omindisk.dk/"}}, {"type": "node", "id": 9218102380, "lat": 56.0363069, "lon": 12.6110464, "tags": {"amenity": "restaurant", "cuisine": "regional", "fvst:navnelbnr": "982298", "name": "Restaurant Anders & Carina", "opening_hours": "11:00-18:00; Fr-Sa 11:00-21:30; Su-Mo off", "phone": "+45 49216970", "ref:DK:cvr": "39082799", "ref:DK:cvr:pnummer": "1026842936", "website": "https://www.anderscarina.dk/"}}, {"type": "node", "id": 9218102381, "lat": 56.0342952, "lon": 12.6129198, "tags": {"amenity": "cafe", "cuisine": "coffee_shop", "fvst:navnelbnr": "1144762", "name": "Helsing\u00f8r Kaffe & Thehus", "phone": "+45 26851085", "ref:DK:cvr": "42135534", "ref:DK:cvr:pnummer": "1026817141", "website": "https://www.kaffethehuset.dk/"}}, {"type": "node", "id": 9218102385, "lat": 56.03468, "lon": 12.613121, "tags": {"amenity": "cafe", "cuisine": "coffee_shop", "fvst:name": "Kagefryd Anno 2016", "fvst:navnelbnr": "1294939", "name": "Kagefryd", "opening_hours": "09:30-17:00; Sa-Su 10:00-16:00", "phone": "+45 31367664", "ref:DK:cvr": "43338722", "ref:DK:cvr:pnummer": "1028348548", "website": "https://kagefryd.dk/"}}, {"type": "node", "id": 9218102387, "lat": 56.0343446, "lon": 12.6117625, "tags": {"amenity": "restaurant", "cuisine": "vietnamese", "fvst:navnelbnr": "994140", "name": "District 1", "opening_hours": "11:30-21:00; Su 12:00-21:00", "phone": "+45 52396666", "ref:DK:cvr": "42426377", "ref:DK:cvr:pnummer": "1027215234", "website": "https://www.district1.dk/"}}, {"type": "node", "id": 9218279088, "lat": 56.020138, "lon": 12.5722302, "tags": {"amenity": "cafe", "cuisine": "danish", "fvst:navnelbnr": "1011188", "name": "Snack Baren", "phone": "+45 40432383", "ref:DK:cvr": "42466727", "ref:DK:cvr:pnummer": "1027261260"}}, {"type": "node", "id": 9218341512, "lat": 56.041715, "lon": 12.5682952, "tags": {"amenity": "cafe", "fvst:navnelbnr": "960153", "name": "Skovbrynet Helsing\u00f8r", "ref:DK:cvr": "41657510", "ref:DK:cvr:pnummer": "1026240014", "website": "https://cafeskovbrynet.dk/"}}, {"type": "node", "id": 9222000716, "lat": 56.0362987, "lon": 12.6098749, "tags": {"amenity": "restaurant", "check_date": "2023-03-05", "cuisine": "regional", "fvst:navnelbnr": "1111126", "name": "Restaurant MOS", "opening_hours": "11:00-21:00; Fr-Sa 11:00-24:00; Su 09:00-14:00; Mo-Tu off", "phone": "+45 52112354", "ref:DK:cvr": "40358013", "ref:DK:cvr:pnummer": "1024554208", "website": "https://www.restaurantmos.dk/"}}, {"type": "node", "id": 9222056117, "lat": 56.041037, "lon": 12.614382, "tags": {"amenity": "cafe", "fvst:navnelbnr": "746322", "name": "Fr\u00f8ken Marina", "ref:DK:cvr": "38646915", "ref:DK:cvr:pnummer": "1022450561", "website": "https://marina-kaffebar.business.site/"}}, {"type": "node", "id": 9248941992, "lat": 56.2022337, "lon": 12.5686325, "tags": {"addr:country": "SE", "addr:housenumber": "8", "addr:street": "Midg\u00e5rdsgatan", "amenity": "restaurant", "email": "hoganas@linneabasilika.se", "name": "Linnea & Basilika", "opening_hours": "Mo-Su 11:00-21:00", "phone": "+46 42 34 99 88", "website": "https://www.linneabasilika.se/hoganas/"}}, {"type": "node", "id": 9248942003, "lat": 56.2001838, "lon": 12.5714985, "tags": {"addr:city": "H\u00f6gan\u00e4s", "addr:country": "SE", "addr:housenumber": "12", "addr:postcode": "263 37", "addr:street": "Storgatan", "amenity": "restaurant", "cuisine": "pizza;plankstek;hamburgare;langos", "name": "Adams K\u00f6k och bar", "note": "Lunch Alla vardagar 11:00-14:00", "opening_hours": "Mo-Th 11:00-22:00; Fr 11:00-23:00; Sa 12:00-23:00; Su 12:00-21:00", "phone": "+46 42-33 35 34", "website": "http://adamskokbar.se/"}}, {"type": "node", "id": 9270780751, "lat": 56.2013402, "lon": 12.5515976, "tags": {"amenity": "restaurant", "cuisine": "indian", "name": "Curry nam nam", "opening_hours": "Mo-Th 11:00-22:00; Fr 11:00-23:00; Sa 12:00-23:00; Su 12:00-22:00", "opening_hours:covid19": "Mo-Th 11:00-22:00; Fr 11-23; sa 12-23; su 12-22"}}, {"type": "node", "id": 9284376300, "lat": 56.0357331, "lon": 12.6153836, "tags": {"amenity": "bar", "cuisine": "tapas", "fvst:navnelbnr": "1146072", "level": "-1", "name": "Ofelia Bar", "phone": "+45 93800873", "ref:DK:cvr": "35825738", "ref:DK:cvr:pnummer": "1026861981", "website": "https://ofelia-bar.resos.com/"}}, {"type": "node", "id": 9288219081, "lat": 56.035348, "lon": 12.611588, "tags": {"amenity": "restaurant", "cuisine": "italian", "fvst:navnelbnr": "1145773", "name": "Zilleri", "ref:DK:cvr": "42537381", "ref:DK:cvr:pnummer": "1027703514", "takeaway": "yes"}}, {"type": "node", "id": 9370437062, "lat": 56.2002133, "lon": 12.5543959, "tags": {"amenity": "restaurant", "cuisine": "sushi", "name": "Tokio Sushi", "opening_hours": "Mo-Fr 11:00-20:00; Sa -Su 12:00-20:00"}}, {"type": "node", "id": 9370464158, "lat": 56.2011022, "lon": 12.5580869}, {"type": "node", "id": 9370464159, "lat": 56.2010911, "lon": 12.5581778}, {"type": "node", "id": 9370464160, "lat": 56.2011405, "lon": 12.5581974}, {"type": "node", "id": 9370464161, "lat": 56.2011516, "lon": 12.5581065}, {"type": "node", "id": 9394576017, "lat": 56.0463395, "lon": 12.6941704, "tags": {"amenity": "restaurant", "name": "Kitchen & Table", "opening_hours": "Mo-Th 17:00-22:00; Fr-Sa 16:00-23:00", "phone": "+46 42 380410", "reservation": "yes"}}, {"type": "node", "id": 9556295817, "lat": 56.0452882, "lon": 12.6037805, "tags": {"amenity": "bar", "fvst:navnelbnr": "1212929", "name": "Sea Point & Bar", "ref:DK:cvr": "16985104", "ref:DK:cvr:pnummer": "1001197729"}}, {"type": "node", "id": 9623591568, "lat": 56.0473334, "lon": 12.6930249, "tags": {"addr:city": "Helsingborg", "addr:country": "SE", "addr:housenumber": "6", "addr:postcode": "252 20", "addr:street": "Kolm\u00e4taregr\u00e4nden", "amenity": "restaurant", "cuisine": "sushi;poke", "name": "REKO SUSHI & BOWLS HBG CITY", "phone": "042293222", "website": "https://rekosushi.se/"}}, {"type": "node", "id": 9724859117, "lat": 56.3154517, "lon": 12.7634736, "tags": {"amenity": "restaurant", "name:en": "Strandhugget"}}, {"type": "node", "id": 9808347825, "lat": 56.1428112, "lon": 12.579626}, {"type": "node", "id": 9808347826, "lat": 56.1426738, "lon": 12.5798218}, {"type": "node", "id": 9808347827, "lat": 56.1426708, "lon": 12.5798701}, {"type": "node", "id": 9808347828, "lat": 56.1428352, "lon": 12.5799036}, {"type": "node", "id": 9808347829, "lat": 56.1428546, "lon": 12.5796461}, {"type": "node", "id": 9904958855, "lat": 56.2484064, "lon": 12.87321, "tags": {"amenity": "restaurant", "cuisine": "italian;pizza", "name": "Robertos", "opening_hours": "Tu-Fr 15:00-21:00; Sa,Su 13:00-21:00", "phone": "+46 43 12 00 25", "website": "https://www.robertosangelholm.se/"}}, {"type": "node", "id": 9906981254, "lat": 56.4258598, "lon": 12.6246051, "tags": {"amenity": "cafe", "description": "and bakery", "name": "Parkis"}}, {"type": "node", "id": 9929429298, "lat": 56.1425029, "lon": 12.5768603, "tags": {"addr:city": "Viken", "addr:country": "SE", "addr:housenumber": "5", "addr:postcode": "263 61", "addr:street": "Hamnplanen", "amenity": "cafe", "cuisine": "ice_cream;coffee_shop", "name": "Galleri Viken", "outdoor_seating": "yes", "toilets": "yes", "website": "https://www.galleriviken.se/"}}, {"type": "node", "id": 9931790184, "lat": 56.4265385, "lon": 12.6249412, "tags": {"amenity": "restaurant", "name": "Moby's Shack"}}, {"type": "node", "id": 9931794434, "lat": 56.4268877, "lon": 12.6252055, "tags": {"amenity": "restaurant", "cuisine": "fish", "name": "Fiskhuset"}}, {"type": "node", "id": 9931798142, "lat": 56.4263496, "lon": 12.6239582, "tags": {"amenity": "restaurant"}}, {"type": "node", "id": 9942900114, "lat": 56.2629699, "lon": 12.5314068, "tags": {"amenity": "cafe"}}, {"type": "node", "id": 10013285171, "lat": 56.0827026, "lon": 12.9218895, "tags": {"amenity": "restaurant", "check_date": "2022-09-10", "cuisine": "sushi", "name": "Aroi Kitchen"}}, {"type": "node", "id": 10166502191, "lat": 56.0473008, "lon": 12.6929106, "tags": {"addr:country": "SE", "addr:housenumber": "6", "addr:street": "Kolm\u00e4taregr\u00e4nden", "amenity": "restaurant", "diet:vegan": "yes", "indoor_seating": "yes", "name": "Ginger H\u00e4lsobar", "outdoor_seating": "yes"}}, {"type": "node", "id": 10249906938, "lat": 56.1427942, "lon": 12.5770869, "tags": {"addr:city": "Viken", "addr:country": "SE", "addr:housenumber": "9", "addr:postcode": "263 61", "addr:street": "Hamnplanen", "amenity": "restaurant", "name": "Hamnplan 9", "outdoor_seating": "yes", "phone": "042-23 60 36", "website": "https://www.hamnplan9.se/"}}, {"type": "node", "id": 10278998635, "lat": 56.0483761, "lon": 12.6913149, "tags": {"addr:city": "Helsingborg", "addr:country": "SE", "addr:housenumber": "30", "addr:street": "Drottninggatan", "amenity": "bar", "contact:email": "info@skipkitchenbar.se", "contact:phone": "+46 42-18 10 70", "name": "Skip Kitchen & Bar", "opening_hours": "We-Sa 15:00-25:00", "website": "https://skipkitchenbar.se/"}}, {"type": "node", "id": 10278998636, "lat": 56.0468394, "lon": 12.697047, "tags": {"amenity": "bar", "name": "The Headless Swan", "opening_hours": "Fr-Sa 22:00-27:00"}}, {"type": "node", "id": 10588813786, "lat": 56.432962, "lon": 12.9081262, "tags": {"amenity": "restaurant"}}, {"type": "node", "id": 10712176901, "lat": 56.065184, "lon": 12.553921, "tags": {"amenity": "cafe", "cuisine": "coffee_shop", "fvst:navnelbnr": "1247136", "name": "Cafeen p\u00e5 Hammerm\u00f8llen", "ref:DK:cvr": "43409697", "ref:DK:cvr:pnummer": "1028439632", "website": "https://www.xn--cafeenphammermllen-bub10b.dk/"}}, {"type": "node", "id": 10712326918, "lat": 56.0307948, "lon": 12.5863, "tags": {"amenity": "restaurant", "cuisine": "thai", "fvst:navnelbnr": "1245226", "name": "Kao Gaeng Thai Mad", "opening_hours": "16:00-21:00", "phone": "+45 93959921", "ref:DK:cvr": "43310143", "ref:DK:cvr:pnummer": "1028317804", "takeaway": "only", "website": "https://kaogaeng.dk/"}}, {"type": "node", "id": 10712396586, "lat": 56.0400088, "lon": 12.6124682, "tags": {"access": "permissive", "alt_name": "Det Danske Madhus Hamlet", "amenity": "cafe", "description": "Aktivitetstilbud til pensionister. \u00c5ben for alle", "fvst:navnelbnr": "95569", "name": "Cafe Hamlet", "opening_hours": "10:00-13:00", "ref:DK:cvr": "28320868", "ref:DK:cvr:pnummer": "1011052262", "shop": "craft"}}, {"type": "node", "id": 10712396593, "lat": 56.03516, "lon": 12.611187, "tags": {"amenity": "restaurant", "cuisine": "regional", "fvst:navnelbnr": "1247080", "name": "Appetit", "opening_hours": "17:00-23:00;Su-Tu off", "phone": "+45 41924040", "ref:DK:cvr": "43366548", "ref:DK:cvr:pnummer": "1028383203", "website": "https://restaurantappetit.dk/"}}, {"type": "node", "id": 10713342411, "lat": 56.033367, "lon": 12.612849, "tags": {"amenity": "cafe", "fvst:navnelbnr": "1228108", "name": "Album", "ref:DK:cvr": "42511021", "ref:DK:cvr:pnummer": "1028184006", "website": "https://albumbar.dk/"}}, {"type": "node", "id": 10783711791, "lat": 56.2002227, "lon": 12.5534804, "tags": {"addr:city": "H\u00f6gan\u00e4s", "addr:country": "SE", "addr:housenumber": "10L", "addr:postcode": "263 38", "addr:street": "K\u00f6pmansgatan", "amenity": "restaurant", "cuisine": "pizza;salad;hamburgare", "name": "K\u00f6k & Bar 88", "phone": "+46 42 258668", "website": "https://k\u00f6kochbar88.se"}}, {"type": "node", "id": 10783749151, "lat": 56.2010056, "lon": 12.5525088, "tags": {"addr:city": "H\u00f6gan\u00e4s", "addr:country": "SE", "addr:housenumber": "7", "addr:postcode": "263 38", "addr:street": "K\u00f6pmansgatan", "amenity": "restaurant", "cuisine": "italiensinspirerat", "name": "Osteria il gusto", "phone": "+46 42 331005", "website": "http://www.hotelletochco.se/osteria-il-gusto/"}}, {"type": "node", "id": 10783916346, "lat": 56.2063725, "lon": 12.5557441, "tags": {"addr:city": "H\u00f6gan\u00e4s", "addr:country": "SE", "addr:housenumber": "36", "addr:postcode": "263 39", "addr:street": "Bruksgatan", "amenity": "cafe", "email": "barbara@salthallarna.se", "name": "Juni Kaffe & Bageri", "outdoor_seating": "no", "phone": "+46 709 751435", "website": "https://www.instagram.com/junibageri"}}, {"type": "node", "id": 10786631382, "lat": 56.1997621, "lon": 12.5583409, "tags": {"addr:city": "H\u00f6gan\u00e4s", "addr:country": "SE", "addr:housenumber": "66", "addr:postcode": "263 31", "addr:street": "Storgatan", "amenity": "cafe", "cuisine": "salad;sandwich;bakad_potatis;paj;lunch;cake", "name": "Ciabatta Coffee House", "outdoor_seating": "yes", "phone": "+46 762 133372"}}, {"type": "node", "id": 10824566345, "lat": 56.0391233, "lon": 12.6142508, "tags": {"amenity": "cafe", "cuisine": "coffee_shop", "fvst:navnelbnr": "1288433", "name": "Kaffebaren", "ref:DK:cvr": "38490621", "ref:DK:cvr:pnummer": "1029076029"}}, {"type": "node", "id": 10920368175, "lat": 56.1657636, "lon": 12.5940228, "tags": {"amenity": "cafe", "name": "Vikentomater", "outdoor_seating": "yes", "phone": "042-400 00 35", "website": "https://vikentomater.se/"}}, {"type": "node", "id": 10926030141, "lat": 56.2001872, "lon": 12.5533231, "tags": {"addr:city": "H\u00f6gan\u00e4s", "addr:country": "SE", "addr:housenumber": "10", "addr:street": "K\u00f6pmansgatan", "amenity": "restaurant", "cuisine": "thai", "name": "Taiwan", "opening_hours": "Mo Off; Tu-Fr 11:30-21:00; Sa 12:00-21:00; Su 13:00-21:00", "phone": "+46 42 34 34 80", "website": "https://restaurangtaiwan.se/"}}, {"type": "node", "id": 10974336866, "lat": 56.2826869, "lon": 12.4945299, "tags": {"amenity": "restaurant", "indoor_seating": "yes", "name": "Hotel Kullaberg", "outdoor_seating": "yes"}}, {"type": "node", "id": 10977251225, "lat": 56.2826084, "lon": 12.4996962, "tags": {"amenity": "restaurant", "name": "M\u00f6lle Krukmakeri"}}, {"type": "node", "id": 11059731562, "lat": 56.388657, "lon": 12.9367327, "tags": {"amenity": "restaurant", "cuisine": "breakfast", "name": "Rasta Hallands\u00e5sen", "opening_hours": "Mo-Fr 06:00-22:00; Sa-Su 07:00-22:00", "toilets:wheelchair": "yes", "website": "https://www.rasta.se/hallandsasen/", "wheelchair": "yes"}}, {"type": "node", "id": 11073322599, "lat": 56.0412191, "lon": 12.7027929, "tags": {"addr:city": "Helsingborg", "addr:country": "SE", "addr:street": "Gasverksgatan", "amenity": "restaurant", "cuisine": "sushi", "indoor_seating": "yes", "level": "0", "name": "Sunshine Sushi", "opening_hours": "Mo-Fr 11:30-20:00; Sa 12:00-20:00", "outdoor_seating": "sidewalk", "wheelchair": "yes"}}, {"type": "node", "id": 11073445978, "lat": 56.0419599, "lon": 12.7011248, "tags": {"addr:city": "Helsingborg", "addr:country": "SE", "amenity": "cafe", "indoor_seating": "yes", "level": "0", "name": "Caf\u00e9 Sweet House", "opening_hours": "Su-Th 11:00-22:00; Fr,Sa 11:00-24:00", "outdoor_seating": "yes", "smoking": "no"}}, {"type": "node", "id": 11115748587, "lat": 56.0574162, "lon": 12.7096064, "tags": {"alt_name": "Hedstr\u00f6ms butik och Kaffestunden", "amenity": "cafe", "name": "Hedstr\u00f6ms diversehandel", "opening_hours": "Mo-Tu 11:00-18:00,We-Su 11:00-19:00", "operator": "Fredriksdal Museer och tr\u00e4dg\u00e5rdar", "payment:cash": "no", "payment:mastercard": "yes", "payment:swish": "yes", "payment:visa": "yes", "shop": "variety_store"}}, {"type": "node", "id": 11158948101, "lat": 56.0409262, "lon": 12.7030019, "tags": {"amenity": "cafe", "check_date": "2023-08-30", "drive_through": "no", "level": "0", "name": "Angora Caf\u00e9", "outdoor_seating": "yes", "source": "survey"}}, {"type": "node", "id": 11349051804, "lat": 56.0623264, "lon": 12.7335604, "tags": {"addr:city": "Helsingborg", "addr:housenumber": "10", "addr:postcode": "25426", "addr:street": "Bl\u00e5kullagatan", "amenity": "cafe", "instagram": "dm.hbg", "name": "Do More", "opening_hours": "Mo-Fr 07:00-17:00", "outdoor_seating": "yes", "payment:cash": "no", "phone": "+46 70 697 71 70", "website": "https://www.dmhbg.se/", "wheelchair": "yes"}}, {"type": "node", "id": 11414404339, "lat": 55.9986344, "lon": 12.7414476, "tags": {"addr:city": "R\u00e5\u00e5", "addr:housenumber": "12", "addr:postcode": "25270", "addr:street": "R\u00e5\u00e5v\u00e4gen", "amenity": "restaurant", "cuisine": "italian", "diet:meat": "yes", "diet:vegetarian": "yes", "name": "P\u00ecu 39 Trattoria Italiana", "opening_hours": "We 17:00\u201322:00; Th-Sa 12:00\u201315:00,17:00\u201322:00; Su 17:00-20:00", "phone": "+4642263103", "website": "https://piu-39-trattoria-italiana-1693664127.resos.com/booking"}}, {"type": "node", "id": 11465472700, "lat": 56.041172, "lon": 12.7018294, "tags": {"amenity": "restaurant", "check_date": "2023-12-29", "cuisine": "mexican", "name": "Taco Bar"}}, {"type": "node", "id": 11473034490, "lat": 56.2488052, "lon": 12.8662598, "tags": {"addr:city": "\u00c4ngelholm", "addr:housenumber": "85", "addr:postcode": "26235", "addr:street": "Storgatan", "amenity": "restaurant", "name": "Ll'Amice", "website": "https://llamice.se/restauranger/angelholm/"}}, {"type": "node", "id": 11473034493, "lat": 56.2469317, "lon": 12.8649452, "tags": {"addr:city": "\u00c4ngelholm", "addr:housenumber": "66", "addr:postcode": "262 35", "addr:street": "Storgatan", "amenity": "restaurant", "name": "Toppfalafel", "website": "https://toppfalafel-angelholm.business.site/"}}, {"type": "node", "id": 11473034494, "lat": 56.2464086, "lon": 12.8644904, "tags": {"addr:housenumber": "1", "addr:street": "Skolgatan", "amenity": "restaurant", "cuisine": "pizza", "name": "Acapulco", "website": "https://acapulcoangelholm.com/"}}, {"type": "node", "id": 11473034495, "lat": 56.2462817, "lon": 12.8647643, "tags": {"addr:city": "\u00c4ngelholm", "addr:housenumber": "1D", "addr:postcode": "262 31", "addr:street": "Skolgatan", "amenity": "restaurant", "name": "Pizza Kebab House", "website": "https://pizzakebabhouse.se/"}}, {"type": "node", "id": 11473034498, "lat": 56.2458922, "lon": 12.8636865, "tags": {"amenity": "restaurant", "name": "Telegrafen", "website": "https://telegrafen.com/"}}, {"type": "node", "id": 11473034513, "lat": 56.2433451, "lon": 12.8623196, "tags": {"addr:city": "\u00c4ngelholm", "addr:housenumber": "1", "addr:place": "Stortorget", "addr:postcode": "26232", "amenity": "cafe", "name": "Graffiti Cafe"}}, {"type": "node", "id": 11473108297, "lat": 56.0743368, "lon": 12.7289987, "tags": {"addr:housenumber": "16", "addr:street": "Garnisonsgatan", "amenity": "restaurant", "cuisine": "burger", "name": "Helsingburger"}}, {"type": "node", "id": 11544094662, "lat": 56.0911638, "lon": 12.7571522, "tags": {"amenity": "cafe", "brand": "Caff\u00e8 Nero", "brand:wikidata": "Q675808", "cuisine": "coffee_shop", "name": "Caff\u00e8 Nero", "takeaway": "yes"}}, {"type": "node", "id": 11544141576, "lat": 56.0907027, "lon": 12.7571415, "tags": {"amenity": "restaurant", "name": "P\u00e5 G&CO"}}, {"type": "node", "id": 11544141577, "lat": 56.0907185, "lon": 12.7572773, "tags": {"amenity": "restaurant", "name": "Curry Republik"}}, {"type": "node", "id": 11544141580, "lat": 56.0910759, "lon": 12.757308, "tags": {"amenity": "restaurant", "name": "Wok Kitchen"}}, {"type": "node", "id": 11544141581, "lat": 56.0910281, "lon": 12.7573835, "tags": {"amenity": "restaurant", "name": "Nancy's"}}, {"type": "node", "id": 11544141582, "lat": 56.090971, "lon": 12.7574129, "tags": {"amenity": "restaurant", "name": "Tre Spett"}}, {"type": "node", "id": 11544141583, "lat": 56.0909142, "lon": 12.7574349, "tags": {"amenity": "restaurant", "name": "Kolgrillen"}}, {"type": "node", "id": 11544141584, "lat": 56.090855, "lon": 12.7574647, "tags": {"amenity": "restaurant", "name": "Sugoi"}}, {"type": "node", "id": 11544141585, "lat": 56.0907399, "lon": 12.7574124, "tags": {"amenity": "restaurant", "name": "Bl\u00e5 Tuppen"}}, {"type": "node", "id": 11544141586, "lat": 56.0908036, "lon": 12.7574843, "tags": {"amenity": "restaurant", "name": "Torstens Smakar Mera"}}, {"type": "node", "id": 11544141587, "lat": 56.0909332, "lon": 12.7571045, "tags": {"amenity": "restaurant", "name": "Fisk & Skaldjur by Anette"}}, {"type": "node", "id": 11544141588, "lat": 56.0907902, "lon": 12.7569025, "tags": {"amenity": "restaurant", "name": "Birgers Gatuk\u00f6k"}}, {"type": "node", "id": 11544141595, "lat": 56.0924155, "lon": 12.7568901, "tags": {"amenity": "restaurant", "name": "Bastard Burgers"}}, {"type": "node", "id": 11544141596, "lat": 56.092292, "lon": 12.7569468, "tags": {"amenity": "restaurant", "cuisine": "sushi", "name": "Sumo Sushi"}}, {"type": "node", "id": 11544141597, "lat": 56.092386, "lon": 12.7566356, "tags": {"amenity": "restaurant", "name": "Pho Viet"}}, {"type": "node", "id": 11544141615, "lat": 56.0911979, "lon": 12.7550726, "tags": {"amenity": "restaurant", "name": "P\u00f6lsemannen"}}, {"type": "node", "id": 11544141623, "lat": 56.0909304, "lon": 12.7557771, "tags": {"amenity": "cafe", "brand": "Espresso House", "brand:wikidata": "Q10489162", "cuisine": "coffee_shop", "name": "Espresso House", "takeaway": "yes"}}, {"type": "node", "id": 11544141624, "lat": 56.0916698, "lon": 12.7554913, "tags": {"amenity": "cafe", "brand": "Joe & The Juice", "brand:wikidata": "Q26221514", "cuisine": "coffee_shop", "name": "Joe & The Juice", "takeaway": "yes"}}, {"type": "node", "id": 11544141625, "lat": 56.0913371, "lon": 12.7555731, "tags": {"amenity": "cafe", "brand": "Wayne's Coffee", "brand:wikidata": "Q2637272", "cuisine": "coffee_shop", "name": "Wayne's Coffee", "takeaway": "yes"}}, {"type": "node", "id": 11544141681, "lat": 56.0922605, "lon": 12.7589354, "tags": {"amenity": "cafe", "name": "Sweet House Caf\u00e9"}}, {"type": "node", "id": 11544141687, "lat": 56.0919438, "lon": 12.757109, "tags": {"amenity": "cafe", "name": "Caf\u00e9 Schiller"}}, {"type": "node", "id": 11544141702, "lat": 56.0918711, "lon": 12.7585772, "tags": {"amenity": "cafe", "brand": "Wayne's Coffee", "brand:wikidata": "Q2637272", "cuisine": "coffee_shop", "name": "Wayne's Coffee", "takeaway": "yes"}}, {"type": "way", "id": 89744195, "nodes": [1039921654, 1039922097, 1039921363, 1039921522, 1039921654], "tags": {"amenity": "restaurant", "building": "yes", "internet_access": "no", "name": "M\u00f6llebacken", "source": "Bing"}}, {"type": "way", "id": 97270523, "nodes": [1126751261, 1126750680, 1126751315, 1126751295, 1808197647, 1126751131, 1126751347, 1126751280, 1126751070, 1126750830, 1126750902, 1126751261], "tags": {"addr:city": "Helsingborg", "addr:country": "SE", "addr:housenumber": "3", "addr:postcode": "252 67", "addr:street": "Parapeten", "amenity": "restaurant", "building": "yes", "name": "Restaurang Parapeten", "source:address": "Helsingborgs kommun", "wheelchair": "yes"}}, {"type": "way", "id": 98818428, "nodes": [1143023420, 1143023477, 1143023424, 1143023402, 1143023399, 1143023449, 1143023473, 1143023458, 1143023455, 1143023454, 1143023403, 1143023407, 1143023420], "tags": {"addr:city": "Helsingborg", "addr:country": "SE", "addr:housenumber": "15", "addr:postcode": "252 67", "addr:street": "B\u00e5thusgatan", "amenity": "restaurant", "building": "yes", "name": "Restaurang Mastskjulet", "source": "Bing", "source:address": "Helsingborgs kommun"}}, {"type": "way", "id": 109391018, "nodes": [1252427332, 1252427322, 1252427365, 1252427330, 1252427356, 1252427320, 1252427310, 1252490682, 1252427354, 1252427332], "tags": {"addr:city": "R\u00e5\u00e5", "addr:country": "SE", "addr:housenumber": "20", "addr:postcode": "252 70", "addr:street": "R\u00e5\u00e5v\u00e4gen", "amenity": "restaurant", "building": "yes", "name": "Trivas", "source:address": "Helsingborgs kommun"}}, {"type": "way", "id": 118329168, "nodes": [1330910600, 1807267441, 1330910606, 1330910602, 1330910603, 1330910600], "tags": {"amenity": "restaurant", "building": "yes", "name": "Barfota by the beach", "source": "Bing"}}, {"type": "way", "id": 147494923, "nodes": [1607069899, 1607069897, 3633647782, 3633647781, 3633647779, 3633647780, 1607069889, 1607069891, 1607069899], "tags": {"addr:city": "Fleninge", "addr:country": "SE", "addr:housenumber": "403", "addr:postcode": "254 77", "addr:street": "V\u00e4stkustv\u00e4gen", "amenity": "restaurant", "building": "yes", "name": "Fleninge G\u00e4stgifwareg\u00e5rd", "source": "Helsingborgs kommuns ortofoto 2014", "source:address": "Helsingborgs kommun"}}, {"type": "way", "id": 166397990, "nodes": [1778422796, 1778422798, 1778422784, 1778422791, 1778422773, 1778422771, 1778422764, 1778422761, 1778422759, 1778422766, 1778422765, 1778422780, 1778422782, 1778422796], "tags": {"amenity": "restaurant", "building": "yes", "name": "Restaurang Hotel Rosenberg", "tourism": "hotel"}}, {"type": "way", "id": 168431593, "nodes": [1796966139, 1796966072, 1796966095, 1796966046, 1796966139], "tags": {"amenity": "cafe", "building": "yes", "height": "4", "name": "Teaterkiosken", "outdoor_seating": "yes", "payment:cash": "no", "payment:mastercard": "yes", "payment:visa": "yes", "roof:material": "thatch"}}, {"type": "way", "id": 168431612, "nodes": [1796966091, 1796966131, 1796966116, 1796966200, 1796966091], "tags": {"amenity": "cafe", "building": "yes", "height": "4", "name": "Teaterkiosken", "outdoor_seating": "yes", "payment:cash": "no", "payment:mastercard": "yes", "payment:visa": "yes", "roof:material": "thatch"}}, {"type": "way", "id": 169558307, "nodes": [1807267515, 1807267456, 1807267558, 1807267497, 1807267515], "tags": {"addr:city": "Helsingborg", "addr:country": "SE", "addr:housenumber": "1", "addr:postcode": "254 33", "addr:street": "Gr\u00f6ningen norra", "amenity": "restaurant", "building": "yes", "cuisine": "fish", "name": "Sillen & Makrillen", "wheelchair": "yes"}}, {"type": "way", "id": 169558682, "nodes": [1807275091, 1807275098, 1807275096, 1807275085, 1807275087, 1807275093, 1807275095, 1807275088, 1807275091], "tags": {"addr:city": "Helsingborg", "addr:country": "SE", "addr:housenumber": "2", "addr:postcode": "252 67", "addr:street": "B\u00e5thusgatan", "amenity": "restaurant", "building": "yes", "name": "M\u00f6lleexpressen", "source:address": "Helsingborgs kommun", "wheelchair": "no"}}, {"type": "way", "id": 171837402, "nodes": [1828091852, 1828091864, 1828091863, 1828091862, 1828091855, 1828091861, 1828091853, 1828091858, 1828091857, 1828091854, 1828091852], "tags": {"addr:city": "R\u00e5\u00e5", "addr:country": "SE", "addr:housenumber": "1", "addr:postcode": "252 70", "addr:street": "Kajgatan", "amenity": "restaurant", "building": "yes", "cuisine": "french;scandinavian", "name": "Kajgatan 1", "opening_hours": "Mo-Th 11:30-14:30; Fr 11:30-14:30,16:30-21:00; Sa 12:00-21:00; Su 12:00-18:00", "phone": "+4642260266", "source:address": "Helsingborgs kommun", "website": "https://kajgatan1.se/"}}, {"type": "way", "id": 204441492, "nodes": [2144632685, 2144632663, 2144632632, 2144632658, 2144632712, 2144632680, 2144632651, 2144632654, 2144632715, 2144632707, 2144632666, 2144632668, 2144632685], "tags": {"addr:housename": "Koppargrytan", "addr:street": "Industrigatan", "amenity": "restaurant", "building": "yes", "name": "Restaurant Koppargrytan"}}, {"type": "way", "id": 237779462, "nodes": [2456549772, 2456549774, 2456549776, 2456549778, 2456549780, 2456549782, 2456549784, 2456549786, 2456549772], "tags": {"amenity": "restaurant", "building": "yes", "name": "Jan's pasta & pizza"}}, {"type": "way", "id": 354070568, "nodes": [3598477580, 3598477581, 3598477582, 3598477583, 3598477580], "tags": {"addr:city": "Helsingborg", "addr:country": "SE", "addr:housenumber": "95", "addr:postcode": "254 33", "addr:street": "Drottninggatan", "amenity": "restaurant", "building": "yes", "name": "VIA95", "source:address": "Helsingborgs kommun", "takeaway": "yes"}}, {"type": "way", "id": 370576160, "nodes": [3742735911, 3742735900, 3742735886, 3742735918, 3742736128, 3742736133, 3742735917, 3742735911], "tags": {"addr:city": "R\u00e5\u00e5", "addr:country": "SE", "addr:housenumber": "46", "addr:postcode": "252 70", "addr:street": "R\u00e5\u00e5v\u00e4gen", "amenity": "restaurant", "building": "yes", "cuisine": "european;modern", "name": "Bistro 46", "opening_hours": "We-Fr 17:00-22:00; Sa 12:00-15:00,17:00-22:00", "phone": "+46768777000", "source:address": "Helsingborgs kommun", "website": "https://bistro46.se/"}}, {"type": "way", "id": 385043725, "nodes": [3883985814, 3883985817, 3883985816, 3883985815, 3883985814], "tags": {"addr:city": "\u00c4ngelholm", "addr:street": "Via Marina", "amenity": "restaurant", "building": "yes", "cuisine": "regional", "name": "Hamnkrogen"}}, {"type": "way", "id": 399043317, "nodes": [4712898853, 4712957037, 4712957036, 5527633329, 4712947713, 4712898853], "tags": {"addr:city": "\u00c4ngelholm", "addr:postcode": "26235", "addr:street": "Storgatan", "amenity": "restaurant", "building": "yes", "building:facade:colour": "lightsalmon", "building:facade:material": "plaster", "building:levels": "2.5", "name": "PoP", "roof:colour": "gray", "roof:shape": "gabled", "website": "https://popengelholm.com/"}}, {"type": "way", "id": 477576371, "nodes": [4709009480, 4709009479, 4709009473, 4709009472, 4709009471, 4709009478, 4709009480], "tags": {"addr:country": "SE", "addr:housenumber": "2", "addr:street": "Keramikgatan", "amenity": "restaurant", "building": "yes", "name": "M\u00f6lle fiskr\u00f6keri och fiskaff\u00e4r", "opening_hours": "Tu-Fr 10:00-18:00; Mo off; Sa 10:00-13:00; Su off", "phone": "042-33 13 32", "website": "https://www.mollefiskrokeri.se/"}}, {"type": "way", "id": 492859775, "nodes": [4848269077, 4848269660, 4848269661, 4848269076, 4848269077], "tags": {"amenity": "restaurant", "building": "yes", "name": "Knafves Caf\u00e9"}}, {"type": "way", "id": 492859779, "nodes": [4848269085, 4848269082, 4848269083, 4848269084, 4848269085], "tags": {"amenity": "restaurant", "building": "yes", "name": "Brandstationen"}}, {"type": "way", "id": 493402937, "nodes": [4853232592, 4853232591, 4853232590, 4853232589, 4853232592], "tags": {"amenity": "restaurant", "building": "yes", "name": "Sytrarna p\u00e5 piren"}}, {"type": "way", "id": 495962904, "nodes": [4876774945, 4876774944, 4876774943, 4876774942, 4876774941, 4876774940, 4876774945], "tags": {"amenity": "restaurant", "building": "yes", "cuisine": "barbecue", "name": "Grillkungen"}}, {"type": "way", "id": 504892410, "nodes": [4949880202, 4949880205, 4949880208, 4949880207, 4949880206, 4949880201, 4949880203, 4949880204, 4949880202], "tags": {"addr:city": "Viken", "addr:country": "SE", "addr:housenumber": "28", "addr:postcode": "26040", "addr:street": "Bygatan", "amenity": "restaurant", "building": "yes", "cuisine": "pizza;italian", "name": "Prego Ristorante", "website": "https://pregoviken.se/"}}, {"type": "way", "id": 541128277, "nodes": [5233265622, 5233265621, 5233265120, 5233265119, 5233265622], "tags": {"amenity": "restaurant", "building": "yes", "cuisine": "pizza", "name": "Milano"}}, {"type": "way", "id": 614461204, "nodes": [5812310600, 5812310601, 5812310602, 5812310603, 5812310604, 5812310600], "tags": {"amenity": "restaurant", "building": "yes", "name": "Bistr\u00e5\u00e5"}}, {"type": "way", "id": 614737295, "nodes": [5814410570, 5814410571, 5814410576, 5814410577, 5814410575, 5814410572, 5814410574, 5814410573, 5814410570], "tags": {"amenity": "restaurant", "building": "yes", "contact:email": "info@pirenraa.se", "contact:facebook": "https://www.facebook.com/pirenraa/", "contact:phone": "+46 73 580 38 93", "name": "P\u00e5 Piren", "website": "https://pirenraa.se/"}}, {"type": "way", "id": 666429624, "nodes": [6239400998, 6239400996, 6239400997, 6239400995, 6239400992, 6239400994, 6239401000, 6239401001, 6239401002, 6239400999, 6239400993, 6239400998], "tags": {"addr:city": "Helsingborg", "addr:country": "SE", "addr:housenumber": "65", "addr:postcode": "256 67", "addr:street": "Mang\u00e5rdsgatan", "addr:unit": "A", "amenity": "restaurant", "building": "yes", "building:levels": "1", "cuisine": "pizza", "name": "Forni pizza"}}, {"type": "way", "id": 792884565, "nodes": [7414307072, 7414307073, 7414307074, 7414307075, 7414307076, 7414307077, 7414307078, 7414307079, 7414307080, 7414307081, 7414307082, 7414307083, 7414307084, 7414319685, 7414319686, 7414319687, 7414319688, 7414319689, 7414319690, 7414319691, 7414319692, 7414319693, 7414319694, 7414319695, 7414319696, 7414319697, 7414319698, 7414319699, 7414319700, 7414319701, 7414319702, 7414319703, 7414319704, 7414319705, 7414319706, 7414319707, 7414319708, 7414307072], "tags": {"addr:city": "Helsingborg", "addr:country": "SE", "addr:housenumber": "2", "addr:postcode": "252 24", "addr:street": "J\u00e4rnv\u00e4gsgatan", "amenity": "bar", "building": "yes", "contact:email": "dockenhbg@gmail.com", "contact:phone": "+46 42 13 97 21", "name": "Docken Bar & Mat", "opening_hours": "Mo-Su 16:00-01:00", "source": "aerial imagery;Helsingborg \u00d6ppna Data"}}, {"type": "way", "id": 834561417, "nodes": [7790495262, 7790495263, 7790495264, 7790495265, 7790495266, 7790495267, 7790495268, 7790495250, 7790495251, 7790495252, 7790495257, 7790495258, 7790495259, 7790495260, 7790495261, 7790495253, 7790495254, 7790495255, 7790495256, 7790495262], "tags": {"amenity": "restaurant", "building": "yes", "name": "Baguetteria"}}, {"type": "way", "id": 834561420, "nodes": [7790495275, 7790495276, 7790495277, 7790495278, 7790495275], "tags": {"amenity": "restaurant", "building": "yes", "name": "B\u00e5thuset"}}, {"type": "way", "id": 891179746, "nodes": [2497034503, 8282924523, 8282924524, 8282924525, 2497034505, 2497034503], "tags": {"addr:city": "Gantofta", "addr:country": "SE", "addr:housenumber": "19", "addr:postcode": "253 73", "addr:street": "Norra Kvistoftav\u00e4gen", "amenity": "restaurant", "bar": "no", "building": "yes", "cuisine": "pizza;kebab;burger", "delivery": "no", "name": "Gantofta Pizzeria", "opening_hours": "Tu-Th 16:00-21:00; Fr,Sa 14:00-22:00; Su 14:00-21:00", "outdoor_seating": "no", "phone": "+46 42 \u2013 22 22 33", "takeaway": "yes", "website": "https://www.pizzeriagantofta.se/", "wheelchair": "yes"}}, {"type": "way", "id": 1015887063, "nodes": [9370464158, 9370464159, 9370464160, 9370464161, 9370464158], "tags": {"amenity": "restaurant", "building": "yes", "cuisine": "burger", "indoor_seating": "no", "name": "Midtown Grill", "outdoor_seating": "no", "takeaway": "only"}}, {"type": "way", "id": 1068459907, "nodes": [9808347829, 9808347828, 9808347827, 9808347826, 9808347825, 9808347829], "tags": {"addr:city": "Viken", "addr:country": "SE", "addr:housenumber": "16", "addr:postcode": "26040", "addr:street": "Hamnplanen", "amenity": "restaurant", "bar": "yes", "building": "yes", "cuisine": "italian", "name": "Il Faro", "phone": "+4642-23 60 32", "restaurant": "yes", "website": "https://www.ilfaro.se/"}}]}