{"version": 0.6, "generator": "Overpass API 0.7.61.5 4133829e", "osm3s": {"timestamp_osm_base": "2024-03-14T22:12:17Z", "copyright": "The data included in this document is from www.openstreetmap.org. The data is made available under ODbL."}, "elements": [{"type": "node", "id": 29827641, "lat": 59.345326, "lon": 18.0391349, "tags": {"amenity": "bank", "atm": "yes", "brand": "Handelsbanken", "brand:wikidata": "Q1421630", "brand:wikipedia": "en:Handelsbanken", "check_date": "2020-01-21", "check_date:opening_hours": "2022-11-23", "name": "Handelsbanken", "opening_hours": "Tu-Fr 10:00-15:00, Mo 10:00-18:00", "operator": "Handelsbanken", "website": "http://handelsbanken.se", "wheelchair": "yes"}}, {"type": "node", "id": 29898146, "lat": 59.3370036, "lon": 18.0898209, "tags": {"amenity": "bank", "brand": "Handelsbanken", "brand:wikidata": "Q1421630", "brand:wikipedia": "en:Handelsbanken", "name": "Handelsbanken", "opening_hours": "Mo-Fr 10:00-15:00", "operator": "Handelsbanken", "website": "http://handelsbanken.se"}}, {"type": "node", "id": 29898148, "lat": 59.3371069, "lon": 18.0908824, "tags": {"amenity": "bank", "atm": "no", "brand": "SEB", "brand:wikidata": "Q975655", "brand:wikipedia": "en:SEB Group", "check_date": "2023-07-15", "name": "SEB", "wheelchair": "yes"}}, {"type": "node", "id": 30049149, "lat": 59.366553, "lon": 18.1340388, "tags": {"amenity": "bank", "atm": "yes", "brand": "Handelsbanken", "brand:wikidata": "Q1421630", "brand:wikipedia": "en:Handelsbanken", "name": "Handelsbanken", "operator": "Handelsbanken", "source": "survey", "website": "http://handelsbanken.se"}}, {"type": "node", "id": 30067822, "lat": 59.365485, "lon": 18.13349, "tags": {"amenity": "bank", "atm": "yes", "brand": "SEB", "brand:wikidata": "Q975655", "brand:wikipedia": "en:SEB Group", "name": "SEB", "source": "survey"}}, {"type": "node", "id": 38427811, "lat": 59.4289, "lon": 17.949396, "tags": {"amenity": "bank", "atm": "yes", "brand": "SEB", "brand:wikidata": "Q975655", "brand:wikipedia": "en:SEB Group", "name": "SEB", "wheelchair": "yes"}}, {"type": "node", "id": 38438086, "lat": 59.4102285, "lon": 17.9637051, "tags": {"amenity": "atm", "created_by": "JOSM"}}, {"type": "node", "id": 282583565, "lat": 59.2931129, "lon": 17.9673387, "tags": {"amenity": "atm", "operator": "bankomat"}}, {"type": "node", "id": 299718698, "lat": 59.3648848, "lon": 18.1270852, "tags": {"amenity": "bank", "brand": "Nordea", "brand:wikidata": "Q1123823", "brand:wikipedia": "en:Nordea", "created_by": "Potlatch 0.10b", "name": "Nordea"}}, {"type": "node", "id": 318315593, "lat": 59.3289608, "lon": 18.0427047, "tags": {"amenity": "bank", "atm": "yes", "brand": "Handelsbanken", "brand:wikidata": "Q1421630", "brand:wikipedia": "en:Handelsbanken", "name": "Handelsbanken", "opening_hours": "Mo-We 09:30-16:00;Th 09:30-19:00;Fr 09:30-15:00;Sa-Su off", "operator": "Handelsbanken", "phone": "+46-8-54551780", "website": "http://handelsbanken.se"}}, {"type": "node", "id": 320966409, "lat": 59.3333396, "lon": 18.0322136, "tags": {"amenity": "bank", "brand": "SEB", "brand:wikidata": "Q975655", "brand:wikipedia": "en:SEB Group", "name": "SEB", "operator": "SEB"}}, {"type": "node", "id": 322623974, "lat": 59.335126, "lon": 18.0287698, "tags": {"amenity": "bank", "brand": "Handelsbanken", "brand:wikidata": "Q1421630", "brand:wikipedia": "en:Handelsbanken", "name": "Handelsbanken", "opening_hours": "Mo-Tu 09:30-16:00;We 09:30-19:00;Th-Fr 09:30-16:00;Sa-Su off", "operator": "Handelsbanken", "phone": "+46-8-54551360", "website": "http://handelsbanken.se"}}, {"type": "node", "id": 369973036, "lat": 59.3322637, "lon": 18.0793595, "tags": {"amenity": "bank", "atm": "yes", "brand": "Handelsbanken", "brand:wikidata": "Q1421630", "brand:wikipedia": "en:Handelsbanken", "name": "Handelsbanken", "opening_hours": "Mo 09:30-18:00;Tu 09:30-16:00;We 09:30-18:00;Th 09:30-16:00;Fr 09:30-15:00;Sa-Su off", "operator": "Handelsbanken", "phone": "+46854585800", "website": "http://handelsbanken.se"}}, {"type": "node", "id": 373453628, "lat": 59.3410007, "lon": 18.0909493, "tags": {"amenity": "bank", "atm": "yes", "brand": "Handelsbanken", "brand:wikidata": "Q1421630", "brand:wikipedia": "en:Handelsbanken", "name": "Handelsbanken", "operator": "Handelsbanken", "source": "survey", "website": "http://handelsbanken.se"}}, {"type": "node", "id": 410521358, "lat": 59.340236, "lon": 18.0764225, "tags": {"amenity": "bank", "atm": "yes", "brand": "Handelsbanken", "brand:wikidata": "Q1421630", "brand:wikipedia": "en:Handelsbanken", "name": "Handelsbanken", "operator": "Handelsbanken", "source": "survey", "website": "http://handelsbanken.se"}}, {"type": "node", "id": 410543908, "lat": 59.3359313, "lon": 18.0722899, "tags": {"amenity": "bank", "check_date": "2022-07-14", "name": "\u00c5landsbanken", "opening_hours": "Mo-Fr 10:00-15:00; Sa,Su off", "phone": "+46-771-415415", "website": "http://\u00e5landsbanken.se/", "wheelchair": "no"}}, {"type": "node", "id": 415276919, "lat": 59.31758, "lon": 18.050893, "tags": {"amenity": "atm", "cash_in": "no", "indoor": "no", "operator": "Nokas", "wheelchair": "no"}}, {"type": "node", "id": 415280440, "lat": 59.3163815, "lon": 18.0410486, "tags": {"amenity": "bank", "atm": "yes", "brand": "Handelsbanken", "brand:wikidata": "Q1421630", "brand:wikipedia": "en:Handelsbanken", "name": "Handelsbanken H\u00f6galid", "opening_hours": "Sa,Su off; Mo-Fr 10:00-15:00", "operator": "Handelsbanken", "phone": "+46-8-4551930", "source": "photograph", "website": "http://handelsbanken.se", "wheelchair": "limited"}}, {"type": "node", "id": 415981782, "lat": 59.3328412, "lon": 18.0568843, "tags": {"amenity": "bank", "atm": "yes", "brand": "Handelsbanken", "brand:wikidata": "Q1421630", "brand:wikipedia": "en:Handelsbanken", "check_date": "2023-10-01", "name": "Handelsbanken", "opening_hours": "Mo 09:30-18:00;Tu-Th 09:30-16:00;Fr 09:30-15:00;Sa-Su off", "operator": "Handelsbanken", "phone": "+46-8-54521470", "website": "http://handelsbanken.se"}}, {"type": "node", "id": 420450074, "lat": 59.3042857, "lon": 18.0938027, "tags": {"amenity": "atm", "brand": "Handelsbanken", "brand:wikidata": "Q1421630", "name": "Handelsbanken", "operator": "Handelsbanken", "operator:wikidata": "Q1421630"}}, {"type": "node", "id": 446048556, "lat": 59.4023294, "lon": 17.9442652, "tags": {"amenity": "atm", "level": "1", "operator": "SEB"}}, {"type": "node", "id": 471963919, "lat": 59.3327049, "lon": 18.0637677, "tags": {"amenity": "atm", "brand": "Handelsbanken", "brand:wikidata": "Q1421630", "cash_in": "no", "name": "Handelsbanken", "operator": "Handelsbanken", "operator:wikidata": "Q1421630"}}, {"type": "node", "id": 472644551, "lat": 59.3324682, "lon": 18.0316655, "tags": {"amenity": "atm"}}, {"type": "node", "id": 475902933, "lat": 59.3321117, "lon": 18.062806, "tags": {"amenity": "atm", "brand": "Swedbank", "brand:wikidata": "Q1145493", "cash_in": "no", "check_date": "2022-09-30", "name": "Swedbank", "operator": "Swedbank", "operator:wikidata": "Q1145493"}}, {"type": "node", "id": 479369184, "lat": 59.3340219, "lon": 18.0651537, "tags": {"amenity": "atm", "cash_in": "no", "check_date": "2023-12-27", "indoor": "no", "operator": "Bankomat"}}, {"type": "node", "id": 483644582, "lat": 59.3315006, "lon": 18.0676147, "tags": {"amenity": "atm", "brand": "Swedbank", "brand:wikidata": "Q1145493", "name": "Swedbank", "operator": "Swedbank", "operator:wikidata": "Q1145493"}}, {"type": "node", "id": 483644586, "lat": 59.3325053, "lon": 18.0693901, "tags": {"amenity": "bank", "brand": "Swedbank", "brand:wikidata": "Q1145493", "brand:wikipedia": "en:Swedbank", "name": "Swedbank", "opening_hours": "Mo,We-Fr 10:00-16:00; Tu 10:00-18:00", "operator": "Swedbank", "wheelchair": "yes"}}, {"type": "node", "id": 486129645, "lat": 59.3337592, "lon": 18.0736957, "tags": {"amenity": "bank", "brand": "Handelsbanken", "brand:wikidata": "Q1421630", "brand:wikipedia": "en:Handelsbanken", "name": "Handelsbanken", "operator": "Handelsbanken", "website": "http://handelsbanken.se"}}, {"type": "node", "id": 489898954, "lat": 59.3329452, "lon": 18.0707291, "tags": {"amenity": "bank", "atm": "yes", "brand": "Nordea", "brand:wikidata": "Q1123823", "brand:wikipedia": "en:Nordea", "name": "Nordea", "opening_hours": "Mo-Th 10:00-16:00; Fr 10:00-15:00", "operator": "Nordea", "wheelchair": "yes"}}, {"type": "node", "id": 490481723, "lat": 59.3346799, "lon": 18.0329825, "tags": {"amenity": "atm", "brand": "Swedbank", "brand:wikidata": "Q1145493", "level": "-1", "name": "Swedbank", "operator": "Swedbank", "operator:wikidata": "Q1145493"}}, {"type": "node", "id": 490482321, "lat": 59.3311817, "lon": 18.0566375, "tags": {"amenity": "atm", "operator": "Swedbank"}}, {"type": "node", "id": 490482468, "lat": 59.297954, "lon": 18.0794217, "tags": {"amenity": "atm", "brand": "Swedbank", "brand:wikidata": "Q1145493", "cash_in": "yes", "indoor": "no", "name": "Swedbank", "operator": "Swedbank", "operator:wikidata": "Q1145493", "wheelchair": "yes"}}, {"type": "node", "id": 490494003, "lat": 59.3398578, "lon": 18.0916311, "tags": {"amenity": "atm", "brand": "Bankomat", "currency:SEK": "yes", "drive_through": "no", "fixme": "not found, resurvey", "operator": "Bankomat AB"}}, {"type": "node", "id": 491495379, "lat": 59.4016365, "lon": 17.9467927, "tags": {"amenity": "bank", "atm": "yes", "brand": "Handelsbanken", "brand:wikidata": "Q1421630", "brand:wikipedia": "en:Handelsbanken", "name": "Handelsbanken", "operator": "Handelsbanken"}}, {"type": "node", "id": 492945623, "lat": 59.3478, "lon": 18.0037, "tags": {"amenity": "atm", "brand": "Nordea", "brand:wikidata": "Q1123823", "cash_in": "no", "name": "Nordea", "opening_hours": "24/7", "operator": "Nordea", "operator:wikidata": "Q1123823"}}, {"type": "node", "id": 496130653, "lat": 59.236876, "lon": 17.9814281, "tags": {"amenity": "bank", "atm": "yes", "brand": "Nordea", "brand:wikidata": "Q1123823", "brand:wikipedia": "en:Nordea", "name": "Nordea", "operator": "Nordea"}}, {"type": "node", "id": 496130659, "lat": 59.2364255, "lon": 17.9805562, "tags": {"amenity": "bank", "atm": "yes", "brand": "Swedbank", "brand:wikidata": "Q1145493", "brand:wikipedia": "en:Swedbank", "name": "Swedbank", "opening_hours": "Mo-We,Fr 10:00-15:00; Th 10:00-18:00", "operator": "Swedbank"}}, {"type": "node", "id": 496130661, "lat": 59.2365581, "lon": 17.982895, "tags": {"amenity": "bank", "atm": "yes", "brand": "SEB", "brand:wikidata": "Q975655", "brand:wikipedia": "en:SEB Group", "name": "SEB", "operator": "SEB"}}, {"type": "node", "id": 496130663, "lat": 59.2365644, "lon": 17.9832458, "tags": {"amenity": "bank", "atm": "yes", "brand": "Handelsbanken", "brand:wikidata": "Q1421630", "brand:wikipedia": "en:Handelsbanken", "name": "Handelsbanken", "operator": "Handelsbanken"}}, {"type": "node", "id": 503503178, "lat": 59.339717, "lon": 18.0361503, "tags": {"amenity": "bank", "brand": "Handelsbanken", "brand:wikidata": "Q1421630", "brand:wikipedia": "en:Handelsbanken", "check_date": "2023-08-27", "email": "st.eriksplan@handelsbanken.se", "name": "Handelsbanken", "opening_hours": "Mo-Fr 10:00-15:00", "operator": "Handelsbanken", "phone": "08-30 18 30", "website": "https://www.handelsbanken.se/sv/hitta-bankkontor/st-eriksplan", "wheelchair": "yes"}}, {"type": "node", "id": 534287859, "lat": 59.3016475, "lon": 18.0127287, "tags": {"amenity": "atm", "currency:SEK": "yes"}}, {"type": "node", "id": 552457309, "lat": 59.3078043, "lon": 18.0748987, "tags": {"amenity": "bank", "atm": "yes", "brand": "Swedbank", "brand:wikidata": "Q1145493", "brand:wikipedia": "en:Swedbank", "name": "Swedbank", "operator": "Swedbank", "wheelchair": "yes"}}, {"type": "node", "id": 566438137, "lat": 59.3386859, "lon": 17.9395303, "tags": {"amenity": "bank", "atm": "yes", "brand": "SEB", "brand:wikidata": "Q975655", "brand:wikipedia": "en:SEB Group", "name": "SEB", "opening_hours": "\"Endast tidsbokning\""}}, {"type": "node", "id": 623258920, "lat": 59.3339872, "lon": 18.0160289, "tags": {"amenity": "atm", "check_date": "2022-01-10"}}, {"type": "node", "id": 637944251, "lat": 59.262201, "lon": 18.014789, "tags": {"amenity": "atm", "cash_in": "no", "check_date": "2022-03-19", "operator": "Bankomat AB"}}, {"type": "node", "id": 639151754, "lat": 59.2968326, "lon": 18.0527491, "tags": {"amenity": "atm", "check_date": "2022-11-24", "operator": "Den Danske Bank"}}, {"type": "node", "id": 639151764, "lat": 59.2962957, "lon": 18.0523241, "tags": {"amenity": "atm", "operator": "ICA-banken", "wheelchair": "yes"}}, {"type": "node", "id": 672748863, "lat": 59.31607, "lon": 18.0118016, "tags": {"amenity": "atm", "wheelchair": "limited"}}, {"type": "node", "id": 703981106, "lat": 59.2794755, "lon": 18.008769, "tags": {"amenity": "atm", "cash_in": "no", "check_date": "2022-03-28", "operator": "Handelsbanken"}}, {"type": "node", "id": 735442437, "lat": 59.2940285, "lon": 18.0320259, "tags": {"addr:country": "SE", "addr:housenumber": "11", "addr:street": "Brunnbyv\u00e4gen", "amenity": "bank", "brand": "Handelsbanken", "brand:wikidata": "Q1421630", "brand:wikipedia": "en:Handelsbanken", "name": "Handelsbanken"}}, {"type": "node", "id": 736797470, "lat": 59.2942604, "lon": 18.0803557, "tags": {"addr:country": "SE", "addr:housenumber": "47", "addr:street": "Arenav\u00e4gen", "amenity": "bank", "atm": "yes", "brand": "SEB", "brand:wikidata": "Q975655", "name": "SEB", "operator": "SEB", "wheelchair": "yes"}}, {"type": "node", "id": 736797486, "lat": 59.2942091, "lon": 18.0803792, "tags": {"amenity": "atm", "operator": "SEB", "wheelchair": "yes"}}, {"type": "node", "id": 772222405, "lat": 59.4039661, "lon": 17.9426567, "tags": {"amenity": "atm", "level": "0", "wheelchair": "yes"}}, {"type": "node", "id": 776659917, "lat": 59.3418973, "lon": 18.0378874, "tags": {"amenity": "atm", "brand": "Bankomat", "check_date": "2020-04-30", "operator": "Swedbank"}}, {"type": "node", "id": 842452671, "lat": 59.3128222, "lon": 18.0577945, "tags": {"amenity": "atm", "wheelchair": "yes"}}, {"type": "node", "id": 868861451, "lat": 59.2570076, "lon": 18.0817062, "tags": {"amenity": "atm", "operator": "Handelsbanken"}}, {"type": "node", "id": 916675110, "lat": 59.2850476, "lon": 18.0931571, "tags": {"amenity": "atm", "cash_in": "no", "check_date": "2024-03-02", "indoor": "no", "operator": "Swedbank"}}, {"type": "node", "id": 918532200, "lat": 59.3975556, "lon": 18.0892749, "tags": {"addr:city": "Djursholm", "addr:country": "SE", "addr:housenumber": "10", "addr:street": "Vendev\u00e4gen", "amenity": "bank", "atm": "yes", "brand": "Handelsbanken", "brand:wikidata": "Q1421630", "brand:wikipedia": "en:Handelsbanken", "name": "Handelsbanken", "operator": "Handelsbanken", "source": "survey"}}, {"type": "node", "id": 918591706, "lat": 59.3971481, "lon": 18.0371599, "tags": {"amenity": "bank", "atm": "yes", "brand": "Swedbank", "brand:wikidata": "Q1145493", "brand:wikipedia": "en:Swedbank", "name": "Swedbank", "source": "survey"}}, {"type": "node", "id": 934861155, "lat": 59.3846903, "lon": 18.0579983, "tags": {"amenity": "atm", "operator": "SEB"}}, {"type": "node", "id": 1082743130, "lat": 59.2774668, "lon": 18.1332235, "tags": {"amenity": "atm"}}, {"type": "node", "id": 1090537316, "lat": 59.3365356, "lon": 18.0785816, "tags": {"amenity": "bank", "atm": "yes", "brand": "SEB", "brand:wikidata": "Q975655", "brand:wikipedia": "en:SEB Group", "name": "SEB", "operator": "SEB"}}, {"type": "node", "id": 1126903215, "lat": 59.3184925, "lon": 18.0603948, "tags": {"amenity": "atm", "brand": "Handelsbanken", "brand:wikidata": "Q1421630", "cash_in": "no", "indoor": "no", "name": "Handelsbanken", "operator": "Handelsbanken", "operator:wikidata": "Q1421630"}}, {"type": "node", "id": 1161921154, "lat": 59.3103674, "lon": 18.021813, "tags": {"amenity": "atm", "operator": "Nordea"}}, {"type": "node", "id": 1168324704, "lat": 59.4456584, "lon": 18.070283, "tags": {"amenity": "atm", "fixme": "did I mistakenly tag atm instead of post box here? I do not see it on recent photo outside", "source": "survey"}}, {"type": "node", "id": 1193160099, "lat": 59.2423997, "lon": 18.0929269, "tags": {"addr:country": "SE", "addr:housenumber": "46", "addr:street": "Storforsplan", "amenity": "bank", "brand": "Handelsbanken", "brand:wikidata": "Q1421630", "brand:wikipedia": "en:Handelsbanken", "name": "Handelsbanken"}}, {"type": "node", "id": 1193166668, "lat": 59.2425493, "lon": 18.092656, "tags": {"amenity": "atm"}}, {"type": "node", "id": 1202971230, "lat": 59.3643023, "lon": 17.9951898, "tags": {"amenity": "atm", "check_date": "2023-06-19", "description": "\u00f6stg\u00f6ta Enskilda", "source": "survey"}}, {"type": "node", "id": 1204403063, "lat": 59.3486543, "lon": 18.101006, "tags": {"amenity": "bank", "atm": "yes", "brand": "Handelsbanken", "brand:wikidata": "Q1421630", "brand:wikipedia": "en:Handelsbanken", "currency:EUR": "no", "name": "Handelsbanken", "operator": "Handelsbanken", "website": "http://handelsbanken.se"}}, {"type": "node", "id": 1213866497, "lat": 59.2429703, "lon": 18.0892349, "tags": {"addr:country": "SE", "addr:housenumber": "12", "addr:street": "Farstaplan", "amenity": "bank", "atm": "yes", "brand": "SEB", "brand:wikidata": "Q975655", "brand:wikipedia": "en:SEB Group", "name": "SEB", "opening_hours": "Mo-Th 10:00-18:00; Fr 10:00-15:00"}}, {"type": "node", "id": 1213866623, "lat": 59.2429246, "lon": 18.0893273, "tags": {"amenity": "atm", "operator": "seb"}}, {"type": "node", "id": 1233864683, "lat": 59.2418004, "lon": 18.0904104, "tags": {"addr:country": "SE", "addr:housenumber": "28", "addr:street": "Farstag\u00e5ngen", "amenity": "bank", "atm": "yes", "brand": "Nordea", "brand:wikidata": "Q1123823", "brand:wikipedia": "en:Nordea", "name": "Nordea", "opening_hours": "Mo-Fr 10:00-15:00"}}, {"type": "node", "id": 1246189039, "lat": 59.3192854, "lon": 18.0709193, "tags": {"amenity": "bank", "atm": "yes", "brand": "Handelsbanken", "brand:wikidata": "Q1421630", "brand:wikipedia": "en:Handelsbanken", "name": "Handelsbanken", "opening_hours": "Mo-We 09:30-16:00;Th 09:30-18:00;Fr 09:30-15:00;Sa-Su off", "operator": "Handelsbanken", "phone": "+46-8-4522980", "website": "http://handelsbanken.se"}}, {"type": "node", "id": 1251653371, "lat": 59.4454879, "lon": 17.9660349, "tags": {"amenity": "atm"}}, {"type": "node", "id": 1256871364, "lat": 59.3085154, "lon": 18.0764943, "tags": {"amenity": "bank", "brand": "Handelsbanken", "brand:wikidata": "Q1421630", "brand:wikipedia": "en:Handelsbanken", "name": "Handelsbanken", "opening_hours": "Mo 09:30-18:00; Tu 09:30-16:00; We 09:30-18:00; Th 09:30-16:00; Fr 09:30-15:00; Sa 10:00-14:00; Su off", "operator": "Handelsbanken", "phone": "+46-8-452 00 00", "website": "http://handelsbanken.se", "wheelchair": "yes"}}, {"type": "node", "id": 1278506327, "lat": 59.2978693, "lon": 18.0794082, "tags": {"amenity": "bank", "brand": "Swedbank", "brand:wikidata": "Q1145493", "brand:wikipedia": "en:Swedbank", "name": "Swedbank", "opening_hours": "Mo 10:00-18:00; Tu-Fr 10:00-15:00", "wheelchair": "yes"}}, {"type": "node", "id": 1278519621, "lat": 59.2953021, "lon": 18.0804303, "tags": {"addr:country": "SE", "addr:housenumber": "33", "addr:street": "Arenav\u00e4gen", "amenity": "bank", "brand": "Nordea", "brand:wikidata": "Q1123823", "brand:wikipedia": "en:Nordea", "name": "Nordea"}}, {"type": "node", "id": 1278519624, "lat": 59.2957965, "lon": 18.0804062, "tags": {"addr:country": "SE", "addr:housenumber": "27", "addr:street": "Arenav\u00e4gen", "amenity": "bank", "brand": "Danske Bank", "brand:wikidata": "Q1636974", "brand:wikipedia": "en:Danske Bank", "name": "Danske Bank", "operator": "Danske Bank"}}, {"type": "node", "id": 1278525429, "lat": 59.2945568, "lon": 18.08036, "tags": {"addr:country": "SE", "addr:housenumber": "41", "addr:street": "Arenav\u00e4gen", "amenity": "bank", "brand": "Handelsbanken", "brand:wikidata": "Q1421630", "brand:wikipedia": "en:Handelsbanken", "name": "Handelsbanken", "opening_hours": "Mo-Fr 10:00-15:00", "wheelchair": "yes"}}, {"type": "node", "id": 1327385727, "lat": 59.4307153, "lon": 18.0958502, "tags": {"amenity": "atm", "operator": "SEB", "source": "survey"}}, {"type": "node", "id": 1334429728, "lat": 59.2362414, "lon": 17.9806973, "tags": {"amenity": "atm", "check_date": "2021-02-21", "operator": "Kontanten"}}, {"type": "node", "id": 1348515191, "lat": 59.3107781, "lon": 18.0753237, "tags": {"amenity": "atm", "cash_in": "yes", "operator": "Kontanten"}}, {"type": "node", "id": 1348515285, "lat": 59.3083913, "lon": 18.0759266, "tags": {"amenity": "atm", "brand": "Nordea", "brand:wikidata": "Q1123823", "name": "Nordea", "opening_hours": "24/7", "operator": "Nordea", "operator:wikidata": "Q1123823"}}, {"type": "node", "id": 1515233553, "lat": 59.3403795, "lon": 17.9388389, "tags": {"amenity": "bank", "brand": "Nordea", "brand:wikidata": "Q1123823", "brand:wikipedia": "en:Nordea", "name": "Nordea"}}, {"type": "node", "id": 1515234755, "lat": 59.3395657, "lon": 17.9382381, "tags": {"amenity": "bank", "brand": "Handelsbanken", "brand:wikidata": "Q1421630", "brand:wikipedia": "en:Handelsbanken", "name": "Handelsbanken"}}, {"type": "node", "id": 1547109965, "lat": 59.3375581, "lon": 17.9374742, "tags": {"amenity": "bank", "atm": "yes", "brand": "Swedbank", "brand:wikidata": "Q1145493", "brand:wikipedia": "en:Swedbank", "name": "Swedbank"}}, {"type": "node", "id": 1557691525, "lat": 59.2931824, "lon": 17.9672305, "tags": {"amenity": "bank", "brand": "Handelsbanken", "brand:wikidata": "Q1421630", "brand:wikipedia": "en:Handelsbanken", "name": "Handelsbanken"}}, {"type": "node", "id": 1606940054, "lat": 59.314397, "lon": 18.0713393, "tags": {"amenity": "atm", "brand": "SEB", "brand:wikidata": "Q975655", "cash_in": "no", "name": "SEB", "operator": "SEB", "operator:wikidata": "Q975655"}}, {"type": "node", "id": 1690330076, "lat": 59.3635772, "lon": 18.0579974, "tags": {"amenity": "atm", "operator": "Bankomat", "source": "suvey"}}, {"type": "node", "id": 1716393551, "lat": 59.3359534, "lon": 18.0963495, "tags": {"amenity": "atm", "operator": "SEB"}}, {"type": "node", "id": 1716951589, "lat": 59.3390923, "lon": 18.0820588, "tags": {"amenity": "atm", "operator": "SEB"}}, {"type": "node", "id": 1767975830, "lat": 59.3394125, "lon": 18.0052293, "tags": {"amenity": "bank", "brand": "Handelsbanken", "brand:wikidata": "Q1421630", "brand:wikipedia": "en:Handelsbanken", "name": "Handelsbanken", "opening_hours": "Mo-Tu 09:30-16:00;We 09:30-18:30;Th 09:30-16:00;Fr 09:30-15:00;Sa-Su off", "operator": "Handelsbanken", "phone": "+46-8-6664100", "website": "http://handelsbanken.se"}}, {"type": "node", "id": 1768150728, "lat": 59.2953794, "lon": 18.1004768, "tags": {"amenity": "atm", "operator": "Bankomat"}}, {"type": "node", "id": 1768150729, "lat": 59.2951439, "lon": 18.102724, "tags": {"amenity": "atm"}}, {"type": "node", "id": 1778361712, "lat": 59.3228756, "lon": 18.0714956, "tags": {"amenity": "bank", "atm": "yes", "brand": "Handelsbanken", "brand:wikidata": "Q1421630", "brand:wikipedia": "en:Handelsbanken", "name": "Handelsbanken", "opening_hours": "Mo 09:30-18:00;Tu-Th 09:30-16:00;Fr 09:30-15:00;Sa-Su off", "operator": "Handelsbanken", "phone": "+46-8-54521340", "website": "http://handelsbanken.se"}}, {"type": "node", "id": 1835736847, "lat": 59.2175406, "lon": 18.15368, "tags": {"amenity": "atm", "operator": "Nordea"}}, {"type": "node", "id": 1848234994, "lat": 59.396944, "lon": 17.949474, "tags": {"amenity": "atm"}}, {"type": "node", "id": 1879690778, "lat": 59.3061848, "lon": 18.0012876, "tags": {"amenity": "atm"}}, {"type": "node", "id": 1914071632, "lat": 59.2793412, "lon": 18.0089327, "tags": {"addr:city": "\u00c4lvsj\u00f6", "addr:country": "SE", "addr:housenumber": "220", "addr:postcode": "12544", "addr:street": "G\u00f6talandsv\u00e4gen", "amenity": "bank", "brand": "Handelsbanken", "brand:wikidata": "Q1421630", "brand:wikipedia": "en:Handelsbanken", "internet_access": "yes", "name": "Handelsbanken", "opening_hours": "Mo-Fr 10:00-15:00", "payment:cash": "no", "phone": "+46 8 556 205 20", "website": "https://www.handelsbanken.se/sv/hitta-bankkontor/alvsjo"}}, {"type": "node", "id": 1951128816, "lat": 59.342569, "lon": 18.1128653, "tags": {"amenity": "bank", "brand": "Handelsbanken", "brand:wikidata": "Q1421630", "brand:wikipedia": "en:Handelsbanken", "name": "Handelsbanken", "opening_hours": "Mo 09:30-16:30;Tu-Th 09:00-16:30;Fr 09:00-16:00", "operator": "Handelsbanken", "phone": "+46854583480", "website": "http://handelsbanken.se"}}, {"type": "node", "id": 1968682205, "lat": 59.274273, "lon": 18.0580019, "tags": {"addr:country": "SE", "addr:housenumber": "244", "addr:street": "Sk\u00f6nviksv\u00e4gen", "amenity": "bank", "brand": "Handelsbanken", "brand:wikidata": "Q1421630", "brand:wikipedia": "en:Handelsbanken", "name": "Handelsbanken", "opening_hours": "Mo-Th 16:00-19:00", "operator": "Handelsbanken"}}, {"type": "node", "id": 1983296343, "lat": 59.255711, "lon": 18.1144856, "tags": {"addr:country": "SE", "addr:housenumber": "89", "addr:street": "Sk\u00f6ndalsv\u00e4gen", "amenity": "bank", "brand": "Handelsbanken", "brand:wikidata": "Q1421630", "brand:wikipedia": "en:Handelsbanken", "name": "Handelsbanken", "opening_hours": "Mo-Tu,Th 10:00-16:00; We 10:00-19:00; Fr 10:00-14:00", "url": "http://www.handelsbanken.se/skondal"}}, {"type": "node", "id": 2015566397, "lat": 59.3298824, "lon": 18.0736659, "tags": {"amenity": "bank", "brand": "Handelsbanken", "brand:wikidata": "Q1421630", "brand:wikipedia": "en:Handelsbanken", "name": "Handelsbanken", "operator": "Handelsbanken", "website": "http://handelsbanken.se"}}, {"type": "node", "id": 2099194346, "lat": 59.3047317, "lon": 17.9745111, "tags": {"amenity": "atm"}}, {"type": "node", "id": 2105619157, "lat": 59.4032675, "lon": 17.9471934, "tags": {"amenity": "bank", "atm": "yes", "brand": "SEB", "brand:wikidata": "Q975655", "brand:wikipedia": "en:SEB Group", "name": "SEB", "operator": "SEB", "source": "local_knowledge", "wheelchair": "yes"}}, {"type": "node", "id": 2105619163, "lat": 59.4034216, "lon": 17.94763, "tags": {"amenity": "bank", "atm": "yes", "brand": "Nordea", "brand:wikidata": "Q1123823", "brand:wikipedia": "en:Nordea", "name": "Nordea", "operator": "Nordea", "source": "local_knowledge"}}, {"type": "node", "id": 2105619167, "lat": 59.4037291, "lon": 17.9485121, "tags": {"amenity": "bank", "atm": "yes", "operator": "Swedbank", "source": "local_knowledge"}}, {"type": "node", "id": 2165044340, "lat": 59.4627054, "lon": 18.1342859, "tags": {"amenity": "atm", "operator": "ICA Banken", "source": "survey"}}, {"type": "node", "id": 2229410700, "lat": 59.33712, "lon": 18.009719, "tags": {"amenity": "atm"}}, {"type": "node", "id": 2288368325, "lat": 59.2951308, "lon": 17.9347848, "tags": {"amenity": "atm", "operator": "Bankomat", "source": "survey", "survey:date": "2013-05-01"}}, {"type": "node", "id": 2380152304, "lat": 59.4451767, "lon": 18.069491, "tags": {"amenity": "bank", "brand": "SEB", "brand:wikidata": "Q975655", "brand:wikipedia": "en:SEB Group", "name": "SEB", "opening_hours": "\"by appointment\"", "operator": "SEB", "wheelchair": "no"}}, {"type": "node", "id": 2396256817, "lat": 59.2941364, "lon": 18.0803118, "tags": {"amenity": "atm"}}, {"type": "node", "id": 2396256818, "lat": 59.2939051, "lon": 18.0804868, "tags": {"amenity": "atm", "check_date": "2024-03-08"}}, {"type": "node", "id": 2398801009, "lat": 59.3495757, "lon": 18.1461211, "tags": {"amenity": "atm"}}, {"type": "node", "id": 2415637911, "lat": 59.3053987, "lon": 18.1278259, "tags": {"addr:city": "Nacka", "addr:country": "SE", "addr:housenumber": "6", "addr:street": "Siroccogatan", "amenity": "bank", "name": "L\u00e4nsf\u00f6rs\u00e4kringar"}}, {"type": "node", "id": 2421944656, "lat": 59.4456752, "lon": 17.9656028, "tags": {"amenity": "atm", "operator": "ICA-banken"}}, {"type": "node", "id": 2489815978, "lat": 59.3419506, "lon": 18.0639903, "tags": {"amenity": "atm", "check_date": "2024-01-04", "indoor": "yes", "operator": "Nokas"}}, {"type": "node", "id": 2493131751, "lat": 59.2505302, "lon": 18.011409, "tags": {"amenity": "atm", "cash_in": "no", "check_date": "2022-05-19", "operator": "Kontanten"}}, {"type": "node", "id": 2493835568, "lat": 59.324383, "lon": 18.0964779, "tags": {"amenity": "atm"}}, {"type": "node", "id": 2504993313, "lat": 59.3055703, "lon": 18.128093, "tags": {"addr:country": "SE", "addr:housenumber": "4", "addr:street": "Siroccogatan", "amenity": "bank", "atm": "no", "drive_through": "no", "name": "Change Money", "operator": "ChangeGroup", "website": "https://se.changegroup.com/se/"}}, {"type": "node", "id": 2504994785, "lat": 59.3049405, "lon": 18.1312789, "tags": {"amenity": "atm", "operator": "L\u00e4nsf\u00f6rs\u00e4kringar"}}, {"type": "node", "id": 2507156919, "lat": 59.359462, "lon": 17.9736605}, {"type": "node", "id": 2507156920, "lat": 59.3597903, "lon": 17.9738313}, {"type": "node", "id": 2507156923, "lat": 59.358672, "lon": 17.9759449}, {"type": "node", "id": 2507156924, "lat": 59.3585285, "lon": 17.9749498}, {"type": "node", "id": 2507156927, "lat": 59.3586693, "lon": 17.9748653}, {"type": "node", "id": 2507156929, "lat": 59.358927, "lon": 17.9744455}, {"type": "node", "id": 2507156930, "lat": 59.3591259, "lon": 17.9743785}, {"type": "node", "id": 2522005852, "lat": 59.3025329, "lon": 18.1029307, "tags": {"addr:housenumber": "21", "addr:street": "Lugnets alle", "amenity": "atm", "currency:SEK": "yes", "email": "kundtjanst@kontanten.se", "name": "Kontanten", "operator": "Kontanten", "phone": "+46 8 20 07 50", "wheelchair": "yes"}}, {"type": "node", "id": 2523168800, "lat": 59.3056751, "lon": 18.1226532, "tags": {"addr:city": "Nacka", "addr:country": "SE", "addr:housenumber": "2C", "addr:street": "Smedjegatan", "amenity": "bank", "brand": "Swedbank", "brand:wikidata": "Q1145493", "brand:wikipedia": "en:Swedbank", "name": "Swedbank", "opening_hours": "Mo-Fr 10:00-15:00", "postal_code": "13154", "website": "https://www.swedbank.se/"}}, {"type": "node", "id": 2528957906, "lat": 59.305874, "lon": 18.1251942, "tags": {"amenity": "atm", "cash_in": "yes", "drive_through": "no", "level": "0", "operator": "Bankomat"}}, {"type": "node", "id": 2554667726, "lat": 59.3431756, "lon": 18.0495781, "tags": {"amenity": "bank", "atm": "yes", "brand": "Swedbank", "brand:wikidata": "Q1145493", "brand:wikipedia": "en:Swedbank", "check_date": "2022-07-05", "name": "Swedbank", "operator": "Swedbank"}}, {"type": "node", "id": 2560497600, "lat": 59.2632054, "lon": 18.0430165, "tags": {"amenity": "atm", "check_date": "2023-10-25"}}, {"type": "node", "id": 2571793095, "lat": 59.332741, "lon": 17.9826197, "tags": {"amenity": "bank", "atm": "yes", "brand": "Handelsbanken", "brand:wikidata": "Q1421630", "brand:wikipedia": "en:Handelsbanken", "name": "Handelsbanken", "operator": "Handelsbanken", "website": "http://handelsbanken.se"}}, {"type": "node", "id": 2571793116, "lat": 59.3330379, "lon": 17.9807006, "tags": {"amenity": "bank", "atm": "yes", "brand": "Swedbank", "brand:wikidata": "Q1145493", "brand:wikipedia": "en:Swedbank", "name": "Swedbank"}}, {"type": "node", "id": 2593118922, "lat": 59.3155411, "lon": 18.2290722, "tags": {"amenity": "atm"}}, {"type": "node", "id": 2608542304, "lat": 59.2435655, "lon": 18.0926173, "tags": {"amenity": "atm", "check_date": "2022-03-20", "operator": "Bankomat AB"}}, {"type": "node", "id": 2608556924, "lat": 59.4455227, "lon": 18.0714635, "tags": {"amenity": "atm", "note": "More than one operator probably. The ATM doesn't specify which bank it belongs to, but tried with Swedbank and it worked.", "operator": "Swedbank"}}, {"type": "node", "id": 2637644590, "lat": 59.4268634, "lon": 17.9525197, "tags": {"amenity": "bank", "atm": "yes", "brand": "Handelsbanken", "brand:wikidata": "Q1421630", "brand:wikipedia": "en:Handelsbanken", "name": "Handelsbanken"}}, {"type": "node", "id": 2653577092, "lat": 59.4042842, "lon": 17.9436089, "tags": {"amenity": "atm", "brand": "Bankomat", "level": "0", "name": "Bankomat", "wheelchair": "yes"}}, {"type": "node", "id": 2756372259, "lat": 59.332412, "lon": 18.0613289, "tags": {"amenity": "atm", "check_date": "2023-11-24", "name": "Bankomat"}}, {"type": "node", "id": 2763463867, "lat": 59.3499933, "lon": 17.9865957, "tags": {"amenity": "atm"}}, {"type": "node", "id": 2826938369, "lat": 59.3464839, "lon": 18.0338965, "tags": {"amenity": "atm", "cash_in": "no", "check_date": "2022-12-27", "name": "Kontanten"}}, {"type": "node", "id": 3333996243, "lat": 59.3672194, "lon": 18.0054979, "tags": {"addr:country": "SE", "addr:housenumber": "8", "addr:street": "Dalv\u00e4gen", "amenity": "atm", "cash_in": "no", "currency:SEK": "yes", "name": "Kontanten", "opening_hours": "24/7", "operator": "Nokasgruppen"}}, {"type": "node", "id": 3402753473, "lat": 59.3540947, "lon": 18.0874924, "tags": {"amenity": "bank", "brand": "Handelsbanken", "brand:wikidata": "Q1421630", "brand:wikipedia": "en:Handelsbanken", "name": "Handelsbanken", "operator": "Handelsbanken", "website": "http://handelsbanken.se", "wheelchair": "yes"}}, {"type": "node", "id": 3599738969, "lat": 59.4307297, "lon": 17.9501644, "tags": {"amenity": "bank", "brand": "Swedbank", "brand:wikidata": "Q1145493", "brand:wikipedia": "en:Swedbank", "name": "Swedbank"}}, {"type": "node", "id": 3704238727, "lat": 59.3490579, "lon": 18.1456588, "tags": {"addr:city": "Liding\u00f6", "addr:country": "SE", "addr:housenumber": "5", "addr:postcode": "18104", "addr:street": "Larsbergstorget", "amenity": "bank", "atm": "yes", "brand": "Handelsbanken", "brand:wikidata": "Q1421630", "brand:wikipedia": "en:Handelsbanken", "name": "Handelsbanken", "opening_hours": "Mo-Tu 9:30-16:00,We 09:30-19:00; Th-Fr 09:30-16:00", "operator": "Handelsbanken", "website": "http://handelsbanken.se"}}, {"type": "node", "id": 3723792936, "lat": 59.2834, "lon": 18.114234, "tags": {"amenity": "atm", "atm": "yes"}}, {"type": "node", "id": 3764249692, "lat": 59.3328198, "lon": 18.0723754, "tags": {"amenity": "bank", "name": "SEB"}}, {"type": "node", "id": 3771989175, "lat": 59.3504228, "lon": 17.9599532, "tags": {"amenity": "bank", "atm": "no", "brand": "Handelsbanken", "brand:wikidata": "Q1421630", "brand:wikipedia": "en:Handelsbanken", "name": "Handelsbanken", "operator": "Handelsbanken", "website": "http://handelsbanken.se"}}, {"type": "node", "id": 3790019711, "lat": 59.4820599, "lon": 18.2818775, "tags": {"amenity": "atm", "operator": "Bankomat", "source": "survey"}}, {"type": "node", "id": 3793214962, "lat": 59.2749728, "lon": 18.0129349, "tags": {"amenity": "atm"}}, {"type": "node", "id": 3888791925, "lat": 59.4280337, "lon": 17.9447245, "tags": {"addr:city": "Sollentuna", "addr:country": "SE", "addr:housenumber": "12B", "addr:postcode": "191 60", "addr:street": "Tusbystr\u00e5ket", "amenity": "bank", "name": "Galaxy Level", "opening_hours": "Mo-Su 10:00-20:00", "operator": "Small World / Ria Money Transfer"}}, {"type": "node", "id": 4013808465, "lat": 59.3455718, "lon": 18.0713672, "tags": {"amenity": "atm", "cash_in": "no", "check_date": "2022-07-06", "level": "-1", "operator": "Bankomat AB"}}, {"type": "node", "id": 4140924941, "lat": 59.2278225, "lon": 18.1319756, "tags": {"amenity": "bank", "brand": "Handelsbanken", "brand:wikidata": "Q1421630", "brand:wikipedia": "en:Handelsbanken", "name": "Handelsbanken"}}, {"type": "node", "id": 4362991519, "lat": 59.3761375, "lon": 17.9408507, "tags": {"amenity": "atm", "check_date": "2021-11-09", "name": "Bankomat"}}, {"type": "node", "id": 4525403610, "lat": 59.3116735, "lon": 18.1968694, "tags": {"amenity": "atm"}}, {"type": "node", "id": 4541555454, "lat": 59.3048065, "lon": 18.1307477, "tags": {"amenity": "atm"}}, {"type": "node", "id": 4696094267, "lat": 59.3566498, "lon": 17.951642, "tags": {"amenity": "atm", "check_date": "2021-03-04", "operator": "Kontanten AB"}}, {"type": "node", "id": 4746799860, "lat": 59.3113904, "lon": 18.2020417, "tags": {"amenity": "atm"}}, {"type": "node", "id": 4882050123, "lat": 59.3533298, "lon": 17.9974091, "tags": {"amenity": "atm", "check_date": "2022-03-03", "opening_hours": "24/7", "operator": "Kontanten"}}, {"type": "node", "id": 5245925650, "lat": 59.3100024, "lon": 18.0285804, "tags": {"amenity": "bank", "brand": "Handelsbanken", "brand:wikidata": "Q1421630", "brand:wikipedia": "en:Handelsbanken", "name": "Handelsbanken"}}, {"type": "node", "id": 5248382079, "lat": 59.3095461, "lon": 18.0281876, "tags": {"amenity": "bank", "brand": "Danske Bank", "brand:wikidata": "Q1636974", "brand:wikipedia": "en:Danske Bank", "name": "Danske Bank", "operator": "Danske Bank"}}, {"type": "node", "id": 5416718222, "lat": 59.3617689, "lon": 17.9654688, "tags": {"amenity": "atm", "check_date": "2023-02-23", "operator": "Bankomat"}}, {"type": "node", "id": 5433633514, "lat": 59.2662358, "lon": 18.132808, "tags": {"amenity": "atm", "check_date": "2023-09-17", "operator": "Kontanten", "wheelchair": "yes"}}, {"type": "node", "id": 5549503854, "lat": 59.3088995, "lon": 18.1650237, "tags": {"amenity": "atm", "level": "-1"}}, {"type": "node", "id": 5549536421, "lat": 59.3089699, "lon": 18.1660056, "tags": {"amenity": "bank", "email": "nacka@handelsbanken.se", "name": "Handelsbanken Nacka", "phone": "+46 08-666 42 40", "website": "https://www.handelsbanken.se/sv/hitta-bankkontor/nacka-forum"}}, {"type": "node", "id": 5549601049, "lat": 59.3100161, "lon": 18.1645566, "tags": {"amenity": "bank", "level": "2", "name": "Forex"}}, {"type": "node", "id": 5906664864, "lat": 59.3399706, "lon": 18.0917156, "tags": {"amenity": "atm", "level": "0", "operator": "Bankomat"}}, {"type": "node", "id": 5922268748, "lat": 59.2990118, "lon": 18.0813986, "tags": {"amenity": "atm", "check_date": "2023-08-15"}}, {"type": "node", "id": 5969701386, "lat": 59.4351093, "lon": 18.0767484, "tags": {"amenity": "atm"}}, {"type": "node", "id": 6597652085, "lat": 59.3816231, "lon": 18.0342922, "tags": {"amenity": "atm", "check_date": "2023-07-10"}}, {"type": "node", "id": 6680289213, "lat": 59.3690755, "lon": 18.0180791, "tags": {"amenity": "bank", "name": "L\u00e4nsf\u00f6rs\u00e4kringar Stockholm", "opening_hours": "Mo-Fr 10:00-14:00", "phone": "+46 8-562 830 00", "website": "https://www.lansforsakringar.se/stockholm/om-oss/kontakta-oss/123842/"}}, {"type": "node", "id": 6747293548, "lat": 59.3054298, "lon": 18.1281016, "tags": {"amenity": "atm", "check_date": "2022-08-13"}}, {"type": "node", "id": 6859073169, "lat": 59.3305803, "lon": 18.0574288, "tags": {"amenity": "atm", "cash_in": "yes", "check_date": "2023-08-25", "level": "0", "name": "Bankomat"}}, {"type": "node", "id": 6859073170, "lat": 59.3305742, "lon": 18.0574359, "tags": {"amenity": "atm", "cash_in": "yes", "check_date": "2023-08-25", "level": "0", "name": "Bankomat"}}, {"type": "node", "id": 6864114953, "lat": 59.2938521, "lon": 18.0807534, "tags": {"amenity": "bank", "name": "Svenska Spel"}}, {"type": "node", "id": 6864114958, "lat": 59.2957782, "lon": 18.0804151, "tags": {"amenity": "bank", "name": "L\u00e4nsf\u00f6rs\u00e4kringar Stockholm"}}, {"type": "node", "id": 6865724370, "lat": 59.3700863, "lon": 18.0046472, "tags": {"amenity": "atm", "check_date": "2019-12-17", "level": "0"}}, {"type": "node", "id": 6865777343, "lat": 59.3709282, "lon": 18.0032463, "tags": {"amenity": "atm", "brand": "Bankomat", "cash_in": "no", "check_date": "2022-08-23", "level": "0", "name": "Bankomat"}}, {"type": "node", "id": 6908300485, "lat": 59.3058787, "lon": 18.1252582, "tags": {"amenity": "atm", "cash_in": "no", "drive_through": "no", "level": "0", "operator": "Bankomat"}}, {"type": "node", "id": 6935885842, "lat": 59.4437266, "lon": 18.0720487, "tags": {"amenity": "atm", "indoor": "no", "opening_hours": "24/7"}}, {"type": "node", "id": 6987836479, "lat": 59.361193, "lon": 17.9663621, "tags": {"amenity": "atm", "cash_in": "no", "check_date": "2024-01-03", "indoor": "yes", "name": "ICA banken"}}, {"type": "node", "id": 6990384908, "lat": 59.3233984, "lon": 18.068117, "tags": {"amenity": "atm", "check_date": "2023-12-30", "level": "-1"}}, {"type": "node", "id": 6992586701, "lat": 59.4019314, "lon": 17.9461146, "tags": {"amenity": "atm", "brand": "SEB", "brand:wikidata": "Q975655", "level": "0", "operator": "SEB", "operator:wikidata": "Q975655"}}, {"type": "node", "id": 7022341124, "lat": 59.3705442, "lon": 18.0024089, "tags": {"amenity": "atm", "check_date": "2020-11-23", "level": "1"}}, {"type": "node", "id": 7040473211, "lat": 59.3612546, "lon": 17.9664038, "tags": {"amenity": "bank", "brand": "Handelsbanken", "brand:wikidata": "Q1421630", "brand:wikipedia": "en:Handelsbanken", "check_date": "2023-04-12", "name": "Handelsbanken"}}, {"type": "node", "id": 7040554328, "lat": 59.3589304, "lon": 18.0000067, "tags": {"amenity": "atm", "brand": "Bankomat", "level": "0", "operator": "Bankomat", "wheelchair": "yes"}}, {"type": "node", "id": 7040554329, "lat": 59.3591641, "lon": 18.0000302, "tags": {"amenity": "bank", "atm": "yes", "brand": "Swedbank", "brand:wikidata": "Q1145493", "brand:wikipedia": "en:Swedbank", "check_date:opening_hours": "2022-12-05", "level": "0", "name": "Swedbank", "opening_hours": "Mo 10:00-18:00; Tu-Fr 10:00-15:00", "wheelchair": "yes"}}, {"type": "node", "id": 7069266949, "lat": 59.3323131, "lon": 18.0663503, "tags": {"amenity": "atm", "brand": "Bankomat", "check_date": "2020-01-05", "level": "3", "name": "Bankomat", "operator": "Bankomat"}}, {"type": "node", "id": 7076332707, "lat": 59.3700115, "lon": 18.0048042, "tags": {"amenity": "atm", "cash_in": "no", "check_date": "2019-12-21", "level": "1", "name": "Bankomat"}}, {"type": "node", "id": 7076940421, "lat": 59.3627849, "lon": 18.0112573, "tags": {"amenity": "atm", "cash_in": "yes", "currency:SEK": "yes", "drive_through": "no", "indoor": "yes", "level": "1", "opening_hours": "Mo-Sa 08:00-21:00; Su 09:00-21:00", "operator": "Bankomat"}}, {"type": "node", "id": 7076940423, "lat": 59.3627546, "lon": 18.0112373, "tags": {"amenity": "atm", "cash_in": "no", "currency:SEK": "yes", "drive_through": "no", "indoor": "yes", "level": "1", "opening_hours": "Mo-Sa 08:00-21:00; Su 09:00-21:00", "operator": "Bankomat"}}, {"type": "node", "id": 7077431995, "lat": 59.3597638, "lon": 18.0003637, "tags": {"amenity": "atm", "brand": "Bankomat", "cash_in": "no", "check_date": "2022-12-05", "level": "0", "note": "ta ut"}}, {"type": "node", "id": 7077431999, "lat": 59.3597733, "lon": 18.0004051, "tags": {"amenity": "atm", "brand": "Bankomat", "cash_in": "yes", "check_date": "2022-12-05", "level": "0", "note": "s\u00e4tt in och ta ut"}}, {"type": "node", "id": 7077432000, "lat": 59.3597542, "lon": 18.0003222, "tags": {"amenity": "atm", "brand": "Bankomat", "cash_in": "no", "check_date": "2022-12-05", "level": "0"}}, {"type": "node", "id": 7077432010, "lat": 59.3597829, "lon": 18.0004466, "tags": {"amenity": "atm", "brand": "Bankomat", "cash_in": "yes", "check_date": "2022-12-05", "level": "0", "note": "s\u00e4tt in och ta ut"}}, {"type": "node", "id": 7077432025, "lat": 59.360591, "lon": 17.9994117, "tags": {"amenity": "atm", "level": "0", "note": "i Hemk\u00f6p", "operator": "Nokas", "wheelchair": "yes"}}, {"type": "node", "id": 7089436955, "lat": 59.402571, "lon": 17.945197, "tags": {"amenity": "atm", "level": "0", "name": "Bankomat", "operator": "Bankomat"}}, {"type": "node", "id": 7089464658, "lat": 59.4027949, "lon": 17.9463404, "tags": {"amenity": "atm", "check_date": "2023-10-04", "level": "0", "name": "Bankomat"}}, {"type": "node", "id": 7089844644, "lat": 59.3425726, "lon": 18.0510792, "tags": {"amenity": "bank", "brand": "SEB", "brand:wikidata": "Q975655", "brand:wikipedia": "en:SEB Group", "check_date": "2022-06-30", "name": "SEB", "opening_hours": "\"Endast \u00f6ppet f\u00f6r tidsbokade m\u00f6ten\""}}, {"type": "node", "id": 7133867794, "lat": 59.3581628, "lon": 17.9810733, "tags": {"amenity": "atm", "cash_in": "no", "check_date": "2023-03-06", "operator": "ICA Banken"}}, {"type": "node", "id": 7162230637, "lat": 59.3596782, "lon": 17.9740807}, {"type": "node", "id": 7162230638, "lat": 59.3596522, "lon": 17.9740727}, {"type": "node", "id": 7162230639, "lat": 59.3595059, "lon": 17.974357}, {"type": "node", "id": 7162230640, "lat": 59.3595114, "lon": 17.9744294}, {"type": "node", "id": 7162230641, "lat": 59.3593432, "lon": 17.9747567}, {"type": "node", "id": 7162230642, "lat": 59.3593077, "lon": 17.9747432}, {"type": "node", "id": 7162230643, "lat": 59.3591587, "lon": 17.9750383}, {"type": "node", "id": 7162230644, "lat": 59.3591655, "lon": 17.9751107}, {"type": "node", "id": 7162230645, "lat": 59.3590521, "lon": 17.9753387}, {"type": "node", "id": 7162230646, "lat": 59.3589591, "lon": 17.9752824}, {"type": "node", "id": 7162230647, "lat": 59.3587814, "lon": 17.9756337}, {"type": "node", "id": 7162230648, "lat": 59.3587896, "lon": 17.9757142}, {"type": "node", "id": 7162230649, "lat": 59.3592906, "lon": 17.9741062}, {"type": "node", "id": 7162230650, "lat": 59.3592954, "lon": 17.9740164}, {"type": "node", "id": 7162230651, "lat": 59.3591614, "lon": 17.9743999}, {"type": "node", "id": 7162230652, "lat": 59.3587096, "lon": 17.9748881}, {"type": "node", "id": 7162230653, "lat": 59.3589215, "lon": 17.9747647}, {"type": "node", "id": 7202613115, "lat": 59.3709491, "lon": 18.001844, "tags": {"amenity": "atm", "brand": "Bankomat", "check_date": "2020-03-03", "level": "0", "operator": "Bankomat"}}, {"type": "node", "id": 7296746182, "lat": 59.3612, "lon": 17.9726677, "tags": {"amenity": "atm", "brand": "Bankomat", "cash_in": "no", "check_date": "2022-10-04", "indoor": "yes", "level": "0"}}, {"type": "node", "id": 7619490339, "lat": 59.4025775, "lon": 17.9447818, "tags": {"amenity": "atm", "brand": "Bankomat", "cash_in": "no", "check_date": "2020-06-14", "currency:EUR": "yes", "level": "0", "operator": "Bankomat"}}, {"type": "node", "id": 7632916556, "lat": 59.3979924, "lon": 18.0866723, "tags": {"amenity": "atm", "check_date": "2023-04-15", "operator": "Bankomat"}}, {"type": "node", "id": 7927659861, "lat": 59.3631488, "lon": 18.1233572, "tags": {"amenity": "atm"}}, {"type": "node", "id": 7947911861, "lat": 59.3620026, "lon": 17.9637646, "tags": {"amenity": "atm", "cash_in": "no", "check_date": "2022-10-01", "indoor": "yes", "operator": "Bankomat"}}, {"type": "node", "id": 7988469865, "lat": 59.4799613, "lon": 18.2965406, "tags": {"amenity": "atm", "operator": "Swedbank", "source": "survey"}}, {"type": "node", "id": 8306041732, "lat": 59.1681003, "lon": 18.136347, "tags": {"amenity": "bank", "operator": "Nordea"}}, {"type": "node", "id": 8306041733, "lat": 59.1681718, "lon": 18.13639, "tags": {"amenity": "atm", "brand": "Bankomat"}}, {"type": "node", "id": 8361998274, "lat": 59.3515106, "lon": 18.1116639, "tags": {"amenity": "atm", "drive_through": "no", "layer": "1", "level": "1", "operator": "Bankomat"}}, {"type": "node", "id": 8402743308, "lat": 59.3982347, "lon": 18.0366377, "tags": {"amenity": "atm"}}, {"type": "node", "id": 8592119000, "lat": 59.3590518, "lon": 17.9744035}, {"type": "node", "id": 8592119001, "lat": 59.358924, "lon": 17.9746189}, {"type": "node", "id": 8685852417, "lat": 59.3157398, "lon": 18.0330239, "tags": {"amenity": "atm", "opening_hours": "Mo-Su 08:00-23:00"}}, {"type": "node", "id": 8745910255, "lat": 59.3311803, "lon": 18.0639811, "tags": {"amenity": "atm", "operator": "Bankomat"}}, {"type": "node", "id": 8804435730, "lat": 59.3333529, "lon": 18.0722678, "tags": {"amenity": "atm"}}, {"type": "node", "id": 9026927959, "lat": 59.2353456, "lon": 17.9810004, "tags": {"amenity": "atm", "brand": "Handelsbanken", "brand:wikidata": "Q1421630", "brand:wikipedia": "en:Handelsbanken", "check_date": "2021-08-20", "name": "Handelsbanken", "operator": "Handelsbanken", "operator:wikidata": "Q1421630", "operator:wikipedia": "en:Handelsbanken"}}, {"type": "node", "id": 9047921017, "lat": 59.3327158, "lon": 17.9826641, "tags": {"amenity": "atm", "brand": "Handelsbanken", "brand:wikidata": "Q1421630", "name": "Handelsbanken", "operator": "Handelsbanken", "operator:wikidata": "Q1421630"}}, {"type": "node", "id": 9050827715, "lat": 59.3587573, "lon": 18.091529, "tags": {"addr:city": "Stockholm", "addr:country": "SE", "addr:housenumber": "55", "addr:postcode": "115 47", "addr:street": "Bobergsgatan", "amenity": "bank", "brand": "Swedbank", "brand:wikidata": "Q1145493", "brand:wikipedia": "en:Swedbank", "name": "Swedbank"}}, {"type": "node", "id": 9061017743, "lat": 59.3527605, "lon": 18.0896677, "tags": {"amenity": "atm", "cash_in": "no", "operator": "Kontanten"}}, {"type": "node", "id": 9113601733, "lat": 59.3334252, "lon": 18.0626895, "tags": {"amenity": "atm", "check_date": "2023-11-24"}}, {"type": "node", "id": 9232347784, "lat": 59.305279, "lon": 18.1227855, "tags": {"amenity": "atm", "operator": "Kontanten"}}, {"type": "node", "id": 9233236458, "lat": 59.3025083, "lon": 18.1029297, "tags": {"addr:country": "SE", "addr:housenumber": "21", "addr:street": "Lugnets All\u00e9", "amenity": "atm", "currency:SEK": "yes", "name": "Kontanten", "operator": "Kontanten"}}, {"type": "node", "id": 9253450148, "lat": 59.3175955, "lon": 18.0329504, "tags": {"amenity": "atm"}}, {"type": "node", "id": 9346527525, "lat": 59.3158442, "lon": 18.0340288, "tags": {"amenity": "atm", "level": "-1"}}, {"type": "node", "id": 9417754817, "lat": 59.3683695, "lon": 18.0061105, "tags": {"addr:country": "SE", "addr:housenumber": "4", "addr:street": "Stj\u00e4rntorget", "amenity": "bank", "name": "SEB"}}, {"type": "node", "id": 9440790448, "lat": 59.3090898, "lon": 18.1660197, "tags": {"amenity": "bank", "brand": "Nordea", "brand:wikidata": "Q1123823", "brand:wikipedia": "en:Nordea", "name": "Nordea", "operator": "Nordea"}}, {"type": "node", "id": 9498363865, "lat": 59.327975, "lon": 18.0181045, "tags": {"amenity": "atm"}}, {"type": "node", "id": 9625200092, "lat": 59.3098443, "lon": 18.1634216, "tags": {"amenity": "atm", "level": "1"}}, {"type": "node", "id": 9912647509, "lat": 59.4874438, "lon": 18.2735417, "tags": {"amenity": "atm"}}, {"type": "node", "id": 10018517772, "lat": 59.3586419, "lon": 17.9757308}, {"type": "node", "id": 10018517773, "lat": 59.3585648, "lon": 17.9751955}, {"type": "node", "id": 10018517774, "lat": 59.3584808, "lon": 17.9753707}, {"type": "node", "id": 10018517775, "lat": 59.3585307, "lon": 17.975674}, {"type": "node", "id": 10302282791, "lat": 59.3249705, "lon": 18.0693319, "tags": {"amenity": "atm"}}, {"type": "node", "id": 10542949328, "lat": 59.3391278, "lon": 18.0563128, "tags": {"amenity": "atm", "cash_in": "no", "operator": "Euronet"}}, {"type": "node", "id": 10908665992, "lat": 59.3397004, "lon": 18.0360971, "tags": {"amenity": "atm"}}, {"type": "node", "id": 11118221391, "lat": 59.4591615, "lon": 18.1390853, "tags": {"amenity": "atm", "level": "1"}}, {"type": "node", "id": 11167608269, "lat": 59.3340513, "lon": 18.066867, "tags": {"amenity": "bank", "brand": "SEB", "brand:wikidata": "Q975655", "name": "SEB", "opening_hours": "\"They have open for booked meetings.\""}}, {"type": "node", "id": 11208627678, "lat": 59.2623443, "lon": 18.0139375, "tags": {"amenity": "atm"}}, {"type": "node", "id": 11208658497, "lat": 59.2622048, "lon": 18.0149046, "tags": {"amenity": "atm"}}, {"type": "node", "id": 11563720236, "lat": 59.3555383, "lon": 17.9450181, "tags": {"amenity": "atm", "operator": "Forex Bank"}}, {"type": "way", "id": 243284895, "nodes": [2507156919, 2507156920, 7162230637, 7162230638, 7162230639, 7162230640, 7162230641, 7162230642, 7162230643, 7162230644, 7162230645, 7162230646, 7162230647, 7162230648, 2507156923, 10018517772, 10018517775, 10018517774, 10018517773, 2507156924, 2507156927, 7162230652, 7162230653, 8592119001, 2507156929, 8592119000, 2507156930, 7162230651, 7162230649, 7162230650, 2507156919], "tags": {"amenity": "bank", "brand": "Swedbank", "brand:wikidata": "Q1145493", "brand:wikipedia": "en:Swedbank", "building": "yes", "check_date": "2024-01-07", "name": "Swedbank", "opening_hours:signed": "no"}}]}