{"version": 0.6, "generator": "Overpass API 0.7.61.5 4133829e", "osm3s": {"timestamp_osm_base": "2024-03-14T21:59:00Z", "copyright": "The data included in this document is from www.openstreetmap.org. The data is made available under ODbL."}, "elements": [{"type": "node", "id": 724402612, "lat": 57.4033776, "lon": 14.6624564, "tags": {"addr:country": "SE", "addr:housenumber": "10", "addr:street": "Kopparslagaregatan", "amenity": "cafe", "ele": "214.0", "name": "Melins Konditori Eftr."}}, {"type": "node", "id": 726800794, "lat": 57.4016807, "lon": 14.6555558, "tags": {"amenity": "restaurant", "name": "Ljunga Park Hotel & Konferens"}}, {"type": "node", "id": 765038023, "lat": 57.6525698, "lon": 14.695136, "tags": {"amenity": "cafe", "name": "Thimons"}}, {"type": "node", "id": 811517045, "lat": 57.4791305, "lon": 14.7793604, "tags": {"addr:city": "Sandsj\u00f6fors", "addr:postcode": "571 64", "addr:street": "Sandsj\u00f6baden", "amenity": "restaurant", "name": "Sandsj\u00f6 W\u00e4rdshus & Konferens AB", "wheelchair": "yes"}}, {"type": "node", "id": 983552198, "lat": 57.6451785, "lon": 14.7070031, "tags": {"amenity": "restaurant", "cuisine": "pizza", "delivery": "no", "name": "Viktoria", "takeaway": "yes"}}, {"type": "node", "id": 1025325890, "lat": 57.6553317, "lon": 14.694955, "tags": {"addr:city": "N\u00e4ssj\u00f6", "addr:country": "SE", "addr:housenumber": "42", "addr:street": "R\u00e5dhusgatan", "amenity": "restaurant", "cuisine": "pizza", "name": "Restaurang Dolce Vita"}}, {"type": "node", "id": 1352952413, "lat": 57.6674365, "lon": 14.970971, "tags": {"amenity": "cafe", "contact:phone": "+46 381 611390", "contact:website": "http://www.lennartskonditori.se/", "drink:espresso": "yes", "internet_access": "no", "name": "Lennarts", "opening_hours": "Mo-Fr 07:00-19:00; Sa 08:00-18:00; Su 10:00-17:00", "shop": "bakery"}}, {"type": "node", "id": 1618707130, "lat": 57.6646079, "lon": 14.9734594, "tags": {"amenity": "cafe", "cuisine": "coffee_shop", "name": "Princess Caf\u00e9"}}, {"type": "node", "id": 1774156844, "lat": 57.4166274, "lon": 15.2540994, "tags": {"addr:city": "Holsbybrunn", "addr:country": "SE", "addr:housenumber": "20", "addr:postcode": "570 15", "addr:street": "Gustavsberg Alseda", "amenity": "cafe", "name": "Levanders Lanthandel"}}, {"type": "node", "id": 1776610416, "lat": 57.6682376, "lon": 14.9700061, "tags": {"amenity": "restaurant", "cuisine": "steak", "drink:espresso": "no", "name": "Amazingtaste"}}, {"type": "node", "id": 1776610426, "lat": 57.6681733, "lon": 14.9702304, "tags": {"amenity": "cafe", "name": "Lilla caf\u00e9et"}}, {"type": "node", "id": 1819049176, "lat": 57.6675192, "lon": 14.9714675, "tags": {"amenity": "cafe", "name": "Backstugan"}}, {"type": "node", "id": 1819058167, "lat": 57.6691484, "lon": 14.9690636, "tags": {"amenity": "cafe", "name": "Krusag\u00e5rden"}}, {"type": "node", "id": 1894209899, "lat": 57.65479, "lon": 14.6957207, "tags": {"addr:city": "N\u00e4ssj\u00f6", "addr:country": "SE", "addr:housenumber": "28", "addr:street": "R\u00e5dhusgatan", "amenity": "cafe", "name": "Elsies"}}, {"type": "node", "id": 1894209901, "lat": 57.6520001, "lon": 14.6974695, "tags": {"addr:city": "N\u00e4ssj\u00f6", "addr:country": "SE", "addr:housenumber": "1", "addr:street": "Nygatan", "amenity": "restaurant", "cuisine": "greek;italian", "level": "0", "name": "En italienare & en Grek", "opening_hours": "Mo-Th 11:00-21:00; Fr 11:00-22:00; PH open; Sa 12:00-22:00; Su 12:00-21:00", "phone": "+46 380 13040", "smoking": "no", "takeaway": "yes", "toilets": "yes", "toilets:access": "customers", "website": "http://enitalienareochengrek.se", "wheelchair": "no"}}, {"type": "node", "id": 1894209922, "lat": 57.654305, "lon": 14.6974374, "tags": {"addr:city": "N\u00e4ssj\u00f6", "addr:country": "SE", "addr:housenumber": "13", "addr:street": "Postgatan", "amenity": "restaurant", "cuisine": "asian", "name": "Coco Thai"}}, {"type": "node", "id": 1976998718, "lat": 57.3696197, "lon": 14.8997207}, {"type": "node", "id": 1976998719, "lat": 57.3697374, "lon": 14.9000427}, {"type": "node", "id": 1976998720, "lat": 57.3695142, "lon": 14.8998548}, {"type": "node", "id": 1976998721, "lat": 57.3696318, "lon": 14.9001741}, {"type": "node", "id": 1998953989, "lat": 57.6540296, "lon": 14.698543, "tags": {"amenity": "cafe", "cuisine": "coffee_shop", "name": "Princess"}}, {"type": "node", "id": 2409087185, "lat": 57.6651742, "lon": 14.9634789, "tags": {"addr:country": "SE", "addr:housenumber": "17", "addr:street": "Breviksv\u00e4gen", "amenity": "restaurant", "cuisine": "asian", "name": "CoCo Thai"}}, {"type": "node", "id": 2484783854, "lat": 57.4013322, "lon": 14.663082, "tags": {"addr:city": "S\u00e4vsj\u00f6", "addr:country": "SE", "addr:housenumber": "19", "addr:postcode": "576 35", "addr:street": "V\u00e4stra J\u00e4rnv\u00e4gsgatan", "amenity": "restaurant", "cuisine": "chinese", "name": "Bambu Pinnar", "phone": "+46 382-100 32"}}, {"type": "node", "id": 2557333422, "lat": 57.395988, "lon": 14.6658244, "tags": {"addr:city": "S\u00e4vsj\u00f6", "addr:country": "SE", "addr:housenumber": "6", "addr:postcode": "57635", "addr:street": "Odengatan", "amenity": "cafe", "name": "Kaf\u00e9 Erik", "opening_hours": "Tu 14:00-18:00; Sa 10:00-13:00", "phone": "+46 382-12300", "website": "https://erikshjalpen.se/secondhand/vaara-butiker/savsjo"}}, {"type": "node", "id": 2592194034, "lat": 57.4164878, "lon": 15.077648, "tags": {"addr:city": "Vetlanda", "addr:housename": "Sapa Restaurangen", "addr:postcode": "57481", "addr:street": "Metallv\u00e4gen", "amenity": "restaurant", "cuisine": "regional", "name": "Sapa Restaurangen"}}, {"type": "node", "id": 2625991829, "lat": 57.6680587, "lon": 14.9710296, "tags": {"addr:city": "Eksj\u00f6", "addr:country": "SE", "addr:housenumber": "8", "addr:postcode": "575 32", "addr:street": "Arendt Byggm\u00e4stares gata", "amenity": "restaurant", "contact:phone": "+46 381 14040", "contact:website": "http://www.vaxblekaregarden.com/", "name": "Vaxblekareg\u00e5rden", "rooms": "18", "tourism": "hotel"}}, {"type": "node", "id": 4245134690, "lat": 57.6526214, "lon": 14.6973465, "tags": {"addr:street": "Stortorget", "amenity": "restaurant", "name": "Caf\u00e9rangen"}}, {"type": "node", "id": 6641279193, "lat": 57.6698674, "lon": 14.9706175, "tags": {"amenity": "restaurant", "changing_table": "yes", "cuisine": "pizza;burger;kebab", "internet_access": "wlan", "internet_access:fee": "no", "name": "Via Venetto", "opening_hours": "Mo-Th 11:00-21:00; Fr 11:00-22:00; Sa 11:30-22:00; Su 11:30-21:00", "outdoor_seating": "yes", "toilets": "yes", "toilets:access": "customers", "wheelchair": "yes"}}, {"type": "node", "id": 6917961290, "lat": 57.4262262, "lon": 15.0883345, "tags": {"addr:city": "Vetlanda", "addr:country": "SE", "addr:housenumber": "3A", "addr:postcode": "574 32", "addr:street": "Vitalagatan", "amenity": "cafe", "brand": "Wayne's Coffee", "brand:wikidata": "Q2637272", "brand:wikipedia": "en:Wayne's Coffee", "cuisine": "coffee_shop", "name": "Wayne's Coffee", "takeaway": "yes"}}, {"type": "node", "id": 7741099818, "lat": 57.5829532, "lon": 14.8759129}, {"type": "node", "id": 7741099819, "lat": 57.5828659, "lon": 14.8758563}, {"type": "node", "id": 7741099820, "lat": 57.5828336, "lon": 14.8760049}, {"type": "node", "id": 7741099821, "lat": 57.5829247, "lon": 14.8760757}, {"type": "node", "id": 8822370312, "lat": 57.6367877, "lon": 14.9516238, "tags": {"amenity": "cafe", "cuisine": "coffee;ice_cream;cookies;sandwich", "name": "L\u00e5ngan\u00e4ssj\u00f6badens Caf\u00e9", "opening_hours": "weekdays, daytime, mid-June to mid-August", "outdoor_seating": "yes"}}, {"type": "node", "id": 9972711153, "lat": 57.6693781, "lon": 14.969432, "tags": {"addr:country": "SE", "addr:housenumber": "38D", "addr:street": "Norra Storgatan", "amenity": "restaurant", "name": "Bron - k\u00f6k & bar", "opening_hours": "Mo-Su 12:00-23:00", "phone": "0760144060", "website": "https://restaurangbroneksjo.se/"}}, {"type": "node", "id": 10906465447, "lat": 57.6597644, "lon": 14.9603203, "tags": {"addr:city": "Eksj\u00f6", "addr:country": "SE", "addr:housenumber": "4", "addr:postcode": "57539", "addr:street": "Mosstegsgatan", "air_conditioning": "no", "amenity": "cafe", "bar": "no", "capacity": "10", "cuisine": "Cake, Sallad, Fika", "delivery": "yes", "diet:gluten_free": "yes", "diet:halal": "no", "diet:kosher": "no", "diet:lactose_free": "yes", "diet:vegan": "yes", "diet:vegetarian": "yes", "drive_through": "no", "email": "info@havskogstartor.se", "highchair": "no", "level": "0", "min_age": "0", "name": "Havskogs", "opening_hours": "M\u00e5ndag: St\u00e4ngt Tisdag: 11:00-14:00 Onsdag: 8.30-14 Torsdag: 8.30-14 Fredag: 8.30-14 & 16:00-17:00 L\u00f6rdag: St\u00e4ngt S\u00f6ndag: St\u00e4ngt", "outdoor_seating": "yes", "payment:apple_pay": "yes", "payment:cards": "yes", "payment:contactless": "yes", "payment:credit_cards": "yes", "payment:debit_cards": "yes", "payment:google_pay": "yes", "phone": "0730735304", "reservation": "no", "smoking": "no", "takeaway": "yes", "website": "https://havskogstartor.se/", "website:menu": "https://havskogstartor.se/smaker-priser", "wheelchair": "yes"}}, {"type": "node", "id": 11044100772, "lat": 57.6682902, "lon": 14.9701682, "tags": {"amenity": "bar", "name": "Harry's", "opening_hours": "Mo,Su 17:00-22:00, Tu-Th 15:00-23:00; Fr, Sa 15:00-24:00", "wheelchair": "yes"}}, {"type": "way", "id": 186952052, "nodes": [1976998718, 1976998719, 1976998721, 1976998720, 1976998718], "tags": {"addr:city": "Landsbro", "addr:country": "SE", "addr:housenumber": "6", "addr:postcode": "570 12", "addr:street": "Brobygatan", "amenity": "restaurant", "building": "yes", "building:levels": "1", "name": "Bykrogen", "opening_hours": "Mo-We 09:00-15:00; Th-Fr 09:00-17:00; Sa 16:00-20:00; Su 13:00-17:00", "phone": "+46 769430901"}}, {"type": "way", "id": 829327337, "nodes": [7741099818, 7741099819, 7741099820, 7741099821, 7741099818], "tags": {"amenity": "cafe", "building": "yes", "name": "2 r\u00f6da hus", "opening_hours": "\u00f6pnnar till h\u00f6sten..."}}]}