{"version": 0.6, "generator": "Overpass API 0.7.61.5 4133829e", "osm3s": {"timestamp_osm_base": "2024-03-14T21:59:00Z", "copyright": "The data included in this document is from www.openstreetmap.org. The data is made available under ODbL."}, "elements": [{"type": "node", "id": 2437100118, "lat": 58.6909057, "lon": 13.2009525}, {"type": "node", "id": 2562009935, "lat": 58.6810413, "lon": 13.1624452, "tags": {"addr:housename": "Granvik K\u00e5llands\u00f6", "addr:postcode": "53199", "amenity": "cafe", "cuisine": "coffee_shop", "name": "H\u00f6rvikens Caf\u00e9 & Pub", "website": "http://www.kallandsomarina.se/"}}, {"type": "node", "id": 2562053842, "lat": 58.6747875, "lon": 13.2079856, "tags": {"amenity": "cafe", "cuisine": "coffee_shop", "name": "Galleriet"}}, {"type": "node", "id": 4311820495, "lat": 58.8012997, "lon": 13.2196536, "tags": {"addr:postcode": "66191", "amenity": "restaurant", "cuisine": "fish;seafood;local", "email": "lurogast@gmail.com", "name": "Lur\u00f6 Krog", "phone": "+46705216733", "website": "http://www.lurogast.se/"}}, {"type": "node", "id": 4928131753, "lat": 58.6908662, "lon": 13.201019}, {"type": "node", "id": 4928131754, "lat": 58.6907797, "lon": 13.2008284}, {"type": "node", "id": 4928131755, "lat": 58.6908307, "lon": 13.2006083}, {"type": "node", "id": 4928573706, "lat": 58.6811904, "lon": 13.1622356}, {"type": "node", "id": 4928573707, "lat": 58.6811221, "lon": 13.1625415}, {"type": "node", "id": 4928573708, "lat": 58.680928, "lon": 13.1623811}, {"type": "node", "id": 4928573709, "lat": 58.6809492, "lon": 13.1622862}, {"type": "node", "id": 4928573710, "lat": 58.6808325, "lon": 13.1621897}, {"type": "node", "id": 4928573711, "lat": 58.6809004, "lon": 13.1618856}, {"type": "node", "id": 4928573712, "lat": 58.6809749, "lon": 13.1619471}, {"type": "node", "id": 4928573713, "lat": 58.6809438, "lon": 13.1620863}, {"type": "node", "id": 4928573714, "lat": 58.6810031, "lon": 13.1621353}, {"type": "node", "id": 4928573715, "lat": 58.680974, "lon": 13.1622655}, {"type": "node", "id": 4928573716, "lat": 58.6810596, "lon": 13.1623363}, {"type": "node", "id": 4928573717, "lat": 58.681099, "lon": 13.16216}, {"type": "node", "id": 5849851886, "lat": 58.6902827, "lon": 13.2006762, "tags": {"amenity": "cafe", "name": "Brygg-kaffet"}}, {"type": "node", "id": 8919204575, "lat": 58.6908247, "lon": 13.2007737}, {"type": "node", "id": 8919204576, "lat": 58.6907957, "lon": 13.2008015}, {"type": "node", "id": 8919204577, "lat": 58.6907611, "lon": 13.2007251}, {"type": "node", "id": 8919204578, "lat": 58.6908707, "lon": 13.2006965}, {"type": "way", "id": 502299508, "nodes": [2437100118, 4928131753, 4928131754, 8919204576, 8919204577, 4928131755, 8919204578, 8919204575, 2437100118], "tags": {"amenity": "restaurant", "building": "yes", "cuisine": "regional", "name": "Sj\u00f6boden"}}, {"type": "way", "id": 502362987, "nodes": [4928573706, 4928573707, 4928573708, 4928573709, 4928573710, 4928573711, 4928573712, 4928573713, 4928573714, 4928573715, 4928573716, 4928573717, 4928573706], "tags": {"amenity": "restaurant", "building": "yes"}}]}