{"version": 0.6, "generator": "Overpass API 0.7.61.5 4133829e", "osm3s": {"timestamp_osm_base": "2024-03-14T21:59:00Z", "copyright": "The data included in this document is from www.openstreetmap.org. The data is made available under ODbL."}, "elements": [{"type": "node", "id": 337727962, "lat": 59.350386, "lon": 16.5105803, "tags": {"amenity": "cafe"}}, {"type": "node", "id": 337727969, "lat": 59.3398253, "lon": 16.488742, "tags": {"amenity": "cafe"}}, {"type": "node", "id": 439376812, "lat": 59.3705638, "lon": 16.4722792, "tags": {"amenity": "restaurant", "name": "Parken Zoo Camping & Stugby", "naturism": "no", "power_supply": "cee_17_blue", "power_supply:frequency": "50", "power_supply:voltage": "230", "wheelchair": "yes"}}, {"type": "node", "id": 469220676, "lat": 59.2043824, "lon": 16.8261182, "tags": {"amenity": "cafe", "name": "Caf\u00e9 Bj\u00f6rndammen"}}, {"type": "node", "id": 599693211, "lat": 59.3759107, "lon": 17.0286933, "tags": {"amenity": "cafe", "name": "Prinsen", "shop": "bakery"}}, {"type": "node", "id": 746305958, "lat": 59.5230416, "lon": 17.0057648, "tags": {"amenity": "cafe", "name": "Brof\u00e4stet"}}, {"type": "node", "id": 793240791, "lat": 59.3780846, "lon": 17.0281421, "tags": {"amenity": "restaurant", "name": "Riva"}}, {"type": "node", "id": 1142294179, "lat": 59.4477641, "lon": 16.6232612}, {"type": "node", "id": 1142294290, "lat": 59.4474169, "lon": 16.6234146}, {"type": "node", "id": 1142294510, "lat": 59.4476867, "lon": 16.6230435}, {"type": "node", "id": 1142294579, "lat": 59.4474944, "lon": 16.6236323}, {"type": "node", "id": 1269583850, "lat": 59.3702013, "lon": 17.0275616, "tags": {"amenity": "restaurant", "name": "Skogshyddan"}}, {"type": "node", "id": 1411362542, "lat": 59.4516035, "lon": 16.3217607, "tags": {"amenity": "restaurant", "name": "Papa Jun"}}, {"type": "node", "id": 1413119903, "lat": 59.4023958, "lon": 16.445358}, {"type": "node", "id": 1413119905, "lat": 59.4021432, "lon": 16.4450918}, {"type": "node", "id": 1413119906, "lat": 59.4020517, "lon": 16.4454477}, {"type": "node", "id": 1413119907, "lat": 59.4020941, "lon": 16.4461536}, {"type": "node", "id": 1413119908, "lat": 59.4020428, "lon": 16.4458804}, {"type": "node", "id": 1413119909, "lat": 59.4023061, "lon": 16.4454971}, {"type": "node", "id": 1413119910, "lat": 59.4019691, "lon": 16.4455758}, {"type": "node", "id": 1413119912, "lat": 59.4024768, "lon": 16.4455596}, {"type": "node", "id": 1413119913, "lat": 59.4020068, "lon": 16.4459364}, {"type": "node", "id": 1413119914, "lat": 59.4019987, "lon": 16.4453159}, {"type": "node", "id": 1413119916, "lat": 59.4020487, "lon": 16.4457676}, {"type": "node", "id": 1539831024, "lat": 59.3770556, "lon": 17.0346164, "tags": {"amenity": "restaurant", "cuisine": "chinese", "name": "Formosa"}}, {"type": "node", "id": 1573463170, "lat": 59.3778485, "lon": 17.0315186, "tags": {"amenity": "cafe", "name": "Grassag\u00e5rden", "wikidata": "Q18290212", "wikipedia": "sv:Grassag\u00e5rden"}}, {"type": "node", "id": 1573467514, "lat": 59.3775013, "lon": 17.0309916, "tags": {"amenity": "restaurant", "name": "Oskar Eriksson"}}, {"type": "node", "id": 1576271798, "lat": 59.3757228, "lon": 17.0271237, "tags": {"amenity": "cafe", "name": "Nancy's"}}, {"type": "node", "id": 1576271839, "lat": 59.3765362, "lon": 17.027521, "tags": {"addr:city": "Str\u00e4ngn\u00e4s", "addr:country": "SE", "addr:housenumber": "20", "addr:postcode": "645 30", "addr:street": "Gyllenhjelmsgatan", "amenity": "restaurant", "brand": "Bishops Arms", "brand:wikidata": "Q10430084", "contact:facebook": "https://www.facebook.com/TheBishopsArmsStrangnas/", "cuisine": "regional", "name": "Hotell Bishops Arms", "website": "https://www.bishopsarms.com/vara-pubar/strangnas/"}}, {"type": "node", "id": 1576271861, "lat": 59.3765233, "lon": 17.027665, "tags": {"amenity": "cafe", "brand": "Espresso House", "brand:wikidata": "Q10489162", "brand:wikipedia": "en:Espresso House", "cuisine": "coffee_shop", "name": "Espresso House", "takeaway": "yes"}}, {"type": "node", "id": 1576271880, "lat": 59.3753422, "lon": 17.0285724, "tags": {"addr:postcode": "645 31", "addr:street": "Tr\u00e4dg\u00e5rdsgatan", "amenity": "restaurant", "cuisine": "pizza", "name": "Lilla Cleopatra", "name:sv": "Lilla Cleopatra", "opening_hours": "Mo-Su 11:00-21:30", "phone": "+46 152 216 44", "website": "https://www.facebook.com/lillacleopatra"}}, {"type": "node", "id": 1576669792, "lat": 59.37769, "lon": 17.025439, "tags": {"amenity": "cafe", "name": "Cafe Tr\u00e4g\u00e5r'n"}}, {"type": "node", "id": 1577475359, "lat": 59.3783531, "lon": 17.0299339, "tags": {"amenity": "restaurant", "cuisine": "greek", "name": "Grekisk Taverna"}}, {"type": "node", "id": 1577475360, "lat": 59.3768863, "lon": 17.0266009, "tags": {"amenity": "restaurant", "cuisine": "pizza", "name": "Marias Pizzeria & Restaurang"}}, {"type": "node", "id": 1577475362, "lat": 59.3519219, "lon": 17.0240435, "tags": {"amenity": "restaurant", "name": "Golfkrogen"}}, {"type": "node", "id": 1577475364, "lat": 59.3779924, "lon": 17.0299159, "tags": {"amenity": "restaurant", "cuisine": "french", "name": "Edsbacka Bistro Str\u00e4ngn\u00e4s"}}, {"type": "node", "id": 1577477397, "lat": 59.3774587, "lon": 17.0312828, "tags": {"amenity": "restaurant", "name": "M\u00e4larens pizzeria"}}, {"type": "node", "id": 1577479787, "lat": 59.3773212, "lon": 17.0323435, "tags": {"amenity": "restaurant", "cuisine": "burger", "name": "Pelles Burgare"}}, {"type": "node", "id": 1577479797, "lat": 59.3764828, "lon": 17.0356445, "tags": {"addr:city": "Str\u00e4ngn\u00e4s", "addr:country": "SE", "addr:housenumber": "7", "addr:postcode": "64530", "addr:street": "Storgatan", "amenity": "restaurant", "cuisine": "pizza", "name": "Str\u00e4ngn\u00e4s kebab"}}, {"type": "node", "id": 1577479800, "lat": 59.376439, "lon": 17.0297285, "tags": {"amenity": "restaurant", "cuisine": "regional", "name": "Naskovit", "url": "http://www.sjurumochkok.se/"}}, {"type": "node", "id": 1577479803, "lat": 59.3467693, "lon": 17.0335647, "tags": {"amenity": "restaurant", "cuisine": "regional", "name": "Restaurang Kronan"}}, {"type": "node", "id": 1577488272, "lat": 59.3773082, "lon": 17.0296769, "tags": {"amenity": "cafe", "name": "Sofia i Parken"}}, {"type": "node", "id": 1577488273, "lat": 59.3768946, "lon": 17.0343998, "tags": {"amenity": "restaurant", "cuisine": "sushi;coffee_shop", "name": "Ginsaras Sushi & Caf\u00e9"}}, {"type": "node", "id": 1577488274, "lat": 59.3771789, "lon": 17.0261353, "tags": {"amenity": "cafe", "name": "Caf\u00e9 George's"}}, {"type": "node", "id": 1580278563, "lat": 59.3696834, "lon": 17.0146473}, {"type": "node", "id": 1580278567, "lat": 59.3697034, "lon": 17.0144778}, {"type": "node", "id": 1580278584, "lat": 59.3695738, "lon": 17.0146468}, {"type": "node", "id": 1580278591, "lat": 59.3697944, "lon": 17.0147466}, {"type": "node", "id": 1581623189, "lat": 59.3753199, "lon": 17.0381399, "tags": {"amenity": "cafe", "name": "\u00c5ngb\u00e5tsbryggan", "operator": "Europaskolan"}}, {"type": "node", "id": 1601099652, "lat": 59.3765808, "lon": 17.0301557, "tags": {"amenity": "restaurant", "cuisine": "greek", "name": "Greken"}}, {"type": "node", "id": 1639234234, "lat": 59.3927255, "lon": 16.7967747, "tags": {"amenity": "restaurant", "contact:phone": "+46 16 395 080", "contact:website": "http://www.strandcountrylodge.se/", "cuisine": "regional", "name": "Strand Restaurant", "operator": "Strand Golf", "smoking": "no"}}, {"type": "node", "id": 1643004984, "lat": 59.3672138, "lon": 16.9308959, "tags": {"amenity": "cafe", "name": "Arsenalens Cafe", "operator": "Arsenalen"}}, {"type": "node", "id": 1699556094, "lat": 59.2729545, "lon": 16.9722181, "tags": {"amenity": "restaurant", "cuisine": "regional", "name": "Emma Gr\u00f6n", "opening_hours": "Sa-Su 12:00-17:00", "smoking": "no", "website": "http://www.emmagron.se"}}, {"type": "node", "id": 1709834978, "lat": 59.3698402, "lon": 16.5173135, "tags": {"amenity": "cafe", "name": "Caf\u00e9 Kaka", "website": "https://www.cafekaka.se/", "wheelchair": "limited"}}, {"type": "node", "id": 1709834979, "lat": 59.3726292, "lon": 16.5139993, "tags": {"amenity": "restaurant", "name": "Harrys", "wheelchair": "no"}}, {"type": "node", "id": 1709834982, "lat": 59.3718706, "lon": 16.5128542, "tags": {"amenity": "restaurant", "name": "Royal India", "wheelchair": "no"}}, {"type": "node", "id": 1709834983, "lat": 59.3714655, "lon": 16.5140879, "tags": {"amenity": "restaurant", "check_date": "2022-07-19", "name": "Spicy Hot", "wheelchair": "limited"}}, {"type": "node", "id": 1710821131, "lat": 59.3750941, "lon": 16.5063202}, {"type": "node", "id": 1710821133, "lat": 59.3751456, "lon": 16.5064177}, {"type": "node", "id": 1710821134, "lat": 59.375153, "lon": 16.5063953}, {"type": "node", "id": 1710821135, "lat": 59.3751656, "lon": 16.5061037}, {"type": "node", "id": 1710821139, "lat": 59.3752136, "lon": 16.5065043}, {"type": "node", "id": 1710821140, "lat": 59.375221, "lon": 16.5064818}, {"type": "node", "id": 1710821141, "lat": 59.3752246, "lon": 16.5061788}, {"type": "node", "id": 1710821142, "lat": 59.3752405, "lon": 16.5061307}, {"type": "node", "id": 1710821145, "lat": 59.3752827, "lon": 16.5065604}, {"type": "node", "id": 1710821146, "lat": 59.3752925, "lon": 16.5062654}, {"type": "node", "id": 1710821147, "lat": 59.3752962, "lon": 16.5065197}, {"type": "node", "id": 1710821148, "lat": 59.3753084, "lon": 16.5062173}, {"type": "node", "id": 1710821149, "lat": 59.375319, "lon": 16.5065487}, {"type": "node", "id": 1710821150, "lat": 59.3753335, "lon": 16.5064067}, {"type": "node", "id": 1710821151, "lat": 59.3753542, "lon": 16.5063439}, {"type": "node", "id": 1710821152, "lat": 59.3753563, "lon": 16.5064358}, {"type": "node", "id": 1712016955, "lat": 59.3720674, "lon": 16.5152266, "tags": {"amenity": "restaurant", "name": "Grappa Matsal och Bar", "wheelchair": "yes"}}, {"type": "node", "id": 1712016956, "lat": 59.3715656, "lon": 16.5145686, "tags": {"amenity": "restaurant", "name": "H\u00e5 Pe's", "wheelchair": "limited"}}, {"type": "node", "id": 1712016965, "lat": 59.3716008, "lon": 16.5137024, "tags": {"amenity": "restaurant", "check_date": "2022-07-19", "name": "Ming Palace", "toilets:wheelchair": "yes", "wheelchair": "limited"}}, {"type": "node", "id": 1712016991, "lat": 59.3715725, "lon": 16.5117789, "tags": {"amenity": "cafe", "brand": "Wayne's Coffee", "brand:wikidata": "Q2637272", "brand:wikipedia": "en:Wayne's Coffee", "cuisine": "coffee_shop", "name": "Wayne's Coffee", "takeaway": "yes", "wheelchair": "limited"}}, {"type": "node", "id": 1928994927, "lat": 59.4208343, "lon": 16.328637, "tags": {"amenity": "cafe"}}, {"type": "node", "id": 1965996907, "lat": 59.5222254, "lon": 16.2539869, "tags": {"amenity": "cafe", "fixme": "Addera namn p\u00e5 caf\u00e9"}}, {"type": "node", "id": 2048506854, "lat": 59.360087, "lon": 16.469811, "tags": {"addr:city": "Eskilstuna", "addr:country": "SE", "addr:postcode": "63234", "addr:street": "Smaragdg\u00e5ngen 3", "amenity": "restaurant", "cuisine": "italian", "drive_in": "yes", "internet_access": "no", "microbrewery": "no", "name": "Marcos Kvalitetsmat", "outdoor_seating": "no", "phone": "+46 21 4951444", "smoking": "no", "takeaway": "yes", "wheelchair": "yes"}}, {"type": "node", "id": 2177357765, "lat": 59.3757627, "lon": 17.0286108, "tags": {"amenity": "restaurant", "cuisine": "pizza;italian_pizza", "diet:meat": "yes", "diet:vegan": "yes", "diet:vegetarian": "yes", "name": "Jerv Pizza & Bar", "website": "http://jervpizzabar.se/"}}, {"type": "node", "id": 2177357766, "lat": 59.3788578, "lon": 17.0291794, "tags": {"amenity": "restaurant", "cuisine": "thai", "name": "Thai Garden"}}, {"type": "node", "id": 2186486054, "lat": 59.3584498, "lon": 17.0131436}, {"type": "node", "id": 2186486055, "lat": 59.3584516, "lon": 17.013015}, {"type": "node", "id": 2186486056, "lat": 59.3585121, "lon": 17.013147}, {"type": "node", "id": 2186486057, "lat": 59.3585139, "lon": 17.0130183}, {"type": "node", "id": 2244730499, "lat": 59.5327636, "lon": 16.8573491}, {"type": "node", "id": 2244730515, "lat": 59.5328523, "lon": 16.8569339}, {"type": "node", "id": 2244730765, "lat": 59.5329638, "lon": 16.8575156}, {"type": "node", "id": 2244730815, "lat": 59.5330526, "lon": 16.8571005}, {"type": "node", "id": 2247266832, "lat": 59.5089772, "lon": 16.8766336}, {"type": "node", "id": 2247266849, "lat": 59.5091247, "lon": 16.8766776}, {"type": "node", "id": 2247266873, "lat": 59.5090852, "lon": 16.8767862}, {"type": "node", "id": 2247266875, "lat": 59.5090167, "lon": 16.876525}, {"type": "node", "id": 2249285826, "lat": 59.3771529, "lon": 17.0322411, "tags": {"amenity": "restaurant", "cuisine": "burger;american", "name": "Fathers Steakhouse"}}, {"type": "node", "id": 2249787242, "lat": 59.3782326, "lon": 17.0243747, "tags": {"amenity": "cafe", "name": "Fr\u00f6ken Mar\u00e4ng"}}, {"type": "node", "id": 2252503362, "lat": 59.3777566, "lon": 17.0073769, "tags": {"addr:city": "Str\u00e4ngn\u00e4s", "addr:country": "SE", "addr:housenumber": "34", "addr:postcode": "64534", "addr:street": "Eskilstunav\u00e4gen", "amenity": "restaurant", "delivery": "no", "level": "1", "name": "Elsas Kantin", "takeaway": "no"}}, {"type": "node", "id": 2272679474, "lat": 59.4200024, "lon": 16.4745584, "tags": {"amenity": "restaurant", "cuisine": "pizza", "name": "Restaurang Bamse"}}, {"type": "node", "id": 2272679498, "lat": 59.424354, "lon": 16.470985}, {"type": "node", "id": 2272679502, "lat": 59.4200187, "lon": 16.4754852, "tags": {"amenity": "restaurant", "cuisine": "thai", "name": "Nan Thai"}}, {"type": "node", "id": 2272679504, "lat": 59.4201651, "lon": 16.472369, "tags": {"amenity": "restaurant", "cuisine": "pizza", "name": "Dubrovnik Pizzeria"}}, {"type": "node", "id": 2272679521, "lat": 59.4237209, "lon": 16.4707865, "tags": {"amenity": "restaurant"}}, {"type": "node", "id": 2277990149, "lat": 59.4185859, "lon": 16.4730166}, {"type": "node", "id": 2277990162, "lat": 59.4184916, "lon": 16.4730155}, {"type": "node", "id": 2277990176, "lat": 59.418491, "lon": 16.4729376}, {"type": "node", "id": 2277990181, "lat": 59.4186087, "lon": 16.4730159}, {"type": "node", "id": 2277990185, "lat": 59.4186077, "lon": 16.4728867}, {"type": "node", "id": 2277990190, "lat": 59.4185689, "lon": 16.4728879}, {"type": "node", "id": 2277990207, "lat": 59.4185686, "lon": 16.4728507}, {"type": "node", "id": 2277990216, "lat": 59.4185082, "lon": 16.4728934}, {"type": "node", "id": 2277990222, "lat": 59.4185361, "lon": 16.4728517}, {"type": "node", "id": 2277990241, "lat": 59.4185123, "lon": 16.4730148}, {"type": "node", "id": 2277990256, "lat": 59.4185127, "lon": 16.4730653}, {"type": "node", "id": 2277990271, "lat": 59.4185086, "lon": 16.472937}, {"type": "node", "id": 2277990330, "lat": 59.4185862, "lon": 16.473063}, {"type": "node", "id": 2277990336, "lat": 59.4185364, "lon": 16.4728926}, {"type": "node", "id": 2283575054, "lat": 59.4243137, "lon": 16.4711245}, {"type": "node", "id": 2283575064, "lat": 59.4243277, "lon": 16.4710279}, {"type": "node", "id": 2283575071, "lat": 59.4243463, "lon": 16.4710383}, {"type": "node", "id": 2283575097, "lat": 59.4243136, "lon": 16.4707797}, {"type": "node", "id": 2283575105, "lat": 59.4242426, "lon": 16.4709147}, {"type": "node", "id": 2283575135, "lat": 59.4242484, "lon": 16.4708746}, {"type": "node", "id": 2283575137, "lat": 59.4244796, "lon": 16.4709297}, {"type": "node", "id": 2283575184, "lat": 59.4244628, "lon": 16.4710459}, {"type": "node", "id": 2283575194, "lat": 59.4244492, "lon": 16.4709127}, {"type": "node", "id": 2283575224, "lat": 59.4242311, "lon": 16.4710783}, {"type": "node", "id": 2283575317, "lat": 59.4244568, "lon": 16.4708598}, {"type": "node", "id": 2283575327, "lat": 59.424296, "lon": 16.4709013}, {"type": "node", "id": 2283575367, "lat": 59.4242539, "lon": 16.470921}, {"type": "node", "id": 2286832067, "lat": 59.4194891, "lon": 16.4731866, "tags": {"amenity": "restaurant", "cuisine": "pizza", "name": "Pizzeria Hawaii"}}, {"type": "node", "id": 2302303194, "lat": 59.4505929, "lon": 16.4308256, "tags": {"amenity": "restaurant", "name": "M\u00e4larbadens golfrestaurang"}}, {"type": "node", "id": 2304880180, "lat": 59.4316662, "lon": 16.5441023, "tags": {"amenity": "cafe", "email": "info@maryscafe.se", "name": "Marys Caf\u00e9 och Butik", "opening_hours": "May-Sep: Tu-Su 11:00-17:00", "phone": "+46 16 350115", "website": "https://www.maryscafe.se/", "wheelchair": "limited"}}, {"type": "node", "id": 2304947781, "lat": 59.3775714, "lon": 16.5104652, "tags": {"amenity": "restaurant", "name": "P-2", "website": "https://www.p-2.se/", "wheelchair": "yes"}}, {"type": "node", "id": 2814515586, "lat": 59.3595371, "lon": 17.0327753, "tags": {"amenity": "restaurant", "name": "P\u00e4rlas pizzeria"}}, {"type": "node", "id": 2871621405, "lat": 59.1323836, "lon": 16.7283385, "tags": {"addr:city": "Malmk\u00f6ping", "addr:country": "SE", "addr:housenumber": "29 B", "addr:postcode": "64260", "addr:street": "Landsv\u00e4gsgatan", "amenity": "restaurant", "name": "Malmk\u00f6pings W\u00e4rdshus"}}, {"type": "node", "id": 2942099734, "lat": 59.1897081, "lon": 16.6053403, "tags": {"amenity": "cafe", "description": "Sagostigens Caf\u00e9", "internet_access": "yes", "internet_access:fee": "no", "internet_access:ssid": "Sagostigen_Guest", "name": "Sagostigens Caf\u00e9", "phone": "+46157-44033", "website": "https://www.sagostigen.se/"}}, {"type": "node", "id": 2996455574, "lat": 59.1035056, "lon": 16.4313831, "tags": {"amenity": "cafe", "internet_access": "no", "name": "Granhedsg\u00e5rden", "smoking": "no"}}, {"type": "node", "id": 3711051701, "lat": 59.5061406, "lon": 16.2626883, "tags": {"amenity": "cafe", "fixme": "Addera namn p\u00e5 caf\u00e9"}}, {"type": "node", "id": 3711073175, "lat": 59.5214065, "lon": 16.2545308, "tags": {"addr:country": "SE", "addr:housenumber": "5", "addr:street": "Stallbacken", "amenity": "cafe", "name": "Str\u00f6msholms Markenteri"}}, {"type": "node", "id": 3711073178, "lat": 59.5221389, "lon": 16.2542658, "tags": {"addr:city": "Str\u00f6msholm", "addr:country": "SE", "addr:housenumber": "2", "addr:postcode": "734 94", "addr:street": "Stallbacken", "amenity": "restaurant", "ele": "8.01", "name": "Gula H\u00e4sten", "phone": "+46-220-43227", "website": "https://www.gulahasten.com/"}}, {"type": "node", "id": 3712141184, "lat": 59.2915803, "lon": 16.4582187}, {"type": "node", "id": 3712141185, "lat": 59.2916186, "lon": 16.4585084}, {"type": "node", "id": 3712141188, "lat": 59.2918366, "lon": 16.4580888}, {"type": "node", "id": 3712141189, "lat": 59.2918749, "lon": 16.4583785}, {"type": "node", "id": 4014882997, "lat": 59.3668133, "lon": 16.5078975, "tags": {"addr:city": "Eskilstuna", "addr:country": "SE", "addr:housenumber": "2", "addr:postcode": "63220", "addr:street": "J\u00e4rntorget", "amenity": "restaurant", "cuisine": "international", "name": "Biografbaren"}}, {"type": "node", "id": 4230990170, "lat": 59.3730027, "lon": 16.4834316}, {"type": "node", "id": 4230990171, "lat": 59.3731458, "lon": 16.48392}, {"type": "node", "id": 4230990172, "lat": 59.3731592, "lon": 16.4839049}, {"type": "node", "id": 4230990173, "lat": 59.3731845, "lon": 16.4839913}, {"type": "node", "id": 4230990174, "lat": 59.3729832, "lon": 16.4842185}, {"type": "node", "id": 4230990175, "lat": 59.3729102, "lon": 16.4839691}, {"type": "node", "id": 4230990176, "lat": 59.3728633, "lon": 16.484022}, {"type": "node", "id": 4230990177, "lat": 59.3727844, "lon": 16.4837526}, {"type": "node", "id": 4230990178, "lat": 59.3728249, "lon": 16.4837068}, {"type": "node", "id": 4230990179, "lat": 59.3728085, "lon": 16.4836509}, {"type": "node", "id": 4336748905, "lat": 59.3691147, "lon": 16.5109787, "tags": {"amenity": "restaurant", "cuisine": "pizza", "name": "American Pizza Today", "phone": "+46 (0) 16 131813"}}, {"type": "node", "id": 4336777401, "lat": 59.3708024, "lon": 16.5090133, "tags": {"amenity": "restaurant", "cuisine": "pizza;kebab;hamburger", "name": "pepperoni"}}, {"type": "node", "id": 4336784243, "lat": 59.3709478, "lon": 16.5085584, "tags": {"amenity": "cafe", "name": "Caf\u00e9 Macciato"}}, {"type": "node", "id": 4336841391, "lat": 59.3708839, "lon": 16.5082033, "tags": {"amenity": "restaurant", "cuisine": "chinese", "name": "Xuan"}}, {"type": "node", "id": 4336842089, "lat": 59.3699422, "lon": 16.5066984, "tags": {"amenity": "restaurant", "name": "Macbeth"}}, {"type": "node", "id": 4383208492, "lat": 59.2063172, "lon": 16.2336145, "tags": {"amenity": "restaurant", "name": "Magdakullan", "opening_hours": "Fr 16:00-22:00, Sa-Su 10:00-16:00", "phone": "+46-16-80018", "shop": "supermarket", "website": "https://www.magdakullan.se/"}}, {"type": "node", "id": 4383214891, "lat": 59.3738304, "lon": 16.5073832, "tags": {"amenity": "restaurant", "name": "Jernberghska Krog"}}, {"type": "node", "id": 4383348489, "lat": 59.3725426, "lon": 16.5071756, "tags": {"addr:city": "Eskilstuna", "addr:country": "SE", "addr:housenumber": "43", "addr:street": "Kungsgatan", "amenity": "restaurant"}}, {"type": "node", "id": 4823399258, "lat": 59.3328342, "lon": 17.0657328, "tags": {"addr:street": "Malmbyhus", "amenity": "restaurant", "name": "Megs k\u00f6k & Trevligt", "opening_hours": "Mo-Fr 9:00-14:00", "phone": "+46-152-71 45 10", "website": "http://www.megs.se"}}, {"type": "node", "id": 5077017868, "lat": 59.294339, "lon": 16.5405405}, {"type": "node", "id": 5077017869, "lat": 59.2943321, "lon": 16.5406344}, {"type": "node", "id": 5077017870, "lat": 59.2944619, "lon": 16.5406707}, {"type": "node", "id": 5077017871, "lat": 59.2944688, "lon": 16.5405768}, {"type": "node", "id": 5334934485, "lat": 59.3923881, "lon": 16.4983895, "tags": {"amenity": "restaurant", "cuisine": "pizza", "name": "M\u00e5stapizzeria"}}, {"type": "node", "id": 5389494888, "lat": 59.3697371, "lon": 17.0148135}, {"type": "node", "id": 5389494889, "lat": 59.3696051, "lon": 17.0147448}, {"type": "node", "id": 5637651875, "lat": 59.4177778, "lon": 16.4735829, "tags": {"addr:city": "Torsh\u00e4lla", "addr:country": "SE", "addr:housenumber": "11", "addr:postcode": "64432", "addr:street": "Eskilstunav\u00e4gen", "amenity": "restaurant", "cuisine": "pizza", "name": "Montana Pizzeria", "phone": "+46-16-123822"}}, {"type": "node", "id": 5663342321, "lat": 59.3670816, "lon": 16.5100832, "tags": {"addr:country": "SE", "addr:housenumber": "1", "addr:street": "\u00d6stra \u00c5sgatan", "amenity": "restaurant", "cuisine": "thai", "name": "Laan Thong"}}, {"type": "node", "id": 5663370250, "lat": 59.3661562, "lon": 16.5080233, "tags": {"amenity": "restaurant", "name": "Eskilstuna Kolgrill"}}, {"type": "node", "id": 5663426747, "lat": 59.3670672, "lon": 16.5044639, "tags": {"amenity": "restaurant", "name": "Pizzeria Grodan"}}, {"type": "node", "id": 5738706926, "lat": 59.3769003, "lon": 16.5245807}, {"type": "node", "id": 5738706927, "lat": 59.3767324, "lon": 16.5244}, {"type": "node", "id": 5738706928, "lat": 59.376679, "lon": 16.5245913}, {"type": "node", "id": 5738706929, "lat": 59.3768469, "lon": 16.524772}, {"type": "node", "id": 5770249826, "lat": 59.3691889, "lon": 16.494536}, {"type": "node", "id": 5770249827, "lat": 59.369145, "lon": 16.4948548}, {"type": "node", "id": 5770249828, "lat": 59.369236, "lon": 16.4949031}, {"type": "node", "id": 5770249829, "lat": 59.3692799, "lon": 16.4945844}, {"type": "node", "id": 5770249830, "lat": 59.3692041, "lon": 16.4945441}, {"type": "node", "id": 5773010570, "lat": 59.3599132, "lon": 16.494774}, {"type": "node", "id": 5773010571, "lat": 59.3598586, "lon": 16.4948822}, {"type": "node", "id": 5773010572, "lat": 59.3599127, "lon": 16.4949874}, {"type": "node", "id": 5773010573, "lat": 59.3599673, "lon": 16.4948792}, {"type": "node", "id": 5775491188, "lat": 59.3562655, "lon": 16.4884141}, {"type": "node", "id": 5775491189, "lat": 59.3561944, "lon": 16.4885496}, {"type": "node", "id": 5775491190, "lat": 59.3560357, "lon": 16.4882289}, {"type": "node", "id": 5775491191, "lat": 59.3561069, "lon": 16.4880934}, {"type": "node", "id": 5861381909, "lat": 59.4916762, "lon": 17.004316, "tags": {"amenity": "cafe", "name": "Sund \u00f6rtag\u00e5rd"}}, {"type": "node", "id": 6574485285, "lat": 59.3768928, "lon": 16.5009689, "tags": {"amenity": "restaurant", "cuisine": "thai", "name": "Bangkok express", "opening_hours": "Mo-Fr 11:00-20:00; Sa-Su 12:00-20:00"}}, {"type": "node", "id": 7184886014, "lat": 59.3723202, "lon": 16.5156762, "tags": {"amenity": "restaurant", "name": "Y-Won Bar & Grill"}}, {"type": "node", "id": 7184886016, "lat": 59.3717572, "lon": 16.5161241, "tags": {"amenity": "restaurant", "name": "Gr\u00e4nden Bistro & Taverna"}}, {"type": "node", "id": 7197148133, "lat": 59.3718262, "lon": 16.5100144, "tags": {"addr:city": "Eskilstuna", "addr:country": "SE", "addr:housenumber": "24", "addr:postcode": "632 20", "addr:street": "Kungsgatan", "amenity": "restaurant", "cuisine": "sushi", "diet:vegan": "yes", "diet:vegetarian": "yes", "microbrewery": "no", "name": "Sushi Yama Dim Sum", "opening_hours": "Mo-Fr 10:00-20:00; Sa 10:00-18:00, Su 11:00-18:00", "outdoor_seating": "yes", "phone": "+46 16 122 000", "website": "https://www.sushiyama.se/"}}, {"type": "node", "id": 7200870655, "lat": 59.3709421, "lon": 16.5121105, "tags": {"addr:city": "Eskilstuna", "addr:country": "SE", "addr:housenumber": "21", "addr:postcode": "632 20", "addr:street": "Kungsgatan", "amenity": "restaurant", "cuisine": "sushi", "name": "Sushi Yama", "opening_hours": "Mo-Fr 10:00-19:00; Sa 10:00-16:00; Su 12:00-16:00", "phone": "+46 16 12 11 20", "website": "https://www.sushiyama.se/"}}, {"type": "node", "id": 7291060694, "lat": 59.3372032, "lon": 17.0221738, "tags": {"amenity": "cafe", "name": "Printz Bageri"}}, {"type": "node", "id": 7313817162, "lat": 59.3776307, "lon": 17.0299539, "tags": {"amenity": "restaurant", "cuisine": "thai", "name": "Patumma Thai"}}, {"type": "node", "id": 7400964468, "lat": 59.38334, "lon": 16.6766976, "tags": {"amenity": "restaurant", "cuisine": "pizza", "name": "Kjula Pizzeria"}}, {"type": "node", "id": 7414465110, "lat": 59.3708318, "lon": 16.5147746, "tags": {"amenity": "cafe", "brand": "Caff\u00e8 Nero", "bulk_purchase": "yes", "name": "Caff\u00e8 Nero"}}, {"type": "node", "id": 7707777959, "lat": 59.3695737, "lon": 16.4792895}, {"type": "node", "id": 7707777960, "lat": 59.3696892, "lon": 16.4792737}, {"type": "node", "id": 7707777961, "lat": 59.3696995, "lon": 16.4798501}, {"type": "node", "id": 7707777962, "lat": 59.3697111, "lon": 16.4798511}, {"type": "node", "id": 7707777963, "lat": 59.3697117, "lon": 16.479914}, {"type": "node", "id": 7707777964, "lat": 59.3695831, "lon": 16.4798441}, {"type": "node", "id": 7707777965, "lat": 59.369577, "lon": 16.4794713}, {"type": "node", "id": 7778968160, "lat": 59.5242812, "lon": 16.2683877}, {"type": "node", "id": 7778968161, "lat": 59.5241666, "lon": 16.2683861}, {"type": "node", "id": 7778968162, "lat": 59.5241659, "lon": 16.2685725}, {"type": "node", "id": 7778968163, "lat": 59.5242777, "lon": 16.2685741}, {"type": "node", "id": 7778968164, "lat": 59.5242771, "lon": 16.2687335}, {"type": "node", "id": 7778968165, "lat": 59.5243867, "lon": 16.268735}, {"type": "node", "id": 7778968166, "lat": 59.5243885, "lon": 16.2682301}, {"type": "node", "id": 7778968167, "lat": 59.5242818, "lon": 16.2682286}, {"type": "node", "id": 7942325467, "lat": 59.5316669, "lon": 16.7603025, "tags": {"amenity": "cafe"}}, {"type": "node", "id": 8589300217, "lat": 59.3716209, "lon": 16.5146202, "tags": {"amenity": "restaurant", "check_date": "2022-07-19", "internet_access": "wlan", "name": "Mocca Deli"}}, {"type": "node", "id": 8676893853, "lat": 59.3777546, "lon": 17.0076848, "tags": {"addr:city": "Str\u00e4ngn\u00e4s", "addr:country": "SE", "addr:housenumber": "34", "addr:postcode": "64534", "addr:street": "Eskilstunav\u00e4gen", "amenity": "nightclub", "name": "Zatine", "phone": "+46 152 189 55"}}, {"type": "node", "id": 8916175397, "lat": 59.3651078, "lon": 16.6827446, "tags": {"amenity": "restaurant", "cuisine": "hambugare", "diet:vegan": "yes", "diet:vegetarian": "yes", "name": "Burgeriet"}}, {"type": "node", "id": 8920399950, "lat": 59.3691745, "lon": 16.5334144, "tags": {"amenity": "restaurant", "bar": "no", "cuisine": "burger", "microbrewery": "no", "name": "Djurg\u00e5rds Grillen"}}, {"type": "node", "id": 8922242668, "lat": 59.3714659, "lon": 16.5116471, "tags": {"addr:city": "Eskilstuna", "addr:country": "SE", "addr:housenumber": "7", "addr:street": "Kriebsensgatan", "air_conditioning": "yes", "amenity": "restaurant", "capacity": "34", "cuisine": "sushi", "delivery": "yes", "diet:vegan": "yes", "diet:vegetarian": "yes", "email": "sushiyann.eskilstuna@gmail.com", "microbrewery": "no", "name": "Sushi Yann", "opening_hours": "Mo-Fr 10:45-20:00; Sa 11:30-20:00", "outdoor_seating": "yes", "phone": "+46 16 14 00 88", "takeaway": "yes", "website": "http://sushiyann.se"}}, {"type": "node", "id": 8922399371, "lat": 59.3716962, "lon": 16.5097877, "tags": {"amenity": "restaurant", "cuisine": "sushi", "name": "Truly Sushi"}}, {"type": "node", "id": 8922399382, "lat": 59.3713023, "lon": 16.5110836, "tags": {"amenity": "cafe", "brand": "Espresso House", "brand:wikidata": "Q10489162", "brand:wikipedia": "en:Espresso House", "cuisine": "coffee_shop", "name": "Espresso House", "takeaway": "yes"}}, {"type": "node", "id": 8926374280, "lat": 59.3712173, "lon": 16.5110037, "tags": {"amenity": "restaurant", "name": "Papas Andra Sidan Tapas"}}, {"type": "node", "id": 8960830041, "lat": 59.1502301, "lon": 16.4965334, "tags": {"amenity": "restaurant", "cuisine": "pizza"}}, {"type": "node", "id": 9422350555, "lat": 59.32811, "lon": 16.4820304, "tags": {"amenity": "restaurant", "name": "Skogstorp Pizzeria"}}, {"type": "node", "id": 9883723834, "lat": 59.3696131, "lon": 16.4799122}, {"type": "node", "id": 9883723836, "lat": 59.3695734, "lon": 16.4792727}, {"type": "node", "id": 9896836380, "lat": 59.3717031, "lon": 16.5141486, "tags": {"amenity": "cafe", "check_date": "2022-07-19", "name": "L\u00e4ngtan"}}, {"type": "node", "id": 9897144559, "lat": 59.3887971, "lon": 16.4518707, "tags": {"amenity": "cafe", "check_date": "2022-07-19", "level": "1"}}, {"type": "node", "id": 9929429253, "lat": 59.3772136, "lon": 16.5142146, "tags": {"addr:city": "Eskilstuna", "addr:country": "SE", "addr:housenumber": "12", "addr:postcode": "63342", "addr:street": "V\u00e4stra Storgatan", "amenity": "restaurant", "cuisine": "sushi", "diet:vegan": "yes", "diet:vegetarian": "yes", "name": "Eskilstuna Sushi Bar", "outdoor_seating": "yes", "phone": "+46 16-12 68 88", "website": "https://eskilstunasushibar.se"}}, {"type": "node", "id": 9931614553, "lat": 59.3742206, "lon": 16.5076351, "tags": {"amenity": "cafe", "diet:gluten_free": "yes", "diet:vegan": "yes", "diet:vegetarian": "yes", "email": "info@fristadenscafe.se", "name": "Fristadens Cafe Och V\u00e5ffla", "phone": "+46 16-700 96", "website": "https://www.fristadenscafe.se"}}, {"type": "node", "id": 10560341907, "lat": 59.3731075, "lon": 16.4840782}, {"type": "node", "id": 10702728186, "lat": 59.3787107, "lon": 17.0260119, "tags": {"addr:city": "Str\u00e4ngn\u00e4s", "addr:housenumber": "1", "addr:postcode": "64533", "addr:street": "V\u00e4sterviksparken", "amenity": "cafe", "cuisine": "dessert;ice_cream", "name": "Glass!!!\ud83c\udf66- Str\u00e4ngn\u00e4s Hamn", "outdoor_seating": "yes", "website": "www.glassbar.one"}}, {"type": "node", "id": 11047903344, "lat": 59.3669978, "lon": 16.5213619, "tags": {"amenity": "restaurant", "cuisine": "pizza", "name": "Bari Pizza"}}, {"type": "node", "id": 11069642663, "lat": 59.1379088, "lon": 16.7223057, "tags": {"amenity": "restaurant", "cuisine": "regional", "level": "1", "name": "Hjorten & G\u00f6sen", "opening_hours": "Mo-Sa 17:00-20:00", "wheelchair": "yes"}}, {"type": "node", "id": 11081774488, "lat": 59.3672103, "lon": 16.5352837, "tags": {"amenity": "restaurant", "name": "Pilkrog"}}, {"type": "node", "id": 11085880305, "lat": 59.1336806, "lon": 16.7264337, "tags": {"addr:city": "Malmk\u00f6ping", "addr:housenumber": "37", "addr:postcode": "64260", "addr:street": "Landsv\u00e4gsgatan", "amenity": "restaurant", "name": "Star", "opening_hours": "Mo-Su 11:00-21:00", "phone": "+46 157 21241"}}, {"type": "way", "id": 98737956, "nodes": [1142294510, 1142294290, 1142294579, 1142294179, 1142294510], "tags": {"amenity": "restaurant", "building": "yes", "historic": "castle", "name": "Sundbyholms slott", "source": "Bing", "tourism": "hotel", "website": "https://www.sundbyholms-slott.se/", "wikidata": "Q1566274", "wikipedia": "sv:Sundbyholms slott"}}, {"type": "way", "id": 127731641, "nodes": [1413119905, 1413119909, 1413119903, 1413119912, 1413119907, 1413119913, 1413119908, 1413119916, 1413119910, 1413119906, 1413119914, 1413119905], "tags": {"amenity": "restaurant", "building": "yes", "name": "Brunnsta-V\u00e4rdshus", "operator": "Amica"}}, {"type": "way", "id": 144475224, "nodes": [1580278584, 1580278567, 1580278591, 5389494888, 1580278563, 5389494889, 1580278584], "tags": {"addr:city": "Str\u00e4ngn\u00e4s", "addr:country": "SE", "addr:housenumber": "31", "addr:postcode": "64542", "addr:street": "Vallbyv\u00e4gen", "amenity": "restaurant", "building": "yes", "cuisine": "pizza", "name": "Kings Pizzeria", "source": "Bing"}}, {"type": "way", "id": 158972733, "nodes": [1710821141, 1710821142, 1710821148, 1710821146, 1710821151, 1710821150, 1710821152, 1710821149, 1710821147, 1710821145, 1710821140, 1710821139, 1710821133, 1710821134, 1710821131, 1710821135, 1710821141], "tags": {"amenity": "cafe"}}, {"type": "way", "id": 208350524, "nodes": [2186486057, 2186486056, 2186486054, 2186486055, 2186486057], "tags": {"amenity": "restaurant", "building": "yes", "cuisine": "pizza", "name": "Dammens Pizzeria"}}, {"type": "way", "id": 215052664, "nodes": [2244730499, 2244730515, 2244730815, 2244730765, 2244730499], "tags": {"alt_name": "Engs\u00f6 slott", "amenity": "cafe", "building": "yes", "historic": "castle", "name": "\u00c4ngs\u00f6 slott", "start_date": "1100s", "tourism": "museum", "wheelchair": "no", "wikidata": "Q4992715", "wikipedia": "sv:\u00c4ngs\u00f6 slott"}}, {"type": "way", "id": 215319850, "nodes": [2247266873, 2247266832, 2247266875, 2247266849, 2247266873], "tags": {"amenity": "cafe", "building": "yes", "cuisine": "seafood", "wheelchair": "yes"}}, {"type": "way", "id": 218558470, "nodes": [2277990216, 2277990271, 2277990176, 2277990162, 2277990241, 2277990256, 2277990330, 2277990149, 2277990181, 2277990185, 2277990190, 2277990207, 2277990222, 2277990336, 2277990216], "tags": {"addr:city": "Torsh\u00e4lla", "addr:country": "SE", "addr:housenumber": "2", "addr:postcode": "64432", "addr:street": "Ges\u00e4llgr\u00e4nd", "amenity": "cafe", "building": "yes", "name": "Caf\u00e9 Gr\u00f6na Villan", "opening_hours": "Mo-Su 10:00-17:00", "outdoor_seating": "yes", "website": "https://www.cafegronavillan.se/"}}, {"type": "way", "id": 219159933, "nodes": [2272679498, 2283575184, 2283575137, 2283575194, 2283575317, 2283575097, 2283575327, 2283575135, 2283575105, 2283575367, 2283575224, 2283575054, 2283575064, 2283575071, 2272679498], "tags": {"amenity": "restaurant", "building": "yes", "name": "Hamnrestaurangen"}}, {"type": "way", "id": 367268686, "nodes": [3712141189, 3712141185, 3712141184, 3712141188, 3712141189], "tags": {"addr:city": "H\u00e5llsta", "addr:country": "SE", "addr:housenumber": "5", "addr:postcode": "63370", "addr:street": "Byringev\u00e4gen", "amenity": "restaurant", "building": "retail", "cuisine": "pizza", "name": "H\u00e5llsta Pizzeria", "phone": "+46-16-210 30", "takeaway": "yes"}}, {"type": "way", "id": 423500922, "nodes": [4230990170, 4230990171, 4230990172, 4230990173, 10560341907, 4230990174, 4230990175, 4230990176, 4230990177, 4230990178, 4230990179, 4230990170], "tags": {"amenity": "restaurant", "building": "yes", "name": "Morris"}}, {"type": "way", "id": 521003043, "nodes": [5077017871, 5077017870, 5077017869, 5077017868, 5077017871], "tags": {"amenity": "restaurant", "bar": "yes", "building": "yes", "cuisine": "pizza;burger", "name": "\u00d6rsta Grill, Restaurang och Livs"}}, {"type": "way", "id": 604926017, "nodes": [5738706926, 5738706927, 5738706928, 5738706929, 5738706926], "tags": {"amenity": "restaurant", "building": "yes"}}, {"type": "way", "id": 609199041, "nodes": [5770249826, 5770249827, 5770249828, 5770249829, 5770249830, 5770249826], "tags": {"amenity": "restaurant", "building": "yes"}}, {"type": "way", "id": 609495070, "nodes": [5773010570, 5773010571, 5773010572, 5773010573, 5773010570], "tags": {"amenity": "restaurant", "building": "yes"}}, {"type": "way", "id": 609785848, "nodes": [5775491188, 5775491189, 5775491190, 5775491191, 5775491188], "tags": {"amenity": "restaurant", "building": "yes", "name": "Pizzeria M\u00e5let"}}, {"type": "way", "id": 825478780, "nodes": [7707777965, 7707777964, 9883723834, 7707777963, 7707777962, 7707777961, 7707777960, 9883723836, 7707777959, 7707777965], "tags": {"amenity": "restaurant", "building": "yes", "name": "Restaurang Stationen"}}, {"type": "way", "id": 833311873, "nodes": [7778968167, 7778968166, 7778968165, 7778968164, 7778968163, 7778968162, 7778968161, 7778968160, 7778968167], "tags": {"amenity": "cafe", "building": "yes", "name": "Str\u00f6msholms Slottscafe", "outdoor_seating": "yes", "website": "https://www.kungligaslotten.se/vara-besoksmal/stromsholms-slott/kafe.html"}}]}