{"version": 0.6, "generator": "Overpass API 0.7.61.5 4133829e", "osm3s": {"timestamp_osm_base": "2024-03-13T23:10:01Z", "copyright": "The data included in this document is from www.openstreetmap.org. The data is made available under ODbL."}, "elements": [{"type": "node", "id": 1430155780, "lat": 41.6400099, "lon": 41.6112917}, {"type": "node", "id": 1430155787, "lat": 41.6305938, "lon": 41.6082739, "tags": {"addr:housenumber": "28", "addr:street": "\u10d0\u10dc\u10d2\u10d8\u10e1\u10d8\u10e1 \u10e5\u10e3\u10e9\u10d0", "amenity": "restaurant", "check_date": "2022-12-04", "cuisine": "georgian", "internet_access": "wlan", "name": "\u10d0\u10e0 \u10d3\u10d0\u10d8\u10d3\u10d0\u10e0\u10d3\u10dd", "name:en": "Ar Daidardo", "name:ka": "\u10d0\u10e0 \u10d3\u10d0\u10d8\u10d3\u10d0\u10e0\u10d3\u10dd", "source": "JumpStart International", "wheelchair": "limited"}}, {"type": "node", "id": 1430156086, "lat": 41.6360029, "lon": 41.6128629, "tags": {"amenity": "cafe", "check_date": "2023-06-10", "cuisine": "coffee_shop", "level": "0", "name": "Coffee Mark", "source": "JumpStart International", "wheelchair": "no"}}, {"type": "node", "id": 3681432554, "lat": 41.6392893, "lon": 41.6096318}, {"type": "node", "id": 3681432556, "lat": 41.6394185, "lon": 41.6094293}, {"type": "node", "id": 3681432557, "lat": 41.6394388, "lon": 41.6098088}, {"type": "node", "id": 3681432560, "lat": 41.63957, "lon": 41.6096103}, {"type": "node", "id": 4117445610, "lat": 41.6355333, "lon": 41.6061462}, {"type": "node", "id": 4117445614, "lat": 41.6355634, "lon": 41.6061003}, {"type": "node", "id": 4117445621, "lat": 41.635628, "lon": 41.6060115}, {"type": "node", "id": 4117445622, "lat": 41.6357114, "lon": 41.6062384}, {"type": "node", "id": 4117445623, "lat": 41.6356948, "lon": 41.6060205}, {"type": "node", "id": 4117445624, "lat": 41.6356721, "lon": 41.6063145}, {"type": "node", "id": 4117445625, "lat": 41.6357572, "lon": 41.6060978}, {"type": "node", "id": 4117445626, "lat": 41.6357185, "lon": 41.6062478}, {"type": "node", "id": 4126869099, "lat": 41.606262, "lon": 41.6143664, "tags": {"amenity": "restaurant", "name": "\u10d7\u10e3\u10e0\u10e5\u10e3\u10da\u10d8 \u10e0\u10d4\u10e1\u10e2\u10dd\u10e0\u10d0\u10dc\u10d8"}}, {"type": "node", "id": 4231395372, "lat": 41.6398905, "lon": 41.6113422}, {"type": "node", "id": 4231395373, "lat": 41.6399056, "lon": 41.6114327}, {"type": "node", "id": 4231395374, "lat": 41.6399319, "lon": 41.6113971}, {"type": "node", "id": 4231395375, "lat": 41.6399412, "lon": 41.6112736}, {"type": "node", "id": 4231395376, "lat": 41.6399715, "lon": 41.61152}, {"type": "node", "id": 4231395377, "lat": 41.6399827, "lon": 41.6113284}, {"type": "node", "id": 4231395378, "lat": 41.6400758, "lon": 41.611379}, {"type": "node", "id": 4256187866, "lat": 41.554605, "lon": 41.5660917, "tags": {"amenity": "cafe", "name": "Capitan"}}, {"type": "node", "id": 4282102591, "lat": 41.5547835, "lon": 41.5663803, "tags": {"amenity": "cafe"}}, {"type": "node", "id": 4328504489, "lat": 41.5641224, "lon": 41.5709589, "tags": {"amenity": "restaurant"}}, {"type": "node", "id": 4330877400, "lat": 41.5693787, "lon": 41.5709783, "tags": {"amenity": "restaurant", "check_date": "2023-02-11"}}, {"type": "node", "id": 4330877401, "lat": 41.5694672, "lon": 41.5710603, "tags": {"amenity": "cafe", "check_date": "2023-02-11"}}, {"type": "node", "id": 4330886297, "lat": 41.5650396, "lon": 41.5701361, "tags": {"amenity": "restaurant", "check_date": "2023-02-11", "name": "Deniz"}}, {"type": "node", "id": 4330886299, "lat": 41.5683259, "lon": 41.5703879, "tags": {"amenity": "restaurant", "name": "Arif Borgka"}}, {"type": "node", "id": 4330921492, "lat": 41.5675923, "lon": 41.5706824, "tags": {"amenity": "restaurant", "check_date": "2023-02-11", "cuisine": "turkish", "name": "Ayder Restaurant"}}, {"type": "node", "id": 4330922191, "lat": 41.5687229, "lon": 41.5693584, "tags": {"amenity": "restaurant"}}, {"type": "node", "id": 4336850893, "lat": 41.5569065, "lon": 41.5674402, "tags": {"amenity": "bar"}}, {"type": "node", "id": 4336879889, "lat": 41.5565218, "lon": 41.5707406, "tags": {"addr:street": "Svimon Kananelli Deadlock 2", "amenity": "restaurant", "cuisine": "georgian", "internet_access": "wlan", "name": "Dedani Restaurant", "phone": "+995593366161"}}, {"type": "node", "id": 4393775073, "lat": 41.5656262, "lon": 41.5658176, "tags": {"amenity": "cafe"}}, {"type": "node", "id": 4393775074, "lat": 41.5662663, "lon": 41.5658665, "tags": {"amenity": "cafe"}}, {"type": "node", "id": 4451859497, "lat": 41.6342612, "lon": 41.6078508, "tags": {"addr:city": "\u10d1\u10d0\u10d7\u10e3\u10db\u10d8", "addr:country": "GE", "addr:housenumber": "4", "addr:postcode": "6000", "addr:street": "\u10d9\u10dd\u10d1\u10d0\u10da\u10d0\u10eb\u10d8\u10e1 \u10e5\u10e3\u10e9\u10d0", "amenity": "cafe", "check_date": "2022-09-11", "contact:facebook": "https://www.facebook.com/cafetangerine/", "description": "\u041b\u0430\u043a\u043e\u043d\u0438\u0447\u043d\u044b\u0439 \u0438\u043d\u0442\u0435\u0440\u044c\u0435\u0440, \u0443\u0434\u043e\u0431\u043d\u0430\u044f \u043c\u0435\u0431\u0435\u043b\u044c \u0438 \u043b\u0435\u0433\u043a\u0430\u044f \u043c\u0443\u0437\u044b\u043a\u0430 \u0432 \u0437\u0430\u043b\u0435 \u043a\u0430\u0444\u0435 Tangerine \u0441\u043e\u0437\u0434\u0430\u044e\u0442 \u043f\u0440\u0438\u044f\u0442\u043d\u0443\u044e \u0430\u0442\u043c\u043e\u0441\u0444\u0435\u0440\u0443 \u043a\u043e\u043c\u0444\u043e\u0440\u0442\u0430. \u0412 \u043c\u0435\u043d\u044e \u043f\u0440\u0435\u0434\u0441\u0442\u0430\u0432\u043b\u0435\u043d\u044b \u0431\u043b\u044e\u0434\u0430 \u0433\u0440\u0443\u0437\u0438\u043d\u0441\u043a\u043e\u0439 \u0438 \u0435\u0432\u0440\u043e\u043f\u0435\u0439\u0441\u043a\u043e\u0439 \u043a\u0443\u0445\u043d\u0438.", "internet_access": "yes", "name:en": "Tangerine", "opening_hours": "07:00-24:00", "outdoor_seating": "yes", "payment:mastercard": "yes", "payment:visa": "yes", "wheelchair": "limited"}}, {"type": "node", "id": 5154119108, "lat": 41.6390475, "lon": 41.6100107}, {"type": "node", "id": 5154119109, "lat": 41.63922, "lon": 41.6102311}, {"type": "node", "id": 5154119632, "lat": 41.639292, "lon": 41.6101303}, {"type": "node", "id": 5154119633, "lat": 41.6391195, "lon": 41.6099098}, {"type": "node", "id": 5157862760, "lat": 41.629592, "lon": 41.5996175}, {"type": "node", "id": 5157862761, "lat": 41.6295609, "lon": 41.599604}, {"type": "node", "id": 5157862762, "lat": 41.6295298, "lon": 41.5996161}, {"type": "node", "id": 5157862763, "lat": 41.6295093, "lon": 41.5996537}, {"type": "node", "id": 5157862764, "lat": 41.6295108, "lon": 41.5996872}, {"type": "node", "id": 5157862765, "lat": 41.6295298, "lon": 41.5997247}, {"type": "node", "id": 5157862766, "lat": 41.6295809, "lon": 41.599769}, {"type": "node", "id": 5157862767, "lat": 41.6296271, "lon": 41.5998106}, {"type": "node", "id": 5157862768, "lat": 41.6296531, "lon": 41.5998052}, {"type": "node", "id": 5157862769, "lat": 41.6296747, "lon": 41.59983}, {"type": "node", "id": 5157862770, "lat": 41.6296997, "lon": 41.5998501}, {"type": "node", "id": 5157862771, "lat": 41.6297363, "lon": 41.5998448}, {"type": "node", "id": 5157862772, "lat": 41.6297609, "lon": 41.5998146}, {"type": "node", "id": 5157862773, "lat": 41.6297684, "lon": 41.5997636}, {"type": "node", "id": 5157862774, "lat": 41.6297463, "lon": 41.5997274}, {"type": "node", "id": 5157862775, "lat": 41.6297674, "lon": 41.5996939}, {"type": "node", "id": 5157862776, "lat": 41.6297784, "lon": 41.599647}, {"type": "node", "id": 5157862777, "lat": 41.6297644, "lon": 41.599592}, {"type": "node", "id": 5157862778, "lat": 41.6297343, "lon": 41.5995558}, {"type": "node", "id": 5157862779, "lat": 41.6296882, "lon": 41.5995504}, {"type": "node", "id": 5157862780, "lat": 41.6296631, "lon": 41.5994914}, {"type": "node", "id": 5157862781, "lat": 41.6296271, "lon": 41.599482}, {"type": "node", "id": 5157862782, "lat": 41.629597, "lon": 41.5995061}, {"type": "node", "id": 5157862783, "lat": 41.6295839, "lon": 41.5995383}, {"type": "node", "id": 5157862784, "lat": 41.6296, "lon": 41.5996014}, {"type": "node", "id": 5160639022, "lat": 41.6345269, "lon": 41.6083098, "tags": {"addr:city": "\u10d1\u10d0\u10d7\u10e3\u10db\u10d8", "addr:country": "GE", "addr:housenumber": "4", "addr:postcode": "6000", "addr:street": "\u10d9\u10dd\u10d1\u10d0\u10da\u10d0\u10eb\u10d8\u10e1 \u10e5\u10e3\u10e9\u10d0", "amenity": "restaurant", "check_date": "2022-09-11", "contact:facebook": "https://www.facebook.com/Bellissimobatumi/", "cuisine": "pizza;regional;italian", "indoor_seating": "yes", "internet_access": "wlan", "internet_access:fee": "customers", "level": "0", "name": "\u10d1\u10d4\u10da\u10d8\u10e1\u10d8\u10db\u10dd", "name:en": "Bellissimo", "name:ka": "\u10d1\u10d4\u10da\u10d8\u10e1\u10d8\u10db\u10dd", "name:ru": "\u0411\u0435\u043b\u043b\u0438\u0441\u0441\u0438\u043c\u043e", "opening_hours": "Mo-Su 09:00-00:00", "outdoor_seating": "yes", "payment:credit_cards": "yes", "payment:debit_cards": "yes", "phone": "+995 557 32 43 55", "wheelchair": "yes"}}, {"type": "node", "id": 5703619321, "lat": 41.5453491, "lon": 41.5620812, "tags": {"amenity": "cafe", "name:ru": "\u0424\u0440\u0438\u0434\u0430"}}, {"type": "node", "id": 5936423285, "lat": 41.6270128, "lon": 41.6006955, "tags": {"amenity": "restaurant", "name": "\u10d4\u10d9\u10da\u10d8\u10e4\u10e1\u10d8", "name:en": "Eclipse"}}, {"type": "node", "id": 5937282435, "lat": 41.6397716, "lon": 41.6108436, "tags": {"addr:housenumber": "9/11", "addr:street": "\u10e8\u10d4\u10e0\u10d8\u10e4 \u10ee\u10d8\u10db\u10e8\u10d8\u10d0\u10e8\u10d5\u10d8\u10da\u10d8\u10e1 \u10e5\u10e3\u10e9\u10d0", "amenity": "restaurant", "check_date": "2023-06-16", "check_date:opening_hours": "2023-02-28", "indoor_seating": "yes", "name": "\u10d9\u10dd\u10e8\u10d9\u10d8", "name:en": "Tower", "name:ka": "\u10d9\u10dd\u10e8\u10d9\u10d8", "opening_hours:signed": "no", "outdoor_seating": "yes"}}, {"type": "node", "id": 6335387385, "lat": 41.5488138, "lon": 41.5629898, "tags": {"amenity": "restaurant", "name:en": "Neptun Restaurant", "name:ru": "\u0420\u0435\u0441\u0442\u043e\u0440\u0430\u043d \u041d\u0435\u043f\u0442\u0443\u043d"}}, {"type": "node", "id": 6532206185, "lat": 41.540663, "lon": 41.5650376, "tags": {"amenity": "cafe", "internet_access": "wlan", "name": "Trout bar Eagle", "name:ru": "\u0416\u0438\u0432\u0430\u044f \u0444\u043e\u0440\u0435\u043b\u044c \u041e\u0440\u0451\u043b", "phone": "593494005"}}, {"type": "node", "id": 6624373085, "lat": 41.6382286, "lon": 41.6090552, "tags": {"addr:housenumber": "16", "addr:street": "\u10e8\u10d4\u10e0\u10d8\u10e4 \u10ee\u10d8\u10db\u10e8\u10d8\u10d0\u10e8\u10d5\u10d8\u10da\u10d8\u10e1 \u10e5\u10e3\u10e9\u10d0", "alt_name": "Spice Garden Indian & Halal Restaurant", "amenity": "restaurant", "check_date": "2023-06-26", "cuisine": "indian", "indoor_seating": "yes", "name": "\u10e1\u10de\u10d0\u10d8\u10e1 \u10d2\u10d0\u10e0\u10d3\u10d4\u10dc\u10d8", "name:en": "Spice Garden Batumi", "name:ka": "\u10e1\u10de\u10d0\u10d8\u10e1 \u10d2\u10d0\u10e0\u10d3\u10d4\u10dc\u10d8", "opening_hours": "Mo-Su 11:00-01:00", "outdoor_seating": "no", "phone": "+995 596 12 50 50", "website": "https://spicegarden.co/", "wheelchair": "no"}}, {"type": "node", "id": 6670118885, "lat": 41.6311943, "lon": 41.609584, "tags": {"air_conditioning": "yes", "amenity": "cafe", "check_date": "2022-12-04", "cuisine": "georgian", "indoor_seating": "yes", "name": "\u10e2\u10e0\u10d0\u10d3\u10d8\u10ea\u10d8\u10e3\u10da\u10d8", "name:en": "Traditional", "name:eo": "Tradiciuli", "name:ka": "\u10e2\u10e0\u10d0\u10d3\u10d8\u10ea\u10d8\u10e3\u10da\u10d8", "opening_hours": "09:00-24:00", "outdoor_seating": "yes", "payment:mastercard": "yes", "payment:visa": "yes", "wheelchair": "limited"}}, {"type": "node", "id": 6703088887, "lat": 41.6330273, "lon": 41.6110207, "tags": {"addr:housenumber": "16", "addr:street": "\u10d9\u10dd\u10d1\u10d0\u10da\u10d0\u10eb\u10d8\u10e1 \u10e5\u10e3\u10e9\u10d0", "amenity": "restaurant", "check_date": "2022-09-10", "contact:facebook": "https://www.facebook.com/costa.batumi/", "cuisine": "georgian;russian", "internet_access": "wlan", "level": "0", "name": "\u10d9\u10dd\u10e1\u10e2\u10d0 \u10d3\u10d4\u10da\u10db\u10d0\u10e0", "name:en": "Costa Del Mar", "name:ka": "\u10d9\u10dd\u10e1\u10e2\u10d0 \u10d3\u10d4\u10da\u10db\u10d0\u10e0", "name:ru": "\u041a\u043e\u0441\u0442\u0430 \u0414\u0435\u043b \u041c\u0430\u0440", "outdoor_seating": "no", "payment:mastercard": "yes", "payment:visa": "yes", "phone": "+995555033323", "wheelchair": "yes"}}, {"type": "node", "id": 6813859785, "lat": 41.6290004, "lon": 41.6033033, "tags": {"amenity": "cafe", "check_date": "2023-07-11", "name": "\u10ef\u10d8\u10d6\u10d1\u10d8\u10d6", "name:en": "GizBiz", "name:ka": "\u10ef\u10d8\u10d6\u10d1\u10d8\u10d6"}}, {"type": "node", "id": 7714515985, "lat": 41.5618057, "lon": 41.5660089, "tags": {"amenity": "bar", "name:en": "Warszawa La Nato"}}, {"type": "node", "id": 9022664018, "lat": 41.5573396, "lon": 41.5668401, "tags": {"addr:housenumber": "79", "addr:street": "\u10d0\u10dc\u10d3\u10e0\u10d8\u10d0 \u10de\u10d8\u10e0\u10d5\u10d4\u10da\u10ec\u10dd\u10d3\u10d4\u10d1\u10e3\u10da\u10d8\u10e1 \u10d2\u10d6\u10d0\u10e2\u10d9\u10d4\u10ea\u10d8\u10da\u10d8", "amenity": "cafe", "cuisine": "georgian;russian", "email": "sergoabashidze@bk.ru", "internet_access": "wlan", "name": "Belyi dom", "name:en": "Belyi dom", "opening_hours": "Mo-Su 09:00-21:00", "phone": "+995555174831"}}, {"type": "node", "id": 9032195017, "lat": 41.6338746, "lon": 41.6090009, "tags": {"addr:city": "\u10d1\u10d0\u10d7\u10e3\u10db\u10d8", "addr:country": "GE", "addr:housenumber": "8\u10d0", "addr:postcode": "6000", "addr:street": "\u10d9\u10dd\u10d1\u10d0\u10da\u10d0\u10eb\u10d8\u10e1 \u10e5\u10e3\u10e9\u10d0", "amenity": "restaurant", "check_date": "2022-10-23", "cuisine": "international;regional", "delivery": "yes", "indoor_seating": "yes", "level": "0", "name": "GourmanD", "opening_hours": "Mo-Su 09:30-24:00", "outdoor_seating": "yes", "payment:credit_cards": "yes", "payment:debit_cards": "yes", "phone": "+995514680680", "website": "https://gourmand.choiceqr.com"}}, {"type": "node", "id": 9035773353, "lat": 41.5572311, "lon": 41.5663542}, {"type": "node", "id": 9035773354, "lat": 41.557114, "lon": 41.5663377}, {"type": "node", "id": 9035773355, "lat": 41.5571325, "lon": 41.5661033}, {"type": "node", "id": 9035773356, "lat": 41.5572496, "lon": 41.5661198}, {"type": "node", "id": 9140138817, "lat": 41.6372044, "lon": 41.6129826, "tags": {"amenity": "cafe", "internet_access": "wlan", "name": "Black Cafe"}}, {"type": "node", "id": 9306270450, "lat": 41.6280993, "lon": 41.6023938, "tags": {"addr:housenumber": "1", "addr:street": "\u10da\u10d4\u10ee \u10d3\u10d0 \u10db\u10d0\u10e0\u10d8\u10d0 \u10d9\u10d0\u10e9\u10d8\u10dc\u10e1\u10d9\u10d4\u10d1\u10d8\u10e1 \u10e5\u10e3\u10e9\u10d0", "amenity": "restaurant", "check_date": "2022-12-04", "level": "1", "name": "Sezar"}}, {"type": "node", "id": 9306324144, "lat": 41.6335885, "lon": 41.6083394, "tags": {"addr:city": "\u10d1\u10d0\u10d7\u10e3\u10db\u10d8", "addr:country": "GE", "addr:housenumber": "8\u10d0", "addr:postcode": "6000", "addr:street": "\u10d9\u10dd\u10d1\u10d0\u10da\u10d0\u10eb\u10d8\u10e1 \u10e5\u10e3\u10e9\u10d0", "amenity": "cafe", "check_date": "2022-11-05", "level": "0", "name": "\u10ed\u10d0\u10db\u10d8\u10e1 \u10d3\u10e0\u10dd\u10d0", "name:en": "Eat Time", "name:ka": "\u10ed\u10d0\u10db\u10d8\u10e1 \u10d3\u10e0\u10dd\u10d0", "opening_hours": "Mo-Su 08:00-03:00", "outdoor_seating": "no", "payment:credit_cards": "yes", "payment:debit_cards": "yes", "phone": "+995555568883", "wheelchair": "yes"}}, {"type": "node", "id": 9309537129, "lat": 41.6353957, "lon": 41.6117929, "tags": {"air_conditioning": "yes", "amenity": "restaurant", "check_date": "2022-09-09", "cuisine": "turkish", "indoor_seating": "yes", "internet_access": "no", "level": "0", "name": "Floria", "outdoor_seating": "no", "payment:credit_cards": "yes", "smoking": "no", "wheelchair": "limited"}}, {"type": "node", "id": 9654204937, "lat": 41.5566309, "lon": 41.6109272, "tags": {"amenity": "cafe"}}, {"type": "node", "id": 9654204938, "lat": 41.5572264, "lon": 41.6110609, "tags": {"amenity": "cafe"}}, {"type": "node", "id": 9740636617, "lat": 41.6368111, "lon": 41.6073454, "tags": {"addr:housenumber": "16\u0430", "addr:street": "\u10d8\u10dc\u10d0\u10e1\u10d0\u10e0\u10d8\u10eb\u10d8\u10e1 \u10e5\u10e3\u10e9\u10d0", "amenity": "cafe", "check_date": "2022-11-04", "contact:facebook": "https://facebook.com/bezmezh.cafe", "indoor_seating": "yes", "name": "\u10d1\u10d4\u10d6 \u10db\u10d4\u10df\u10d8", "name:en": "Bez mezh", "name:ka": "\u10d1\u10d4\u10d6 \u10db\u10d4\u10df\u10d8", "name:ru": "\u0411\u0435\u0437 \u043c\u0435\u0436", "opening_hours": "Mo-Su 09:00-00:00", "outdoor_seating": "yes"}}, {"type": "node", "id": 9909259718, "lat": 41.567962, "lon": 41.5954743, "tags": {"amenity": "restaurant", "cuisine": "regional", "name": "\u10e0\u10d4\u10e1\u10e2\u10dd\u10e0\u10d0\u10dc\u10d8 \u10d2\u10d0\u10e0\u10d3\u10d4\u10dc\u10d8\u10d4", "name:de": "Gardenie", "name:en": "Restaurant Gardenie", "name:ru": "\u0420\u0435\u0441\u0442\u043e\u0440\u0430\u043d \u0413\u0430\u0440\u0434\u0435\u043d\u044c\u0435"}}, {"type": "node", "id": 9980473917, "lat": 41.5528701, "lon": 41.6030891, "tags": {"amenity": "restaurant", "name": "\u041e\u0440\u0433\u0435\u043b\u0435\u0441\u0430"}}, {"type": "node", "id": 10016650424, "lat": 41.6343229, "lon": 41.607389, "tags": {"amenity": "bar", "check_date": "2022-09-11"}}, {"type": "node", "id": 10061255190, "lat": 41.6384965, "lon": 41.6094097, "tags": {"amenity": "bar", "check_date": "2022-11-04", "indoor_seating": "yes", "level": "0", "outdoor_seating": "yes", "seasonal": "summer", "wheelchair": "yes"}}, {"type": "node", "id": 10080175976, "lat": 41.6339888, "lon": 41.610152, "tags": {"addr:housenumber": "9", "addr:street": "\u10d9\u10dd\u10d1\u10d0\u10da\u10d0\u10eb\u10d8\u10e1 \u10e5\u10e3\u10e9\u10d0", "amenity": "bar", "check_date": "2022-10-06", "indoor_seating": "yes", "level": "0", "name": "\u10da\u10d0 \u10d5\u10d4\u10e0\u10d0\u10dc\u10d3\u10d0", "name:en": "La Veranda", "name:ka": "\u10da\u10d0 \u10d5\u10d4\u10e0\u10d0\u10dc\u10d3\u10d0", "outdoor_seating": "yes", "payment:credit_cards": "yes", "payment:debit_cards": "yes", "wheelchair": "no"}}, {"type": "node", "id": 10157611421, "lat": 41.638986, "lon": 41.6097683, "tags": {"amenity": "cafe", "check_date": "2022-11-07", "cuisine": "coffee_shop", "level": "0", "name": "Aroma", "wheelchair": "limited"}}, {"type": "node", "id": 10157611432, "lat": 41.6375285, "lon": 41.6077111, "tags": {"amenity": "restaurant", "check_date": "2022-11-04", "seasonal": "summer"}}, {"type": "node", "id": 10157611437, "lat": 41.6384734, "lon": 41.608539, "tags": {"amenity": "bar", "check_date": "2022-11-04", "seasonal": "summer"}}, {"type": "node", "id": 10159552853, "lat": 41.6339016, "lon": 41.6090386, "tags": {"addr:housenumber": "8\u10d0", "addr:street": "\u10d9\u10dd\u10d1\u10d0\u10da\u10d0\u10eb\u10d8\u10e1 \u10e5\u10e3\u10e9\u10d0", "amenity": "cafe", "check_date": "2022-12-04", "indoor_seating": "yes", "internet_access": "wlan", "internet_access:fee": "customers", "level": "0", "name": "\u10d2\u10e0\u10d8\u10dc\u10ef\u10d8\u10dc \u10e7\u10d0\u10d5\u10d0 \u10e4\u10d8\u10da", "name:en": "greenjeen coffee feel", "name:ka": "\u10d2\u10e0\u10d8\u10dc\u10ef\u10d8\u10dc \u10e7\u10d0\u10d5\u10d0 \u10e4\u10d8\u10da", "opening_hours": "Mo-Fr 09:00-21:00; Sa-Su 09:00-22:00", "outdoor_seating": "yes", "payment:credit_cards": "yes", "payment:debit_cards": "yes", "wheelchair": "limited"}}, {"type": "node", "id": 10159552859, "lat": 41.6336515, "lon": 41.6082815, "tags": {"addr:housenumber": "8\u10d0", "addr:street": "\u10d9\u10dd\u10d1\u10d0\u10da\u10d0\u10eb\u10d8\u10e1 \u10e5\u10e3\u10e9\u10d0", "amenity": "bar", "check_date": "2022-11-22", "internet_access": "wlan", "internet_access:fee": "customers", "level": "0", "name": "\u10e9\u10d0\u10d9\u10d8\u10d3\u10e3\u10da\u10d8", "name:en": "Chakiduli", "name:ka": "\u10e9\u10d0\u10d9\u10d8\u10d3\u10e3\u10da\u10d8", "opening_hours": "12:00-24:00", "wheelchair": "yes"}}, {"type": "node", "id": 10166690413, "lat": 41.6357948, "lon": 41.6062516, "tags": {"amenity": "cafe", "check_date": "2022-11-07", "cuisine": "coffee_shop", "takeaway": "only"}}, {"type": "node", "id": 10173712918, "lat": 41.5415412, "lon": 41.5615782, "tags": {"amenity": "restaurant", "name:en": "Zura Palace"}}, {"type": "node", "id": 10223897329, "lat": 41.6356373, "lon": 41.6060138}, {"type": "node", "id": 10223897330, "lat": 41.6356375, "lon": 41.6059967}, {"type": "node", "id": 10223897331, "lat": 41.6356596, "lon": 41.6059696}, {"type": "node", "id": 10223897332, "lat": 41.6356731, "lon": 41.6059699}, {"type": "node", "id": 10223897333, "lat": 41.6356944, "lon": 41.6060014}, {"type": "node", "id": 10223897334, "lat": 41.635758, "lon": 41.6061741}, {"type": "node", "id": 10223897335, "lat": 41.6357743, "lon": 41.6061758}, {"type": "node", "id": 10223897336, "lat": 41.6357944, "lon": 41.6061486}, {"type": "node", "id": 10223897337, "lat": 41.6357949, "lon": 41.6061265}, {"type": "node", "id": 10223897338, "lat": 41.6357743, "lon": 41.6060993}, {"type": "node", "id": 10223897375, "lat": 41.6396048, "lon": 41.6093995}, {"type": "node", "id": 10223897376, "lat": 41.6395607, "lon": 41.6093512}, {"type": "node", "id": 10223897377, "lat": 41.6395462, "lon": 41.6094927}, {"type": "node", "id": 10223897378, "lat": 41.6395026, "lon": 41.6094377}, {"type": "node", "id": 10223897379, "lat": 41.6394435, "lon": 41.6093874}, {"type": "node", "id": 10223897380, "lat": 41.6395998, "lon": 41.6095698}, {"type": "node", "id": 10237850080, "lat": 41.6280345, "lon": 41.6034044, "tags": {"addr:housenumber": "78", "addr:street": "\u10d0\u10dc\u10d2\u10d8\u10e1\u10d8\u10e1 \u10e5\u10e3\u10e9\u10d0", "amenity": "cafe", "check_date": "2023-07-29", "name": "9\u00be", "wheelchair": "limited"}}, {"type": "node", "id": 10237921753, "lat": 41.6271658, "lon": 41.60082, "tags": {"amenity": "restaurant", "check_date": "2022-12-04", "contact:instagram": "g.garden.rest", "cuisine": "asian;georgian", "level": "0", "name": "\u10d2\u10d0\u10e0\u10d3\u10d4\u10dc", "name:en": "G. Garden", "name:ka": "\u10d2\u10d0\u10e0\u10d3\u10d4\u10dc", "opening_hours": "Mo-Su 12:00-00:00, Fr-Sa 12:00-02:00", "website": "https://garden.batumi.restaurant/"}}, {"type": "node", "id": 10237937823, "lat": 41.6288889, "lon": 41.6034588, "tags": {"amenity": "cafe", "check_date": "2023-08-10", "cuisine": "georgian;russian", "name": "\u10e1\u10d0\u10e1\u10d0\u10d3\u10d8\u10da\u10dd", "name:en": "Canteen", "name:ka": "\u10e1\u10d0\u10e1\u10d0\u10d3\u10d8\u10da\u10dd", "name:ru": "\u0421\u0442\u043e\u043b\u043e\u0432\u0430\u044f", "opening_hours": "Mo-Su 09:30-00:00"}}, {"type": "node", "id": 10237937824, "lat": 41.6289544, "lon": 41.6033752, "tags": {"amenity": "restaurant", "check_date": "2023-07-11", "name": "\u10d1\u10d4\u10dc\u10d8\u10d4", "name:en": "Benje", "name:ka": "\u10d1\u10d4\u10dc\u10d8\u10d4"}}, {"type": "node", "id": 10237937828, "lat": 41.6316558, "lon": 41.6036574, "tags": {"amenity": "restaurant", "check_date": "2022-12-04", "name": "\u10db\u10d0\u10e0\u10d0\u10dd", "name:en": "Marao", "name:ka": "\u10db\u10d0\u10e0\u10d0\u10dd", "payment:mastercard": "yes", "payment:visa": "yes", "wheelchair": "limited"}}, {"type": "node", "id": 10242177403, "lat": 41.6299187, "lon": 41.611916, "tags": {"amenity": "cafe", "check_date": "2022-12-06"}}, {"type": "node", "id": 10242190115, "lat": 41.6295927, "lon": 41.6103217, "tags": {"amenity": "restaurant", "check_date": "2022-12-06", "indoor_seating": "yes", "outdoor_seating": "yes"}}, {"type": "node", "id": 10242190126, "lat": 41.6313216, "lon": 41.6115987, "tags": {"amenity": "cafe", "check_date": "2022-12-06", "indoor_seating": "yes", "name": "Doyum Lezzet", "outdoor_seating": "yes"}}, {"type": "node", "id": 10246959190, "lat": 41.6242209, "lon": 41.5983067, "tags": {"amenity": "restaurant", "check_date": "2023-05-07", "name": "\u10d5\u10d0\u10e0\u10ea\u10d8\u10ee\u10d4 \u10db\u10d0\u10e0\u10d0\u10dc\u10d8", "name:en": "Vartsikhe Marani", "name:ka": "\u10d5\u10d0\u10e0\u10ea\u10d8\u10ee\u10d4 \u10db\u10d0\u10e0\u10d0\u10dc\u10d8"}}, {"type": "node", "id": 10246959191, "lat": 41.6236273, "lon": 41.5976115, "tags": {"amenity": "cafe", "check_date": "2023-05-07", "name": "\u10e2\u10e0\u10d0\u10e2\u10dd\u10e0\u10d8\u10d0", "name:en": "Trattoria", "name:ka": "\u10e2\u10e0\u10d0\u10e2\u10dd\u10e0\u10d8\u10d0"}}, {"type": "node", "id": 10246959196, "lat": 41.6221736, "lon": 41.5920271, "tags": {"amenity": "cafe", "check_date": "2022-12-08"}}, {"type": "node", "id": 10246959197, "lat": 41.621999, "lon": 41.5919502, "tags": {"amenity": "restaurant", "check_date": "2023-09-04", "name": "Oh La La"}}, {"type": "node", "id": 10255724423, "lat": 41.6340528, "lon": 41.6056559, "tags": {"amenity": "cafe", "check_date": "2022-12-12", "indoor_seating": "yes", "level": "0", "name": "\u10e1\u10d8\u10e9\u10e3\u10d0\u10dc \u10e1\u10d8\u10e1\u10e6\u10d4\u10e0", "name:en": "Sichuan Sisters", "name:ka": "\u10e1\u10d8\u10e9\u10e3\u10d0\u10dc \u10e1\u10d8\u10e1\u10e6\u10d4\u10e0", "outdoor_seating": "yes", "wheelchair": "no"}}, {"type": "node", "id": 10255724427, "lat": 41.6331408, "lon": 41.6044785, "tags": {"amenity": "restaurant", "check_date": "2023-06-22", "indoor_seating": "yes", "name": "\u10d2\u10d0\u10e0\u10d0\u10d2\u10e3\u10db", "name:en": "Garagum", "name:ka": "\u10d2\u10d0\u10e0\u10d0\u10d2\u10e3\u10db", "outdoor_seating": "yes"}}, {"type": "node", "id": 10599108756, "lat": 41.6353464, "lon": 41.6117071, "tags": {"amenity": "restaurant", "check_date": "2023-02-01", "cuisine": "turkish", "indoor_seating": "yes", "level": "0", "name": "\u10d8\u10d6\u10db\u10d8\u10e0\u10d8", "name:en": "Izmir", "name:ka": "\u10d8\u10d6\u10db\u10d8\u10e0\u10d8", "outdoor_seating": "yes", "wheelchair": "no"}}, {"type": "node", "id": 10648615669, "lat": 41.5677529, "lon": 41.5707247, "tags": {"amenity": "cafe", "check_date": "2023-02-11"}}, {"type": "node", "id": 10648615672, "lat": 41.5674298, "lon": 41.5707173, "tags": {"amenity": "cafe", "check_date": "2023-02-11"}}, {"type": "node", "id": 10648615673, "lat": 41.5672797, "lon": 41.570606, "tags": {"amenity": "cafe", "check_date": "2023-02-11", "cuisine": "turkish"}}, {"type": "node", "id": 10648615678, "lat": 41.5669473, "lon": 41.571089, "tags": {"amenity": "restaurant", "check_date": "2023-02-11", "cuisine": "turkish", "name": "Keyfe Deger"}}, {"type": "node", "id": 10648622711, "lat": 41.5680165, "lon": 41.5715099, "tags": {"amenity": "restaurant", "check_date": "2023-02-11", "cuisine": "turkish", "name": "Kirmizu"}}, {"type": "node", "id": 10648750389, "lat": 41.5997505, "lon": 41.6091079, "tags": {"amenity": "cafe", "check_date": "2023-02-11"}}, {"type": "node", "id": 10683271900, "lat": 41.6276816, "lon": 41.6111845, "tags": {"amenity": "restaurant", "check_date": "2023-02-21", "diet:halal": "yes", "indoor_seating": "yes", "name": "\u10d0\u10da\u10d8 \u10d1\u10d0\u10d1\u10d0", "name:en": "Ali Baba", "name:ka": "\u10d0\u10da\u10d8 \u10d1\u10d0\u10d1\u10d0", "outdoor_seating": "yes"}}, {"type": "node", "id": 10683278084, "lat": 41.6279774, "lon": 41.6106506, "tags": {"amenity": "restaurant", "check_date": "2023-02-21", "cuisine": "turkish", "indoor_seating": "yes", "name": "\u10d2\u10dd\u10d6\u10d3\u10d4", "name:en": "G\u00f6zde", "name:ka": "\u10d2\u10dd\u10d6\u10d3\u10d4", "outdoor_seating": "yes"}}, {"type": "node", "id": 10694598474, "lat": 41.5799364, "lon": 41.6157609, "tags": {"amenity": "cafe", "check_date": "2023-02-26"}}, {"type": "node", "id": 10699721449, "lat": 41.6393049, "lon": 41.6113644, "tags": {"addr:housenumber": "12", "addr:street": "\u10e8\u10d4\u10e0\u10d8\u10e4 \u10ee\u10d8\u10db\u10e8\u10d8\u10d0\u10e8\u10d5\u10d8\u10da\u10d8\u10e1 \u10d2\u10d0\u10db\u10d6\u10d8\u10e0\u10d8", "amenity": "nightclub", "check_date": "2023-02-28", "level": "0", "name": "Garden", "name:en": "Garden", "wheelchair": "no"}}, {"type": "node", "id": 10725864777, "lat": 41.585797, "lon": 41.5917467, "tags": {"amenity": "cafe", "check_date": "2023-03-10"}}, {"type": "node", "id": 10725864778, "lat": 41.5853978, "lon": 41.5919295, "tags": {"amenity": "cafe", "check_date": "2023-03-10", "name": "Mehmet"}}, {"type": "node", "id": 10725864780, "lat": 41.5854079, "lon": 41.5921348, "tags": {"amenity": "cafe", "check_date": "2023-03-10"}}, {"type": "node", "id": 10725864781, "lat": 41.5854145, "lon": 41.592296, "tags": {"amenity": "cafe", "check_date": "2023-03-10"}}, {"type": "node", "id": 10725864785, "lat": 41.5867017, "lon": 41.592699, "tags": {"amenity": "restaurant", "check_date": "2023-03-10"}}, {"type": "node", "id": 10725864789, "lat": 41.5853268, "lon": 41.591506, "tags": {"amenity": "restaurant", "check_date": "2023-03-10", "diet:halal": "yes", "name": "\u10d8\u10d6\u10db\u10d8\u10e0\u10d8", "name:en": "Izmir", "name:ka": "\u10d8\u10d6\u10db\u10d8\u10e0\u10d8"}}, {"type": "node", "id": 10725864795, "lat": 41.5858353, "lon": 41.5952166, "tags": {"amenity": "restaurant", "check_date": "2023-03-10", "cuisine": "regional;Georgian", "name": "Meta"}}, {"type": "node", "id": 10725864801, "lat": 41.5854125, "lon": 41.594581, "tags": {"amenity": "cafe", "check_date": "2023-03-10"}}, {"type": "node", "id": 10725872320, "lat": 41.5854192, "lon": 41.5929541, "tags": {"amenity": "bar", "check_date": "2023-03-10", "name": "\u10d0\u10d8\u10da\u10d8\u10dc \u10d1\u10d0\u10e0\u10d8", "name:en": "Aylin Barry", "name:ka": "\u10d0\u10d8\u10da\u10d8\u10dc \u10d1\u10d0\u10e0\u10d8"}}, {"type": "node", "id": 10725872324, "lat": 41.5853975, "lon": 41.5924387, "tags": {"amenity": "cafe", "check_date": "2023-03-10"}}, {"type": "node", "id": 10726239076, "lat": 41.5524861, "lon": 41.5638557}, {"type": "node", "id": 10726239077, "lat": 41.5524405, "lon": 41.5641456}, {"type": "node", "id": 10726239078, "lat": 41.5522229, "lon": 41.5640845}, {"type": "node", "id": 10726239079, "lat": 41.5522685, "lon": 41.5637946}, {"type": "node", "id": 10726449973, "lat": 41.5572658, "lon": 41.5662757}, {"type": "node", "id": 10726449974, "lat": 41.5572593, "lon": 41.5663582}, {"type": "node", "id": 10726449975, "lat": 41.5572376, "lon": 41.5662717}, {"type": "node", "id": 10768914250, "lat": 41.6359101, "lon": 41.6113049, "tags": {"addr:housenumber": "10", "addr:street": "\u10e8\u10d0\u10da\u10d5\u10d0 \u10d8\u10dc\u10d0\u10e1\u10d0\u10e0\u10d8\u10eb\u10d8\u10e1 \u10e5\u10e3\u10e9\u10d0", "amenity": "cafe", "check_date": "2023-08-16", "cuisine": "asian", "level": "0", "name": "\u10d0\u10dc\u10d9\u10da \u10e9\u10d4", "name:en": "Uncle Che", "name:ka": "\u10d0\u10dc\u10d9\u10da \u10e9\u10d4", "opening_hours": "11:00-23:00", "payment:contactless": "yes", "payment:credit_cards": "yes", "payment:debit_cards": "yes", "payment:mastercard": "yes", "payment:visa": "yes"}}, {"type": "node", "id": 10873539354, "lat": 41.5646295, "lon": 41.5659662, "tags": {"amenity": "bar", "check_date": "2023-05-06", "name": "Bulb"}}, {"type": "node", "id": 10873539355, "lat": 41.5637974, "lon": 41.5659544, "tags": {"amenity": "restaurant", "check_date": "2023-05-06"}}, {"type": "node", "id": 10873539357, "lat": 41.5628684, "lon": 41.5658482, "tags": {"amenity": "bar", "check_date": "2023-05-06", "name": "Rock Time"}}, {"type": "node", "id": 10873539358, "lat": 41.5619813, "lon": 41.5657286, "tags": {"amenity": "restaurant", "check_date": "2023-05-06", "name": "\u10d1\u10d0\u10da\u10d0\u10d2\u10d0\u10dc\u10d8", "name:en": "Balagan", "name:ka": "\u10d1\u10d0\u10da\u10d0\u10d2\u10d0\u10dc\u10d8"}}, {"type": "node", "id": 10905618202, "lat": 41.6338384, "lon": 41.6083279, "tags": {"addr:housenumber": "8\u10d0", "addr:street": "\u10d9\u10dd\u10d1\u10d0\u10da\u10d0\u10eb\u10d8\u10e1 \u10e5\u10e3\u10e9\u10d0", "amenity": "cafe", "check_date": "2023-05-17", "contact:instagram": "blinburg_", "cuisine": "coffee_shop;crepe", "level": "0", "name": "Blinburg", "opening_hours": "09:00-22:00"}}, {"type": "node", "id": 10968628705, "lat": 41.6345632, "lon": 41.6104796, "tags": {"amenity": "cafe", "name": "\u0428\u0430\u0448\u043b\u044b\u0447\u043a\u0430 \u0438 \u0433\u0440\u0438\u043b\u044c", "name:en": "Shahlik grill"}}, {"type": "node", "id": 10987848085, "lat": 41.6236155, "lon": 41.5939335, "tags": {"addr:city": "\u10d1\u10d0\u10d7\u10e3\u10db\u10d8", "addr:housenumber": "8", "addr:postcode": "6000", "addr:street": "\u10da\u10d4\u10ee \u10d3\u10d0 \u10db\u10d0\u10e0\u10d8\u10d0 \u10d9\u10d0\u10e9\u10d8\u10dc\u10e1\u10d9\u10d4\u10d1\u10d8\u10e1 \u10e5\u10e3\u10e9\u10d0", "amenity": "cafe", "bar": "yes", "check_date": "2024-03-13", "cuisine": "coffee_shop;dessert;salad;pasta;breakfast;pankcake;oatmeal;fish;chicken;greek;grill", "internet_access": "wlan", "internet_access:fee": "customers", "name": "BikeToMe", "name:en": "BikeToMe", "name:ka": "\u10d1\u10d0\u10d8\u10d9\u10d7\u10e3\u10db\u10d8", "name:ru": "\u0411\u0430\u0439\u043a\u0422\u0443\u041c\u0438", "opening_hours": "Mo-Su 07:00-22:00", "outdoor_seating": "yes", "payment:cash": "yes", "payment:credit_cards": "yes", "payment:debit_cards": "yes", "website": "https://instagram.com/biketome.ge", "wheelchair": "no"}}, {"type": "node", "id": 11005712212, "lat": 41.6236899, "lon": 41.5938406, "tags": {"amenity": "cafe", "check_date": "2023-06-25", "name": "Seaview Batumi", "opening_hours": "24/7"}}, {"type": "node", "id": 11005712213, "lat": 41.6232955, "lon": 41.5934625, "tags": {"addr:housenumber": "8", "addr:street": "\u10da\u10d4\u10ee \u10d3\u10d0 \u10db\u10d0\u10e0\u10d8\u10d0 \u10d9\u10d0\u10e9\u10d8\u10dc\u10e1\u10d9\u10d4\u10d1\u10d8\u10e1 \u10e5\u10e3\u10e9\u10d0", "amenity": "cafe", "check_date": "2023-06-25", "contact:instagram": "pure.coffeefood", "name": "pure", "opening_hours": "Mo-Su 09:00-18:00"}}, {"type": "node", "id": 11040060052, "lat": 41.6285109, "lon": 41.6038829, "tags": {"amenity": "cafe", "check_date": "2023-07-11", "cuisine": "asian", "name": "\u10d8\u10d0\u10db\u10d8", "name:en": "Yummy", "name:ka": "\u10d8\u10d0\u10db\u10d8"}}, {"type": "node", "id": 11040097218, "lat": 41.6355396, "lon": 41.6077315, "tags": {"air_conditioning": "yes", "amenity": "restaurant", "check_date": "2024-01-20", "cuisine": "asian", "indoor_seating": "yes", "level": "3", "name": "\u10e2\u10dd\u10d9\u10d8\u10dd \u10f0\u10d0\u10e3\u10e1\u10d8", "name:en": "Tokyo House", "name:ka": "\u10e2\u10dd\u10d9\u10d8\u10dd \u10f0\u10d0\u10e3\u10e1\u10d8", "outdoor_seating": "yes", "payment:credit_cards": "yes", "payment:debit_cards": "yes", "smoking": "outside"}}, {"type": "node", "id": 11049564613, "lat": 41.6251462, "lon": 41.6015626, "tags": {"amenity": "cafe", "check_date": "2023-07-16", "cuisine": "belarusian", "name": "\u10dc\u10d0\u10db\u10d3\u10d5\u10d8\u10da\u10d8 \u10d3\u10e0\u10d0\u10dc\u10d8\u10d9\u10d8", "name:en": "True Draniki", "name:ka": "\u10dc\u10d0\u10db\u10d3\u10d5\u10d8\u10da\u10d8 \u10d3\u10e0\u10d0\u10dc\u10d8\u10d9\u10d8"}}, {"type": "node", "id": 11055364605, "lat": 41.6277466, "lon": 41.6033105, "tags": {"addr:housenumber": "77", "amenity": "bar", "contact:instagram": "branch_garage_batumi", "name": "\u10d1\u10e0\u10d0\u10dc\u10e9\u10d8 \u10d2\u10d0\u10e0\u10d0\u10df\u10d8 \u10d1\u10d0\u10d7\u10e3\u10db\u10d8", "name:en": "Branch Garage Batumi", "name:ru": "\u0411\u0440\u0430\u043d\u0447 \u0413\u0430\u0440\u0430\u0436 \u0411\u0430\u0442\u0443\u043c\u0438", "opening_hours": "Mo-Su 12:00-02:00"}}, {"type": "node", "id": 11079114911, "lat": 41.6350511, "lon": 41.6113308, "tags": {"amenity": "cafe", "check_date": "2023-08-01", "cuisine": "coffee_shop", "name": "Sensory Coffee Co."}}, {"type": "node", "id": 11167054174, "lat": 41.6233013, "lon": 41.5941195, "tags": {"amenity": "restaurant", "check_date": "2023-09-04", "name": "Mars Burger & Cocktail"}}, {"type": "node", "id": 11255250549, "lat": 41.6351496, "lon": 41.6083806, "tags": {"amenity": "cafe", "check_date": "2023-10-11", "level": "0", "name": "\u10db\u10e3\u10da\u10e2\u10d8 \u10d9\u10e3\u10da\u10d8\u10dc\u10d0\u10e0\u10d8\u10d0", "name:en": "Multi", "name:ka": "\u10db\u10e3\u10da\u10e2\u10d8 \u10d9\u10e3\u10da\u10d8\u10dc\u10d0\u10e0\u10d8\u10d0", "wheelchair": "yes"}}, {"type": "node", "id": 11328978022, "lat": 41.5535421, "lon": 41.6046786, "tags": {"amenity": "restaurant", "name": "\u10e0\u10d4\u10e1\u10e2\u10dd\u10e0\u10d0\u10dc\u10d8 \u10d4\u10e5\u10d5\u10e1\u10d8 \u10eb\u10db\u10d0", "name:en": "Restaurant Six Brothers"}}, {"type": "node", "id": 11429213916, "lat": 41.6353356, "lon": 41.6075833, "tags": {"amenity": "cafe", "check_date": "2023-12-18", "cuisine": "coffee_shop", "name": "Gloria Jean's Coffees"}}, {"type": "node", "id": 11694963461, "lat": 41.63234, "lon": 41.6125686, "tags": {"amenity": "cafe", "indoor_seating": "yes", "name": "Biancaffe", "name:en": "Biancaffe", "name:ka": "\u10d1\u10d8\u10d0\u10dc\u10d9\u10d0\u10e4\u10d4", "outdoor_seating": "yes"}}, {"type": "node", "id": 11703545739, "lat": 41.6234391, "lon": 41.5932796, "tags": {"addr:city": "\u10d1\u10d0\u10d7\u10e3\u10db\u10d8", "addr:housenumber": "8", "addr:street": "\u10da\u10d4\u10ee \u10d3\u10d0 \u10db\u10d0\u10e0\u10d8\u10d0 \u10d9\u10d0\u10e9\u10d8\u10dc\u10e1\u10d9\u10d4\u10d1\u10d8\u10e1 \u10e5\u10e3\u10e9\u10d0", "air_conditioning": "yes", "amenity": "bar", "description": "Hookah Lounge", "internet_access": "yes", "min_age": "18", "name": "Nuahule Smoke", "opening_hours": "Mo-Su 12:00-02:00", "smoking": "dedicated", "source": "local knowledge;osm notes;aerial imagery;streetlevel imagery", "website": "https://www.instagram.com/nuahule_batumi"}}, {"type": "way", "id": 364034456, "nodes": [3681432556, 10223897379, 10223897378, 10223897376, 10223897375, 10223897377, 10223897380, 3681432560, 3681432557, 3681432554, 3681432556], "tags": {"amenity": "restaurant", "building": "retail", "building:levels": "1", "check_date": "2023-08-17", "name": "17"}}, {"type": "way", "id": 409871301, "nodes": [4117445610, 4117445614, 4117445621, 10223897329, 10223897330, 10223897331, 10223897332, 10223897333, 4117445623, 4117445625, 10223897338, 10223897337, 10223897336, 10223897335, 10223897334, 4117445622, 4117445626, 4117445624, 4117445610], "tags": {"amenity": "restaurant", "building": "retail", "building:levels": "2", "check_date": "2022-11-07", "name": "\u10d5\u10d4\u10e0\u10d0\u10dc\u10d3\u10d0 \u10d0\u10d9\u10d5\u10d0\u10de\u10d0\u10e0\u10d9\u10d8", "name:en": "Veranda Aquapark", "name:ka": "\u10d5\u10d4\u10e0\u10d0\u10dc\u10d3\u10d0 \u10d0\u10d9\u10d5\u10d0\u10de\u10d0\u10e0\u10d9\u10d8", "seasonal": "spring;summer;autumn"}}, {"type": "way", "id": 423555867, "nodes": [1430155780, 4231395378, 4231395376, 4231395373, 4231395374, 4231395372, 4231395375, 4231395377, 1430155780], "tags": {"amenity": "restaurant", "building": "retail", "building:levels": "2", "check_date": "2022-09-29", "contact:facebook": "https://www.facebook.com/ajarianhouse/", "cuisine": "georgian", "indoor_seating": "yes", "internet_access": "wlan", "name": "\u10d0\u10ed\u10d0\u10e0\u10e3\u10da\u10d8 \u10e1\u10d0\u10ee\u10da\u10d8", "name:en": "Ajarian House", "name:ka": "\u10d0\u10ed\u10d0\u10e0\u10e3\u10da\u10d8 \u10e1\u10d0\u10ee\u10da\u10d8", "name:ru": "\u0410\u0434\u0436\u0430\u0440\u0441\u043a\u0438\u0439 \u0434\u043e\u043c", "opening_hours": "Mo-Su 09:00-23:00", "outdoor_seating": "yes"}}, {"type": "way", "id": 530879732, "nodes": [5154119109, 5154119108, 5154119633, 5154119632, 5154119109], "tags": {"addr:city": "\u10d1\u10d0\u10d7\u10e3\u10db\u10d8", "addr:housenumber": "12\u10d1", "addr:housenumber:en": "12B", "addr:postcode": "6010", "addr:street": "\u10e8\u10d4\u10e0\u10d8\u10e4 \u10ee\u10d8\u10db\u10e8\u10d8\u10d0\u10e8\u10d5\u10d8\u10da\u10d8\u10e1 \u10e5\u10e3\u10e9\u10d0", "amenity": "cafe", "building": "retail", "building:levels": "1", "check_date": "2023-02-28", "contact:facebook": "https://www.facebook.com/veranda.ge/", "height": "7", "indoor_seating": "yes", "internet_access": "wlan", "internet_access:fee": "customers", "name": "\u10d5\u10d4\u10e0\u10d0\u10dc\u10d3\u10d0 \u10d0\u10d9\u10e0\u10dd\u10de\u10dd\u10da\u10d8", "name:en": "Veranda Acropoli", "name:ka": "\u10d5\u10d4\u10e0\u10d0\u10dc\u10d3\u10d0 \u10d0\u10d9\u10e0\u10dd\u10de\u10dd\u10da\u10d8", "opening_hours": "Mo-Su 09:00-02:00", "outdoor_seating": "yes", "payment:mastercard": "yes", "payment:visa": "yes", "wheelchair": "no"}}, {"type": "way", "id": 531336269, "nodes": [5157862784, 5157862783, 5157862782, 5157862781, 5157862780, 5157862779, 5157862778, 5157862777, 5157862776, 5157862775, 5157862774, 5157862773, 5157862772, 5157862771, 5157862770, 5157862769, 5157862768, 5157862767, 5157862766, 5157862765, 5157862764, 5157862763, 5157862762, 5157862761, 5157862760, 5157862784], "tags": {"amenity": "restaurant", "building": "yes", "building:levels": "2", "check_date": "2022-12-12", "internet_access": "wlan", "name": "JUST"}}, {"type": "way", "id": 976409521, "nodes": [9035773356, 10726449975, 10726449973, 10726449974, 9035773353, 9035773354, 9035773355, 9035773356], "tags": {"addr:housenumber": "2", "addr:street": "\u10ec\u10db\u10d8\u10dc\u10d3\u10d0 \u10d0\u10dc\u10d3\u10e0\u10d8\u10d0 \u10de\u10d8\u10e0\u10d5\u10d4\u10da\u10ec\u10dd\u10d3\u10d4\u10d1\u10e3\u10da\u10d8\u10e1 III \u10e8\u10d4\u10e1\u10d0\u10ee\u10d5\u10d4\u10d5\u10d8", "amenity": "restaurant", "building": "retail", "building:levels": "1", "check_date": "2023-03-23", "name": "\u10d9\u10d0\u10de\u10dd\u10da\u10d0", "name:en": "Capola", "name:ka": "\u10d9\u10d0\u10de\u10dd\u10da\u10d0"}}, {"type": "way", "id": 1153299801, "nodes": [10726239079, 10726239076, 10726239077, 10726239078, 10726239079], "tags": {"addr:street": "\u10ec\u10db\u10d8\u10dc\u10d3\u10d0 \u10d0\u10dc\u10d3\u10e0\u10d8\u10d0 \u10de\u10d8\u10e0\u10d5\u10d4\u10da\u10ec\u10dd\u10d3\u10d4\u10d1\u10e3\u10da\u10d8\u10e1 \u10d2\u10d6\u10d0\u10e2\u10d9\u10d4\u10ea\u10d8\u10da\u10d8", "amenity": "bar", "building": "retail", "building:levels": "1", "check_date": "2023-03-23", "name": "\u10e2\u10dd\u10e0\u10dc\u10d0\u10d3\u10dd", "name:en": "Tornado", "name:ka": "\u10e2\u10dd\u10e0\u10dc\u10d0\u10d3\u10dd"}}]}