{"version": 0.6, "generator": "Overpass API 0.7.61.5 4133829e", "osm3s": {"timestamp_osm_base": "2024-03-14T22:05:05Z", "copyright": "The data included in this document is from www.openstreetmap.org. The data is made available under ODbL."}, "elements": [{"type": "node", "id": 410618096, "lat": 59.4363951, "lon": 13.4392487, "tags": {"amenity": "pharmacy", "app:apk": "se.apoteket.recept", "app:apple": "https://itunes.apple.com/se/app/mitt-apotek/id1053398061", "branch": "Apoteket K\u00e4llan", "brand": "Apoteket", "brand:wikidata": "Q1785637", "dispensing": "yes", "healthcare": "pharmacy", "name": "Apoteket", "operator": "Apoteket AB (556138-6532)", "owner": "Svenska Staten", "ownership": "national", "payment:cash": "yes", "phone": "+46771450450", "website:stock": "https://www.fass.se/", "wheelchair": "yes"}}, {"type": "node", "id": 410618101, "lat": 59.4365079, "lon": 13.439219, "tags": {"amenity": "clinic", "name": "V\u00e5rdcentralen Sk\u00e5re", "opening_hours": "Mo-Fr 08:00-17:00", "wheelchair": "yes"}}, {"type": "node", "id": 440855277, "lat": 59.3785657, "lon": 13.4995853, "tags": {"amenity": "pharmacy", "app:apk": "se.apoteket.recept", "app:apple": "https://itunes.apple.com/se/app/mitt-apotek/id1053398061", "branch": "\u00d6rnen", "brand": "Apoteket", "brand:wikidata": "Q1785637", "healthcare": "pharmacy", "name": "Apoteket", "opening_hours": "Mo-Fr 08:00-19:00; Sa 09:00-17:00; Su 11:00-16:00", "operator": "Apoteket AB", "payment:cash": "yes", "phone": "+46771450450", "wheelchair": "yes"}}, {"type": "node", "id": 471324913, "lat": 59.3816503, "lon": 13.5195042, "tags": {"amenity": "clinic", "name": "Herrhagens v\u00e5rdcentral", "wheelchair": "yes"}}, {"type": "node", "id": 471325000, "lat": 59.3829002, "lon": 13.502188, "tags": {"amenity": "clinic", "check_date:opening_hours": "2023-06-04", "healthcare": "clinic", "name": "V\u00e5rdcentralen Gripen", "opening_hours": "Mo-Fr 08:00-17:00", "wheelchair": "yes"}}, {"type": "node", "id": 735087098, "lat": 59.3819532, "lon": 13.5127394, "tags": {"addr:floor": "3;5", "amenity": "clinic", "check_date": "2023-06-16", "check_date:opening_hours": "2023-06-03", "emergency": "no", "healthcare": "clinic", "name": "V\u00e5rdcentralen \u00c5ttkanten", "opening_hours": "Mo-Fr 08:00-17:00", "operator": "Praktikertj\u00e4nst", "wheelchair": "yes"}}, {"type": "node", "id": 834039880, "lat": 59.3772598, "lon": 13.426669, "tags": {"amenity": "pharmacy", "app:apple": "https://itunes.apple.com/se/app/apotek-hj%C3%A4rtat-n%C3%A4ra-dig/id1150817089", "app:google": "https://play.google.com/store/apps/details?id=com.presencekit.apotek.se&hl=en_US", "brand": "Apotek Hj\u00e4rtat", "brand:wikidata": "Q10416114", "check_date": "2023-06-15", "dispensing": "yes", "drive_through": "no", "healthcare": "pharmacy", "level": "0", "name": "Apotek Hj\u00e4rtat", "opening_hours": "Mo-Fr 10:00-20:00; Sa-Su 10:00-18:00", "operator": "Apotek Hj\u00e4rtat Retail AB", "owner": "ICA Gruppen AB", "ownership": "private", "payment:cash": "yes", "payment:credit_cards": "yes", "payment:debit_cards": "yes", "phone": "+46771405405", "website": "https://www.apotekhjartat.se/hitta-apotek-hjartat/varmland/apotek_hjartat_bergvik_kopcenter_karlstad/", "website:stock": "https://www.fass.se/", "wheelchair": "yes"}}, {"type": "node", "id": 843787563, "lat": 59.3848628, "lon": 13.463228, "tags": {"addr:city": "Karlstad", "addr:country": "SE", "addr:housenumber": "23", "addr:postcode": "653 44", "addr:street": "Petersbergsgatan", "amenity": "pharmacy", "app:apk": "se.apoteket.recept", "app:apple": "https://itunes.apple.com/se/app/mitt-apotek/id1053398061", "branch": "V\u00e5gen", "brand": "Apoteket", "brand:wikidata": "Q1785637", "healthcare": "pharmacy", "name": "Apoteket", "operator": "Apoteksgruppen", "owner": "Svenska Staten", "ownership": "national", "phone": "+46771450450", "website:stock": "https://www.fass.se/"}}, {"type": "node", "id": 847641587, "lat": 59.3856043, "lon": 13.4644473, "tags": {"amenity": "clinic", "name": "V\u00e4sterstrand v\u00e5rdcentral", "operator": "Region V\u00e4rmland", "wheelchair": "yes"}}, {"type": "node", "id": 985931225, "lat": 59.3243645, "lon": 13.467222, "tags": {"addr:city": "Skoghall", "addr:country": "SE", "addr:housenumber": "6", "addr:postcode": "66330", "addr:street": "Bj\u00f6rkhagsgatan", "amenity": "pharmacy", "app:apk": "se.apoteket.recept", "app:apple": "https://itunes.apple.com/se/app/mitt-apotek/id1053398061", "branch": "Apoteket Skoghall", "brand": "Apoteksgruppen", "brand:wikidata": "Q10416129", "brand:wikipedia": "sv:Apoteksgruppen", "dispensing": "yes", "drive_through": "no", "healthcare": "pharmacy", "name": "Apoteksgruppen", "opening_hours": "Mo-Fr 08:30-18:00", "operator": "Apoteksgruppen AB", "owner": "Svenska Staten", "ownership": "national", "phone": "+4654510750", "website:stock": "https://www.fass.se/"}}, {"type": "node", "id": 1010668976, "lat": 59.4070223, "lon": 13.5792036, "tags": {"addr:city": "Karlstad", "addr:country": "SE", "addr:housenumber": "3", "addr:postcode": "65637", "addr:street": "Universitetsgatan", "amenity": "pharmacy", "branch": "Karlstad Kronoparken", "brand": "Kronans Apotek", "brand:wikidata": "Q10549422", "dispensing": "yes", "drive_through": "yes", "healthcare": "pharmacy", "name": "Kronans Apotek", "opening_hours": "Mo-Fr 09:00-12:30,13:15-17:00", "operator": "Kronans Apotek AB (556787-2048)", "owner": "Svenska Staten", "ownership": "national", "payment:cards": "yes", "payment:cash": "yes", "payment:contactless": "yes", "phone": "+46771612612", "recycling:drugs": "yes", "website": "https://www.kronansapotek.se/hitta-apotek/kronans-apotek-karlstad-kronoparken-0588/", "website:stock": "https://www.fass.se/", "wheelchair": "yes"}}, {"type": "node", "id": 1083224729, "lat": 59.3871173, "lon": 13.4877609}, {"type": "node", "id": 1083224840, "lat": 59.3871239, "lon": 13.4875606}, {"type": "node", "id": 1083224878, "lat": 59.3874933, "lon": 13.4877411}, {"type": "node", "id": 1083224969, "lat": 59.3874911, "lon": 13.4878083}, {"type": "node", "id": 1083225190, "lat": 59.3874508, "lon": 13.4877357}, {"type": "node", "id": 1083225427, "lat": 59.3874552, "lon": 13.4876026}, {"type": "node", "id": 1218208757, "lat": 59.4052873, "lon": 13.5183151, "tags": {"amenity": "pharmacy", "brand": "Apoteksgruppen", "brand:wikidata": "Q10416129", "healthcare": "pharmacy", "name": "Apoteksgruppen", "payment:cash": "yes", "wheelchair": "yes"}}, {"type": "node", "id": 2406932514, "lat": 59.3770275, "lon": 13.4760414}, {"type": "node", "id": 2406932517, "lat": 59.3721195, "lon": 13.4790832}, {"type": "node", "id": 2406932523, "lat": 59.376875, "lon": 13.4820256}, {"type": "node", "id": 2406932525, "lat": 59.3731038, "lon": 13.4781832}, {"type": "node", "id": 2406932527, "lat": 59.3736669, "lon": 13.4808618}, {"type": "node", "id": 2406932531, "lat": 59.3779008, "lon": 13.4812948}, {"type": "node", "id": 2406932533, "lat": 59.3784332, "lon": 13.4807966}, {"type": "node", "id": 2406932535, "lat": 59.3745974, "lon": 13.4749341}, {"type": "node", "id": 2406932539, "lat": 59.3768785, "lon": 13.4759169}, {"type": "node", "id": 2406932541, "lat": 59.3740099, "lon": 13.4745345}, {"type": "node", "id": 2406932546, "lat": 59.3777621, "lon": 13.4806812}, {"type": "node", "id": 2406932548, "lat": 59.3777884, "lon": 13.4778309}, {"type": "node", "id": 2406932550, "lat": 59.3746691, "lon": 13.4813398}, {"type": "node", "id": 2406932552, "lat": 59.3726696, "lon": 13.4799327}, {"type": "node", "id": 2406932554, "lat": 59.3734133, "lon": 13.4807093}, {"type": "node", "id": 2406932561, "lat": 59.3776867, "lon": 13.4807422}, {"type": "node", "id": 2406932565, "lat": 59.3724741, "lon": 13.4774869}, {"type": "node", "id": 2406932567, "lat": 59.3756927, "lon": 13.4821557}, {"type": "node", "id": 2406932569, "lat": 59.3775384, "lon": 13.4770289}, {"type": "node", "id": 2406932571, "lat": 59.3761108, "lon": 13.4755575}, {"type": "node", "id": 2406932573, "lat": 59.3738863, "lon": 13.4808709}, {"type": "node", "id": 2406932579, "lat": 59.3772467, "lon": 13.4763197}, {"type": "node", "id": 2523148186, "lat": 59.3746911, "lon": 13.4816234}, {"type": "node", "id": 2719494301, "lat": 59.3815239, "lon": 13.511696, "tags": {"amenity": "clinic", "healthcare": "clinic", "name": "Scandinavian Gastro Clinic Karlstad"}}, {"type": "node", "id": 3747395425, "lat": 59.377857, "lon": 13.4258284, "tags": {"amenity": "pharmacy", "brand": "Kronans Apotek", "brand:wikidata": "Q10549422", "dispensing": "yes", "drive_through": "no", "healthcare": "pharmacy", "name": "Kronans Apotek", "operator": "Kronans Droghandel Apotek AB", "payment:cash": "yes", "phone": "+46771612612", "wheelchair": "yes"}}, {"type": "node", "id": 3972073523, "lat": 59.3790701, "lon": 13.5064407, "tags": {"amenity": "dentist", "branch": "Tingvalla", "brand": "Folktandv\u00e5rden", "brand:wikidata": "Q10497476", "brand:wikipedia": "sv:Folktandv\u00e5rden", "check_date": "2023-07-19", "email": "Folktandvarden.Tingvalla@regionvarmland.se", "name": "Folktandv\u00e5rden Tingvalla", "opening_hours": "Mo-Th 07:00-19:00; Fr 07:00-17:00", "operator": "Region V\u00e4rmland", "payment:credit_cards": "yes", "payment:debit_cards": "yes", "payment:mastercard": "yes", "payment:visa": "yes", "phone": "+46108314700", "website": "https://regionvarmland.se/tandvard/vara-kliniker/allmantandvard/karlstad-tingvalla", "wheelchair": "yes"}}, {"type": "node", "id": 4305528698, "lat": 59.4051748, "lon": 13.5186185, "tags": {"amenity": "clinic", "name": "V\u00e5rdcentralen Rud", "opening_hours": "Mo-Fr 08:00-17:00", "wheelchair": "yes"}}, {"type": "node", "id": 4337974245, "lat": 59.3245698, "lon": 13.4652517, "tags": {"addr:city": "Skoghall", "addr:country": "SE", "addr:housenumber": "1", "addr:postcode": "66330", "addr:street": "\u00c5r\u00e5sv\u00e4gen", "amenity": "clinic", "healthcare": "clinic", "name": "V\u00e5rdcentralen Skoghall", "opening_hours": "Mo-Fr 08:00-17:00", "website": "https://www.1177.se/hitta-vard/kontaktkort/Vardcentralen-Skoghall/"}}, {"type": "node", "id": 4623861894, "lat": 59.4110722, "lon": 13.4958947}, {"type": "node", "id": 4623861907, "lat": 59.4115698, "lon": 13.4974234}, {"type": "node", "id": 4623861908, "lat": 59.4116154, "lon": 13.4952337}, {"type": "node", "id": 4623861911, "lat": 59.4120586, "lon": 13.4967477}, {"type": "node", "id": 4678098737, "lat": 59.4070851, "lon": 13.5787987, "tags": {"addr:city": "Karlstad", "addr:country": "SE", "addr:housenumber": "3", "addr:postcode": "65637", "addr:street": "Universitetsgatan", "amenity": "clinic", "check_date:opening_hours": "2023-06-03", "healthcare": "clinic", "healthcare:speciality": "general", "name": "V\u00e5rdcentralen Kronoparken", "opening_hours": "Mo-Fr 08:00-17:00", "operator": "Region V\u00e4rmland", "operator:type": "government", "phone": "+46108316965", "website": "https://www.1177.se/Varmland/hitta-vard/kontaktkort/Vardcentralen-Kronoparken-Karlstad/", "wheelchair": "yes"}}, {"type": "node", "id": 4678098738, "lat": 59.4069882, "lon": 13.5792786, "tags": {"addr:city": "Karlstad", "addr:country": "SE", "addr:housenumber": "3", "addr:postcode": "65637", "addr:street": "Universitetsgatan", "amenity": "dentist", "branch": "Kronoparken", "brand": "Folktandv\u00e5rden", "brand:wikidata": "Q10497476", "check_date": "2023-07-17", "check_date:opening_hours": "2023-06-03", "email": "Folktandvarden.Kronoparken@regionvarmland.se", "healthcare": "dentist", "name": "Folktandv\u00e5rden Kronoparken", "opening_hours": "Mo-Th 07:30-17:00; Fr 07:30-16:00", "operator": "Region V\u00e4rmland", "payment:contactless": "yes", "payment:credit_cards": "yes", "payment:debit_cards": "yes", "payment:invoice": "yes", "phone": "+46108316950", "website": "https://www.regionvarmland.se/tandvard/vara-kliniker/allmantandvard/karlstad-kronoparken", "wheelchair": "yes"}}, {"type": "node", "id": 5166046115, "lat": 59.4580083, "lon": 13.5892751, "tags": {"amenity": "veterinary"}}, {"type": "node", "id": 5174356908, "lat": 59.3956291, "lon": 13.5757173, "tags": {"addr:city": "Karlstad", "addr:country": "SE", "addr:housenumber": "13", "addr:postcode": "656 39", "addr:street": "R\u00e4vbergsv\u00e4gen", "amenity": "pharmacy", "app:apk": "se.apoteket.recept", "app:apple": "https://itunes.apple.com/se/app/mitt-apotek/id1053398061", "branch": "Apoteket V\u00e4lsviken Karlstad", "brand": "Apoteket", "brand:wikidata": "Q1785637", "check_date:opening_hours": "2023-06-30", "dispensing": "yes", "drive_through": "no", "healthcare": "pharmacy", "name": "Apoteket", "opening_hours": "Mo-Fr 09:00-20:00; Sa,Su 10:00-18:00", "operator": "Apoteket AB (556138-6532)", "owner": "Svenska Staten", "ownership": "national", "payment:cash": "yes", "payment:contactless": "yes", "payment:credit_cards": "yes", "payment:debit_cards": "yes", "phone": "+46771450450", "website": "https://www.apoteket.se/apotek/apoteket-valsviken-karlstad-karlstad/", "website:stock": "https://www.fass.se/", "wheelchair": "yes"}}, {"type": "node", "id": 5214728960, "lat": 59.331966, "lon": 13.5329666}, {"type": "node", "id": 5214728961, "lat": 59.3316836, "lon": 13.5329159}, {"type": "node", "id": 5214728962, "lat": 59.3316986, "lon": 13.5325957}, {"type": "node", "id": 5214728963, "lat": 59.331981, "lon": 13.5326465}, {"type": "node", "id": 5250155583, "lat": 59.3772428, "lon": 13.4811119}, {"type": "node", "id": 5250155601, "lat": 59.377617, "lon": 13.4808177}, {"type": "node", "id": 5250155605, "lat": 59.3750729, "lon": 13.4796638, "tags": {"amenity": "pharmacy", "app:apk": "se.apoteket.recept", "app:apple": "https://itunes.apple.com/se/app/mitt-apotek/id1053398061", "branch": "Apoteket Vargen", "brand": "Apoteket", "brand:wikidata": "Q1785637", "check_date": "2023-07-10", "dispensing": "yes", "healthcare": "pharmacy", "name": "Apoteket", "opening_hours": "Mo-Fr 08:00-18:00; Sa,Su 10:00-15:00", "operator": "Apoteket AB (556138-6532)", "owner": "Svenska Staten", "ownership": "national", "payment:cash": "yes", "phone": "+46771450450", "website": "https://www.apoteket.se/apotek/apoteket-vargen-karlstad/", "website:stock": "https://www.fass.se/", "wheelchair": "yes"}}, {"type": "node", "id": 5250173656, "lat": 59.3734375, "lon": 13.4764303}, {"type": "node", "id": 5503334103, "lat": 59.3967391, "lon": 13.5805813, "tags": {"amenity": "pharmacy", "app:apple": "https://itunes.apple.com/se/app/apotek-hj%C3%A4rtat-n%C3%A4ra-dig/id1150817089", "app:google": "https://play.google.com/store/apps/details?id=com.presencekit.apotek.se&hl=en_US", "brand": "Apotek Hj\u00e4rtat", "brand:wikidata": "Q10416114", "brand:wikipedia": "sv:Apotek Hj\u00e4rtat", "check_date:opening_hours": "2023-06-30", "dispensing": "yes", "healthcare": "pharmacy", "name": "Apotek Hj\u00e4rtat", "opening_hours": "Mo-Su 08:00-22:00", "operator": "Apotek Hj\u00e4rtat Retail AB", "owner": "ICA Gruppen AB", "ownership": "private", "payment:cash": "yes", "phone": "+46771405405", "website:stock": "https://www.fass.se/", "wheelchair": "yes"}}, {"type": "node", "id": 5585193221, "lat": 59.472396, "lon": 13.5763558}, {"type": "node", "id": 5585193222, "lat": 59.4723825, "lon": 13.5765381}, {"type": "node", "id": 5585193223, "lat": 59.4724285, "lon": 13.5765513}, {"type": "node", "id": 5585193224, "lat": 59.472411, "lon": 13.5767878}, {"type": "node", "id": 5585193225, "lat": 59.472502, "lon": 13.576814}, {"type": "node", "id": 5585193226, "lat": 59.4725331, "lon": 13.5763952}, {"type": "node", "id": 6419466893, "lat": 59.3793515, "lon": 13.5014234, "tags": {"amenity": "pharmacy", "brand": "Kronans Apotek", "brand:wikidata": "Q10549422", "healthcare": "pharmacy", "level": "0", "name": "Kronans Apotek"}}, {"type": "node", "id": 6436735350, "lat": 59.3801743, "lon": 13.5007847, "tags": {"addr:city": "Karlstad", "addr:country": "SE", "addr:housenumber": "14", "addr:postcode": "652 25", "addr:street": "J\u00e4rnv\u00e4gsgatan", "amenity": "pharmacy", "brand": "Apotek Hj\u00e4rtat", "brand:wikidata": "Q10416114", "healthcare": "pharmacy", "level": "0", "name": "Apotek Hj\u00e4rtat"}}, {"type": "node", "id": 6581527763, "lat": 59.3736895, "lon": 13.4749997}, {"type": "node", "id": 6581527764, "lat": 59.3738959, "lon": 13.4751096}, {"type": "node", "id": 6581527765, "lat": 59.3750067, "lon": 13.4751552}, {"type": "node", "id": 7530429232, "lat": 59.3412704, "lon": 13.5002631}, {"type": "node", "id": 7530429233, "lat": 59.3413599, "lon": 13.5006831}, {"type": "node", "id": 7530429234, "lat": 59.341256, "lon": 13.5007684}, {"type": "node", "id": 7530429235, "lat": 59.3411664, "lon": 13.5003483}, {"type": "node", "id": 8100390262, "lat": 59.3245127, "lon": 13.4655667, "tags": {"addr:city": "Skoghall", "addr:country": "SE", "addr:housenumber": "1", "addr:postcode": "66330", "addr:street": "\u00c5r\u00e5sv\u00e4gen", "amenity": "dentist", "email": "folktandvarden.skoghall@regionvarmland.se", "healthcare": "dentist", "healthcare:speciality": "dentist", "name": "Skoghalls Folktandv\u00e5rd", "opening_hours": "Mo-Th 07:00-19:00; Fr 07:00-17:00", "phone": "+46108319660", "website": "https://regionvarmland.se/tandvard/Vara-kliniker/Allmantandvardskliniker/Skoghall/"}}, {"type": "node", "id": 8196357620, "lat": 59.3745476, "lon": 13.4811996}, {"type": "node", "id": 8286648267, "lat": 59.3776649, "lon": 13.4774002}, {"type": "node", "id": 8286648268, "lat": 59.3773752, "lon": 13.4765889}, {"type": "node", "id": 8286648311, "lat": 59.3769729, "lon": 13.4812879}, {"type": "node", "id": 10825244355, "lat": 59.4060596, "lon": 13.5023656, "tags": {"amenity": "clinic", "name": "Karlstads Kirurgiska Laserklinik"}}, {"type": "node", "id": 10975470501, "lat": 59.3768695, "lon": 13.481287}, {"type": "node", "id": 10975470502, "lat": 59.3769273, "lon": 13.4812883}, {"type": "node", "id": 10975470503, "lat": 59.3770025, "lon": 13.481287}, {"type": "node", "id": 10975470504, "lat": 59.3770395, "lon": 13.4812804}, {"type": "node", "id": 10975485205, "lat": 59.3770832, "lon": 13.4812553}, {"type": "node", "id": 10975485206, "lat": 59.3771376, "lon": 13.4812078}, {"type": "node", "id": 10975485207, "lat": 59.3774128, "lon": 13.480977}, {"type": "node", "id": 10975485208, "lat": 59.3774716, "lon": 13.4809328}, {"type": "node", "id": 10975485209, "lat": 59.3775021, "lon": 13.4809242}, {"type": "node", "id": 10975485210, "lat": 59.3775744, "lon": 13.4808635}, {"type": "node", "id": 10991866868, "lat": 59.3768773, "lon": 13.481903}, {"type": "node", "id": 10991866869, "lat": 59.376878, "lon": 13.4818244}, {"type": "node", "id": 10991866870, "lat": 59.3768767, "lon": 13.4817854}, {"type": "node", "id": 10991866871, "lat": 59.3768761, "lon": 13.4817396}, {"type": "node", "id": 10991866872, "lat": 59.3768758, "lon": 13.4816938}, {"type": "node", "id": 10991866873, "lat": 59.3768764, "lon": 13.4816443}, {"type": "node", "id": 10991866874, "lat": 59.3768776, "lon": 13.4815948}, {"type": "node", "id": 10991866875, "lat": 59.376883, "lon": 13.4815509}, {"type": "node", "id": 10991866876, "lat": 59.3768798, "lon": 13.4814451}, {"type": "node", "id": 11017972006, "lat": 59.3764687, "lon": 13.4290643, "tags": {"amenity": "pharmacy", "brand": "Apotek Hj\u00e4rtat", "brand:wikidata": "Q10416114", "dispensing": "yes", "drive_through": "no", "healthcare": "pharmacy", "level": "0", "name": "Apotek Hj\u00e4rtat", "opening_hours": "Mo-Su 08:00-22:00", "payment:cash": "yes", "website": "https://www.apotekhjartat.se/hitta-apotek-hjartat/varmland/apotek_hjartat_ica_maxi_karlstad/", "website:stock": "https://www.fass.se/", "wheelchair": "yes"}}, {"type": "node", "id": 11018032007, "lat": 59.3776601, "lon": 13.426111, "tags": {"amenity": "dentist", "email": "info@tandkompaniet.com", "healthcare": "dentist", "level": "1", "name": "Tandkompaniet", "opening_hours": "Mo-Fr 07:50-16:10", "phone": "+4654 771 64 64", "website": "https://www.tandkompaniet.com/"}}, {"type": "node", "id": 11050924618, "lat": 59.4057937, "lon": 13.5793591, "tags": {"addr:housenumber": "110", "addr:street": "Sommargatan", "amenity": "clinic", "check_date": "2023-07-17", "healthcare": "clinic", "healthcare:speciality": "general", "level": "2;3", "name": "Barnav\u00e5rdscentralen Kronoparken", "opening_hours": "Mo-Fr 08:00-17:00", "operator": "Region V\u00e4rmland", "phone": "+46108319483", "website": "https://www.1177.se/Varmland/hitta-vard/kontaktkort/Barnavardscentralen-Kronoparken-Karlstad/", "wheelchair": "yes"}}, {"type": "node", "id": 11050924619, "lat": 59.4057554, "lon": 13.5793896, "tags": {"addr:housenumber": "108", "addr:street": "Sommargatan", "amenity": "clinic", "check_date": "2023-07-17", "healthcare": "midwife", "level": "2;3", "name": "Barnmorskemottagningen Kronoparken", "opening_hours": "Mo-Fr 08:00-17:00", "operator": "Region V\u00e4rmland", "phone": "+46108319482", "website": "https://www.1177.se/Varmland/hitta-vard/kontaktkort/Barnmorskemottagningen-Kronoparken-Karlstad/", "wheelchair": "yes"}}, {"type": "node", "id": 11054308119, "lat": 59.3939893, "lon": 13.5182808, "tags": {"amenity": "dentist", "brand": "Folktandv\u00e5rden", "brand:wikidata": "Q10497476", "healthcare": "dentist", "name": "Folktandv\u00e5rden"}}, {"type": "node", "id": 11055319738, "lat": 59.3815117, "lon": 13.514016, "tags": {"amenity": "dentist", "check_date": "2023-07-19", "email": "Folktandvarden.Haga@regionvarmland.se", "healthcare": "dentist", "name": "Folktandv\u00e5rden Haga", "opening_hours": "Mo-Th 07:00-19:00; Fr 07:00-17:00", "operator": "Region V\u00e4rmland", "payment:mastercard": "yes", "payment:visa": "yes", "phone": "+46108317340", "website": "https://regionvarmland.se/tandvard/vara-kliniker/allmantandvard/karlstad-haga", "wheelchair": "yes"}}, {"type": "node", "id": 11055325893, "lat": 59.381398, "lon": 13.5139762, "tags": {"amenity": "dentist", "check_date": "2023-07-19", "email": "specialisttandvard.endoparod@regionvarmland.se", "healthcare": "dentist", "healthcare:speciality": "endodontics;periodontics", "name": "Specialistkliniken f\u00f6r endodonti och parodontologi", "opening_hours": "Mo-Fr 08:00-16:00", "operator": "Region V\u00e4rmland", "payment:mastercard": "yes", "payment:visa": "yes", "phone": "+46108319460", "wheelchair": "yes"}}, {"type": "node", "id": 11055325894, "lat": 59.3812783, "lon": 13.5139365, "tags": {"amenity": "dentist", "check_date": "2023-07-19", "email": "specialisttandvard.pedodonti@regionvarmland.se", "healthcare": "dentist", "healthcare:speciality": "paediatric_dentistry", "name": "Specialistkliniken f\u00f6r barn- och ungdomstandv\u00e5rd", "operator": "Region V\u00e4rmland", "phone": "+46108319490", "website": "https://regionvarmland.se/tandvard/vara-kliniker/specialisttandvard/pedodonti-specialisttandvard-for-barn-och-ungdomar", "wheelchair": "yes"}}, {"type": "node", "id": 11055325895, "lat": 59.3813266, "lon": 13.5139458, "tags": {"amenity": "dentist", "check_date": "2023-07-19", "email": "specialisttandvard.oralprotetik@regionvarmland.se", "healthcare": "dentist", "healthcare:speciality": "implantology", "name": "Specialistkliniken f\u00f6r oral protektik", "operator": "Region V\u00e4rmland", "payment:mastercard": "yes", "payment:visa": "yes", "phone": "+46108314730", "website": "https://regionvarmland.se/tandvard/vara-kliniker/specialisttandvard/oral-protetik"}}, {"type": "node", "id": 11055325896, "lat": 59.3790073, "lon": 13.5064203, "tags": {"amenity": "dentist", "check_date": "2023-07-19", "email": "specialisttandvard.tandreglering@regionvarmland.se", "healthcare": "dentist", "healthcare:speciality": "orthodontics", "level": "3", "name": "Tandregleringen Karlstad", "operator": "Region V\u00e4rmland", "payment:credit_cards": "yes", "payment:debit_cards": "yes", "payment:mastercard": "yes", "payment:visa": "yes", "phone": "+46108319540", "website": "https://regionvarmland.se/tandvard/vara-kliniker/specialisttandvard/tandreglering?c=svid10_49a6323417c92c9e564c7e7#svid10_49a6323417c92c9e564c7e7"}}, {"type": "node", "id": 11055334029, "lat": 59.3850142, "lon": 13.4632405, "tags": {"amenity": "dentist", "check_date": "2023-07-19", "email": "Folktandvarden.Vaxnas@regionvarmland.se", "healthcare": "dentist", "level": "1", "name": "Folktandv\u00e5rden V\u00e5xn\u00e4s", "opening_hours": "Mo-Th 07:00-19:00; Fr 07:00-17:00", "operator": "Region V\u00e4rmland", "payment:mastercard": "yes", "payment:visa": "yes", "phone": "+46108314740", "website": "https://regionvarmland.se/tandvard/vara-kliniker/allmantandvard/karlstad-vaxnas"}}, {"type": "node", "id": 11090488113, "lat": 59.3764276, "lon": 13.4465347, "tags": {"amenity": "veterinary", "name": "Solstadens sm\u00e5djursklinik", "opening_hours": "Mo-Th 07:30-20:00; Fr 07:30-17:00", "phone": "+465415 06 20", "website": "https://solstadenssmadjursklinik.se/", "wheelchair": "no"}}, {"type": "node", "id": 11122258487, "lat": 59.380422, "lon": 13.5094027, "tags": {"amenity": "dentist", "healthcare": "dentist", "name": "Uffes Dentalteknik"}}, {"type": "way", "id": 93420124, "nodes": [1083225427, 1083224840, 1083224729, 1083224969, 1083224878, 1083225190, 1083225427], "tags": {"addr:housenumber": "35", "addr:street": "Infanterigatan", "amenity": "clinic", "building": "barracks", "building:levels": "3", "construction_date": "1913", "name": "V\u00e5rdcentralen Kasernh\u00f6jden", "opening_hours": "Mo-Fr 08:00-17:00", "operator": "Praktikertj\u00e4nst", "roof:levels": "0", "roof:shape": "hipped", "website": "https://www.ptj.se/vardcentralen-kasernhojden/", "wheelchair": "yes"}}, {"type": "way", "id": 232336422, "nodes": [2406932533, 2406932531, 2406932546, 2406932561, 5250155601, 10975485210, 10975485209, 10975485208, 10975485207, 5250155583, 10975485206, 10975485205, 10975470504, 10975470503, 8286648311, 10975470502, 10975470501, 10991866876, 10991866875, 10991866874, 10991866873, 10991866872, 10991866871, 10991866870, 10991866869, 10991866868, 2406932523, 2406932567, 2523148186, 2406932550, 8196357620, 2406932573, 2406932527, 2406932554, 2406932552, 2406932517, 2406932565, 2406932525, 5250173656, 6581527763, 6581527764, 2406932541, 2406932535, 6581527765, 2406932571, 2406932539, 2406932514, 2406932579, 8286648268, 2406932569, 8286648267, 2406932548, 2406932533], "tags": {"amenity": "hospital", "check_date": "2023-07-23", "emergency": "yes", "health_specialty:emergency_medicine": "yes", "health_specialty:family_medicine": "yes", "health_specialty:intensive_care_medicine": "yes", "health_specialty:orthopaedics": "yes", "health_specialty:paediatrics": "yes", "health_specialty:surgery": "yes", "health_specialty:vascular_surgery": "yes", "internet_access": "wlan", "internet_access:fee": "no", "internet_access:ssid": "RV-Guest", "name": "Centralsjukhuset i Karlstad", "opening_hours": "24/7", "operator": "Region V\u00e4rmland", "operator:type": "government", "phone": "+46108315000", "start_date": "1905", "website": "https://www.1177.se/Varmland/hitta-vard/kontaktkort/Centralsjukhuset-Karlstad/", "wheelchair": "yes", "wikidata": "Q30279684"}}, {"type": "way", "id": 467783350, "nodes": [4623861908, 4623861894, 4623861907, 4623861911, 4623861908], "tags": {"amenity": "veterinary", "name": "Djursjukhuset Karlstad", "opening_hours": "Mo-Fr 07:30-20:00; Sa 09:00-16:00", "wheelchair": "yes"}}, {"type": "way", "id": 538805752, "nodes": [5214728963, 5214728962, 5214728961, 5214728960, 5214728963], "tags": {"amenity": "clinic", "building": "yes", "name": "L\u00f6vn\u00e4s v\u00e5rdcentral"}}, {"type": "way", "id": 584261246, "nodes": [5585193221, 5585193222, 5585193223, 5585193224, 5585193225, 5585193226, 5585193221], "tags": {"addr:city": "Karlstad", "addr:country": "SE", "addr:housenumber": "608", "addr:postcode": "65593", "addr:street": "Bengtsbol", "amenity": "veterinary", "building": "yes", "email": "info@ulvsbysmadjursklinik.com", "name": "Ulvsby Sm\u00e5djursklinik", "opening_hours": "Mo 08:00-20:00; Tu-Fr 08:00-17:00; Th 08:00-20:00", "phone": "+46 54 86 65 10", "website": "http://www.ulvsbysmadjursklinik.com/", "wheelchair": "yes"}}, {"type": "way", "id": 805173289, "nodes": [7530429232, 7530429233, 7530429234, 7530429235, 7530429232], "tags": {"addr:city": "Hammar\u00f6", "addr:country": "SE", "addr:housenumber": "39", "addr:postcode": "66341", "addr:street": "Nolg\u00e5rdsv\u00e4gen", "amenity": "veterinary", "building": "yes", "name": "Hammar\u00f6 Sm\u00e5djursklinik", "opening_date": "25 May 2020", "opening_hours": "Mo-Th 08:00-17:00, Fr 08:00-15:00", "phone": "+46 54 45 40 640", "website": "https://hammarosmadjursklinik.se/"}}]}