{"version": 0.6, "generator": "Overpass API 0.7.61.5 4133829e", "osm3s": {"timestamp_osm_base": "2024-03-14T22:06:11Z", "copyright": "The data included in this document is from www.openstreetmap.org. The data is made available under ODbL."}, "elements": [{"type": "node", "id": 96108826, "lat": 57.6670435, "lon": 11.9309134}, {"type": "node", "id": 97751562, "lat": 57.6815695, "lon": 11.9573933}, {"type": "node", "id": 101635026, "lat": 57.682038, "lon": 11.9563287}, {"type": "node", "id": 101635027, "lat": 57.6813501, "lon": 11.9583569}, {"type": "node", "id": 150586593, "lat": 57.6837106, "lon": 11.955698}, {"type": "node", "id": 150586596, "lat": 57.6837502, "lon": 11.9581769}, {"type": "node", "id": 150586598, "lat": 57.6835225, "lon": 11.959952}, {"type": "node", "id": 150586599, "lat": 57.683425, "lon": 11.9603587}, {"type": "node", "id": 150586600, "lat": 57.6834166, "lon": 11.9610618}, {"type": "node", "id": 150586601, "lat": 57.683475, "lon": 11.961302}, {"type": "node", "id": 150586602, "lat": 57.6839359, "lon": 11.9636312}, {"type": "node", "id": 150586603, "lat": 57.6838896, "lon": 11.9638464}, {"type": "node", "id": 150586604, "lat": 57.6817627, "lon": 11.9648058}, {"type": "node", "id": 150586605, "lat": 57.6813245, "lon": 11.9650403}, {"type": "node", "id": 150586606, "lat": 57.6805949, "lon": 11.9658346}, {"type": "node", "id": 150586607, "lat": 57.6797867, "lon": 11.967244}, {"type": "node", "id": 240608917, "lat": 57.6821945, "lon": 11.9083564, "tags": {"addr:city": "G\u00f6teborg", "addr:country": "SE", "addr:housenumber": "2A", "addr:postcode": "414 74", "addr:street": "Knipplagatan", "amenity": "clinic", "healthcare": "clinic", "name": "N\u00e4rh\u00e4lsan Kungssten v\u00e5rdcentral", "network": "V\u00e4stra G\u00f6talandsregionen", "opening_hours": "Mo-Fr 08:00-17:00", "operator": "V\u00e4stra G\u00f6talandsregionen", "payment:cryptocurrencies": "no", "phone": "+46 31 345 03 60", "website": "https://www.narhalsan.se/hitta-mottagning/goteborg/goteborg-vastra/narhalsan-kungssten-barnavardscentral/", "wheelchair": "yes"}}, {"type": "node", "id": 309917365, "lat": 57.6834451, "lon": 11.9602749}, {"type": "node", "id": 313791873, "lat": 57.7145769, "lon": 12.0466672, "tags": {"amenity": "pharmacy", "brand": "Apoteket", "contact:phone": "+46771450450", "healthcare": "pharmacy", "name": "Apoteket Bj\u00f6rnen", "operator": "Apoteket AB"}}, {"type": "node", "id": 313889758, "lat": 57.6872316, "lon": 11.9208328, "tags": {"amenity": "pharmacy", "branch": "G\u00f6teborg Majorna Linn\u00e9", "brand": "Kronans Apotek", "brand:wikidata": "Q10549422", "brand:wikipedia": "sv:Kronans Droghandel", "contact:phone": "+46771450450", "healthcare": "pharmacy", "name": "Kronans Apotek", "opening_hours": "Mo-Fr 09:30-18:00; Sa 10:00-14:00", "operator": "Kronans Apotek AB", "website": "https://www.kronansapotek.se/"}}, {"type": "node", "id": 349331879, "lat": 57.6481605, "lon": 12.0166116, "tags": {"addr:city": "M\u00f6lndal", "addr:country": "SE", "addr:housenumber": "1", "addr:street": "Katrinebergsgatan", "amenity": "clinic", "healthcare": "clinic", "name": "Omtanken V\u00e5rdcentral \u00c5by", "network": "V\u00e4stra G\u00f6talandsregionen", "opening_hours": "Mo-Th 07:45-17:00; Fr 07:45-16:00", "operator": "Omtanken V\u00e4sterleden V\u00e5rd AB", "website": "https://omtanken.se/vardcentraler/aby/"}}, {"type": "node", "id": 402873484, "lat": 57.6836368, "lon": 11.9620295}, {"type": "node", "id": 456028834, "lat": 57.6701476, "lon": 11.9288803, "tags": {"addr:city": "G\u00f6teborg", "addr:country": "SE", "addr:housenumber": "14A", "addr:postcode": "414 80", "addr:street": "Markmyntsgatan", "amenity": "clinic", "contact:phone": "+46 31 747 80 00", "healthcare": "clinic", "name": "N\u00e4rh\u00e4lsan H\u00f6gsbo v\u00e5rdcentral", "network": "V\u00e4stra G\u00f6talandsregionen", "operator": "V\u00e4stra G\u00f6talandsregionen", "payment:cryptocurrencies": "no", "website": "https://www.narhalsan.se/hitta-mottagning/goteborg/goteborg-vastra/narhalsan-hogsbo-vardcentral/"}}, {"type": "node", "id": 564638524, "lat": 57.7082856, "lon": 11.654383, "tags": {"amenity": "pharmacy", "brand": "Apoteksgruppen", "contact:website": "http://apoteksinfo.nu/apotek/Apoteksgruppen%20%C3%96cker%C3%B6,%20Norg%C3%A5rdsv%C3%A4gen%20_%C3%B6cker%C3%B6-358", "name": "Apoteksgruppen"}}, {"type": "node", "id": 571187408, "lat": 57.6402134, "lon": 11.9528265, "tags": {"amenity": "pharmacy", "brand": "Kronans Apotek", "brand:wikidata": "Q10549422", "check_date": "2023-07-29", "healthcare": "pharmacy", "name": "Kronans Apotek", "opening_hours": "Mo-Fr 09:00-19:00", "operator": "Kronan", "payment:cash": "yes", "payment:mastercard": "yes", "payment:visa": "yes", "wheelchair": "yes"}}, {"type": "node", "id": 571784555, "lat": 57.6507078, "lon": 11.9120577}, {"type": "node", "id": 571784556, "lat": 57.6501907, "lon": 11.9120112}, {"type": "node", "id": 571784557, "lat": 57.6501848, "lon": 11.9123311}, {"type": "node", "id": 571784558, "lat": 57.6507317, "lon": 11.9123312}, {"type": "node", "id": 611553135, "lat": 57.6548692, "lon": 12.0150285, "tags": {"amenity": "pharmacy", "brand": "Kronans Apotek", "brand:wikidata": "Q10549422", "healthcare": "pharmacy", "name": "Kronans Apotek", "opening_hours": "Mo-Fr 09:00-18:00; Sa 10:00-14:00", "operator": "Kronans Droghandel Apotek AB", "owner": "Admenta Sweden AB"}}, {"type": "node", "id": 627541304, "lat": 57.7189279, "lon": 12.0502505}, {"type": "node", "id": 627541711, "lat": 57.7204659, "lon": 12.0469434}, {"type": "node", "id": 627541729, "lat": 57.7202793, "lon": 12.0471159}, {"type": "node", "id": 630660106, "lat": 57.6108731, "lon": 12.0488575, "tags": {"addr:city": "K\u00e5llered", "addr:country": "SE", "addr:housenumber": "44", "addr:postcode": "42832", "addr:street": "Gamla Riksv\u00e4gen", "amenity": "clinic", "check_date": "2023-04-20", "healthcare": "clinic", "name": "N\u00f6tk\u00e4rnan K\u00e5llered Familjel\u00e4kare och BVC", "operator": "N\u00f6tk\u00e4rnan K\u00e5llered Familjel\u00e4kare och BVC AB", "payment:mastercard": "yes", "payment:visa": "yes", "website": "https://kalleredfamiljelakare.se/"}}, {"type": "node", "id": 656256321, "lat": 57.7299783, "lon": 12.0139261, "tags": {"addr:city": "G\u00f6teborg", "addr:country": "SE", "addr:housenumber": "2", "addr:postcode": "415 01", "addr:street": "Treriksgatan", "amenity": "pharmacy", "branch": "G\u00f6teborg Gamlestan", "brand": "Kronans Apotek", "brand:wikidata": "Q10549422", "brand:wikipedia": "sv:Kronans Droghandel", "contact:phone": "+46771612612", "dispensing": "yes", "healthcare": "pharmacy", "name": "Kronans Apotek", "opening_hours": "Mo-Fr 09:00-18:30, Sa 09:00-14:00", "operator": "Kronans Apotek AB", "website": "https://www.kronansapotek.se/"}}, {"type": "node", "id": 663300122, "lat": 57.6673203, "lon": 11.9305675}, {"type": "node", "id": 663300124, "lat": 57.6665523, "lon": 11.9311146}, {"type": "node", "id": 663300153, "lat": 57.6665569, "lon": 11.9308815}, {"type": "node", "id": 663300158, "lat": 57.667568, "lon": 11.9311812}, {"type": "node", "id": 663300165, "lat": 57.6675791, "lon": 11.9305844}, {"type": "node", "id": 663300192, "lat": 57.667354, "lon": 11.9309241}, {"type": "node", "id": 663300196, "lat": 57.6671224, "lon": 11.9309161}, {"type": "node", "id": 709070806, "lat": 57.709138, "lon": 11.920599, "tags": {"amenity": "pharmacy", "brand": "Kronans Apotek", "brand:wikidata": "Q10549422", "healthcare": "pharmacy", "name": "Kronans Apotek", "opening_hours": "Mo-Fr 10:00-19:00; Sa 10:00-16:00; Su 11:00-16:00"}}, {"type": "node", "id": 763455490, "lat": 57.6921109, "lon": 11.9902176}, {"type": "node", "id": 763455506, "lat": 57.6927925, "lon": 11.9890781}, {"type": "node", "id": 763455513, "lat": 57.6918362, "lon": 11.9894437}, {"type": "node", "id": 763455516, "lat": 57.691906, "lon": 11.9900213}, {"type": "node", "id": 763455520, "lat": 57.6926033, "lon": 11.9893766}, {"type": "node", "id": 763455526, "lat": 57.691901, "lon": 11.9894738}, {"type": "node", "id": 763455528, "lat": 57.6924491, "lon": 11.9892542}, {"type": "node", "id": 763455530, "lat": 57.6925972, "lon": 11.9896617}, {"type": "node", "id": 763455534, "lat": 57.6920306, "lon": 11.9902962}, {"type": "node", "id": 763455545, "lat": 57.6919701, "lon": 11.9892286}, {"type": "node", "id": 763455547, "lat": 57.6920243, "lon": 11.9899029}, {"type": "node", "id": 763455550, "lat": 57.6930277, "lon": 11.9892754}, {"type": "node", "id": 763455554, "lat": 57.6929296, "lon": 11.9889384}, {"type": "node", "id": 763455556, "lat": 57.692808, "lon": 11.9891307}, {"type": "node", "id": 763455559, "lat": 57.6925405, "lon": 11.9891665}, {"type": "node", "id": 763455560, "lat": 57.6920773, "lon": 11.9900963}, {"type": "node", "id": 763455561, "lat": 57.6919454, "lon": 11.9899847}, {"type": "node", "id": 763455567, "lat": 57.6920086, "lon": 11.9893676}, {"type": "node", "id": 763455569, "lat": 57.6925042, "lon": 11.9894421}, {"type": "node", "id": 763455570, "lat": 57.6926069, "lon": 11.989699}, {"type": "node", "id": 764578641, "lat": 57.6917631, "lon": 11.9895153}, {"type": "node", "id": 794682896, "lat": 57.6701475, "lon": 11.8717051, "tags": {"amenity": "pharmacy", "branch": "G\u00f6teborg V\u00e4stra Fr\u00f6lunda", "brand": "Apoteksgruppen", "brand:wikidata": "Q10416129", "brand:wikipedia": "sv:Apoteksgruppen", "contact:website": "https://www.apoteksgruppen.se/apotek/vastra-frolunda/apoteksgruppen-vastra-frolunda-langedragsvagen/", "healthcare": "pharmacy", "name": "Apoteksgruppen"}}, {"type": "node", "id": 922516852, "lat": 57.6737408, "lon": 12.0083834, "tags": {"addr:city": "M\u00f6lndal", "addr:country": "SE", "addr:housenumber": "13", "addr:postcode": "431 67", "addr:street": "Fred\u00e5sgatan", "amenity": "clinic", "contact:phone": "+46 10 473 30 00", "healthcare": "centre", "name": "N\u00e4rh\u00e4lsan Kroksl\u00e4tt v\u00e5rdcentral", "network": "V\u00e4stra G\u00f6talandsregionen", "operator": "V\u00e4stra G\u00f6talandsregionen", "website": "https://www.narhalsan.se/hitta-mottagning/molndal/narhalsan-krokslatt-vardcentral/"}}, {"type": "node", "id": 922571401, "lat": 57.7294179, "lon": 11.9261823, "tags": {"addr:city": "G\u00f6teborg", "addr:country": "SE", "addr:housenumber": "6", "addr:postcode": "41726", "addr:street": "Bjursl\u00e4tts Torg", "amenity": "clinic", "contact:phone": "+46 31 747 84 30", "healthcare": "clinic", "name": "N\u00e4rh\u00e4lsan Bjursl\u00e4tt v\u00e5rdcentral", "network": "V\u00e4stra G\u00f6talandsregionen", "operator": "V\u00e4stra G\u00f6talandsregionen", "payment:cryptocurrencies": "no"}}, {"type": "node", "id": 932726847, "lat": 57.7204563, "lon": 11.9399639, "tags": {"addr:city": "G\u00f6teborg", "addr:country": "SE", "addr:housenumber": "8A", "addr:postcode": "417 09", "addr:street": "Virvelvindsgatan", "amenity": "clinic", "contact:phone": "+46-31-747 95 30", "contact:website": "https://www.narhalsan.se/hitta-mottagning/goteborg/goteborg-hisingen/narhalsan-bramaregarden-vardcentral/", "healthcare": "clinic", "name": "N\u00e4rh\u00e4lsan Br\u00e4mareg\u00e5rden v\u00e5rdcentral", "network": "V\u00e4stra G\u00f6talandsregionen", "operator": "V\u00e4stra G\u00f6talandsregionen", "payment:cryptocurrencies": "no"}}, {"type": "node", "id": 937702022, "lat": 57.650245, "lon": 11.9120147}, {"type": "node", "id": 937702303, "lat": 57.6506673, "lon": 11.9120551}, {"type": "node", "id": 937702492, "lat": 57.6502463, "lon": 11.9119449}, {"type": "node", "id": 937702788, "lat": 57.6506689, "lon": 11.911972}, {"type": "node", "id": 973276811, "lat": 57.6873772, "lon": 11.9918456, "tags": {"amenity": "dentist", "healthcare": "dentist", "name": "Tandl\u00e4kargruppen"}}, {"type": "node", "id": 974298368, "lat": 57.6918184, "lon": 11.9893806}, {"type": "node", "id": 974298373, "lat": 57.6918559, "lon": 11.9898409}, {"type": "node", "id": 985286206, "lat": 57.6837456, "lon": 11.9582574}, {"type": "node", "id": 1009032752, "lat": 57.7099688, "lon": 11.774667, "tags": {"amenity": "pharmacy", "branch": "G\u00f6teborg Torslanda", "brand": "Kronans Apotek", "brand:wikidata": "Q10549422", "brand:wikipedia": "sv:Kronans Droghandel", "contact:phone": "+46771612612", "dispensing": "yes", "healthcare": "pharmacy", "name": "Kronans Apotek", "operator": "Kronans Apotek AB", "website": "https://www.kronansapotek.se/", "wheelchair": "yes"}}, {"type": "node", "id": 1030547243, "lat": 57.7141515, "lon": 11.7824608, "tags": {"addr:city": "Torslanda", "addr:country": "SE", "addr:housenumber": "23", "addr:postcode": "423 37", "addr:street": "Flygf\u00e4ltsgatan", "amenity": "clinic", "branch": "Torslanda", "check_date": "2023-05-24", "contact:phone": "+46 31 352 30 00", "healthcare": "clinic", "name": "Capio V\u00e5rdcentral Amhult", "network": "V\u00e4stra G\u00f6talandsregionen", "operator": "Capio N\u00e4rsjukv\u00e5rd AB", "operator:type": "public", "ownership": "private", "payment:cryptocurrencies": "no"}}, {"type": "node", "id": 1042796257, "lat": 57.698112, "lon": 11.9439974, "tags": {"addr:city": "G\u00f6teborg", "addr:country": "SE", "addr:housenumber": "48", "addr:postcode": "413 27", "addr:street": "Fj\u00e4rde L\u00e5nggatan", "amenity": "clinic", "contact:email": "vardcentralen.masthugget@vgregion.se", "contact:phone": "+46-31 - 7479220", "contact:website": "http://www.narhalsan.se/sv/startsida/sok-mottagning/Goteborg/Centrum/VardcentralenMasthugget/", "name": "N\u00e4rh\u00e4lsan Masthugget v\u00e5rdcentral", "opening_hours": "Mo-Fr 08:00-17:00", "operator": "V\u00e4stra G\u00f6talandsregionen"}}, {"type": "node", "id": 1043043598, "lat": 57.7199105, "lon": 11.964331, "tags": {"addr:city": "G\u00f6teborg", "addr:country": "SE", "addr:housenumber": "4", "addr:postcode": "417 07", "addr:street": "Gjutj\u00e4rnsgatan", "amenity": "veterinary", "name": "Bl\u00e5 Stj\u00e4rnans Djursjukhus", "website": "https://www.blastjarnan.se/"}}, {"type": "node", "id": 1051796955, "lat": 57.6995896, "lon": 11.9578707, "tags": {"addr:city": "G\u00f6teborg", "addr:country": "SE", "addr:housenumber": "6", "addr:street": "S\u00f6dra All\u00e9gatan", "amenity": "clinic", "branch": "Haga-Annedal", "check_date": "2023-05-23", "contact:phone": "+46 31 725 00 75", "healthcare": "clinic", "name": "Capio V\u00e5rdcentral Axess", "network": "V\u00e4stra G\u00f6talandsregionen", "operator": "Capio AB (publ)", "ownership": "private", "payment:mastercard": "yes", "payment:visa": "yes", "website": "http://www.capiovardcentral.se/vastragotaland/Goteborg-Axess/start/"}}, {"type": "node", "id": 1052406177, "lat": 57.6836924, "lon": 11.9718791, "tags": {"amenity": "pharmacy", "brand": "Kronans Apotek", "brand:wikidata": "Q10549422", "brand:wikipedia": "sv:Kronans Droghandel", "check_date": "2022-10-30", "healthcare": "pharmacy", "name": "Kronans Apotek", "opening_hours": "Mo-Fr 10:00-18:00; Sa,Su off", "operator": "Kronans Apotek AB", "payment:mastercard": "yes", "payment:visa": "yes", "website": "https://www.kronansapotek.se/", "wheelchair": "yes"}}, {"type": "node", "id": 1098160564, "lat": 57.7188359, "lon": 11.9052789, "tags": {"amenity": "dentist"}}, {"type": "node", "id": 1131193345, "lat": 57.6595349, "lon": 12.0102946}, {"type": "node", "id": 1131193403, "lat": 57.6596836, "lon": 12.0086032}, {"type": "node", "id": 1131193447, "lat": 57.6593502, "lon": 12.0090109}, {"type": "node", "id": 1170431736, "lat": 57.7212244, "lon": 11.9367279, "tags": {"amenity": "hospital", "contact:website": "https://capio.se/hitta-mottagning/specialistvard/lundby-specialistsjukhus/", "healthcare": "hospital", "name": "Capio Lundby Specialistsjukhus", "old_name": "Capio Lundby N\u00e4rsjukhus", "operator": "Capio", "operator:wikidata": "Q498606"}}, {"type": "node", "id": 1170673484, "lat": 57.7216433, "lon": 11.9370332, "tags": {"addr:city": "G\u00f6teborg", "addr:country": "SE", "amenity": "pharmacy", "brand": "Kronans Apotek", "brand:wikidata": "Q10549422", "dispensing": "yes", "drive_through": "no", "healthcare": "pharmacy", "name": "Kronans Apotek", "opening_hours": "Mo-Fr 08:30-18:30; Sa 10:00-14:00"}}, {"type": "node", "id": 1184155560, "lat": 57.7214465, "lon": 11.9362084, "tags": {"amenity": "dentist", "brand": "Folktandv\u00e5rden", "brand:wikidata": "Q10497476", "brand:wikipedia": "sv:Folktandv\u00e5rden", "healthcare": "dentist", "name": "Folktandv\u00e5rden", "opening_hours": "Mo,Tu 07:00-15:30; We 08:00-13:00; Th 07:00-15:30; Fr 07:00-15:00"}}, {"type": "node", "id": 1211871493, "lat": 57.6979446, "lon": 11.9516259, "tags": {"access": "yes", "addr:city": "G\u00f6teborg", "addr:country": "SE", "addr:housenumber": "16", "addr:postcode": "413 04", "addr:street": "Linn\u00e9gatan", "amenity": "pharmacy", "branch": "G\u00f6teborg Majorna Linn\u00e9", "brand": "Apoteket", "check_date": "2024-02-23", "contact:phone": "+46771450450", "contact:website": "http://www.apoteket.se", "dispensing": "yes", "drive_through": "no", "entrance": "yes", "healthcare": "pharmacy", "name": "Apoteket Svanen", "opening_hours": "Mo-Fr 08:00-19:00; Sa 11:00-16:00", "operator": "Apoteket AB", "payment:cash": "yes", "payment:credit_cards": "yes", "payment:debit_cards": "yes", "wheelchair": "yes"}}, {"type": "node", "id": 1232295053, "lat": 57.6996249, "lon": 11.979085, "tags": {"addr:city": "G\u00f6teborg", "addr:country": "SE", "addr:housenumber": "34 C", "addr:postcode": "41137", "addr:street": "Engelbrektsgatan", "amenity": "pharmacy", "brand": "Apoteket", "check_date": "2023-05-24", "contact:phone": "+46771450450", "healthcare": "pharmacy", "name": "Apoteket Biet", "opening_hours": "Mo-Fr 08:30-19:00; Sa 10:00-15:00", "operator": "Apoteket AB"}}, {"type": "node", "id": 1300588849, "lat": 57.6927607, "lon": 11.9895511}, {"type": "node", "id": 1300588934, "lat": 57.6926623, "lon": 11.9893201}, {"type": "node", "id": 1300588944, "lat": 57.6926528, "lon": 11.9892919}, {"type": "node", "id": 1300589012, "lat": 57.6928924, "lon": 11.9894162}, {"type": "node", "id": 1300589056, "lat": 57.6928848, "lon": 11.9893907}, {"type": "node", "id": 1300589112, "lat": 57.6927519, "lon": 11.9895178}, {"type": "node", "id": 1369217925, "lat": 57.6655573, "lon": 11.9900693}, {"type": "node", "id": 1369217926, "lat": 57.6655829, "lon": 11.9902155}, {"type": "node", "id": 1369217927, "lat": 57.6656095, "lon": 11.9899575}, {"type": "node", "id": 1369217928, "lat": 57.6656099, "lon": 11.9901616}, {"type": "node", "id": 1369217929, "lat": 57.6656149, "lon": 11.9899669}, {"type": "node", "id": 1369217931, "lat": 57.6656261, "lon": 11.9902923}, {"type": "node", "id": 1369217933, "lat": 57.6656556, "lon": 11.9897473}, {"type": "node", "id": 1369217943, "lat": 57.665689, "lon": 11.9898131}, {"type": "node", "id": 1369217945, "lat": 57.6657138, "lon": 11.9896346}, {"type": "node", "id": 1369217948, "lat": 57.6657774, "lon": 11.9897547}, {"type": "node", "id": 1369217950, "lat": 57.6657908, "lon": 11.9897251}, {"type": "node", "id": 1369217952, "lat": 57.6658524, "lon": 11.9898322}, {"type": "node", "id": 1498397727, "lat": 57.7108024, "lon": 11.9867136, "tags": {"addr:city": "G\u00f6teborg", "addr:country": "SE", "addr:housenumber": "10", "addr:postcode": "411 01", "addr:street": "Friggagatan", "amenity": "pharmacy", "branch": "G\u00f6teborg", "brand": "Lloyds Apotek", "contact:phone": "+46 31 364 11 90", "contact:website": "https://www.lloydsapotek.se/", "healthcare": "pharmacy", "name": "LloydsApotek", "opening_hours": "Mo-Fr 09:30-19:00; Sa 10:00-16:00; Su 11:00-16:00", "operator": "LloydsApotek AB", "wheelchair": "yes"}}, {"type": "node", "id": 1501519973, "lat": 57.7136717, "lon": 11.8938721, "tags": {"amenity": "pharmacy", "branch": "G\u00f6teborg Biskopsg\u00e5rden", "brand": "Apoteket", "contact:phone": "+46771450450", "dispensing": "no", "healthcare": "pharmacy", "name": "Apoteket H\u00f6stv\u00e4dersgatan", "opening_hours": "Mo-Fr 08:00-18:00; Sa 10:00-14:00", "operator": "Apoteket AB"}}, {"type": "node", "id": 1538716553, "lat": 57.6665281, "lon": 11.9310197}, {"type": "node", "id": 1538716562, "lat": 57.6665297, "lon": 11.9309382}, {"type": "node", "id": 1538716569, "lat": 57.666554, "lon": 11.9310214}, {"type": "node", "id": 1538716571, "lat": 57.6665558, "lon": 11.9309399}, {"type": "node", "id": 1538716905, "lat": 57.6675686, "lon": 11.9311656}, {"type": "node", "id": 1538716909, "lat": 57.6675744, "lon": 11.9308799}, {"type": "node", "id": 1538716948, "lat": 57.6676611, "lon": 11.9308859}, {"type": "node", "id": 1538716966, "lat": 57.6676842, "lon": 11.9311764}, {"type": "node", "id": 1538716972, "lat": 57.6676887, "lon": 11.9309471}, {"type": "node", "id": 1570029343, "lat": 57.6918881, "lon": 11.9776328, "tags": {"amenity": "dentist", "name": "Folktandv\u00e5rden Gibraltar"}}, {"type": "node", "id": 1570029366, "lat": 57.6919628, "lon": 11.977564, "tags": {"addr:city": "G\u00f6teborg", "addr:country": "SE", "addr:housenumber": "1C", "addr:postcode": "411 32", "addr:street": "Gibraltargatan", "amenity": "clinic", "healthcare": "clinic", "name": "N\u00e4rh\u00e4lsan Gibraltargatan v\u00e5rdcentral", "operator": "V\u00e4stra G\u00f6talandsregionen", "operator:type": "public", "website": "https://www.narhalsan.se/hitta-mottagning/goteborg/goteborg-centrum/narhalsan-gibraltargatan-vardcentral/"}}, {"type": "node", "id": 1594538097, "lat": 57.7145322, "lon": 11.9971641, "tags": {"addr:city": "G\u00f6teborg", "addr:country": "SE", "addr:housenumber": "4", "addr:postcode": "416 65", "addr:street": "Redbergsv\u00e4gen", "amenity": "pharmacy", "branch": "G\u00f6teborg", "brand": "Apoteket", "contact:phone": "+46771450450", "healthcare": "pharmacy", "name": "Apoteket Korpen", "opening_hours": "Mo-Fr 08:00-19:00; Sa 10:00-15:00", "operator": "Apoteket AB"}}, {"type": "node", "id": 1594772834, "lat": 57.704334, "lon": 11.968815, "tags": {"addr:city": "G\u00f6teborg", "addr:country": "SE", "addr:housenumber": "45", "addr:street": "\u00d6stra Hamngatan", "amenity": "pharmacy", "branch": "G\u00f6teborg", "brand": "Kronans Apotek", "brand:wikidata": "Q10549422", "brand:wikipedia": "sv:Kronans Droghandel", "check_date": "2024-02-23", "contact:phone": "+46771612612", "dispensing": "yes", "drive_through": "no", "healthcare": "pharmacy", "name": "Kronans Apotek", "opening_hours": "Mo-Fr 09:00-19:00, Sa 10:00-17:00, Su 12:00-16:00", "operator": "Kronans Apotek AB", "payment:credit_cards": "yes", "payment:debit_cards": "yes", "payment:mastercard": "yes", "payment:visa": "yes", "website": "https://www.kronansapotek.se/", "wheelchair": "yes"}}, {"type": "node", "id": 1632019568, "lat": 57.7079373, "lon": 11.9677627, "tags": {"amenity": "pharmacy", "brand": "Apoteket", "healthcare": "pharmacy", "level": "0", "name": "Apoteket", "opening_hours": "Mo-Fr 10:00-20:00; Sa-Su 11:00-16:00", "operator": "Apoteket AB"}}, {"type": "node", "id": 1639994288, "lat": 57.719188, "lon": 12.0263073, "tags": {"addr:country": "SE", "addr:housenumber": "7", "addr:street": "Munkeb\u00e4ckstorget", "amenity": "pharmacy", "branch": "G\u00f6teborg", "brand": "Apoteksgruppen", "brand:wikidata": "Q10416129", "brand:wikipedia": "sv:Apoteksgruppen", "contact:phone": "+46 31 19 24 70", "healthcare": "pharmacy", "name": "Apoteksgruppen", "operator": "Apoteksgruppen Detaljist AB"}}, {"type": "node", "id": 1648799655, "lat": 57.6709111, "lon": 11.9280611, "tags": {"amenity": "pharmacy", "operator": "Apotek Hj\u00e4rtat", "source": "survey"}}, {"type": "node", "id": 1681959555, "lat": 57.6335228, "lon": 11.9367236, "tags": {"amenity": "dentist", "branch": "Askim", "brand": "Folktandv\u00e5rden", "brand:wikidata": "Q10497476", "contact:phone": "+46-31686760", "healthcare": "dentist", "name": "Folktandv\u00e5rden", "opening_hours": "Mo-Fr 08:00-17:00"}}, {"type": "node", "id": 1681959572, "lat": 57.6335228, "lon": 11.9369864, "tags": {"addr:city": "Askim", "addr:country": "SE", "addr:housenumber": "5", "addr:postcode": "463 43", "addr:street": "Askims Torg", "amenity": "clinic", "contact:phone": "+46 31 727 90 00", "healthcare": "clinic", "name": "N\u00f6tk\u00e4rnan Hov\u00e5s Askim Familjel\u00e4kare och BVC", "network": "V\u00e4stra G\u00f6talandsregionen", "opening_hours": "Mo-Fr 08:00-17:00", "operator": "N\u00f6tk\u00e4rnan Hov\u00e5s Askim Familjel\u00e4kare och BVC AB", "payment:cryptocurrencies": "no"}}, {"type": "node", "id": 1762908412, "lat": 57.7011725, "lon": 11.9156267, "tags": {"addr:city": "G\u00f6teborg", "addr:country": "SE", "addr:housenumber": "4", "addr:postcode": "417 64", "addr:street": "Sj\u00f6porten", "amenity": "clinic", "contact:phone": "+46 31 747 97 00", "emergency": "no", "healthcare": "clinic", "name": "N\u00e4rh\u00e4lsan Eriksberg v\u00e5rdcentral", "network": "V\u00e4stra G\u00f6talandsregionen", "operator": "V\u00e4stra G\u00f6talandsregionen", "payment:cryptocurrencies": "no", "website": "https://www.narhalsan.se/hitta-mottagning/goteborg/goteborg-hisingen/narhalsan-eriksberg-vardcentral/", "wheelchair": "yes"}}, {"type": "node", "id": 1763043091, "lat": 57.709966, "lon": 11.9298768, "tags": {"amenity": "pharmacy", "brand": "Apotek Hj\u00e4rtat", "brand:wikidata": "Q10416114", "dispensing": "yes", "healthcare": "pharmacy", "name": "Apotek Hj\u00e4rtat", "opening_hours": "Mo-Fr 07:00-20:00; Sa-Su 09:00-18:00"}}, {"type": "node", "id": 1853444976, "lat": 57.6836883, "lon": 11.9622683}, {"type": "node", "id": 1862765987, "lat": 57.6823796, "lon": 11.9559165}, {"type": "node", "id": 1895362275, "lat": 57.7234298, "lon": 12.0510661}, {"type": "node", "id": 1895362295, "lat": 57.7234176, "lon": 12.0525153}, {"type": "node", "id": 1899998852, "lat": 57.7193604, "lon": 12.0264777, "tags": {"addr:city": "G\u00f6teborg", "addr:country": "SE", "addr:housenumber": "6", "addr:postcode": "416 73", "addr:street": "Munkeb\u00e4ckstorget", "amenity": "clinic", "emergency": "no", "healthcare": "clinic", "healthcare:speciality": "paediatrics", "name": "N\u00e4rh\u00e4lsan Munkeb\u00e4ck barnav\u00e5rdscentral", "operator": "V\u00e4stra G\u00f6talandsregionen", "phone": "+46 31 345 06 00", "website": "https://www.narhalsan.se/hitta-mottagning/goteborg/goteborg-ostra-centrum/narhalsan-munkeback-barnavardscentral/"}}, {"type": "node", "id": 1924177763, "lat": 57.7077946, "lon": 11.9856898, "tags": {"addr:city": "G\u00f6teborg", "addr:country": "SE", "addr:housenumber": "38", "addr:street": "Stampgatan", "amenity": "dentist", "contact:phone": "+46 31 15 14 16", "healthcare": "dentist", "name": "Tandl\u00e4kare Ella Yahyapour", "shop": "florist"}}, {"type": "node", "id": 1952896009, "lat": 57.7078627, "lon": 11.969434}, {"type": "node", "id": 1952896011, "lat": 57.707871, "lon": 11.9694878, "tags": {"entrance": "main"}}, {"type": "node", "id": 1952896043, "lat": 57.7079551, "lon": 11.9700299}, {"type": "node", "id": 1952896048, "lat": 57.7080289, "lon": 11.9693437}, {"type": "node", "id": 1952896063, "lat": 57.7081213, "lon": 11.9699397}, {"type": "node", "id": 1998924084, "lat": 57.7248598, "lon": 11.8924519, "tags": {"addr:city": "G\u00f6teborg", "addr:country": "SE", "addr:housenumber": "8", "addr:postcode": "418 38", "addr:street": "Friskv\u00e4derstorget", "amenity": "clinic", "contact:phone": "+46 31 792 87 00", "contact:website": "http://friskvaderstorgetvardcentral.se/", "healthcare": "clinic", "name": "N\u00f6tk\u00e4rnan Friskv\u00e4derstorget V\u00e5rdcentral och BVC", "network": "V\u00e4stra G\u00f6talandsregionen", "operator": "N\u00f6tk\u00e4rnan Friskv\u00e4derstorget V\u00e5rdcentral och BVC AB", "ownership": "private", "payment:cryptocurrencies": "no"}}, {"type": "node", "id": 2033520152, "lat": 57.699038, "lon": 11.9773807, "tags": {"addr:city": "G\u00f6teborg", "addr:country": "SE", "addr:housenumber": "34", "addr:street": "Kungsportsavenyen", "amenity": "dentist", "check_date": "2021-05-14", "email": "info@smajla.se", "healthcare": "dentist", "healthcare:speciality": "orthodontics", "name": "SMAJLA Avenyn", "operator": "SMAJLA Dental AB", "phone": "+46 31 99 44 44", "website": "https://www.smajla.se"}}, {"type": "node", "id": 2039206468, "lat": 57.7041893, "lon": 11.9653953, "tags": {"amenity": "pharmacy", "branch": "G\u00f6teborg", "brand": "Apotek Hj\u00e4rtat", "brand:wikidata": "Q10416114", "brand:wikipedia": "sv:Apotek Hj\u00e4rtat", "check_date": "2023-04-19", "contact:phone": "+46771405405", "contact:website": "https://www.apotekhjartat.se/", "dispensing": "yes", "drive_through": "no", "healthcare": "pharmacy", "level": "0", "name": "Apotek Hj\u00e4rtat", "opening_hours": "Mo-Fr 09:30-19:00; Sa 11:00-17:00", "operator": "Apotek Hj\u00e4rtat AB", "payment:credit_cards": "yes", "payment:debit_cards": "yes", "wheelchair": "yes"}}, {"type": "node", "id": 2051782391, "lat": 57.7207753, "lon": 12.0471162}, {"type": "node", "id": 2051782393, "lat": 57.7208869, "lon": 12.0471535}, {"type": "node", "id": 2051793304, "lat": 57.7177765, "lon": 12.0545897}, {"type": "node", "id": 2051793314, "lat": 57.717995, "lon": 12.0546347}, {"type": "node", "id": 2051793326, "lat": 57.718985, "lon": 12.0548284}, {"type": "node", "id": 2051793336, "lat": 57.7194653, "lon": 12.0549633}, {"type": "node", "id": 2051793345, "lat": 57.7200249, "lon": 12.0551258}, {"type": "node", "id": 2079014094, "lat": 57.7208976, "lon": 11.9435265, "tags": {"amenity": "dentist", "name": "J\u00e4ttestenskliniken"}}, {"type": "node", "id": 2139221254, "lat": 57.6994986, "lon": 11.9803747, "tags": {"amenity": "dentist", "healthcare": "dentist", "name": "Elite Smile"}}, {"type": "node", "id": 2139231449, "lat": 57.7128215, "lon": 11.892189, "tags": {"amenity": "dentist", "brand": "Folktandv\u00e5rden", "brand:wikidata": "Q10497476", "brand:wikipedia": "sv:Folktandv\u00e5rden", "healthcare": "dentist", "name": "Folktandv\u00e5rden"}}, {"type": "node", "id": 2144107240, "lat": 57.703794, "lon": 11.9619503, "tags": {"amenity": "pharmacy", "branch": "G\u00f6teborg", "brand": "Apoteket", "contact:phone": "+46771450450", "healthcare": "pharmacy", "name": "Apoteket Kungsgatan", "opening_hours": "Mo-Fr 08:00-19:00; Sa 10:00-16:00; Su 11:00-16:00", "operator": "Apoteket AB"}}, {"type": "node", "id": 2165234246, "lat": 57.7237494, "lon": 11.9542235, "tags": {"amenity": "pharmacy", "healthcare": "pharmacy", "name": "Kronans Apotek"}}, {"type": "node", "id": 2214756303, "lat": 57.7145497, "lon": 11.9972726, "tags": {"amenity": "dentist", "brand": "Folktandv\u00e5rden", "brand:wikidata": "Q10497476", "brand:wikipedia": "sv:Folktandv\u00e5rden", "healthcare": "dentist", "name": "Folktandv\u00e5rden", "wheelchair": "yes"}}, {"type": "node", "id": 2214756321, "lat": 57.7145646, "lon": 11.9973789, "tags": {"addr:city": "G\u00f6teborg", "addr:country": "SE", "addr:housenumber": "6", "addr:postcode": "416 65", "addr:street": "Redbergsv\u00e4gen", "air_conditioning": "yes", "amenity": "clinic", "check_date": "2023-09-24", "healthcare": "clinic", "internet_access": "wlan", "internet_access:fee": "no", "name": "N\u00e4rh\u00e4lsan Olskroken v\u00e5rdcentral", "opening_hours": "Mo-Fr 07:00-17:00", "operator": "V\u00e4stra G\u00f6talandsregionen", "operator:type": "public", "payment:mastercard": "yes", "payment:visa": "yes", "phone": "+46 31 345 04 00", "website": "https://www.narhalsan.se/hitta-mottagning/goteborg/goteborg-ostra-centrum/narhalsan-olskroken-vardcentral/", "wheelchair": "yes"}}, {"type": "node", "id": 2394138612, "lat": 57.7054714, "lon": 11.9578789, "tags": {"addr:city": "G\u00f6teborg", "addr:country": "SE", "addr:housenumber": "2-4", "addr:postcode": "411 21", "addr:street": "Lilla Badhusgatan", "amenity": "clinic", "healthcare": "clinic", "name": "Citysjukhuset +7", "ownership": "private"}}, {"type": "node", "id": 2443742487, "lat": 57.6833794, "lon": 11.9555101}, {"type": "node", "id": 2463120368, "lat": 57.7202393, "lon": 12.0551965}, {"type": "node", "id": 2463120375, "lat": 57.7203367, "lon": 12.0550838}, {"type": "node", "id": 2463958394, "lat": 57.7176402, "lon": 12.0545499}, {"type": "node", "id": 2463958397, "lat": 57.7176625, "lon": 12.0545105}, {"type": "node", "id": 2463958401, "lat": 57.7176862, "lon": 12.0544342}, {"type": "node", "id": 2463958403, "lat": 57.7177269, "lon": 12.0542792}, {"type": "node", "id": 2463958408, "lat": 57.7177743, "lon": 12.0542152}, {"type": "node", "id": 2463958412, "lat": 57.7178058, "lon": 12.0541561}, {"type": "node", "id": 2463958413, "lat": 57.7178308, "lon": 12.0541093}, {"type": "node", "id": 2463958415, "lat": 57.7178331, "lon": 12.0533768}, {"type": "node", "id": 2463958417, "lat": 57.7178331, "lon": 12.0536525}, {"type": "node", "id": 2463958419, "lat": 57.7178344, "lon": 12.0530667}, {"type": "node", "id": 2463958421, "lat": 57.7178452, "lon": 12.0540035}, {"type": "node", "id": 2463958422, "lat": 57.7178462, "lon": 12.0538789}, {"type": "node", "id": 2463958424, "lat": 57.7178541, "lon": 12.0528255}, {"type": "node", "id": 2463958428, "lat": 57.7178896, "lon": 12.0527099}, {"type": "node", "id": 2463958432, "lat": 57.7179422, "lon": 12.0525893}, {"type": "node", "id": 2463958433, "lat": 57.717983, "lon": 12.0524539}, {"type": "node", "id": 2463958435, "lat": 57.7180211, "lon": 12.0523111}, {"type": "node", "id": 2463958437, "lat": 57.7180368, "lon": 12.0521561}, {"type": "node", "id": 2463958439, "lat": 57.7180789, "lon": 12.0520404}, {"type": "node", "id": 2463958440, "lat": 57.7181315, "lon": 12.0520306}, {"type": "node", "id": 2463958441, "lat": 57.7181736, "lon": 12.0520281}, {"type": "node", "id": 2463958444, "lat": 57.7182235, "lon": 12.0519863}, {"type": "node", "id": 2463958445, "lat": 57.7182669, "lon": 12.05191}, {"type": "node", "id": 2463958447, "lat": 57.7183089, "lon": 12.0518263}, {"type": "node", "id": 2463958448, "lat": 57.7183734, "lon": 12.0517451}, {"type": "node", "id": 2463958450, "lat": 57.7184286, "lon": 12.0517008}, {"type": "node", "id": 2463958452, "lat": 57.7184693, "lon": 12.0516983}, {"type": "node", "id": 2463958456, "lat": 57.7185377, "lon": 12.0516786}, {"type": "node", "id": 2463958457, "lat": 57.7185679, "lon": 12.0516318}, {"type": "node", "id": 2463958459, "lat": 57.7186021, "lon": 12.0515285}, {"type": "node", "id": 2463958461, "lat": 57.7186441, "lon": 12.0514103}, {"type": "node", "id": 2463958463, "lat": 57.718702, "lon": 12.051211}, {"type": "node", "id": 2463958465, "lat": 57.7187322, "lon": 12.0511765}, {"type": "node", "id": 2463958468, "lat": 57.7187887, "lon": 12.051147}, {"type": "node", "id": 2463958470, "lat": 57.718815, "lon": 12.0511002}, {"type": "node", "id": 2463958472, "lat": 57.7188438, "lon": 12.0510456}, {"type": "node", "id": 2463958474, "lat": 57.7188338, "lon": 12.0509685}, {"type": "node", "id": 2464152030, "lat": 57.717993, "lon": 12.0524163}, {"type": "node", "id": 2464152243, "lat": 57.7186754, "lon": 12.0513024}, {"type": "node", "id": 2464152362, "lat": 57.7190246, "lon": 12.0501271}, {"type": "node", "id": 2464152398, "lat": 57.719127, "lon": 12.0500641}, {"type": "node", "id": 2464152467, "lat": 57.7192101, "lon": 12.0500408}, {"type": "node", "id": 2464152512, "lat": 57.7193111, "lon": 12.0499738}, {"type": "node", "id": 2464152551, "lat": 57.7195383, "lon": 12.0497926}, {"type": "node", "id": 2464152575, "lat": 57.7196371, "lon": 12.049702}, {"type": "node", "id": 2464152579, "lat": 57.7196897, "lon": 12.0496114}, {"type": "node", "id": 2464152631, "lat": 57.7198361, "lon": 12.0492312}, {"type": "node", "id": 2464152665, "lat": 57.7200796, "lon": 12.048554}, {"type": "node", "id": 2464152689, "lat": 57.720167, "lon": 12.0483206}, {"type": "node", "id": 2466676051, "lat": 57.709049, "lon": 11.972446, "tags": {"addr:city": "G\u00f6teborg", "addr:country": "SE", "addr:housenumber": "1-8", "addr:street": "Nils Ericsonsplatsen", "amenity": "pharmacy", "branch": "G\u00f6teborg", "brand": "Apoteket", "contact:phone": "+46771450450", "contact:website": "http://www.apoteket.se", "healthcare": "pharmacy", "level": "0", "name": "Apoteket Centralen", "opening_hours": "Mo-Fr 06:00-22:00; Sa,Su 10:00-20:00", "operator": "Apoteket AB"}}, {"type": "node", "id": 2466676086, "lat": 57.709431, "lon": 11.973003, "tags": {"amenity": "pharmacy", "branch": "G\u00f6teborg", "brand": "Apoteket", "contact:phone": "+46771450450", "healthcare": "pharmacy", "level": "0", "name": "apoteket Express", "opening_hours": "Mo-Fr 06:00-22:00; Sa 08:00-20:00; Su 08:00-20:00", "operator": "Apoteket AB (publ)"}}, {"type": "node", "id": 2468128471, "lat": 57.7091151, "lon": 11.7724767, "tags": {"amenity": "pharmacy", "branch": "G\u00f6teborg Torslanda", "brand": "Apotek Hj\u00e4rtat", "brand:wikidata": "Q10416114", "brand:wikipedia": "sv:Apotek Hj\u00e4rtat", "check_date": "2023-05-23", "contact:phone": "+46771405405", "healthcare": "pharmacy", "name": "Apotek Hj\u00e4rtat", "operator": "Apotek Hj\u00e4rtat AB", "payment:mastercard": "yes", "payment:visa": "yes", "wheelchair": "yes"}}, {"type": "node", "id": 2468969597, "lat": 57.7000937, "lon": 11.9770539, "tags": {"amenity": "clinic", "contact:website": "https://kristinelundskliniken.se/", "healthcare": "clinic", "name": "Kristinelundskliniken", "network": "V\u00e4stra G\u00f6talandsregionen", "operator": "Kristinelundskliniken Handelsbolag"}}, {"type": "node", "id": 2476860406, "lat": 57.7203597, "lon": 12.0469934}, {"type": "node", "id": 2476860443, "lat": 57.7205673, "lon": 12.0553493}, {"type": "node", "id": 2476860449, "lat": 57.7206376, "lon": 12.0556599}, {"type": "node", "id": 2476860499, "lat": 57.7208243, "lon": 12.0471212}, {"type": "node", "id": 2476860543, "lat": 57.7211391, "lon": 12.0563604}, {"type": "node", "id": 2476860550, "lat": 57.7211857, "lon": 12.0564015}, {"type": "node", "id": 2476860582, "lat": 57.7214686, "lon": 12.0569106}, {"type": "node", "id": 2476860593, "lat": 57.7215655, "lon": 12.0571029}, {"type": "node", "id": 2476860615, "lat": 57.7217302, "lon": 12.0573533}, {"type": "node", "id": 2476860647, "lat": 57.7218445, "lon": 12.0574767}, {"type": "node", "id": 2476860692, "lat": 57.7219414, "lon": 12.0575384}, {"type": "node", "id": 2476860757, "lat": 57.7220422, "lon": 12.0575529}, {"type": "node", "id": 2476860819, "lat": 57.7221585, "lon": 12.057513}, {"type": "node", "id": 2476860848, "lat": 57.7222592, "lon": 12.0574077}, {"type": "node", "id": 2476860930, "lat": 57.7227417, "lon": 12.0567546}, {"type": "node", "id": 2476860944, "lat": 57.7229433, "lon": 12.0564824}, {"type": "node", "id": 2476860959, "lat": 57.7230828, "lon": 12.0562828}, {"type": "node", "id": 2476860964, "lat": 57.72317, "lon": 12.0465354}, {"type": "node", "id": 2476860974, "lat": 57.7231952, "lon": 12.0560434}, {"type": "node", "id": 2476860981, "lat": 57.7233153, "lon": 12.0557458}, {"type": "node", "id": 2476860983, "lat": 57.7233172, "lon": 12.0463395}, {"type": "node", "id": 2476860995, "lat": 57.7233831, "lon": 12.05547}, {"type": "node", "id": 2476861001, "lat": 57.7234354, "lon": 12.0480631}, {"type": "node", "id": 2476861003, "lat": 57.7234374, "lon": 12.0488324}, {"type": "node", "id": 2476861004, "lat": 57.7234429, "lon": 12.0492044}, {"type": "node", "id": 2476861005, "lat": 57.7234451, "lon": 12.0504121}, {"type": "node", "id": 2476861006, "lat": 57.7234461, "lon": 12.0508258}, {"type": "node", "id": 2476861008, "lat": 57.723451, "lon": 12.0551906}, {"type": "node", "id": 2476861009, "lat": 57.7234519, "lon": 12.0498841}, {"type": "node", "id": 2476861011, "lat": 57.7234616, "lon": 12.0502288}, {"type": "node", "id": 2476861013, "lat": 57.7234713, "lon": 12.0499694}, {"type": "node", "id": 2476861014, "lat": 57.7234751, "lon": 12.0500583}, {"type": "node", "id": 2476861018, "lat": 57.72348, "lon": 12.0472067}, {"type": "node", "id": 2476861021, "lat": 57.7234819, "lon": 12.0459875}, {"type": "node", "id": 2476861027, "lat": 57.7235392, "lon": 12.0536659}, {"type": "node", "id": 2476861029, "lat": 57.723606, "lon": 12.0457625}, {"type": "node", "id": 2476861030, "lat": 57.7236602, "lon": 12.0457371}, {"type": "node", "id": 2476861031, "lat": 57.723699, "lon": 12.0458133}, {"type": "node", "id": 2488731356, "lat": 57.7098182, "lon": 12.005733, "tags": {"addr:city": "G\u00f6teborg", "addr:country": "SE", "addr:housenumber": "6", "addr:postcode": "416 59", "addr:street": "Ingeborgsgatan", "amenity": "veterinary", "contact:phone": "+46 31 21 40 40", "contact:website": "https://evidensia.se/djursjukhuset-goteborg", "name": "Evidensia Djursjukhuset G\u00f6teborg", "opening_hours": "Mo-Fr 07:00-21:00; Sa-Su 09:00-21:00", "operator": "Evidensia"}}, {"type": "node", "id": 2638431705, "lat": 57.700361, "lon": 11.9697327, "tags": {"amenity": "dentist", "healthcare": "dentist", "name": "Vasa Tandklinik"}}, {"type": "node", "id": 2638582161, "lat": 57.6992849, "lon": 11.9770865, "tags": {"amenity": "pharmacy", "brand": "Apotek Hj\u00e4rtat", "brand:wikidata": "Q10416114", "brand:wikipedia": "sv:Apotek Hj\u00e4rtat", "check_date": "2022-12-11", "contact:phone": "+46771405405", "healthcare": "pharmacy", "name": "Apotek Hj\u00e4rtat", "opening_hours": "Mo-Fr 09:30-19:00; Sa 10:00-18:00; Su 11:00-16:00", "operator": "Apotek Hj\u00e4rtat AB"}}, {"type": "node", "id": 2689806005, "lat": 57.7232157, "lon": 11.7671083, "tags": {"addr:city": "Torslanda", "addr:country": "SE", "addr:housenumber": "3", "addr:postcode": "423 32", "addr:street": "Torslanda Torg", "amenity": "pharmacy", "branch": "G\u00f6teborg Torslanda", "brand": "Apotek Hj\u00e4rtat", "brand:wikidata": "Q10416114", "brand:wikipedia": "sv:Apotek Hj\u00e4rtat", "contact:phone": "+46771405405", "healthcare": "pharmacy", "name": "Apotek Hj\u00e4rtat", "operator": "Apotek Hj\u00e4rtat AB"}}, {"type": "node", "id": 2703958797, "lat": 57.6802048, "lon": 11.9637403}, {"type": "node", "id": 2703958798, "lat": 57.6807784, "lon": 11.9606247}, {"type": "node", "id": 2703958799, "lat": 57.6808335, "lon": 11.959423}, {"type": "node", "id": 2703958800, "lat": 57.681415, "lon": 11.958072}, {"type": "node", "id": 2931042801, "lat": 57.697027, "lon": 11.986098, "tags": {"addr:city": "G\u00f6teborg", "addr:country": "SE", "addr:housenumber": "1", "addr:street": "Korsv\u00e4gen", "amenity": "pharmacy", "branch": "G\u00f6teborg", "brand": "Apoteket", "brand:wikidata": "Q1785637", "check_date": "2024-02-23", "contact:phone": "+46771450450", "drive_through": "no", "healthcare": "pharmacy", "name": "Apoteket", "opening_hours": "Mo-Fr 10:00-19:00; Sa-Su 11:00-16:00", "operator": "Apoteket AB", "payment:mastercard": "yes", "payment:visa": "yes", "website": "https://www.apoteket.se/apotek/apoteket-korsvagen-goteborg/", "wheelchair": "yes"}}, {"type": "node", "id": 2931043801, "lat": 57.696971, "lon": 11.985955, "tags": {"amenity": "dentist", "check_date": "2024-02-23", "check_date:opening_hours": "2023-12-10", "healthcare": "dentist", "name": "Tandl\u00e4karklinik", "opening_hours": "Mo-Th 09:00-16:00; Fr 09:00-14:00", "payment:cash": "yes", "payment:credit_cards": "yes", "payment:debit_cards": "yes"}}, {"type": "node", "id": 2931103801, "lat": 57.722073, "lon": 11.951942, "tags": {"amenity": "pharmacy", "brand": "Apoteket", "check_date": "2023-05-15", "contact:phone": "+46771450450", "healthcare": "pharmacy", "name": "Apoteket", "opening_hours": "Mo-Fr 08:00-19:00; Sa 10:00-17:00; Su 11:00-17:00", "operator": "Apoteket AB", "payment:mastercard": "yes", "payment:visa": "yes", "wheelchair": "yes"}}, {"type": "node", "id": 2934193669, "lat": 57.6968465, "lon": 11.6514693}, {"type": "node", "id": 2934193671, "lat": 57.6970616, "lon": 11.6517845}, {"type": "node", "id": 2934193672, "lat": 57.6970218, "lon": 11.6510505}, {"type": "node", "id": 2934193673, "lat": 57.6972369, "lon": 11.6513657}, {"type": "node", "id": 3167183173, "lat": 57.7209921, "lon": 11.948761, "tags": {"amenity": "dentist", "name": "Folktandv\u00e5rden Kvilleb\u00e4cken"}}, {"type": "node", "id": 3167183174, "lat": 57.7209872, "lon": 11.9486126, "tags": {"amenity": "pharmacy", "brand": "Kronans Apotek", "brand:wikidata": "Q10549422", "brand:wikipedia": "sv:Kronans Droghandel", "contact:phone": "+46771612612", "dispensing": "yes", "healthcare": "pharmacy", "name": "Kronans Apotek", "opening_hours": "Mo-Fr 08:30-18:00", "operator": "Kronans Apotek AB", "website": "https://www.kronansapotek.se/"}}, {"type": "node", "id": 3196418274, "lat": 57.712236, "lon": 11.9919077, "tags": {"amenity": "dentist", "healthcare": "dentist", "name": "Akutkliniken Svingeln", "website": "https://www.akutkliniken.se/"}}, {"type": "node", "id": 3383033164, "lat": 57.6906345, "lon": 11.9477755, "tags": {"addr:city": "G\u00f6teborg", "addr:country": "SE", "addr:housenumber": "55", "addr:postcode": "413 11", "addr:street": "Vegagatan", "amenity": "clinic", "contact:email": "vardcentralen.slottsskogen@vgregion.se", "contact:phone": "+46-31-345 05 80", "contact:website": "http://www.narhalsan.se/", "healthcare": "clinic", "name": "N\u00e4rh\u00e4lsan Slottsskogen v\u00e5rdcentral", "network": "V\u00e4stra G\u00f6talandsregionen", "operator": "V\u00e4stra G\u00f6talandsregionen"}}, {"type": "node", "id": 3526000760, "lat": 57.7290053, "lon": 12.0139238, "tags": {"addr:city": "G\u00f6teborg", "addr:country": "SE", "addr:housenumber": "6", "addr:street": "Rullagergatan", "amenity": "dentist", "brand": "Folktandv\u00e5rden", "brand:wikidata": "Q10497476", "brand:wikipedia": "sv:Folktandv\u00e5rden", "name": "Folktandv\u00e5rden"}}, {"type": "node", "id": 3709157525, "lat": 57.711661, "lon": 11.908007, "tags": {"amenity": "pharmacy", "dispensing": "yes", "healthcare": "pharmacy", "name": "Apotek Hj\u00e4rtat Kyrkbytorget", "opening_hours": "Mo-Fr 09:00-18:30; Sa 10:00-14:00", "wheelchair": "yes"}}, {"type": "node", "id": 3797911925, "lat": 57.7081006, "lon": 11.6547064, "tags": {"addr:city": "\u00d6cker\u00f6", "addr:country": "SE", "addr:housenumber": "10", "addr:postcode": "47531", "addr:street": "Norg\u00e5rdsv\u00e4gen", "amenity": "dentist", "contact:website": "http://www.vgregion.se/folktandvarden/ockero", "name": "Folktandv\u00e5rden \u00d6cker\u00f6"}}, {"type": "node", "id": 3960527670, "lat": 57.7212485, "lon": 12.0473178}, {"type": "node", "id": 3960527671, "lat": 57.7216424, "lon": 12.0473821}, {"type": "node", "id": 3960527672, "lat": 57.7221706, "lon": 12.0472489}, {"type": "node", "id": 3960527673, "lat": 57.7226403, "lon": 12.0468923}, {"type": "node", "id": 3960527675, "lat": 57.7235353, "lon": 12.0533124}, {"type": "node", "id": 3960527676, "lat": 57.7235414, "lon": 12.0545598}, {"type": "node", "id": 3960527677, "lat": 57.723556, "lon": 12.0465831}, {"type": "node", "id": 3967781595, "lat": 57.6597825, "lon": 12.0084728}, {"type": "node", "id": 3967781597, "lat": 57.6600541, "lon": 12.0139571}, {"type": "node", "id": 3967781604, "lat": 57.6609609, "lon": 12.0082989}, {"type": "node", "id": 3967781607, "lat": 57.6610014, "lon": 12.0084886}, {"type": "node", "id": 3967781608, "lat": 57.661064, "lon": 12.0134532}, {"type": "node", "id": 3967781609, "lat": 57.6612438, "lon": 12.0097449}, {"type": "node", "id": 3967781610, "lat": 57.662697, "lon": 12.0127053}, {"type": "node", "id": 3967781611, "lat": 57.661627, "lon": 12.0095777}, {"type": "node", "id": 3967781612, "lat": 57.6620554, "lon": 12.0130053}, {"type": "node", "id": 3967781613, "lat": 57.6620168, "lon": 12.0092939}, {"type": "node", "id": 3967781614, "lat": 57.6622752, "lon": 12.0104789}, {"type": "node", "id": 4325561191, "lat": 57.7011829, "lon": 11.9157709, "tags": {"amenity": "pharmacy", "brand": "Apoteksgruppen", "brand:wikidata": "Q10416129", "brand:wikipedia": "sv:Apoteksgruppen", "healthcare": "pharmacy", "name": "Apoteksgruppen", "wheelchair": "yes"}}, {"type": "node", "id": 4335910331, "lat": 57.7090189, "lon": 11.979935, "tags": {"addr:city": "G\u00f6teborg", "addr:country": "SE", "addr:housenumber": "10", "addr:street": "Odinsgatan", "amenity": "dentist", "name": "Akuttandv\u00e5rden", "opening_hours": "Mo-Fr 08:00-20:00; Sa,Su 08:00-16:00", "operator": "Folktandv\u00e5rden"}}, {"type": "node", "id": 4338710897, "lat": 57.7089424, "lon": 11.9865503, "tags": {"amenity": "dentist", "contact:phone": "+46 31 15 94 80", "contact:website": "https://www.videnta.se/", "healthcare": "dentist", "name": "Videnta Tandv\u00e5rd", "opening_hours": "Mo-Fr 09:00-18:00"}}, {"type": "node", "id": 4344676065, "lat": 57.6983259, "lon": 11.9934116, "tags": {"amenity": "pharmacy", "brand": "Apotek Hj\u00e4rtat", "brand:wikidata": "Q10416114", "brand:wikipedia": "sv:Apotek Hj\u00e4rtat", "check_date": "2024-02-23", "check_date:opening_hours": "2021-05-07", "contact:phone": "+46771405405", "contact:website": "http://www.apotekhjartat.se", "drive_through": "no", "healthcare": "pharmacy", "name": "Apotek Hj\u00e4rtat", "opening_hours": "Mo-Fr 10:00-19:00; Sa 10:00-16:00; Su 11:00-15:00", "operator": "Apotek Hj\u00e4rtat AB", "payment:cash": "yes", "payment:credit_cards": "yes", "payment:debit_cards": "yes", "wheelchair": "yes"}}, {"type": "node", "id": 4520817391, "lat": 57.6507277, "lon": 11.911279, "tags": {"amenity": "pharmacy", "brand": "Apotek Hj\u00e4rtat", "brand:wikidata": "Q10416114", "brand:wikipedia": "sv:Apotek Hj\u00e4rtat", "contact:phone": "+46771405405", "healthcare": "pharmacy", "level": "0", "name": "Apotek Hj\u00e4rtat", "operator": "Apotek Hj\u00e4rtat AB"}}, {"type": "node", "id": 4537401105, "lat": 57.6710663, "lon": 11.928258, "tags": {"amenity": "dentist", "name": "Golden Smile", "opening_hours": "Mo-Th 08:00-17:00; Fr 08:00-15:00", "website": "https://goldensmile.se/"}}, {"type": "node", "id": 4729135221, "lat": 57.7193168, "lon": 11.7748191, "tags": {"amenity": "dentist", "brand": "Folktandv\u00e5rden", "brand:wikidata": "Q10497476", "brand:wikipedia": "sv:Folktandv\u00e5rden", "name": "Folktandv\u00e5rden"}}, {"type": "node", "id": 4794748312, "lat": 57.6667128, "lon": 11.9399952, "tags": {"addr:country": "SE", "addr:housenumber": "6", "addr:street": "J A Wettergrens gata", "amenity": "veterinary", "name": "Husdjursh\u00e4lsan", "website": "https://www.husdjurshalsan.se/"}}, {"type": "node", "id": 4794782491, "lat": 57.6697871, "lon": 11.9292532, "tags": {"addr:city": "G\u00f6teborg", "addr:country": "SE", "addr:housenumber": "14C", "addr:postcode": "414 80", "addr:street": "Markmyntsgatan", "amenity": "clinic", "healthcare": "clinic", "name": "N\u00e4rh\u00e4lsan H\u00f6gsbo barnav\u00e5rdscentral", "network": "V\u00e4stra G\u00f6talandsregionen", "operator": "V\u00e4stra G\u00f6talandsregionen", "payment:cryptocurrencies": "no", "phone": "+46 31 747 80 40;+46 31 747 80 41;+46 31 747 80 42;+46 31 747 80 43;+46 31 747 80 36", "website": "https://www.narhalsan.se/hitta-mottagning/goteborg/goteborg-vastra/narhalsan-hogsbo-barnavardscentral/"}}, {"type": "node", "id": 4955831073, "lat": 57.6745277, "lon": 11.8840367, "tags": {"amenity": "veterinary", "contact:website": "https://evidensia.se/klinik/evidensia-djurkliniken-frolunda/", "name": "Evidensia Djurkliniken Fr\u00f6lunda"}}, {"type": "node", "id": 5060840611, "lat": 57.7030937, "lon": 11.9610663, "tags": {"addr:city": "G\u00f6teborg", "addr:country": "SE", "addr:housenumber": "11A", "addr:postcode": "411 18", "addr:street": "Kaserntorget", "amenity": "clinic", "contact:phone": "+46 31 747 90 00", "contact:website": "https://www.narhalsan.se/hitta-mottagning/goteborg/goteborg-centrum/narhalsan-kungshojd-vardcentral/", "healthcare": "clinic", "name": "N\u00e4rh\u00e4lsan Kungsh\u00f6jd v\u00e5rdcentral", "network": "V\u00e4stra G\u00f6talandsregionen", "operator": "V\u00e4stra G\u00f6talandsregionen"}}, {"type": "node", "id": 5141947244, "lat": 57.7138178, "lon": 11.8938468, "tags": {"addr:city": "G\u00f6teborg", "addr:country": "SE", "addr:housenumber": "1", "addr:postcode": "418 33", "addr:street": "H\u00f6stv\u00e4dersgatan", "amenity": "clinic", "healthcare": "clinic", "name": "N\u00e4rh\u00e4lsan Biskopsg\u00e5rden barnav\u00e5rdscentral", "operator": "V\u00e4stra G\u00f6talandsregionen", "payment:cryptocurrencies": "no", "phone": "+46 31 747 94 60", "website": "https://www.narhalsan.se/hitta-mottagning/goteborg/goteborg-hisingen/narhalsan-biskopsgarden-barnavardscentral/"}}, {"type": "node", "id": 5141947246, "lat": 57.7137662, "lon": 11.8938616, "tags": {"addr:city": "G\u00f6teborg", "addr:country": "SE", "addr:housenumber": "1", "addr:postcode": "418 33", "addr:street": "H\u00f6stv\u00e4dersgatan", "amenity": "clinic", "contact:phone": "+46-31-747 94 00", "contact:website": "https://www.narhalsan.se/hitta-mottagning/goteborg/goteborg-hisingen/narhalsan-biskopsgarden-vardcentral/", "healthcare": "clinic", "name": "N\u00e4rh\u00e4lsan Biskopsg\u00e5rden v\u00e5rdcentral", "operator": "V\u00e4stra G\u00f6talandsregionen", "payment:cryptocurrencies": "no"}}, {"type": "node", "id": 5141947247, "lat": 57.7097158, "lon": 11.9277433, "tags": {"addr:city": "G\u00f6teborg", "addr:country": "SE", "addr:housenumber": "1A", "addr:postcode": "417 58", "addr:street": "Vintergatan", "amenity": "clinic", "contact:phone": "+46-31-747 84 00", "contact:website": "https://www.narhalsan.se/sannegardenvardcentral", "healthcare": "clinic", "name": "N\u00e4rh\u00e4lsan Sanneg\u00e5rden v\u00e5rdcentral", "network": "V\u00e4stra G\u00f6talandsregionen", "operator": "V\u00e4stra G\u00f6talandsregionen", "payment:cryptocurrencies": "no"}}, {"type": "node", "id": 5168549460, "lat": 57.6948383, "lon": 11.9343257, "tags": {"addr:city": "G\u00f6teborg", "addr:country": "SE", "addr:housenumber": "43", "addr:street": "Djurg\u00e5rdsgatan", "amenity": "veterinary", "name": "Tassarnas djurklinik"}}, {"type": "node", "id": 5172578727, "lat": 57.6100861, "lon": 12.0501609, "tags": {"addr:city": "K\u00e5llered", "addr:country": "SE", "addr:housenumber": "67", "addr:postcode": "42832", "addr:street": "Gamla riksv\u00e4gen", "amenity": "clinic", "healthcare": "clinic", "name": "K\u00e5llered Sjukgymnastik och Rehab"}}, {"type": "node", "id": 5200315353, "lat": 57.7086404, "lon": 11.6549234, "tags": {"addr:city": "\u00d6cker\u00f6", "addr:country": "SE", "addr:housenumber": "2", "addr:postcode": "475 31", "addr:street": "Sockenv\u00e4gen", "amenity": "clinic", "contact:phone": "+46 10 473 39 70", "emergency": "yes", "healthcare": "clinic", "name": "N\u00e4rh\u00e4lsan \u00d6cker\u00f6 v\u00e5rdcentral", "network": "V\u00e4stra G\u00f6talandsregionen", "operator": "V\u00e4stra G\u00f6talandsregionen", "seamark:small_craft_facility:category": "doctor", "seamark:type": "small_craft_facility", "website": "https://www.narhalsan.se/hitta-mottagning/ockero/narhalsan-ockero-vardcentral/"}}, {"type": "node", "id": 5391441002, "lat": 57.6830636, "lon": 11.9554892}, {"type": "node", "id": 5505825230, "lat": 57.7144634, "lon": 11.9997836, "tags": {"addr:country": "SE", "addr:housenumber": "13A", "addr:postcode": "41665", "addr:street": "Redbergsv\u00e4gen", "amenity": "dentist", "check_date": "2023-09-24", "contact:phone": "+46 101880000", "contact:website": "http://aquadental.se", "email": "servicecenter@aquadental.se", "healthcare": "dentist", "name": "Aqua Dental Olskroken", "opening_hours": "Mo-Th 07:00-20:30; Fr 07:00-15:30; Sa-Su 08:00-15:30", "payment:mastercard": "yes", "payment:visa": "yes"}}, {"type": "node", "id": 5505825231, "lat": 57.7047718, "lon": 11.9695456, "tags": {"addr:city": "G\u00f6teborg", "addr:country": "SE", "addr:housenumber": "52", "addr:postcode": "41109", "addr:street": "\u00d6stra Hamngatan", "amenity": "dentist", "contact:phone": "+46 101880000", "contact:website": "http://aquadental.se", "email": "servicecenter@aquadental.se", "healthcare": "dentist", "healthcare:speciality": "dentist;dental;dentistry", "name": "Aqua Dental: Tandl\u00e4kare City", "name:en": "Aqua Dental: G\u00f6teborg City", "name:sv": "Aqua Dental: G\u00f6teborg City", "operator": "Aqua Dental", "website": "https://www.aquadental.se/"}}, {"type": "node", "id": 5714990472, "lat": 57.6997692, "lon": 11.9488334, "tags": {"addr:city": "G\u00f6teborg", "addr:country": "SE", "addr:housenumber": "16", "addr:postcode": "413 28", "addr:street": "F\u00f6rsta L\u00e5nggatan", "amenity": "clinic", "contact:phone": "+46 31 380 20 20", "healthcare": "clinic", "name": "Hagakliniken", "ownership": "private"}}, {"type": "node", "id": 5753306113, "lat": 57.4129211, "lon": 12.0166826, "tags": {"amenity": "pharmacy", "brand": "Apoteket", "contact:phone": "+46771450450", "name": "Apoteket", "operator": "Apoteket AB (publ)"}}, {"type": "node", "id": 5753306114, "lat": 57.4127535, "lon": 12.0167363, "tags": {"amenity": "clinic", "name": "V\u00e5rdcentralen Onsala", "operator": "Hallands Landsting"}}, {"type": "node", "id": 5893750100, "lat": 57.6555466, "lon": 12.0158625, "tags": {"addr:city": "M\u00f6lndal", "addr:country": "SE", "addr:housenumber": "9", "addr:postcode": "431 30", "addr:street": "Brogatan", "amenity": "pharmacy", "brand": "Apotek Hj\u00e4rtat", "brand:wikidata": "Q10416114", "brand:wikipedia": "sv:Apotek Hj\u00e4rtat", "contact:phone": "+46771405405", "dispensing": "yes", "drive_through": "no", "healthcare": "pharmacy", "name": "Apotek Hj\u00e4rtat", "opening_hours": "Mo-Fr 09:00-18:00; Sa 10:00-15:00", "operator": "Apotek Hj\u00e4rtat Retail AB", "owner": "ICA Gruppen AB"}}, {"type": "node", "id": 5897803800, "lat": 57.696382, "lon": 11.6530287, "tags": {"amenity": "dentist", "contact:website": "http://www.honotandlakarna.se/", "name": "H\u00f6n\u00f6 Tandv\u00e5rd"}}, {"type": "node", "id": 6002985389, "lat": 57.6832455, "lon": 11.9716188, "tags": {"amenity": "dentist", "branch": "Guldheden", "brand": "Folktandv\u00e5rden", "brand:wikidata": "Q10497476", "healthcare": "dentist", "name": "Folktandv\u00e5rden"}}, {"type": "node", "id": 6002985390, "lat": 57.6832899, "lon": 11.97171, "tags": {"amenity": "dentist", "healthcare": "dentist", "name": "Tandl\u00e4kare Lars-Gunnar Karlsson"}}, {"type": "node", "id": 6343376729, "lat": 57.6984983, "lon": 11.9734414, "tags": {"amenity": "clinic", "contact:phone": "+46 31-380 95 10", "contact:website": "http://www.vasanova.se/", "healthcare": "clinic", "name": "VasaNova", "operator": "VasaNova AB", "ownership": "private"}}, {"type": "node", "id": 6343376730, "lat": 57.6998327, "lon": 11.9719259, "tags": {"amenity": "clinic", "contact:website": "http://www.vasakliniken.com", "healthcare": "clinic", "name": "Vasakliniken", "operator": "Vasakliniken AB"}}, {"type": "node", "id": 6443196751, "lat": 57.6167588, "lon": 11.7921817, "tags": {"addr:city": "Styrs\u00f6", "addr:country": "SE", "addr:housenumber": "13", "addr:postcode": "430 84", "addr:street": "Brattenv\u00e4gen", "amenity": "clinic", "contact:phone": "+46 31 747 80 50", "healthcare": "clinic", "name": "N\u00e4rh\u00e4lsan Styrs\u00f6 v\u00e5rdcentral", "network": "V\u00e4stra G\u00f6talandsregionen", "operator": "V\u00e4stra G\u00f6talandsregionen", "website": "https://www.narhalsan.se/hitta-mottagning/goteborg/goteborg-vastra/narhalsan-styrso-vardcentral/"}}, {"type": "node", "id": 6443196752, "lat": 57.7190897, "lon": 11.7750236, "tags": {"addr:city": "Torslanda", "addr:country": "SE", "addr:housenumber": "2A", "addr:postcode": "423 34", "addr:street": "Nordhagsv\u00e4gen", "amenity": "clinic", "healthcare": "clinic", "name": "N\u00e4rh\u00e4lsan Torslanda v\u00e5rdcentral", "network": "V\u00e4stra G\u00f6talandsregionen", "operator": "V\u00e4stra G\u00f6talandsregionen", "payment:cryptocurrencies": "no", "phone": "+46 31 747 86 40", "website": "https://www.narhalsan.se/hitta-mottagning/goteborg/goteborg-hisingen/narhalsan-torslanda-vardcentral/"}}, {"type": "node", "id": 6448610158, "lat": 57.7054399, "lon": 11.9579717, "tags": {"addr:city": "G\u00f6teborg", "addr:country": "SE", "addr:housenumber": "2", "addr:postcode": "411 21", "addr:street": "Lilla Badhusgatan", "amenity": "clinic", "contact:phone": "+46 31 777 77 77", "healthcare": "clinic", "name": "Citysjukhuset plus7 v\u00e5rdcentral", "network": "V\u00e4stra G\u00f6talandsregionen", "operator": "Citysjukhuset +7 KB", "ownership": "private"}}, {"type": "node", "id": 6852413176, "lat": 57.6871295, "lon": 11.9862138, "tags": {"amenity": "pharmacy", "branch": "Svalan", "brand": "Apoteksgruppen", "brand:wikidata": "Q10416129", "brand:wikipedia": "sv:Apoteksgruppen", "contact:phone": "+46771450450", "contact:website": "https://www.apoteksgruppen.se/apotek/goteborg/apoteksgruppen-goteborg-eklandagatan/", "dispensing": "yes", "entrance": "yes", "healthcare": "pharmacy", "name": "Apoteksgruppen", "opening_hours": "Mo-Fr 08:30-19:30; Sa 10:00-14:00"}}, {"type": "node", "id": 7095906385, "lat": 57.6929863, "lon": 11.9718757, "tags": {"amenity": "pharmacy", "brand": "Apoteksgruppen", "brand:wikidata": "Q10416129", "brand:wikipedia": "sv:Apoteksgruppen", "healthcare": "pharmacy", "name": "Apoteksgruppen", "opening_hours": "Mo-Fr 08:00-19:00; Sa 10:00-15:00; Su 11:00-15:00", "payment:cash": "yes", "wheelchair": "yes"}}, {"type": "node", "id": 7211564646, "lat": 57.6740874, "lon": 11.9346271, "tags": {"amenity": "dentist", "healthcare": "dentist", "name": "Praktikertj\u00e4nst H\u00f6rntanden", "opening_hours": "Mo 08:00-15:00; Tu,Th 08:00-16:00; We 08:00-18:00; Fr 08:00-12:00"}}, {"type": "node", "id": 7247902651, "lat": 57.720273, "lon": 12.0476098}, {"type": "node", "id": 7645774201, "lat": 57.6804774, "lon": 11.9882604, "tags": {"addr:city": "G\u00f6teborg", "addr:country": "SE", "addr:housenumber": "23", "addr:postcode": "412 62", "addr:street": "Fridkullagatan", "amenity": "clinic", "email": "info@dinklinik.se", "healthcare": "clinic", "healthcare:speciality": "general", "name": "Din Klinik", "opening_hours": "Mo-Th 08:00-17:00; Fr 08:00-16:00", "phone": "+46 31 444 000", "website": "https://www.dinklinik.se/"}}, {"type": "node", "id": 7846260082, "lat": 57.7087181, "lon": 11.7790908, "tags": {"amenity": "dentist", "healthcare": "dentist", "name": "Folktandv\u00e5rden Torslanda"}}, {"type": "node", "id": 8096947954, "lat": 57.7089237, "lon": 11.7780796, "tags": {"amenity": "pharmacy", "brand": "Apoteket", "check_date": "2023-05-24", "dispensing": "yes", "healthcare": "pharmacy", "name": "Apoteket", "operator": "Apoteket AB", "payment:mastercard": "yes", "payment:visa": "yes", "wheelchair": "yes"}}, {"type": "node", "id": 8307479366, "lat": 57.7006921, "lon": 12.0088298, "tags": {"addr:city": "G\u00f6teborg", "addr:country": "SE", "addr:housenumber": "21A", "addr:postcode": "412 74", "addr:street": "Lillkullegatan", "amenity": "clinic", "healthcare": "clinic", "name": "N\u00e4rh\u00e4lsan Ekmanska v\u00e5rdcentral", "operator": "V\u00e4stra G\u00f6talandsregionen", "website": "https://www.narhalsan.se/hitta-mottagning/goteborg/goteborg-ostra-centrum/narhalsan-ekmanska-vardcentral/"}}, {"type": "node", "id": 8311240809, "lat": 57.660188, "lon": 12.0079577}, {"type": "node", "id": 8311288126, "lat": 57.6607173, "lon": 12.0084218}, {"type": "node", "id": 8311288142, "lat": 57.6605437, "lon": 12.0074229}, {"type": "node", "id": 8454202426, "lat": 57.6948583, "lon": 11.9208026, "tags": {"addr:city": "G\u00f6teborg", "addr:country": "SE", "addr:housenumber": "72", "addr:postcode": "414 55", "addr:street": "Karl Johansgatan", "amenity": "pharmacy", "brand": "Apoteksgruppen", "brand:wikidata": "Q10416129", "brand:wikipedia": "sv:Apoteksgruppen", "dispensing": "yes", "healthcare": "pharmacy", "name": "Apoteksgruppen", "operator": "Apoteksgruppen"}}, {"type": "node", "id": 8493125341, "lat": 57.6965204, "lon": 11.9591237, "tags": {"addr:city": "G\u00f6teborg", "addr:country": "SE", "addr:housenumber": "44", "addr:postcode": "41122", "addr:street": "Husargatan", "amenity": "clinic", "contact:phone": "+46-31-33 99 309", "contact:website": "http://www.kvarterskliniken.se/primarvard/kvarterskliniken-husaren/", "healthcare": "clinic", "name": "Kvarterskliniken Husaren", "network": "V\u00e4stra G\u00f6talandsregionen", "operator": "Kungsportsl\u00e4karna AB"}}, {"type": "node", "id": 8702460838, "lat": 57.6889069, "lon": 11.9670975, "tags": {"addr:city": "G\u00f6teborg", "addr:country": "SE", "addr:housenumber": "2", "addr:postcode": "41320", "addr:street": "Reutersgatan", "air_conditioning": "yes", "amenity": "clinic", "check_date": "2023-05-15", "healthcare": "clinic", "healthcare:speciality": "ophthalmology", "name": "Guldhedskliniken", "opening_hours": "Mo-Sa 07:50-12:00,12:45-16:00", "operator:type": "private", "payment:credit_cards": "yes", "phone": "+46 31 204 06 0", "website": "https://guldhedskliniken.se/", "wheelchair": "yes"}}, {"type": "node", "id": 8703378418, "lat": 57.683918, "lon": 11.9568828}, {"type": "node", "id": 8703378419, "lat": 57.6839497, "lon": 11.9568135}, {"type": "node", "id": 8703378420, "lat": 57.6839108, "lon": 11.9563933}, {"type": "node", "id": 8703378421, "lat": 57.6838663, "lon": 11.9560352}, {"type": "node", "id": 8703378422, "lat": 57.6836448, "lon": 11.9579945}, {"type": "node", "id": 8703378423, "lat": 57.6840158, "lon": 11.9567634}, {"type": "node", "id": 8703378424, "lat": 57.6837903, "lon": 11.9573649}, {"type": "node", "id": 8703499065, "lat": 57.6835484, "lon": 11.9555792}, {"type": "node", "id": 8703499068, "lat": 57.6836763, "lon": 11.9580663}, {"type": "node", "id": 8703499078, "lat": 57.683938, "lon": 11.963709}, {"type": "node", "id": 8703499113, "lat": 57.6795734, "lon": 11.9663516}, {"type": "node", "id": 8703499114, "lat": 57.6795448, "lon": 11.9668905}, {"type": "node", "id": 8703499115, "lat": 57.6795055, "lon": 11.9667926}, {"type": "node", "id": 8703499116, "lat": 57.6798769, "lon": 11.9671659}, {"type": "node", "id": 8728719332, "lat": 57.6624936, "lon": 12.0116152}, {"type": "node", "id": 8728719333, "lat": 57.6625597, "lon": 12.0117769}, {"type": "node", "id": 8728719334, "lat": 57.6617211, "lon": 12.0130214}, {"type": "node", "id": 8728719335, "lat": 57.661945, "lon": 12.0129369}, {"type": "node", "id": 8728719336, "lat": 57.6616867, "lon": 12.013236}, {"type": "node", "id": 8728719337, "lat": 57.6617312, "lon": 12.0131059}, {"type": "node", "id": 8729459778, "lat": 57.6811672, "lon": 11.9651754}, {"type": "node", "id": 8747347248, "lat": 57.660871, "lon": 12.0136665}, {"type": "node", "id": 8747347249, "lat": 57.6609342, "lon": 12.0135364}, {"type": "node", "id": 8747347250, "lat": 57.6612276, "lon": 12.0133607}, {"type": "node", "id": 8747347251, "lat": 57.6613042, "lon": 12.0134404}, {"type": "node", "id": 8777232792, "lat": 57.7205405, "lon": 12.0552213}, {"type": "node", "id": 8841785073, "lat": 57.6715021, "lon": 11.9274551, "tags": {"amenity": "dentist", "name": "Folktandv\u00e5rden Axel", "opening_hours": "Mo 07:30-16:00; Tu 08:30-18:00; We,Th 07:30-16:00; Fr 07:30-15:00", "website": "https://folktandvarden.vgregion.se/vara-kliniker/allmantandvardskliniker/folktandvarden-axel-goteborg/"}}, {"type": "node", "id": 8895174110, "lat": 57.68009, "lon": 11.9667557}, {"type": "node", "id": 8895199824, "lat": 57.6839225, "lon": 11.9637673}, {"type": "node", "id": 9007177479, "lat": 57.7148755, "lon": 12.0465805, "tags": {"addr:city": "G\u00f6teborg", "addr:country": "SE", "addr:housenumber": "2B", "addr:postcode": "416 80", "addr:street": "Stabbegatan", "air_conditioning": "yes", "amenity": "clinic", "check_date": "2022-10-31", "name": "N\u00e4rh\u00e4lsan Bj\u00f6rkek\u00e4rr v\u00e5rdcentral", "opening_hours": "Mo-Fr 08:00-17:00", "operator": "V\u00e4stra G\u00f6talandsregionen", "payment:mastercard": "yes", "payment:visa": "yes", "phone": "+46 31 345 06 51", "website": "https://www.narhalsan.se/hitta-mottagning/goteborg/goteborg-ostra-centrum/narhalsan-bjorkekarr-vardcentral/", "wheelchair": "yes"}}, {"type": "node", "id": 9007611525, "lat": 57.6517604, "lon": 11.9109768, "tags": {"addr:city": "V\u00e4stra Fr\u00f6lunda", "addr:country": "SE", "addr:housenumber": "36", "addr:postcode": "421 44", "addr:street": "N\u00e4verlursgatan", "amenity": "clinic", "name": "N\u00e4rh\u00e4lsan Fr\u00f6lunda v\u00e5rdcentral", "operator": "V\u00e4stra G\u00f6talandsregionen", "phone": "+46 31 346 07 00", "website": "https://www.narhalsan.se/hitta-mottagning/goteborg/goteborg-vastra/narhalsan-frolunda-vardcentral/"}}, {"type": "node", "id": 9007689946, "lat": 57.7269468, "lon": 12.0068825, "tags": {"addr:city": "G\u00f6teborg", "addr:country": "SE", "addr:housenumber": "4", "addr:postcode": "415 11", "addr:street": "Gamlestadsv\u00e4gen", "amenity": "clinic", "name": "N\u00e4rh\u00e4lsan Gamlestadstorget v\u00e5rdcentral", "opening_hours": "Mo-Fr 08:00-17:00", "operator": "V\u00e4stra G\u00f6talandsregionen", "phone": "+46 31 345 07 00", "website": "https://www.narhalsan.se/hitta-mottagning/goteborg/goteborg-ostra/narhalsan-gamlestadstorget-vardcentral/"}}, {"type": "node", "id": 9008363318, "lat": 57.6974208, "lon": 11.9234001, "tags": {"addr:city": "G\u00f6teborg", "addr:country": "SE", "addr:housenumber": "4", "addr:postcode": "414 58", "addr:street": "Sk\u00e4rg\u00e5rdsgatan", "amenity": "clinic", "name": "N\u00e4rh\u00e4lsan Majorna rehabmottagning", "operator": "V\u00e4stra G\u00f6talandsregionen", "phone": "+46 31 747 81 90", "website": "https://www.narhalsan.se/hitta-mottagning/goteborg/goteborg-vastra-centrum/narhalsan-majorna-rehabmottagning/"}}, {"type": "node", "id": 9008363319, "lat": 57.6974559, "lon": 11.9234095, "tags": {"addr:city": "G\u00f6teborg", "addr:country": "SE", "addr:housenumber": "4", "addr:postcode": "414 58", "addr:street": "Sk\u00e4rg\u00e5rdsgatan", "amenity": "clinic", "name": "N\u00e4rh\u00e4lsan Majorna barnav\u00e5rdscentral", "operator": "V\u00e4stra G\u00f6talandsregionen", "phone": "+46 31 747 82 30", "website": "https://www.narhalsan.se/hitta-mottagning/goteborg/goteborg-vastra-centrum/narhalsan-majorna-barnavardscentral/"}}, {"type": "node", "id": 9008363320, "lat": 57.697495, "lon": 11.9234121, "tags": {"addr:city": "G\u00f6teborg", "addr:country": "SE", "addr:housenumber": "4", "addr:postcode": "414 58", "addr:street": "Sk\u00e4rg\u00e5rdsgatan", "air_conditioning": "yes", "amenity": "clinic", "check_date": "2023-05-24", "name": "N\u00e4rh\u00e4lsan Majorna v\u00e5rdcentral", "operator": "V\u00e4stra G\u00f6talandsregionen", "operator:type": "public", "payment:mastercard": "yes", "payment:visa": "yes", "phone": "+46 31 747 82 00", "website": "https://www.narhalsan.se/hitta-mottagning/goteborg/goteborg-vastra-centrum/narhalsan-majorna-vardcentral/"}}, {"type": "node", "id": 9008711810, "lat": 57.639164, "lon": 11.9525443, "tags": {"addr:city": "Askim", "addr:country": "SE", "addr:housenumber": "1", "addr:postcode": "436 32", "addr:street": "Datav\u00e4gen", "amenity": "clinic", "name": "N\u00e4rh\u00e4lsan Sisj\u00f6n v\u00e5rdcentral", "opening_hours": "Mo 07:30-19:00; Tu 07:30-18:00; We,Th 07:30-17:00; Fr 08:00-17:00", "operator": "V\u00e4stra G\u00f6talandsregionen", "phone": "+46 31 747 93 00", "website": "https://www.narhalsan.se/hitta-mottagning/goteborg/goteborg-vastra/narhalsan-sisjon-vardcentral/"}}, {"type": "node", "id": 9008714256, "lat": 57.6408459, "lon": 11.9004437, "tags": {"addr:city": "V\u00e4stra Fr\u00f6lunda", "addr:country": "SE", "addr:housenumber": "5", "addr:postcode": "421 64", "addr:street": "Zirkongatan", "amenity": "clinic", "name": "N\u00e4rh\u00e4lsan Opaltorget v\u00e5rdcentral", "operator": "V\u00e4stra G\u00f6talandsregionen", "phone": "+46 31 346 08 00", "website": "https://www.narhalsan.se/hitta-mottagning/goteborg/goteborg-vastra/narhalsan-opaltorget-vardcentral/"}}, {"type": "node", "id": 9025265942, "lat": 57.7190625, "lon": 11.7750176, "tags": {"addr:city": "Torslanda", "addr:country": "SE", "addr:housenumber": "2A", "addr:postcode": "423 34", "addr:street": "Nordhagsv\u00e4gen", "amenity": "clinic", "name": "N\u00e4rh\u00e4lsan Torslanda barnav\u00e5rdscentral", "operator": "V\u00e4stra G\u00f6talandsregionen", "phone": "+46 31 747 86 80", "website": "https://www.narhalsan.se/hitta-mottagning/goteborg/goteborg-hisingen/narhalsan-torslanda-barnavardscentral/"}}, {"type": "node", "id": 9026127073, "lat": 57.6167376, "lon": 11.7921817, "tags": {"addr:city": "Styrs\u00f6", "addr:country": "SE", "addr:housenumber": "13", "addr:postcode": "430 84", "addr:street": "Brattenv\u00e4gen", "amenity": "clinic", "name": "N\u00e4rh\u00e4lsan Styrs\u00f6 barnav\u00e5rdscentral", "operator": "V\u00e4stra G\u00f6talandsregionen", "phone": "+46 31 747 80 76", "website": "https://www.narhalsan.se/hitta-mottagning/goteborg/goteborg-vastra/narhalsan-styrso-barnavardscentral/"}}, {"type": "node", "id": 9026142711, "lat": 57.6167153, "lon": 11.792173, "tags": {"addr:city": "Styrs\u00f6", "addr:country": "SE", "addr:housenumber": "13", "addr:postcode": "430 84", "addr:street": "Brattenv\u00e4gen", "amenity": "clinic", "name": "N\u00e4rh\u00e4lsan Styrs\u00f6 rehabmottagning", "operator": "V\u00e4stra G\u00f6talandsregionen", "phone": "+46 31 747 80 50", "website": "https://www.narhalsan.se/hitta-mottagning/goteborg/goteborg-vastra/narhalsan-styrso-rehabmottagning/"}}, {"type": "node", "id": 9026735867, "lat": 57.63915, "lon": 11.9525463, "tags": {"addr:city": "Askim", "addr:country": "SE", "addr:housenumber": "1", "addr:postcode": "436 32", "addr:street": "Datav\u00e4gen", "amenity": "clinic", "name": "N\u00e4rh\u00e4lsan Sisj\u00f6n barnav\u00e5rdscentral", "opening_hours": "Mo-Fr 08:00-17:00", "operator": "V\u00e4stra G\u00f6talandsregionen", "phone": "+46 31 747 93 45;46 31 747 93 46", "website": "https://www.narhalsan.se/hitta-mottagning/goteborg/goteborg-vastra/narhalsan-sisjon-barnavardscentral/"}}, {"type": "node", "id": 9026755625, "lat": 57.7097025, "lon": 11.9277459, "tags": {"addr:city": "G\u00f6teborg", "addr:country": "SE", "addr:housenumber": "1A", "addr:postcode": "417 58", "addr:street": "Vintergatan", "amenity": "clinic", "healthcare": "clinic", "name": "N\u00e4rh\u00e4lsan Sanneg\u00e5rden barnav\u00e5rdscentral", "operator": "V\u00e4stra G\u00f6talandsregionen", "payment:cryptocurrencies": "no", "phone": "+46 31 747 84 00", "website": "https://www.narhalsan.se/hitta-mottagning/goteborg/goteborg-hisingen/narhalsan-sannegarden-barnavardscentral/"}}, {"type": "node", "id": 9026765196, "lat": 57.6408114, "lon": 11.9004686, "tags": {"addr:city": "V\u00e4stra Fr\u00f6lunda", "addr:country": "SE", "addr:housenumber": "7", "addr:postcode": "421 64", "addr:street": "Zirkongatan", "amenity": "clinic", "name": "N\u00e4rh\u00e4lsan Opaltorget barnav\u00e5rdscentral", "operator": "V\u00e4stra G\u00f6talandsregionen", "phone": "+46 31 747 83 90;+46 31 747 83 91;+46 31 747 83 92", "website": "https://www.narhalsan.se/hitta-mottagning/goteborg/goteborg-vastra/narhalsan-opaltorget-barnavardscentral/"}}, {"type": "node", "id": 9026787017, "lat": 57.7096907, "lon": 11.9277412, "tags": {"addr:city": "G\u00f6teborg", "addr:country": "SE", "addr:housenumber": "1A", "addr:postcode": "417 58", "addr:street": "Vintergatan", "amenity": "clinic", "healthcare": "clinic", "name": "N\u00e4rh\u00e4lsan Sanneg\u00e5rden rehabmottagning", "operator": "V\u00e4stra G\u00f6talandsregionen", "payment:cryptocurrencies": "no", "phone": "+46 31 747 99 70", "website": "https://www.narhalsan.se/hitta-mottagning/goteborg/goteborg-hisingen/narhalsan-sannegarden-rehabmottagning2/"}}, {"type": "node", "id": 9027667317, "lat": 57.6981007, "lon": 11.9439974, "tags": {"addr:city": "G\u00f6teborg", "addr:country": "SE", "addr:housenumber": "48", "addr:postcode": "413 27", "addr:street": "Fj\u00e4rde L\u00e5nggatan", "amenity": "clinic", "name": "N\u00e4rh\u00e4lsan Linn\u00e9staden barnav\u00e5rdscentral", "opening_hours": "Mo-Fr 08:00-16:50", "operator": "V\u00e4stra G\u00f6talandsregionen", "phone": "+46 31 747 92 30", "website": "https://www.narhalsan.se/hitta-mottagning/goteborg/goteborg-centrum/narhalsan-linnestaden-barnavardscentral/"}}, {"type": "node", "id": 9028064943, "lat": 57.6673183, "lon": 11.9308067}, {"type": "node", "id": 9028064944, "lat": 57.6673545, "lon": 11.9308541}, {"type": "node", "id": 9028522224, "lat": 57.6821535, "lon": 11.9083422, "tags": {"addr:city": "G\u00f6teborg", "addr:country": "SE", "addr:housenumber": "2A", "addr:postcode": "414 74", "addr:street": "Knipplagatan", "amenity": "clinic", "name": "N\u00e4rh\u00e4lsan Kungssten barnav\u00e5rdscentral", "opening_hours": "Mo-We 08:00-16:45; Th 08:00-15:00; Fr 08:00-14:30", "operator": "V\u00e4stra G\u00f6talandsregionen", "phone": "+46 31 345 03 60", "website": "https://www.narhalsan.se/hitta-mottagning/goteborg/goteborg-vastra/narhalsan-kungssten-barnavardscentral/", "wheelchair": "yes"}}, {"type": "node", "id": 9028525920, "lat": 57.703028, "lon": 11.9610898, "tags": {"addr:city": "G\u00f6teborg", "addr:country": "SE", "addr:housenumber": "11A", "addr:postcode": "411 18", "addr:street": "Kaserntorget", "amenity": "clinic", "healthcare": "clinic", "name": "N\u00e4rh\u00e4lsan Kungsh\u00f6jd barnav\u00e5rdscentral", "operator": "V\u00e4stra G\u00f6talandsregionen", "phone": "+46 31 747 90 80", "website": "https://www.narhalsan.se/hitta-mottagning/goteborg/goteborg-centrum/narhalsan-kungshojd-barnavardscentral/"}}, {"type": "node", "id": 9028532629, "lat": 57.702976, "lon": 11.9611133, "tags": {"addr:city": "G\u00f6teborg", "addr:country": "SE", "addr:housenumber": "11A", "addr:postcode": "411 18", "addr:street": "Kaserntorget", "amenity": "clinic", "healthcare": "clinic", "name": "N\u00e4rh\u00e4lsan Kungsh\u00f6jd jourcentral", "operator": "V\u00e4stra G\u00f6talandsregionen", "phone": "+46 31 747 90 16", "website": "https://www.narhalsan.se/hitta-mottagning/goteborg/goteborg-centrum/narhalsan-kungshojd-jourcentral/"}}, {"type": "node", "id": 9029795775, "lat": 57.673789, "lon": 12.0083866, "tags": {"addr:city": "M\u00f6lndal", "addr:country": "SE", "addr:housenumber": "13", "addr:postcode": "431 67", "addr:street": "Fred\u00e5sgatan", "amenity": "clinic", "name": "N\u00e4rh\u00e4lsan Kroksl\u00e4tt barnav\u00e5rdscentral", "operator": "V\u00e4stra G\u00f6talandsregionen", "phone": "+46 10 473 30 26;+46 10 473 30 27;+46 10 473 30 28", "website": "https://www.narhalsan.se/hitta-mottagning/molndal/narhalsan-krokslatt-barnavardscentral/"}}, {"type": "node", "id": 9030272194, "lat": 57.7268283, "lon": 12.0068838, "tags": {"addr:city": "G\u00f6teborg", "addr:country": "SE", "addr:housenumber": "4", "addr:postcode": "415 11", "addr:street": "Gamlestadsv\u00e4gen", "amenity": "clinic", "name": "N\u00e4rh\u00e4lsan Gamlestadstorget jourcentral", "opening_hours": "Mo-Fr 17:00-22:00; Sa,Su 10:00-16:00", "operator": "V\u00e4stra G\u00f6talandsregionen", "phone": "+46 31 345 07 53", "website": "https://www.narhalsan.se/hitta-mottagning/goteborg/goteborg-ostra/gamlestadstorget-jourcentral/"}}, {"type": "node", "id": 9030289504, "lat": 57.6919203, "lon": 11.9775536, "tags": {"addr:city": "G\u00f6teborg", "addr:country": "SE", "addr:housenumber": "1C", "addr:postcode": "411 32", "addr:street": "Gibraltargatan", "amenity": "clinic", "healthcare": "clinic", "name": "N\u00e4rh\u00e4lsan Gibraltargatan barnav\u00e5rdscentral", "operator": "V\u00e4stra G\u00f6talandsregionen", "phone": "+4631 747 87 38", "website": "https://www.narhalsan.se/hitta-mottagning/goteborg/goteborg-centrum/narhalsan-gibraltargatan-barnavardscentral/"}}, {"type": "node", "id": 9030324568, "lat": 57.7269003, "lon": 12.0068785, "tags": {"addr:city": "G\u00f6teborg", "addr:country": "SE", "addr:housenumber": "4", "addr:postcode": "415 11", "addr:street": "Gamlestadsv\u00e4gen", "amenity": "clinic", "name": "N\u00e4rh\u00e4lsan Gamlestadstorget barnav\u00e5rdscentral", "operator": "V\u00e4stra G\u00f6talandsregionen", "phone": "+46 31 345 07 00", "website": "https://www.narhalsan.se/hitta-mottagning/goteborg/goteborg-ostra/narhalsan-gamlestadstorget-barnavardscentral/"}}, {"type": "node", "id": 9030326002, "lat": 57.7268587, "lon": 12.0068825, "tags": {"addr:city": "G\u00f6teborg", "addr:country": "SE", "addr:housenumber": "4", "addr:postcode": "415 11", "addr:street": "Gamlestadsv\u00e4gen", "amenity": "clinic", "name": "N\u00e4rh\u00e4lsan Gamlestadstorget rehabmottagning", "operator": "V\u00e4stra G\u00f6talandsregionen", "phone": "+46 31 345 08 40", "website": "https://www.narhalsan.se/hitta-mottagning/goteborg/goteborg-ostra/narhalsan-gamlestadstorget-rehabmottagning/"}}, {"type": "node", "id": 9031043453, "lat": 57.6502696, "lon": 11.9178714, "tags": {"addr:city": "V\u00e4stra Fr\u00f6lunda", "addr:country": "SE", "addr:housenumber": "86", "addr:postcode": "421 44", "addr:street": "Pianogatan", "amenity": "clinic", "name": "N\u00e4rh\u00e4lsan Fr\u00f6lunda barnav\u00e5rdscentral", "operator": "V\u00e4stra G\u00f6talandsregionen", "phone": "+46 31 346 08 91;+46 31 346 08 92;+46 31 346 08 93;+46 31 346 08 94", "website": "https://www.narhalsan.se/hitta-mottagning/goteborg/goteborg-vastra/narhalsan-frolunda-barnavardscentral/"}}, {"type": "node", "id": 9031059822, "lat": 57.6517304, "lon": 11.9109764, "tags": {"addr:city": "V\u00e4stra Fr\u00f6lunda", "addr:country": "SE", "addr:housenumber": "36", "addr:postcode": "421 44", "addr:street": "N\u00e4verlursgatan", "amenity": "clinic", "name": "N\u00e4rh\u00e4lsan Fr\u00f6lunda rehabmottagning", "operator": "V\u00e4stra G\u00f6talandsregionen", "phone": "+46 31 346 08 20", "website": "https://www.narhalsan.se/hitta-mottagning/goteborg/goteborg-vastra/narhalsan-frolunda-rehabmottagning/"}}, {"type": "node", "id": 9033372097, "lat": 57.7006079, "lon": 12.008827, "tags": {"addr:city": "G\u00f6teborg", "addr:country": "SE", "addr:housenumber": "21A", "addr:postcode": "412 74", "addr:street": "Lillkullegatan", "amenity": "clinic", "healthcare": "clinic", "name": "N\u00e4rh\u00e4lsan Ekmanska barnav\u00e5rdscentral", "operator": "N\u00e4rh\u00e4lsan", "phone": "+46 31 747 92 90", "website": "https://www.narhalsan.se/hitta-mottagning/goteborg/goteborg-ostra-centrum/narhalsan-ekmanska-barnavardscentral/"}}, {"type": "node", "id": 9033376775, "lat": 57.7015225, "lon": 11.9154815, "tags": {"addr:city": "G\u00f6teborg", "addr:country": "SE", "addr:housenumber": "8", "addr:postcode": "417 64", "addr:street": "Sj\u00f6porten", "amenity": "clinic", "healthcare": "clinic", "name": "N\u00e4rh\u00e4lsan Eriksberg barnav\u00e5rdscentral", "operator": "V\u00e4stra G\u00f6talandsregionen", "payment:cryptocurrencies": "no", "phone": "+46 31 747 97 00", "website": "https://www.narhalsan.se/hitta-mottagning/goteborg/goteborg-hisingen/narhalsan-eriksberg-barnavardscentral/"}}, {"type": "node", "id": 9033382380, "lat": 57.701483, "lon": 11.9154869, "tags": {"addr:city": "G\u00f6teborg", "addr:country": "SE", "addr:housenumber": "8", "addr:postcode": "417 64", "addr:street": "Sj\u00f6porten", "amenity": "clinic", "healthcare": "clinic", "name": "N\u00e4rh\u00e4lsan Eriksberg rehabmottagning", "operator": "V\u00e4stra G\u00f6talandsregionen", "payment:cryptocurrencies": "no", "phone": "+46 31 747 99 00", "website": "https://www.narhalsan.se/hitta-mottagning/goteborg/goteborg-hisingen/narhalsan-eriksberg-rehabmottagning/"}}, {"type": "node", "id": 9038812789, "lat": 57.7204144, "lon": 11.939958, "tags": {"addr:city": "G\u00f6teborg", "addr:country": "SE", "addr:housenumber": "8A", "addr:postcode": "417 09", "addr:street": "Virvelvindsgatan", "amenity": "clinic", "name": "N\u00e4rh\u00e4lsan Br\u00e4mareg\u00e5rden barnav\u00e5rdscentral", "operator": "V\u00e4stra G\u00f6talandsregionen", "phone": "+46 31 747 95 60", "website": "https://www.narhalsan.se/hitta-mottagning/goteborg/goteborg-hisingen/narhalsan-bramaregarden-barnavardscentral/"}}, {"type": "node", "id": 9038832358, "lat": 57.7203883, "lon": 11.9399533, "tags": {"addr:city": "G\u00f6teborg", "addr:country": "SE", "addr:housenumber": "8A", "addr:postcode": "417 09", "addr:street": "Virvelvindsgatan", "amenity": "clinic", "name": "N\u00e4rh\u00e4lsan Hisingen jourcentral", "operator": "V\u00e4stra G\u00f6talandsregionen", "phone": "+46 31 747 95 50", "website": "https://www.narhalsan.se/hitta-mottagning/goteborg/goteborg-hisingen/narhalsan-hisingen-jourcentral/"}}, {"type": "node", "id": 9038923781, "lat": 57.6973918, "lon": 11.9233947, "tags": {"addr:city": "G\u00f6teborg", "addr:country": "SE", "addr:housenumber": "4", "addr:postcode": "414 58", "addr:street": "Sk\u00e4rg\u00e5rdsgatan", "amenity": "clinic", "name": "V\u00e5rdcentral f\u00f6r heml\u00f6sa", "operator": "V\u00e4stra G\u00f6talandsregionen", "phone": "+46 10 473 39 40", "website": "https://www.narhalsan.se/vard-och-rad/riktade-mottagningar/vardcentral-hemlosa/"}}, {"type": "node", "id": 9038964679, "lat": 57.6918972, "lon": 11.9775505, "tags": {"addr:city": "G\u00f6teborg", "addr:country": "SE", "addr:housenumber": "1C", "addr:postcode": "411 32", "addr:street": "Gibraltargatan", "amenity": "clinic", "healthcare": "clinic", "name": "N\u00e4rh\u00e4lsan Gibraltar rehabmottagning", "operator": "V\u00e4stra G\u00f6talandsregionen", "phone": "+4631 747 87 50", "website": "https://www.narhalsan.se/hitta-mottagning/goteborg/goteborg-centrum/narhalsan-gibraltar-rehabmottagning/"}}, {"type": "node", "id": 9038993329, "lat": 57.7087142, "lon": 11.6549599, "tags": {"addr:city": "\u00d6cker\u00f6", "addr:country": "SE", "addr:housenumber": "2", "addr:postcode": "475 31", "addr:street": "Sockenv\u00e4gen", "amenity": "clinic", "name": "\u00d6cker\u00f6 jourcentral", "operator": "V\u00e4stra G\u00f6talandsregionen", "website": "https://www.narhalsan.se/hitta-mottagning/ockero/ockero-jourcentral2/"}}, {"type": "node", "id": 9039044899, "lat": 57.714599, "lon": 11.9973868, "tags": {"addr:city": "G\u00f6teborg", "addr:country": "SE", "addr:housenumber": "6", "addr:postcode": "416 65", "addr:street": "Redbergsv\u00e4gen", "amenity": "clinic", "healthcare": "clinic", "name": "N\u00e4rh\u00e4lsan Olskroken rehabmottagning", "operator": "V\u00e4stra G\u00f6talandsregionen", "phone": "+46 31 345 06 80", "website": "https://www.narhalsan.se/hitta-mottagning/goteborg/goteborg-ostra-centrum/narhalsan-olskroken-rehabmottagning/"}}, {"type": "node", "id": 9039061231, "lat": 57.7094779, "lon": 11.7812048, "tags": {"addr:city": "Torslanda", "addr:country": "SE", "addr:housenumber": "23", "addr:postcode": "423 37", "addr:street": "Flygf\u00e4ltsgatan", "amenity": "clinic", "name": "N\u00e4rh\u00e4lsan Torslanda rehabmottagning", "operator": "V\u00e4stra G\u00f6talandsregionen", "phone": "+46 31 345 00 10", "website": "https://www.narhalsan.se/hitta-mottagning/goteborg/goteborg-hisingen/narhalsan-torslanda-rehabmottagning/"}}, {"type": "node", "id": 9039120071, "lat": 57.7086798, "lon": 11.6549505, "tags": {"addr:city": "\u00d6cker\u00f6", "addr:country": "SE", "addr:housenumber": "2", "addr:postcode": "475 31", "addr:street": "Sockenv\u00e4gen", "amenity": "clinic", "name": "N\u00e4rh\u00e4lsan \u00d6cker\u00f6 rehabmottagning", "operator": "V\u00e4stra G\u00f6talandsregionen", "phone": "+46 10 473 37 90", "website": "https://www.narhalsan.se/hitta-mottagning/ockero/narhalsan-ockero-rehabmottagning/"}}, {"type": "node", "id": 9039120072, "lat": 57.708587, "lon": 11.6549271, "tags": {"addr:city": "\u00d6cker\u00f6", "addr:country": "SE", "addr:housenumber": "2", "addr:postcode": "475 31", "addr:street": "Sockenv\u00e4gen", "amenity": "clinic", "name": "N\u00e4rh\u00e4lsan \u00d6cker\u00f6 rehabmottagning", "operator": "V\u00e4stra G\u00f6talandsregionen", "phone": "+46 10 473 37 90", "website": "https://www.narhalsan.se/hitta-mottagning/ockero/narhalsan-ockero-rehabmottagning/"}}, {"type": "node", "id": 9041848426, "lat": 57.668774, "lon": 12.01027, "tags": {"addr:city": "M\u00f6lndal", "addr:country": "SE", "addr:housenumber": "3", "addr:postcode": "431 37", "addr:street": "Bergskroken", "amenity": "clinic", "healthcare": "clinic", "healthcare:speciality": "neuropsychiatry", "name": "Neuropsykiatrimottagning \u00d6ster", "operator": "V\u00e4stra G\u00f6talandsregionen", "operator:type": "public", "website": "https://www.sahlgrenska.se/omraden/omrade-2/psykiatri-affektiva/enheter/neuropsykiatrimottagning-oster/"}}, {"type": "node", "id": 9171993681, "lat": 57.7188999, "lon": 12.0504362}, {"type": "node", "id": 9171993682, "lat": 57.7187802, "lon": 12.0508217}, {"type": "node", "id": 9216861495, "lat": 57.6838025, "lon": 11.96393}, {"type": "node", "id": 9216861503, "lat": 57.6795014, "lon": 11.9667121}, {"type": "node", "id": 9236391739, "lat": 57.723182, "lon": 12.0465195}, {"type": "node", "id": 9327763937, "lat": 57.6837174, "lon": 11.958472}, {"type": "node", "id": 9327763938, "lat": 57.68373, "lon": 11.9584776}, {"type": "node", "id": 9327763939, "lat": 57.6837227, "lon": 11.9585432}, {"type": "node", "id": 9327763942, "lat": 57.6836901, "lon": 11.958837}, {"type": "node", "id": 9327763943, "lat": 57.6836824, "lon": 11.958903}, {"type": "node", "id": 9685998985, "lat": 57.6615064, "lon": 12.0133293}, {"type": "node", "id": 9915384238, "lat": 57.6927438, "lon": 11.9530033, "tags": {"access": "yes", "addr:city": "G\u00f6teborg", "addr:country": "SE", "addr:housenumber": "62", "addr:postcode": "41308", "addr:street": "Linn\u00e9gatan", "amenity": "pharmacy", "brand": "Apotek Hj\u00e4rtat", "brand:wikidata": "Q10416114", "brand:wikipedia": "sv:Apotek Hj\u00e4rtat", "check_date": "2024-02-22", "contact:facebook": "https://www.facebook.com/apotekhjartat", "contact:instagram": "https://www.instagram.com/apotekhjartat", "contact:phone": "+46771405405", "contact:website": "http://www.apotekhjartat.se/", "dispensing": "yes", "drive_through": "no", "entrance": "yes", "healthcare": "pharmacy", "name": "Apotek Hj\u00e4rtat", "opening_hours": "Mo-Fr 08:30-19:00; Sa 10:00-15:00; Su 11:00-15:00", "operator": "Apotek Hj\u00e4rtat AB", "payment:mastercard": "yes", "payment:visa": "yes", "wheelchair": "limited"}}, {"type": "node", "id": 9949126419, "lat": 57.6506079, "lon": 11.9123583, "tags": {"access": "yes", "entrance": "main", "wheelchair": "yes"}}, {"type": "node", "id": 9949126420, "lat": 57.650702, "lon": 11.9123643}, {"type": "node", "id": 9949126421, "lat": 57.6507027, "lon": 11.9123294}, {"type": "node", "id": 9949126422, "lat": 57.6507336, "lon": 11.9122285}, {"type": "node", "id": 9949126423, "lat": 57.6507046, "lon": 11.9122266}, {"type": "node", "id": 10069251811, "lat": 57.6509681, "lon": 11.9502178, "tags": {"amenity": "clinic", "healthcare": "clinic", "name": "Min doktor"}}, {"type": "node", "id": 10087476533, "lat": 57.7188232, "lon": 12.0505257}, {"type": "node", "id": 10140380631, "lat": 57.6830517, "lon": 11.9598443, "tags": {"addr:city": "G\u00f6teborg", "addr:country": "SE", "addr:housenumber": "4", "addr:postcode": "413 46", "addr:street": "Gr\u00f6na str\u00e5ket", "amenity": "clinic", "check_date": "2023-05-23", "emergency": "yes", "healthcare": "clinic", "healthcare:speciality": "emergency", "internet_access": "wlan", "internet_access:fee": "no", "level": "0", "name": "Akutmottagning Sahlgrenska", "opening_hours": "24/7", "operator": "Sahlgrenska Universitetssjukhuset", "operator:type": "public", "payment:mastercard": "yes", "payment:visa": "yes", "website": "https://www.1177.se/Vastra-Gotaland/hitta-vard/kontaktkort/Akutmottagning-Sahlgrenska-Goteborg/", "wheelchair": "yes"}}, {"type": "node", "id": 10140380632, "lat": 57.6828388, "lon": 11.9626056, "tags": {"addr:city": "G\u00f6teborg", "addr:country": "SE", "addr:housenumber": "4", "addr:postcode": "413 46", "addr:street": "Gr\u00f6na str\u00e5ket", "amenity": "clinic", "check_date": "2023-05-23", "emergency": "yes", "healthcare": "clinic", "healthcare:speciality": "emergency;gynaecology", "internet_access": "wlan", "internet_access:fee": "no", "level": "0", "name": "Akutmottagning Gynekologi Sahlgrenska", "opening_hours": "24/7", "operator": "Sahlgrenska Universitetssjukhuset", "operator:type": "public", "payment:mastercard": "yes", "payment:visa": "yes", "website": "https://www.1177.se/Vastra-Gotaland/hitta-vard/kontaktkort/Akutmottagning-gynekologi-Sahlgrenska-Goteborg/", "wheelchair": "yes"}}, {"type": "node", "id": 10246876570, "lat": 57.6795687, "lon": 11.8975973, "tags": {"amenity": "dentist", "healthcare": "dentist", "name": "Tandkliniken Kungssten", "opening_hours": "Mo-Fr 10:00-18:00"}}, {"type": "node", "id": 10247612402, "lat": 57.6674937, "lon": 11.9315677}, {"type": "node", "id": 10247612403, "lat": 57.6665763, "lon": 11.9319944}, {"type": "node", "id": 10247612404, "lat": 57.6660591, "lon": 11.931785}, {"type": "node", "id": 10247612405, "lat": 57.6663686, "lon": 11.9319918}, {"type": "node", "id": 10247612406, "lat": 57.6661628, "lon": 11.9319901}, {"type": "node", "id": 10247612407, "lat": 57.6662003, "lon": 11.932103}, {"type": "node", "id": 10247612408, "lat": 57.6663075, "lon": 11.9321619}, {"type": "node", "id": 10247636609, "lat": 57.666201, "lon": 11.9321612}, {"type": "node", "id": 10247636610, "lat": 57.6663091, "lon": 11.9319908}, {"type": "node", "id": 10247636611, "lat": 57.6661619, "lon": 11.9321029}, {"type": "node", "id": 10247636612, "lat": 57.6660578, "lon": 11.9319881}, {"type": "node", "id": 10247636613, "lat": 57.6666565, "lon": 11.9316222}, {"type": "node", "id": 10247636614, "lat": 57.6659649, "lon": 11.9315767}, {"type": "node", "id": 10247636615, "lat": 57.6659607, "lon": 11.931781}, {"type": "node", "id": 10247636616, "lat": 57.6674429, "lon": 11.9317842}, {"type": "node", "id": 10247636617, "lat": 57.6674445, "lon": 11.9319167}, {"type": "node", "id": 10247636618, "lat": 57.6674976, "lon": 11.931781}, {"type": "node", "id": 10247636619, "lat": 57.6665763, "lon": 11.9321708}, {"type": "node", "id": 10247636620, "lat": 57.6673063, "lon": 11.9319249}, {"type": "node", "id": 10278294952, "lat": 57.6669874, "lon": 11.9362008, "tags": {"amenity": "dentist", "healthcare": "dentist", "name": "2xTandl\u00e4karna Frimansson"}}, {"type": "node", "id": 10282980097, "lat": 57.6570069, "lon": 11.9322485, "tags": {"amenity": "pharmacy", "name": "Apoteksgruppen", "operator": "Apoteksgruppen"}}, {"type": "node", "id": 10568701008, "lat": 57.66475, "lon": 11.9426529, "tags": {"amenity": "clinic", "name": "Capio Gastro Center", "operator": "Capio AB (publ)"}}, {"type": "node", "id": 10568727809, "lat": 57.6648096, "lon": 11.9426783, "tags": {"amenity": "clinic", "name": "Capio Spine Center", "operator": "Capio AB (publ)"}}, {"type": "node", "id": 10579139874, "lat": 57.6643818, "lon": 11.9425732, "tags": {"amenity": "dentist", "name": "Oris Dental Dagnelid"}}, {"type": "node", "id": 10585178884, "lat": 57.6970548, "lon": 11.6515619}, {"type": "node", "id": 10585178885, "lat": 57.6969603, "lon": 11.6514234}, {"type": "node", "id": 10585178886, "lat": 57.6970357, "lon": 11.6512434}, {"type": "node", "id": 10585178887, "lat": 57.6971302, "lon": 11.6513818}, {"type": "node", "id": 10585360872, "lat": 57.7107059, "lon": 11.9953725, "tags": {"amenity": "clinic", "healthcare": "clinic", "name": "Capio V\u00e5rdcentral G\u00e5rda", "network": "V\u00e4stra G\u00f6talandsregionen", "operator": "Capio AB (publ)", "operator:type": "private", "website": "https://capio.se/hitta-mottagning/primarvard/vardcentraler/garda/"}}, {"type": "node", "id": 10604355422, "lat": 57.7124175, "lon": 11.9684452, "tags": {"air_conditioning": "yes", "alt_name": "Capio \u00d6gon Lilla Bommen", "amenity": "clinic", "check_date": "2023-05-25", "healthcare": "clinic", "healthcare:speciality": "ophthalmology", "name": "Capio \u00d6gon", "operator": "Capio AB (publ)", "payment:mastercard": "yes", "payment:visa": "yes", "phone": "+4631636060", "website": "https://capio.se/hitta-mottagning/specialistvard/ogon/goteborg-lilla-bommen/"}}, {"type": "node", "id": 10606058115, "lat": 57.689653, "lon": 11.9672649, "tags": {"addr:country": "SE", "addr:housenumber": "1", "addr:street": "Guldhedstorget", "air_conditioning": "yes", "amenity": "clinic", "check_date": "2023-06-07", "email": "akademikliniken-gbg@ak.se", "healthcare": "clinic", "healthcare:speciality": "plastic_surgery", "name": "Akademikliniken", "opening_hours": "Mo-Fr 08:00-16:00", "operator:type": "private", "payment:credit_cards": "yes", "phone": "+46 31 166 56 5", "website": "https://ak.se/", "wheelchair": "yes"}}, {"type": "node", "id": 10611479675, "lat": 57.695459, "lon": 11.9297516, "tags": {"amenity": "dentist", "name": "Amiral Dent"}}, {"type": "node", "id": 10611494507, "lat": 57.6909583, "lon": 11.9161525, "tags": {"amenity": "dentist", "check_date": "2023-05-24", "name": "Folktandv\u00e5rden", "wheelchair": "yes"}}, {"type": "node", "id": 10611494508, "lat": 57.6908293, "lon": 11.9159513, "tags": {"amenity": "clinic", "name": "Omtanken V\u00e5rdcentral Majorna", "network": "V\u00e4stra G\u00f6talandsregionen", "operator": "Omtanken Allemansh\u00e4lsan V\u00e4rd AB", "operator:type": "private"}}, {"type": "node", "id": 10611753205, "lat": 57.7217433, "lon": 11.9332325, "tags": {"addr:city": "G\u00f6teborg", "addr:country": "SE", "addr:housenumber": "29", "addr:postcode": "41717", "addr:street": "Wieselgrensplatsen", "amenity": "dentist", "check_date": "2023-09-05", "email": "wieselgrensplatsen@distriktstandvarden.se", "healthcare": "dentist", "healthcare:speciality": "dentist;dental;dentistry;emergency_dental_care;dental_bridges;tooth_bonding;dental_extraction;dental_surgery;dental_crowns;dental_fillings;root_canals;tooth_whitening;dental_implants;dental_splints;tartar_removal;dental_examination", "name": "Distriktstandv\u00e5rden Wieselgrensplatsen", "opening_hours": "Mo-Th 07:00-19:00; Fr 07:00-17:00", "operator": "Distriktstandv\u00e5rden", "operator:type": "private", "phone": "+468222222", "website": "https://distriktstandvarden.se/", "wheelchair": "yes"}}, {"type": "node", "id": 10647347725, "lat": 57.698513, "lon": 11.9432075, "tags": {"amenity": "pharmacy", "name": "Doz", "toilets:wheelchair": "no", "wheelchair": "yes"}}, {"type": "node", "id": 10676938934, "lat": 57.6863218, "lon": 11.9195451, "tags": {"amenity": "dentist", "name": "Majornas tandh\u00e4lsov\u00e5rd", "opening_hours": "Mo-Th 08:00-17:00; Fr 08:00-13:00"}}, {"type": "node", "id": 10677019518, "lat": 57.6492502, "lon": 11.9429272, "tags": {"amenity": "veterinary", "name": "AniCura V\u00e4stra djursjukhuset"}}, {"type": "node", "id": 10739425478, "lat": 57.6931796, "lon": 11.9559809, "tags": {"amenity": "dentist", "name": "\u00d6vre husar tandl\u00e4karna"}}, {"type": "node", "id": 10746507338, "lat": 57.7188628, "lon": 12.0504795}, {"type": "node", "id": 10820368231, "lat": 57.6824056, "lon": 12.0007762, "tags": {"amenity": "pharmacy", "brand": "Apoteksgruppen", "brand:wikidata": "Q10416129", "healthcare": "pharmacy", "name": "Apoteksgruppen"}}, {"type": "node", "id": 10820368233, "lat": 57.6561957, "lon": 12.0157095, "tags": {"amenity": "dentist", "healthcare": "dentist", "name": "Team Bergstr\u00f6m", "website": "https://team-bergstrom.molndalstandhalsovard.se"}}, {"type": "node", "id": 10820368236, "lat": 57.6801737, "lon": 12.0045664, "tags": {"amenity": "pharmacy", "healthcare": "pharmacy"}}, {"type": "node", "id": 10820418697, "lat": 57.6666558, "lon": 11.9315897}, {"type": "node", "id": 10820418698, "lat": 57.6665178, "lon": 11.9319941}, {"type": "node", "id": 10820418699, "lat": 57.6673098, "lon": 11.9321245}, {"type": "node", "id": 10820418700, "lat": 57.6664063, "lon": 11.9321078}, {"type": "node", "id": 10820418701, "lat": 57.6663695, "lon": 11.9321078}, {"type": "node", "id": 10820418702, "lat": 57.6665164, "lon": 11.9321699}, {"type": "node", "id": 10820418703, "lat": 57.6664048, "lon": 11.9321663}, {"type": "node", "id": 10823986990, "lat": 57.7318385, "lon": 12.0238989, "tags": {"addr:city": "G\u00f6teborg", "addr:country": "SE", "addr:housenumber": "3", "addr:postcode": "41528", "addr:street": "Rustm\u00e4staregatan", "amenity": "clinic", "healthcare": "clinic", "name": "Distriksl\u00e4karna Kviberg V\u00e5rdcentral och BVC", "operator": "Distriksl\u00e4karna", "operator:type": "private"}}, {"type": "node", "id": 10824028474, "lat": 57.6526242, "lon": 11.8925722, "tags": {"addr:city": "V\u00e4stra Fr\u00f6lunda", "addr:country": "SE", "addr:housenumber": "16a", "addr:postcode": "42655", "addr:street": "Trollb\u00e4rsv\u00e4gen", "amenity": "clinic", "healthcare": "clinic", "name": "Johannesv\u00e5rden - V\u00e5rdcentral och BVC", "payment:cryptocurrencies": "no"}}, {"type": "node", "id": 10824066111, "lat": 57.7327036, "lon": 12.031529, "tags": {"addr:city": "G\u00f6teborg", "addr:country": "SE", "addr:housenumber": "30", "addr:postcode": "41526", "addr:street": "Anna Branzells gata", "amenity": "clinic", "healthcare": "clinic", "name": "Omtanken V\u00e5rdcentral Kviberg, G\u00f6teborg", "opening_hours": "07:45-17:00", "operator": "Omtanken", "operator:type": "private"}}, {"type": "node", "id": 10824071132, "lat": 57.7290923, "lon": 12.0166856, "tags": {"addr:city": "G\u00f6teborg", "addr:country": "SE", "addr:housenumber": "4", "addr:postcode": "41505", "addr:street": "Rullagergatan", "amenity": "clinic", "healthcare": "clinic", "name": "Familjeh\u00e4lsan V\u00e5rdcentral, Gamlestaden"}}, {"type": "node", "id": 10824098825, "lat": 57.7259375, "lon": 11.9468616, "tags": {"addr:city": "G\u00f6teborg", "addr:country": "SE", "addr:housenumber": "23", "addr:postcode": "41705", "addr:street": "Gamla Tuvev\u00e4gen", "amenity": "clinic", "healthcare": "clinic", "name": "Backaplan V\u00e5rdcentral och BVC", "opening_hours": "Mo-Fr 07:30-17:00"}}, {"type": "node", "id": 10824104135, "lat": 57.7211617, "lon": 11.9483892, "tags": {"addr:city": "G\u00f6teborg", "addr:country": "SE", "addr:housenumber": "6", "addr:postcode": "41722", "addr:street": "Borstbindaregatan", "amenity": "clinic", "healthcare": "clinic", "name": "Capio V\u00e5rdcentral Kvilleb\u00e4cken", "opening_hours": "Mo-Fr 07:00-17:00", "operator": "Capio", "operator:type": "private"}}, {"type": "node", "id": 10824109778, "lat": 57.654213, "lon": 11.9023496, "tags": {"addr:city": "V\u00e4stra Fr\u00f6lunda", "addr:country": "SE", "addr:housenumber": "2b", "addr:postcode": "42150", "addr:street": "Lerg\u00f6ksgatan", "amenity": "clinic", "healthcare": "clinic", "name": "Omtanken V\u00e5rdcentralen Grimmered", "payment:cryptocurrencies": "no"}}, {"type": "node", "id": 10824112249, "lat": 57.6731766, "lon": 11.8818883, "tags": {"addr:city": "V\u00e4stra Fr\u00f6lunda", "addr:country": "SE", "addr:housenumber": "1B", "addr:postcode": "42677", "addr:street": "Redegatan", "addr:unit": "B", "amenity": "clinic", "healthcare": "clinic", "name": "W\u00e4sterl\u00e4karna Redegatan", "payment:cryptocurrencies": "no"}}, {"type": "node", "id": 10824128015, "lat": 57.709083, "lon": 11.9073573, "tags": {"addr:city": "G\u00f6teborg", "addr:country": "SE", "addr:housenumber": "3", "addr:postcode": "41873", "addr:street": "Eketr\u00e4gatan", "amenity": "clinic", "healthcare": "clinic", "name": "L\u00e4karhus Kyrkbyn", "opening_hours": "Mo-Fr 07:00-18:00", "payment:cryptocurrencies": "no"}}, {"type": "node", "id": 10824128024, "lat": 57.6709688, "lon": 11.8789731, "tags": {"addr:city": "V\u00e4stra Fr\u00f6lunda", "addr:country": "SE", "addr:housenumber": "3", "addr:postcode": "42677", "addr:street": "H\u00e4ngpilsgatan", "amenity": "clinic", "healthcare": "clinic", "name": "W\u00e4sterl\u00e4karna", "payment:cryptocurrencies": "no"}}, {"type": "node", "id": 10824155793, "lat": 57.6526179, "lon": 11.9117379, "tags": {"addr:city": "V\u00e4stra Fr\u00f6lunda", "addr:country": "SE", "addr:housenumber": "31", "addr:postcode": "42142", "addr:street": "Lilla Marconigatan", "amenity": "clinic", "healthcare": "clinic", "name": "Omtanken V\u00e5rdcentral Fr\u00f6lunda Torg", "payment:cryptocurrencies": "no"}}, {"type": "node", "id": 10824164219, "lat": 57.5983458, "lon": 11.9522463, "tags": {"addr:city": "Hov\u00e5s", "addr:country": "SE", "addr:housenumber": "8", "addr:postcode": "43653", "addr:street": "Hedt\u00e5ngsv\u00e4gen", "amenity": "clinic", "healthcare": "clinic", "name": "Capio V\u00e5rdcentral Hov\u00e5s", "operator": "Capio", "operator:type": "private"}}, {"type": "node", "id": 10824167616, "lat": 57.6719022, "lon": 11.9307537, "tags": {"addr:city": "G\u00f6teborg", "addr:country": "SE", "addr:housenumber": "40", "addr:postcode": "41479", "addr:street": "H\u00f6gsbogatan", "amenity": "clinic", "healthcare": "clinic", "name": "H\u00f6gsbol\u00e4karna", "payment:cryptocurrencies": "no"}}, {"type": "node", "id": 10824175666, "lat": 57.6801116, "lon": 11.9888003, "tags": {"addr:city": "G\u00f6teborg", "addr:country": "SE", "addr:housenumber": "27", "addr:postcode": "41262", "addr:street": "Fridkullagatan", "amenity": "clinic", "healthcare": "clinic", "name": "Din Klinik"}}, {"type": "node", "id": 10824206943, "lat": 57.6831266, "lon": 12.0000349, "tags": {"addr:city": "G\u00f6teborg", "addr:country": "SE", "addr:housenumber": "77", "addr:postcode": "41263", "addr:street": "M\u00f6lndalsv\u00e4gen", "amenity": "clinic", "healthcare": "clinic", "name": "Meliva v\u00e5rdcentral Fredriksdal"}}, {"type": "node", "id": 10827085696, "lat": 57.7279513, "lon": 12.0048515, "tags": {"addr:country": "SE", "addr:housenumber": "7", "addr:street": "Gamlestadstorget", "amenity": "pharmacy", "brand": "Apoteket", "brand:wikidata": "Q1785637", "dispensing": "yes", "drive_through": "no", "healthcare": "pharmacy", "name": "Apoteket Express Gamlestaden", "opening_hours": "Mo-Fr 07:00-19:00", "operator": "Apoteket"}}, {"type": "node", "id": 10827117140, "lat": 57.6510847, "lon": 11.948726, "tags": {"addr:city": "V\u00e4stra Fr\u00f6lunda", "addr:country": "SE", "addr:housenumber": "1", "addr:postcode": "42132", "addr:street": "Lona Knapes gata", "amenity": "pharmacy", "brand": "Apotek Hj\u00e4rtat", "brand:wikidata": "Q10416114", "healthcare": "pharmacy", "name": "Apotek Hj\u00e4rtat", "operator": "ICA Maxi H\u00f6gsbo"}}, {"type": "node", "id": 10827128207, "lat": 57.641243, "lon": 11.9003055, "tags": {"addr:city": "V\u00e4stra Fr\u00f6lunda", "addr:country": "SE", "addr:housenumber": "9", "addr:postcode": "42164", "addr:street": "Opaltorget", "amenity": "pharmacy", "branch": "V\u00e4stra Fr\u00f6lunda Opaltorget", "brand": "Apoteksgruppen", "brand:wikidata": "Q10416129", "healthcare": "pharmacy", "name": "Apoteksgruppen", "opening_hours": "Mo-Fr 08:30-18:00", "operator": "Apoteksgruppen"}}, {"type": "node", "id": 10827136436, "lat": 57.6825747, "lon": 11.9616729, "tags": {"addr:city": "G\u00f6teborg", "addr:country": "SE", "addr:housenumber": "5", "addr:postcode": "41346", "addr:street": "Bl\u00e5 str\u00e5ket", "amenity": "pharmacy", "branch": "Sahlgrenska", "brand": "Kronans Apotek", "brand:wikidata": "Q10549422", "healthcare": "pharmacy", "name": "Kronans Apotek", "opening_hours": "Mo-Fr 08:00-18:00", "operator": "Kronan", "wheelchair": "yes"}}, {"type": "node", "id": 10827149135, "lat": 57.6427512, "lon": 11.9493516, "tags": {"addr:city": "Askim", "addr:country": "SE", "addr:housenumber": "2", "addr:postcode": "43633", "addr:street": "Hantverksv\u00e4gen", "amenity": "pharmacy", "branch": "Askim", "brand": "Kronans Apotek", "brand:wikidata": "Q10549422", "healthcare": "pharmacy", "name": "Kronans Apotek", "opening_hours": "Mo-Fr 09:00-19:00", "operator": "Kronan"}}, {"type": "node", "id": 10827168919, "lat": 57.6519906, "lon": 11.911568, "tags": {"addr:city": "V\u00e4stra Fr\u00f6lunda", "addr:postcode": "42142", "addr:street": "Fr\u00f6lunda Torg", "amenity": "pharmacy", "branch": "F\u00f6rlunda Torg", "brand": "Apoteket", "brand:wikidata": "Q1785637", "healthcare": "pharmacy", "name": "Apoteket", "opening_hours": "Mo-Sa 09:00-20:00", "operator": "Apoteket"}}, {"type": "node", "id": 10924952886, "lat": 57.7181453, "lon": 12.0003441, "tags": {"addr:city": "G\u00f6teborg", "addr:country": "SE", "addr:housenumber": "30", "addr:postcode": "41666", "addr:street": "Olskroksgatan", "air_conditioning": "yes", "amenity": "clinic", "check_date": "2023-05-24", "email": "jennie.c.culbert@vgregion.se", "healthcare": "clinic", "healthcare:speciality": "psychiatry", "internet_access": "wlan", "internet_access:fee": "no", "name": "Beroendemottagning Olskroken", "opening_hours": "Mo 09:00-17:00; Tu 10:30-16:00; We-Th 09:00-16:00; Fr 09:00-14:00; Sa-Su off", "operator": "Sahlgrenska Universitetssjukhuset", "operator:type": "public", "payment:mastercard": "yes", "payment:visa": "yes", "phone": "+46 31 343 37 70", "website": "https://www.sahlgrenska.se/omraden/omrade-2/beroende/enheter/beroendemottagning-olskroken/", "wheelchair": "yes"}}, {"type": "node", "id": 10924952887, "lat": 57.7177917, "lon": 11.9998835, "tags": {"addr:city": "G\u00f6teborg", "addr:country": "SE", "addr:housenumber": "2", "addr:postcode": "41366", "addr:street": "Pr\u00e4stgatan", "air_conditioning": "yes", "amenity": "clinic", "check_date": "2023-05-24", "email": "jennie.viberg.cordero@vgregion.se", "healthcare": "clinic", "healthcare:speciality": "psychiatry", "internet_access": "wlan", "internet_access:fee": "no", "name": "Substitutionsmottagning Olskroken", "opening_hours": "Mo-Fr 08:30-11:00; Sa-Su off", "operator": "Sahlgrenska Universitetssjukhuset", "operator:type": "public", "payment:mastercard": "yes", "payment:visa": "yes", "phone": "+46 31 343 69 94"}}, {"type": "node", "id": 11097919259, "lat": 57.6925786, "lon": 11.9896793}, {"type": "node", "id": 11097919260, "lat": 57.6925648, "lon": 11.9896272}, {"type": "node", "id": 11097919261, "lat": 57.6917942, "lon": 11.9896315}, {"type": "node", "id": 11097919262, "lat": 57.6917972, "lon": 11.9896291}, {"type": "node", "id": 11097919263, "lat": 57.6920159, "lon": 11.9898896}, {"type": "node", "id": 11097919264, "lat": 57.6920196, "lon": 11.9898866}, {"type": "node", "id": 11097919265, "lat": 57.6920281, "lon": 11.9894402}, {"type": "node", "id": 11097919266, "lat": 57.69237, "lon": 11.9891157}, {"type": "node", "id": 11097919267, "lat": 57.6924162, "lon": 11.989285}, {"type": "node", "id": 11097919268, "lat": 57.6925553, "lon": 11.9891525}, {"type": "node", "id": 11097919269, "lat": 57.6924202, "lon": 11.9886581}, {"type": "node", "id": 11097919270, "lat": 57.6922814, "lon": 11.9887918}, {"type": "node", "id": 11097919271, "lat": 57.6922948, "lon": 11.9888425}, {"type": "node", "id": 11097919272, "lat": 57.691953, "lon": 11.9891665}, {"type": "node", "id": 11097919273, "lat": 57.692682, "lon": 11.9892625}, {"type": "node", "id": 11097919274, "lat": 57.6919006, "lon": 11.9900021}, {"type": "node", "id": 11190980375, "lat": 57.681529, "lon": 11.9649105}, {"type": "node", "id": 11229581633, "lat": 57.7240419, "lon": 12.0339051, "tags": {"addr:city": "G\u00f6teborg", "addr:country": "SE", "addr:housenumber": "9", "addr:postcode": "416 73", "addr:street": "Torpavallsgatan", "amenity": "clinic", "brand:wikidata": "Q122875533", "contact:phone": "+46-31-747 81 00", "contact:website": "https://www.narhalsan.se/hitta-mottagning/goteborg/goteborg-ostra-centrum/narhalsan-torpavallen-vardcentral/", "healthcare": "clinic", "healthcare:speciality": "general", "name": "N\u00e4rh\u00e4lsan Torpavallen v\u00e5rdcentral", "operator": "V\u00e4stra G\u00f6talandsregionen"}}, {"type": "node", "id": 11229768560, "lat": 57.7204166, "lon": 12.0255093, "tags": {"addr:city": "G\u00f6teborg", "addr:country": "SE", "addr:housenumber": "42", "addr:postcode": "416 73", "addr:street": "Munkeb\u00e4cks All\u00e9", "amenity": "dentist", "branch": "Munkeb\u00e4ck", "healthcare": "dentist", "name": "Happident", "website": "https://happident.se/tandlakare/munkeback/"}}, {"type": "node", "id": 11261176211, "lat": 57.7275234, "lon": 12.0059795, "tags": {"addr:city": "G\u00f6teborg", "addr:housenumber": "9-11", "addr:postcode": "41512", "addr:street": "Gamlestads Brygga", "amenity": "dentist", "branch": "Gamlestaden", "healthcare": "dentist", "name": "Happident", "website": "https://happident.se/tandlakare/goteborg/gamlestaden/"}}, {"type": "node", "id": 11382800089, "lat": 57.6625277, "lon": 12.011794}, {"type": "node", "id": 11382800090, "lat": 57.6624852, "lon": 12.0116904}, {"type": "node", "id": 11382800093, "lat": 57.6601672, "lon": 12.0140096}, {"type": "node", "id": 11382800167, "lat": 57.660298, "lon": 12.0078066}, {"type": "node", "id": 11382800168, "lat": 57.660298, "lon": 12.0078726}, {"type": "node", "id": 11382800169, "lat": 57.6602263, "lon": 12.0079627}, {"type": "node", "id": 11506870400, "lat": 57.6520465, "lon": 11.9869339, "tags": {"amenity": "clinic", "healthcare": "clinic", "name": "Omtanken V\u00e5rdcentral Pedagogen Park"}}, {"type": "node", "id": 11506871658, "lat": 57.608043, "lon": 12.0424148, "tags": {"amenity": "clinic", "healthcare": "clinic", "name": "H\u00e4lsa Hemma V\u00e5rdcentral"}}, {"type": "node", "id": 11506871713, "lat": 57.655202, "lon": 12.0152233, "tags": {"amenity": "clinic", "healthcare": "clinic", "name": "L\u00e4kargruppen M\u00f6lndalsbro"}}, {"type": "node", "id": 11506872192, "lat": 57.6481573, "lon": 12.0167073, "tags": {"amenity": "clinic", "healthcare": "clinic", "name": "Omtanken V\u00e5rdcentral K\u00e5llered"}}, {"type": "node", "id": 11506879283, "lat": 57.6595748, "lon": 12.0011698, "tags": {"amenity": "clinic", "healthcare": "clinic", "name": "Distriktsl\u00e4karna M\u00f6lndal V\u00e5rdcentral och BVC"}}, {"type": "node", "id": 11506886154, "lat": 57.6558521, "lon": 12.0133592, "tags": {"amenity": "clinic", "healthcare": "clinic", "name": "Capio V\u00e5rdcentral M\u00f6lndal"}}, {"type": "node", "id": 11506903942, "lat": 57.6501603, "lon": 12.025394, "tags": {"amenity": "clinic", "healthcare": "clinic", "name": "Fors\u00e5ker V\u00e5rdcentral och BVC"}}, {"type": "node", "id": 11506906747, "lat": 57.6789094, "lon": 12.0097621, "tags": {"amenity": "clinic", "healthcare": "clinic", "name": "N\u00e4rh\u00e4lsan Kalleb\u00e4ck v\u00e5rdcentral"}}, {"type": "node", "id": 11508453441, "lat": 57.6986721, "lon": 11.9404058, "tags": {"amenity": "clinic", "healthcare": "clinic", "name": "N\u00f6tk\u00e4rnan Matshugget Familjel\u00e4kare och BVC"}}, {"type": "node", "id": 11508465820, "lat": 57.6991417, "lon": 11.976266, "tags": {"amenity": "clinic", "healthcare": "clinic", "name": "Kvarterskliniken Lorensberg"}}, {"type": "node", "id": 11508465821, "lat": 57.699929, "lon": 11.9785864, "tags": {"amenity": "clinic", "healthcare": "clinic", "name": "V\u00e5rdcentralen L\u00e4karhuset"}}, {"type": "node", "id": 11508466159, "lat": 57.6935062, "lon": 11.9704, "tags": {"amenity": "clinic", "healthcare": "clinic", "name": "Omtanken V\u00e5rdcentral Landala"}}, {"type": "node", "id": 11508467048, "lat": 57.6935185, "lon": 11.9865323, "tags": {"amenity": "clinic", "healthcare": "clinic", "name": "V\u00e5rdcentralen Carlanderska"}}, {"type": "node", "id": 11508474040, "lat": 57.6994925, "lon": 11.9757428, "tags": {"amenity": "clinic", "healthcare": "clinic", "name": "Kvarterskliniken Avenyn"}}, {"type": "node", "id": 11518430917, "lat": 57.715237, "lon": 12.0014969, "tags": {"amenity": "clinic", "healthcare": "clinic", "name": "Omtanken V\u00e5rdcentral Olskroken"}}, {"type": "node", "id": 11708927532, "lat": 57.7232675, "lon": 12.0232234, "tags": {"addr:city": "G\u00f6teborg", "addr:housenumber": "4", "addr:street": "Lilla Munkeb\u00e4cksgatan", "amenity": "clinic", "healthcare": "clinic", "healthcare:speciality": "psychiatry", "name": "Psykosmottagning \u00d6ster", "operator": "V\u00e4stra G\u00f6talandsregionen", "website": "https://www.sahlgrenska.se/omraden/omrade-2/psykiatri-psykos/enheter/psykosmottagning-oster/"}}, {"type": "way", "id": 15220954, "nodes": [5391441002, 2443742487, 8703499065, 150586593, 8703378421, 8703378420, 8703378423, 8703378419, 8703378418, 8703378424, 8703378422, 8703499068, 150586596, 985286206, 9327763937, 9327763938, 9327763939, 9327763942, 9327763943, 150586598, 309917365, 150586599, 150586600, 150586601, 402873484, 1853444976, 150586602, 8703499078, 8895199824, 150586603, 9216861495, 150586604, 11190980375, 150586605, 8729459778, 150586606, 8895174110, 8703499116, 150586607, 8703499114, 8703499115, 9216861503, 8703499113, 2703958797, 2703958798, 2703958799, 101635027, 2703958800, 97751562, 101635026, 1862765987, 5391441002], "tags": {"amenity": "hospital", "check_date": "2023-05-23", "contact:phone": "+46-31-342 10 00", "contact:website": "http://www.sahlgrenska.se/sv/SU/Sahlgrenska-Universitetssjukhuset/", "emergency": "yes", "health_specialty:cardiothoracic_surgery": "yes", "health_specialty:emergency_medicine": "yes", "health_specialty:family_medicine": "yes", "health_specialty:intensive": "yes", "health_specialty:intensive_care_medicine": "yes", "health_specialty:neurosurgery": "yes", "health_specialty:orthopaedics": "yes", "health_specialty:paediatrics": "yes", "health_specialty:surgery": "yes", "health_specialty:vascular_surgery": "yes", "healthcare": "hospital", "healthcare:speciality": "gynaecology;psychiatry;ophthalmology;internal;orthopaedics;dermatology;otolaryngology;radiology;surgery;cardiology;physiotherapy;urology;neurology;emergency;plastic_surgery;dialysis;intensive;oncology;clinic;occupational", "internet_access": "wlan", "internet_access:fee": "no", "internet_access:ssid": "VGR Publikt", "name": "Sahlgrenska Universitetssjukhuset", "name:ar": "\u0645\u0633\u062a\u0634\u0641\u0649 \u0633\u0627\u0647\u0644\u063a\u0631\u064a\u0646\u0633\u0643\u0627 \u0627\u0644\u062c\u0627\u0645\u0639\u064a", "name:en": "Sahlgrenska University Hospital", "name:es": "Hospital Universitario de Sahlgrenska", "name:fr": "H\u00f4pital universitaire Sahlgrenska", "name:pt": "Hospital Universit\u00e1rio Sahlgrenska", "name:uk": "\u0421\u0430\u043b\u044c\u0433\u0440\u0435\u043d\u0441\u044c\u043a\u0430 \u0423\u043d\u0456\u0432\u0435\u0440\u0441\u0438\u0442\u0435\u0442\u0441\u044c\u043a\u0430 \u041b\u0456\u043a\u0430\u0440\u043d\u044f", "name:zh-Hans": "\u8428\u8d6b\u5c14\u683c\u96f7\u65af\u5361\u5927\u5b66\u533b\u9662", "name:zh-Hant": "\u85a9\u8d6b\u723e\u683c\u96f7\u65af\u5361\u5927\u5b78\u91ab\u9662", "opening_hours": "24/7", "operator": "V\u00e4stra G\u00f6talandsregionen", "operator:type": "public", "short_name": "SU/S", "wheelchair": "yes", "wikidata": "Q3290496", "wikipedia": "sv:Sahlgrenska Universitetssjukhuset"}}, {"type": "way", "id": 45100043, "nodes": [571784555, 937702303, 937702788, 937702492, 937702022, 571784556, 571784557, 9949126419, 9949126420, 9949126421, 571784558, 9949126422, 9949126423, 571784555], "tags": {"amenity": "hospital", "building": "hospital", "building:levels": "17", "health_specialty:orthopaedics": "yes", "name": "Fr\u00f6lunda specialistsjukhus", "wikidata": "Q5506755"}}, {"type": "way", "id": 52031658, "nodes": [663300165, 663300122, 9028064943, 9028064944, 663300192, 663300196, 96108826, 663300153, 1538716571, 1538716562, 1538716553, 1538716569, 663300124, 663300158, 1538716905, 1538716966, 1538716972, 1538716948, 1538716909, 663300165], "tags": {"amenity": "hospital", "building": "hospital", "healthcare": "hospital", "name": "H\u00f6gsbo sjukhus", "operator": "V\u00e4stra G\u00f6talandsregionen, Sahlgrenska universitetssjukhuset", "roof:colour": "#B67A75"}}, {"type": "way", "id": 60981849, "nodes": [763455569, 763455547, 11097919264, 11097919263]}, {"type": "way", "id": 122562857, "nodes": [1369217945, 1369217933, 1369217943, 1369217929, 1369217927, 1369217925, 1369217928, 1369217926, 1369217931, 1369217952, 1369217950, 1369217948, 1369217945], "tags": {"addr:country": "SE", "addr:housenumber": "6", "addr:street": "Lantbruksgatan", "amenity": "veterinary", "building": "commercial", "name": "Evidensia Djurkliniken M\u00f6lndal", "operator": "Evidensia", "phone": "+46 31 417100", "website": "https://evidensia.se"}}, {"type": "way", "id": 184770670, "nodes": [1952896009, 1952896011, 1952896043, 1952896063, 1952896048, 1952896009], "tags": {"amenity": "pharmacy", "branch": "G\u00f6teborg", "brand": "Apotek Hj\u00e4rtat", "brand:wikidata": "Q10416114", "brand:wikipedia": "sv:Apotek Hj\u00e4rtat", "check_date:opening_hours": "2024-01-03", "contact:phone": "+46771405405", "dispensing": "yes", "healthcare": "pharmacy", "name": "Apotek Hj\u00e4rtat", "opening_hours": "Mo-Fr 07:00-22:00; Sa-Su 08:00-22:00", "operator": "Apotek Hj\u00e4rtat AB"}}, {"type": "way", "id": 289885060, "nodes": [2934193672, 2934193669, 2934193671, 2934193673, 2934193672]}, {"type": "way", "id": 393572261, "nodes": [8311288142, 11382800167, 11382800168, 11382800169, 8311240809, 3967781595, 1131193403, 1131193447, 1131193345, 3967781597, 11382800093, 8747347248, 8747347249, 3967781608, 8747347250, 8747347251, 9685998985, 8728719336, 8728719337, 8728719334, 8728719335, 3967781612, 3967781610]}, {"type": "way", "id": 776792620, "nodes": [627541711, 2051782391, 2476860499, 2051782393, 3960527670, 3960527671, 3960527672, 3960527673, 2476860964, 9236391739, 2476860983, 2476861021, 2476861029, 2476861030, 2476861031, 3960527677, 2476861018, 2476861001, 2476861003, 2476861004, 2476861009, 2476861013, 2476861014, 2476861011, 2476861005, 2476861006, 1895362275, 1895362295, 3960527675, 2476861027, 3960527676, 2476861008, 2476860995, 2476860981, 2476860974, 2476860959, 2476860944, 2476860930, 2476860848, 2476860819, 2476860757, 2476860692, 2476860647, 2476860615, 2476860593, 2476860582, 2476860550, 2476860543, 2476860449, 2476860443, 8777232792, 2463120375, 2463120368, 2051793345, 2051793336, 2051793326, 2051793314, 2051793304, 2463958394]}, {"type": "way", "id": 776792621, "nodes": [627541711, 2476860406, 627541729, 7247902651, 2464152689, 2464152665, 2464152631, 2464152579, 2464152575, 2464152551, 2464152512, 2464152467, 2464152398, 2464152362, 627541304, 9171993681, 10746507338]}, {"type": "way", "id": 942676035, "nodes": [3967781610, 8728719333, 11382800089, 11382800090, 8728719332, 3967781614, 3967781613, 3967781611, 3967781609, 3967781607, 3967781604, 8311288126, 8311288142]}, {"type": "way", "id": 1120427998, "nodes": [10247636620, 10820418699, 10247636619, 10247612403, 10820418698, 10820418702, 10820418703, 10820418700, 10820418701, 10247612405, 10247636610, 10247612408, 10247636609, 10247612407, 10247636611, 10247612406, 10247636612, 10247612404, 10247636615, 10247636614, 10820418697, 10247636613, 10247612402, 10247636618, 10247636616, 10247636617, 10247636620], "tags": {"amenity": "hospital", "building": "hospital", "healthcare": "hospital", "name": "H\u00f6gsbo n\u00e4rsjukhus", "operator": "V\u00e4stra G\u00f6talandsregionen, Sjukhusen i V\u00e4ster", "roof:colour": "#626E7C"}}, {"type": "way", "id": 1135557659, "nodes": [10585178887, 10585178884, 10585178885, 10585178886, 10585178887]}, {"type": "way", "id": 1155600966, "nodes": [2463958474, 2463958472, 2463958470, 2463958468, 2463958465, 2463958463, 2464152243, 2463958461, 2463958459, 2463958457, 2463958456, 2463958452, 2463958450, 2463958448, 2463958447, 2463958445, 2463958444, 2463958441, 2463958440, 2463958439, 2463958437, 2463958435, 2464152030, 2463958433, 2463958432, 2463958428, 2463958424, 2463958419, 2463958415, 2463958417, 2463958422, 2463958421, 2463958413, 2463958412, 2463958408, 2463958403, 2463958401, 2463958397, 2463958394]}, {"type": "way", "id": 1155600967, "nodes": [10746507338, 10087476533, 9171993682, 2463958474]}, {"type": "way", "id": 1195870886, "nodes": [11097919274, 763455516, 763455561, 763455534, 763455490, 763455560, 11097919260]}, {"type": "way", "id": 1195870887, "nodes": [1300589056, 1300589012, 763455550, 763455554, 763455506, 763455556]}, {"type": "way", "id": 1195870891, "nodes": [763455567, 11097919265, 11097919266, 11097919267, 763455528]}, {"type": "way", "id": 1195870892, "nodes": [763455559, 11097919268, 11097919269, 11097919270, 11097919271, 11097919272, 763455545]}, {"type": "way", "id": 1195870893, "nodes": [763455556, 11097919273]}, {"type": "way", "id": 1195870902, "nodes": [763455528, 763455569]}, {"type": "way", "id": 1195870903, "nodes": [763455520, 763455559]}, {"type": "way", "id": 1195870904, "nodes": [11097919273, 1300588944, 1300588934, 763455520]}, {"type": "way", "id": 1195870905, "nodes": [763455530, 763455570, 1300588849, 1300589112]}, {"type": "way", "id": 1195870906, "nodes": [1300589112, 1300589056]}, {"type": "way", "id": 1195870907, "nodes": [11097919260, 11097919259, 763455530]}, {"type": "way", "id": 1195870909, "nodes": [11097919263, 763455526, 763455567]}, {"type": "way", "id": 1195870911, "nodes": [763455545, 974298368, 763455513, 764578641, 11097919261, 11097919262, 974298373, 11097919274]}, {"type": "relation", "id": 10757570, "members": [{"type": "way", "ref": 776792621, "role": "outer"}, {"type": "way", "ref": 1155600967, "role": "outer"}, {"type": "way", "ref": 1155600966, "role": "outer"}, {"type": "way", "ref": 776792620, "role": "outer"}], "tags": {"amenity": "hospital", "check_date": "2022-10-30", "emergency": "yes", "health_specialty:emergency_medicine": "yes", "health_specialty:family_medicine": "yes", "health_specialty:intensive_care_medicine": "yes", "health_specialty:orthopaedics": "yes", "health_specialty:surgery": "yes", "healthcare": "hospital", "internet_access": "wlan", "internet_access:fee": "no", "name": "\u00d6stra Sjukhuset", "opening_hours": "24/7", "operator": "V\u00e4stra G\u00f6talandsregionen", "short_name": "SU/\u00d6", "type": "multipolygon", "website": "https://www.sahlgrenska.se/", "wheelchair": "yes", "wikidata": "Q30302690"}}, {"type": "relation", "id": 12707317, "members": [{"type": "way", "ref": 942676035, "role": "outer"}, {"type": "way", "ref": 393572261, "role": "outer"}], "tags": {"amenity": "hospital", "emergency": "yes", "health_specialty:emergency_medicine": "yes", "health_specialty:family_medicine": "yes", "health_specialty:intensive_care_medicine": "yes", "health_specialty:orthopaedics": "yes", "health_specialty:surgery": "no", "healthcare": "hospital", "name": "M\u00f6lndals sjukhus", "opening_hours": "24/7", "operator": "V\u00e4stra G\u00f6talandsregionen", "short_name": "SU/M", "type": "multipolygon", "website": "https://www.sahlgrenska.se/sjukhus/molndals-sjukhus/", "wikidata": "Q22977108", "wikipedia": "sv:M\u00f6lndals sjukhus"}}, {"type": "relation", "id": 15396819, "members": [{"type": "way", "ref": 1135557659, "role": "inner"}, {"type": "way", "ref": 289885060, "role": "outer"}], "tags": {"addr:city": "H\u00f6n\u00f6", "addr:country": "SE", "addr:housenumber": "3A", "addr:postcode": "475 40", "addr:street": "Minkebergsv\u00e4gen", "amenity": "clinic", "building": "commercial", "contact:phone": "+46 31 712 76 60", "contact:website": "http://www.honovardcentral.se/", "healthcare": "clinic", "name": "H\u00f6n\u00f6 V\u00e5rdcentral", "network": "V\u00e4stra G\u00f6talandsregionen", "operator": "H\u00f6n\u00f6 v\u00e5rdcentral", "ownership": "private", "type": "multipolygon"}}, {"type": "relation", "id": 16173152, "members": [{"type": "way", "ref": 1195870892, "role": "outer"}, {"type": "way", "ref": 1195870911, "role": "outer"}, {"type": "way", "ref": 1195870886, "role": "outer"}, {"type": "way", "ref": 1195870907, "role": "outer"}, {"type": "way", "ref": 1195870905, "role": "outer"}, {"type": "way", "ref": 1195870906, "role": "outer"}, {"type": "way", "ref": 1195870887, "role": "outer"}, {"type": "way", "ref": 1195870893, "role": "outer"}, {"type": "way", "ref": 1195870904, "role": "outer"}, {"type": "way", "ref": 1195870903, "role": "outer"}, {"type": "way", "ref": 1195870891, "role": "inner"}, {"type": "way", "ref": 1195870902, "role": "inner"}, {"type": "way", "ref": 60981849, "role": "inner"}, {"type": "way", "ref": 1195870909, "role": "inner"}], "tags": {"addr:city": "G\u00f6teborg", "addr:country": "SE", "addr:postcode": "412 55", "addr:street": "Carlandersplatsen", "air_conditioning": "yes", "amenity": "hospital", "building": "yes", "check_date": "2023-06-26", "emergency": "no", "health_specialty:orthopaedics": "yes", "health_specialty:surgery": "yes", "healthcare": "hospital", "name": "Carlanderska sjukhuset", "operator": "Stiftelsen Carlanderska sjukhuset", "operator:type": "private", "payment:mastercard": "yes", "payment:visa": "yes", "type": "multipolygon", "website": "https://carlanderska.se/", "wheelchair": "yes"}}]}