{"version": 0.6, "generator": "Overpass API 0.7.61.5 4133829e", "osm3s": {"timestamp_osm_base": "2024-03-14T21:59:00Z", "copyright": "The data included in this document is from www.openstreetmap.org. The data is made available under ODbL."}, "elements": [{"type": "node", "id": 287382590, "lat": 61.0486692, "lon": 17.1594818, "tags": {"amenity": "restaurant", "name": "Axmar Brygga"}}, {"type": "node", "id": 308903270, "lat": 60.9013486, "lon": 16.6268308, "tags": {"amenity": "cafe", "name": "R\u00f6nn\u00e5sstugan"}}, {"type": "node", "id": 541158475, "lat": 61.2984651, "lon": 17.0573824, "tags": {"amenity": "restaurant", "cuisine": "pizza", "name": "Tr\u00e4dg\u00e5rdsbaren"}}, {"type": "node", "id": 739801299, "lat": 61.2927838, "lon": 17.1617645, "tags": {"amenity": "restaurant", "name": "S\u00f6derhamns Golfresturange"}}, {"type": "node", "id": 739801455, "lat": 61.304021, "lon": 17.0616258, "tags": {"amenity": "restaurant", "cuisine": "chinese", "name": "Mandarin Palace"}}, {"type": "node", "id": 1233374953, "lat": 61.2191307, "lon": 16.6792326, "tags": {"amenity": "restaurant", "name": "Norrlandsporten"}}, {"type": "node", "id": 1324214670, "lat": 61.3014396, "lon": 17.0512922, "tags": {"amenity": "cafe", "amenity_1": "restaurant", "name": "R\u00e5dhuskonditoriet"}}, {"type": "node", "id": 1324218787, "lat": 61.3016593, "lon": 17.0541226}, {"type": "node", "id": 1324218788, "lat": 61.3016251, "lon": 17.0539827}, {"type": "node", "id": 1324218789, "lat": 61.3017012, "lon": 17.0539049}, {"type": "node", "id": 1324218790, "lat": 61.3017286, "lon": 17.0540491}, {"type": "node", "id": 1331042551, "lat": 61.2724307, "lon": 17.0901431, "tags": {"amenity": "restaurant", "name": "Funem\u00e4ssen", "source": "knowledge"}}, {"type": "node", "id": 1382174500, "lat": 61.3024472, "lon": 17.0552012, "tags": {"amenity": "cafe", "name": "TeWe's konditori", "outdoor_seating": "yes", "source": "knowledge"}}, {"type": "node", "id": 1383278184, "lat": 61.3017843, "lon": 17.0531689, "tags": {"amenity": "restaurant", "name": "Restaurang Winchester"}}, {"type": "node", "id": 1417599591, "lat": 61.302925, "lon": 17.0580783, "tags": {"amenity": "restaurant", "name": "Resturang Krysset", "source": "survey"}}, {"type": "node", "id": 1961557981, "lat": 61.2302186, "lon": 16.5667636, "tags": {"amenity": "restaurant", "cuisine": "pizza", "name": "Venedig"}}, {"type": "node", "id": 2144772092, "lat": 61.0727766, "lon": 16.9673993, "tags": {"amenity": "restaurant", "check_date:opening_hours": "2023-08-07", "diet:vegetarian": "yes", "name": "T\u00f6nnebro v\u00e4rdshus", "opening_hours": "Mo-Su 07:00-22:00", "snowmobile": "yes", "wheelchair": "yes"}}, {"type": "node", "id": 2264915235, "lat": 60.8913214, "lon": 16.7218371, "tags": {"amenity": "cafe", "name": "Mattes Br\u00f6d i Ockelbo AB"}}, {"type": "node", "id": 2264961143, "lat": 60.8928701, "lon": 16.7143508, "tags": {"amenity": "restaurant", "name": "Sj\u00f6backen Restaurang"}}, {"type": "node", "id": 2271910766, "lat": 60.886718, "lon": 16.7025595, "tags": {"amenity": "restaurant", "name": "Stiftelsen Wij Tr\u00e4dg\u00e5rdar", "tourism": "hostel"}}, {"type": "node", "id": 2870740218, "lat": 61.2717143, "lon": 16.8695716}, {"type": "node", "id": 2870740220, "lat": 61.2717846, "lon": 16.8699152}, {"type": "node", "id": 2870740221, "lat": 61.2718437, "lon": 16.8694572}, {"type": "node", "id": 2870740222, "lat": 61.2719139, "lon": 16.8698007}, {"type": "node", "id": 2944200198, "lat": 60.9387005, "lon": 17.1388798}, {"type": "node", "id": 2944200199, "lat": 60.9387898, "lon": 17.1390296}, {"type": "node", "id": 2944200200, "lat": 60.938604, "lon": 17.139527}, {"type": "node", "id": 2944200201, "lat": 60.938508, "lon": 17.1393661}, {"type": "node", "id": 3004739375, "lat": 60.9292254, "lon": 17.0401792, "tags": {"addr:city": "Bergby", "addr:country": "SE", "addr:housenumber": "33", "addr:postcode": "81740", "addr:street": "Vijv\u00e4gen", "amenity": "cafe", "name": "Bergby Caf\u00e9", "opening_hours": "Mo-Fr 07:00-17:30; Sa 09:00-13:00; Su off", "operator": "Bergby Konditori AB", "phone": "+46-297-10028"}}, {"type": "node", "id": 3004739376, "lat": 60.9290977, "lon": 17.0401524, "tags": {"addr:city": "Bergby", "addr:country": "SE", "addr:housenumber": "33M", "addr:postcode": "81740", "addr:street": "Vijv\u00e4gem", "amenity": "restaurant", "cuisine": "regional", "name": "Bergby Krog", "opening_hours": "Mo-Th 11:00-20:00; Fr 11:00-22:00; Sa 12:00-22:00; Su 12:00-20:00", "operator": "Bergbykrogen", "phone": "+46-297-10123", "smoking": "outside", "takeaway": "yes"}}, {"type": "node", "id": 3127984451, "lat": 61.2044032, "lon": 17.1244242, "tags": {"amenity": "restaurant"}}, {"type": "node", "id": 3577326278, "lat": 61.2697594, "lon": 17.0869282, "tags": {"amenity": "cafe", "name": "Flygmuseum caf\u00e9", "source": "http://www.soderhamnflygmuseum.se/cafe.html"}}, {"type": "node", "id": 4145135498, "lat": 61.2107129, "lon": 17.1271964}, {"type": "node", "id": 4145135502, "lat": 61.2107602, "lon": 17.1263474}, {"type": "node", "id": 4145135504, "lat": 61.2107724, "lon": 17.1263511}, {"type": "node", "id": 4145135506, "lat": 61.2107739, "lon": 17.1261525}, {"type": "node", "id": 4145135511, "lat": 61.2108359, "lon": 17.126987}, {"type": "node", "id": 4145135512, "lat": 61.2108445, "lon": 17.126865}, {"type": "node", "id": 4145135513, "lat": 61.2108494, "lon": 17.1262114}, {"type": "node", "id": 4145135514, "lat": 61.2108496, "lon": 17.1272379}, {"type": "node", "id": 4145135515, "lat": 61.2108519, "lon": 17.1261762}, {"type": "node", "id": 4145135517, "lat": 61.2108666, "lon": 17.1269963}, {"type": "node", "id": 4145135521, "lat": 61.2108943, "lon": 17.1263096}, {"type": "node", "id": 4145135522, "lat": 61.2109001, "lon": 17.1262268}, {"type": "node", "id": 4145135526, "lat": 61.2109688, "lon": 17.1269027}, {"type": "node", "id": 4145135528, "lat": 61.2110082, "lon": 17.1263442}, {"type": "node", "id": 4193363502, "lat": 61.2113723, "lon": 17.1246795, "tags": {"addr:country": "SE", "addr:housenumber": "7", "addr:street": "Smedsv\u00e4gen", "amenity": "cafe", "name": "Ewas Caf\u00e9 Laxen"}}, {"type": "node", "id": 4193366250, "lat": 61.2113961, "lon": 17.1245618, "tags": {"addr:country": "SE", "addr:housenumber": "7", "addr:street": "Smedsv\u00e4gen", "amenity": "restaurant", "cuisine": "pizza", "description": "Pizzeria, r\u00e4ttigheter alkohol", "name": "La Gondola"}}, {"type": "node", "id": 4232335705, "lat": 61.3028258, "lon": 17.1134536}, {"type": "node", "id": 4232335706, "lat": 61.3031005, "lon": 17.1135716}, {"type": "node", "id": 4232335710, "lat": 61.3029317, "lon": 17.113228}, {"type": "node", "id": 4232335714, "lat": 61.3029946, "lon": 17.1138053}, {"type": "node", "id": 4343008510, "lat": 61.0025718, "lon": 17.1229989}, {"type": "node", "id": 4343008511, "lat": 61.0025825, "lon": 17.1229264}, {"type": "node", "id": 4343008512, "lat": 61.0025952, "lon": 17.1229698}, {"type": "node", "id": 4343008514, "lat": 61.002619, "lon": 17.1228811}, {"type": "node", "id": 4343008515, "lat": 61.00263, "lon": 17.1229185}, {"type": "node", "id": 4343008516, "lat": 61.002656, "lon": 17.1228862}, {"type": "node", "id": 4343008517, "lat": 61.0026678, "lon": 17.1233277}, {"type": "node", "id": 4343008518, "lat": 61.0027538, "lon": 17.1232209}, {"type": "node", "id": 4343008519, "lat": 61.0488526, "lon": 16.6979437, "tags": {"amenity": "cafe", "name": "Caf\u00e9 Hembygdsg\u00e5rd"}}, {"type": "node", "id": 4348281802, "lat": 61.2941651, "lon": 17.017681, "tags": {"amenity": "restaurant", "cuisine": "thai", "name": "Kim's Amazing Thai Food"}}, {"type": "node", "id": 4845512357, "lat": 60.9387086, "lon": 17.1392347}, {"type": "node", "id": 4845512358, "lat": 60.9387522, "lon": 17.1393079}, {"type": "node", "id": 4845512359, "lat": 60.9387, "lon": 17.1394397}, {"type": "node", "id": 4845512360, "lat": 60.9386631, "lon": 17.1393776}, {"type": "node", "id": 4929567654, "lat": 61.2855947, "lon": 16.7321107, "tags": {"amenity": "cafe"}}, {"type": "node", "id": 5157716953, "lat": 61.3049005, "lon": 17.0661074}, {"type": "node", "id": 5157717155, "lat": 61.3048606, "lon": 17.0662335}, {"type": "node", "id": 5157734851, "lat": 61.3049919, "lon": 17.0664373}, {"type": "node", "id": 5157735248, "lat": 61.305037, "lon": 17.0663086}, {"type": "node", "id": 6585977626, "lat": 61.3026062, "lon": 17.0509683, "tags": {"amenity": "restaurant", "name": "Pr\u00e4stg\u00e5rden"}}, {"type": "node", "id": 6585977627, "lat": 61.3025188, "lon": 17.0563458, "tags": {"amenity": "cafe", "brand": "Wayne's Coffee", "brand:wikidata": "Q2637272", "brand:wikipedia": "en:Wayne's Coffee", "cuisine": "coffee_shop", "name": "Wayne's Coffee", "takeaway": "yes"}}, {"type": "node", "id": 6585977628, "lat": 61.3024201, "lon": 17.0564953, "tags": {"amenity": "restaurant", "name": "Eat & Meet"}}, {"type": "node", "id": 6585977629, "lat": 61.3032209, "lon": 17.0583818, "tags": {"amenity": "bar", "name": "Pub Alen"}}, {"type": "node", "id": 6585977631, "lat": 61.3034124, "lon": 17.0675048, "tags": {"amenity": "restaurant", "name": "CFL Restaurangen", "opening_hours": "Lunch"}}, {"type": "node", "id": 6585977633, "lat": 61.3040739, "lon": 17.0615552, "tags": {"amenity": "restaurant", "cuisine": "sushi", "name": "Selena Sushi"}}, {"type": "node", "id": 6585977634, "lat": 61.3042555, "lon": 17.0612773, "tags": {"amenity": "restaurant", "cuisine": "pizza", "name": "Cafe Amore"}}, {"type": "node", "id": 7631386626, "lat": 60.9618634, "lon": 16.4571927, "tags": {"addr:city": "\u00c5mot", "addr:country": "SE", "addr:housenumber": "3C", "addr:postcode": "81695", "addr:street": "Bruksv\u00e4gen", "amenity": "restaurant", "cuisine": "international", "name": "Stilleben Hotell", "website": "https://www.stilleben.nu"}}, {"type": "node", "id": 7692759853, "lat": 61.2608339, "lon": 17.145688}, {"type": "node", "id": 7692759854, "lat": 61.2607419, "lon": 17.1456777}, {"type": "node", "id": 7692759855, "lat": 61.2607637, "lon": 17.1452767}, {"type": "node", "id": 7692759856, "lat": 61.2606196, "lon": 17.1460342}, {"type": "node", "id": 7692759857, "lat": 61.2608185, "lon": 17.1460447}, {"type": "node", "id": 7692759858, "lat": 61.2606545, "lon": 17.1452538}, {"type": "node", "id": 7705449620, "lat": 60.904053, "lon": 17.0174935}, {"type": "node", "id": 7705449621, "lat": 60.903934, "lon": 17.0177422}, {"type": "node", "id": 7705449622, "lat": 60.9037703, "lon": 17.0174111}, {"type": "node", "id": 7705449623, "lat": 60.9036855, "lon": 17.0174001}, {"type": "node", "id": 7705449624, "lat": 60.9036918, "lon": 17.0171961}, {"type": "node", "id": 7705449625, "lat": 60.9037904, "lon": 17.0172089}, {"type": "node", "id": 7705449626, "lat": 60.9037984, "lon": 17.0171841}, {"type": "node", "id": 7705449627, "lat": 60.903744, "lon": 17.0170645}, {"type": "node", "id": 7705449628, "lat": 60.9038085, "lon": 17.0169406}, {"type": "node", "id": 7705449629, "lat": 60.9038666, "lon": 17.0170686}, {"type": "node", "id": 7705449630, "lat": 60.9038681, "lon": 17.0168525}, {"type": "node", "id": 7705449631, "lat": 60.9039703, "lon": 17.0168554}, {"type": "node", "id": 7705449632, "lat": 60.903969, "lon": 17.0170521}, {"type": "node", "id": 7705449633, "lat": 60.9040332, "lon": 17.0169489}, {"type": "node", "id": 7705449634, "lat": 60.9041174, "lon": 17.0169529}, {"type": "node", "id": 7705449635, "lat": 60.9041155, "lon": 17.0171305}, {"type": "node", "id": 7705449636, "lat": 60.9039965, "lon": 17.0173792}, {"type": "node", "id": 7716811486, "lat": 61.3034544, "lon": 17.0551833, "tags": {"addr:country": "SE", "addr:housenumber": "10", "addr:postcode": "82630", "addr:street": "Kungsgatan", "amenity": "restaurant", "cuisine": "thai", "name": "\u00e5-k Thaimat"}}, {"type": "node", "id": 8303863055, "lat": 60.9284318, "lon": 17.158209}, {"type": "node", "id": 8303863056, "lat": 60.9284519, "lon": 17.1582008}, {"type": "node", "id": 8303863057, "lat": 60.928514, "lon": 17.1581751}, {"type": "node", "id": 8303863058, "lat": 60.9285482, "lon": 17.1581612}, {"type": "node", "id": 8303863070, "lat": 60.9285365, "lon": 17.1584088}, {"type": "node", "id": 8303863071, "lat": 60.9284744, "lon": 17.1584342}, {"type": "node", "id": 8303863072, "lat": 60.9284185, "lon": 17.1580708}, {"type": "node", "id": 8303863073, "lat": 60.9285349, "lon": 17.1580233}, {"type": "node", "id": 8421084931, "lat": 61.2634635, "lon": 17.1515075, "tags": {"amenity": "cafe", "name": "Redlight Design", "opening_hours": "11:00-17:00", "snowmobile": "yes"}}, {"type": "node", "id": 8989519617, "lat": 61.3058742, "lon": 17.0675069, "tags": {"amenity": "bar", "name": "Hunker Junker"}}, {"type": "node", "id": 9116680632, "lat": 60.886583, "lon": 16.7026807, "tags": {"amenity": "cafe", "name": "Wij Herrg\u00e5rdscaf\u00e9"}}, {"type": "node", "id": 9325198195, "lat": 61.2916808, "lon": 16.8252631}, {"type": "node", "id": 9325198196, "lat": 61.2918956, "lon": 16.8254142}, {"type": "node", "id": 9325198197, "lat": 61.291851, "lon": 16.8256408}, {"type": "node", "id": 9325198198, "lat": 61.2916389, "lon": 16.8254955}, {"type": "node", "id": 9862638329, "lat": 60.89069, "lon": 16.7166587, "tags": {"amenity": "restaurant", "name": "Casablanca"}}, {"type": "node", "id": 9862659962, "lat": 60.8893648, "lon": 16.7166302, "tags": {"amenity": "restaurant", "name": "Atalanta Pizzeria Restaurang"}}, {"type": "node", "id": 9862686352, "lat": 60.8912027, "lon": 16.7175539, "tags": {"amenity": "cafe", "name": "Sveas Kaf\u00e9", "opening_hours": "We-Sa 10:00-16:00"}}, {"type": "node", "id": 11040073123, "lat": 61.0473082, "lon": 17.1428908, "tags": {"amenity": "cafe"}}, {"type": "node", "id": 11121793195, "lat": 61.3016858, "lon": 17.0540945}, {"type": "node", "id": 11123127480, "lat": 61.3003722, "lon": 17.0572185, "tags": {"amenity": "cafe", "name": "Caf\u00e9 \u00d6stra Berget"}}, {"type": "node", "id": 11125131777, "lat": 61.3012803, "lon": 17.0483579, "tags": {"amenity": "restaurant", "cuisine": "sushi", "name": "Esa sushi S\u00f6derhamn"}}, {"type": "node", "id": 11125131778, "lat": 61.3017072, "lon": 17.0497215, "tags": {"amenity": "restaurant", "name": "SoCo Restaurang & Bar"}}, {"type": "node", "id": 11148971300, "lat": 61.3012933, "lon": 17.0519762, "tags": {"amenity": "restaurant", "name": "Christos Bistro"}}, {"type": "node", "id": 11148971301, "lat": 61.3010914, "lon": 17.0495486, "tags": {"amenity": "restaurant", "name": "Restaurang Me and McGee's"}}, {"type": "node", "id": 11148978039, "lat": 61.302872, "lon": 17.0561061, "tags": {"amenity": "cafe", "name": "Aidas Caf\u00e9"}}, {"type": "node", "id": 11153229173, "lat": 61.3030869, "lon": 17.0571213, "tags": {"amenity": "restaurant", "cuisine": "pizza", "name": "Levanten"}}, {"type": "node", "id": 11153229188, "lat": 61.3037611, "lon": 17.0568457, "tags": {"amenity": "restaurant", "cuisine": "pizza", "name": "Special Pizza i S\u00f6derhamn"}}, {"type": "node", "id": 11153229189, "lat": 61.3032222, "lon": 17.0582934, "tags": {"amenity": "restaurant", "cuisine": "indian", "name": "Aroti"}}, {"type": "node", "id": 11153296324, "lat": 61.3015338, "lon": 17.0485467, "tags": {"amenity": "restaurant", "name": "Stattrestaurangen"}}, {"type": "node", "id": 11153296331, "lat": 61.3027302, "lon": 17.0580276, "tags": {"amenity": "restaurant", "cuisine": "indian", "name": "Bombay Kitchen"}}, {"type": "node", "id": 11153373027, "lat": 61.3058327, "lon": 17.0631989, "tags": {"amenity": "restaurant", "name": "Norralagatuk\u00f6k"}}, {"type": "node", "id": 11153437817, "lat": 61.3054907, "lon": 17.0601916, "tags": {"amenity": "restaurant", "name": "Grillbaren"}}, {"type": "node", "id": 11153437820, "lat": 61.3050041, "lon": 17.0626318, "tags": {"amenity": "restaurant", "cuisine": "pizza", "name": "Kebab Pizza City"}}, {"type": "node", "id": 11153437824, "lat": 61.3055798, "lon": 17.0614436, "tags": {"amenity": "restaurant", "name": "Restaurang Dragonen"}}, {"type": "node", "id": 11153437826, "lat": 61.30493, "lon": 17.0662654, "tags": {"amenity": "restaurant", "name": "Plejset vid \u00e5n"}}, {"type": "way", "id": 117568206, "nodes": [1324218787, 11121793195, 1324218790, 1324218789, 1324218788, 1324218787], "tags": {"amenity": "restaurant", "building": "yes", "name": "Kalles Gatuk\u00f6k"}}, {"type": "way", "id": 283165569, "nodes": [2870740218, 2870740221, 2870740222, 2870740220, 2870740218], "tags": {"addr:city": "Marmaverken", "addr:country": "SE", "addr:housenumber": "2", "addr:postcode": "82026", "addr:street": "Katt\u00f6v\u00e4gen", "amenity": "restaurant", "building": "yes", "name": "Rosa Pantern", "outdoor_seating": "terrace", "phone": "+46270425143", "takeaway": "yes", "website": "https://www.facebook.com/rosapanternrestaurang"}}, {"type": "way", "id": 290936310, "nodes": [2944200198, 2944200199, 4845512357, 4845512358, 4845512359, 4845512360, 2944200200, 2944200201, 2944200198], "tags": {"amenity": "restaurant", "building": "yes", "name": "Kopparm\u00e4ssen"}}, {"type": "way", "id": 413181913, "nodes": [4145135506, 4145135515, 4145135513, 4145135522, 4145135521, 4145135528, 4145135526, 4145135512, 4145135511, 4145135517, 4145135514, 4145135498, 4145135504, 4145135502, 4145135506], "tags": {"addr:city": "Ljusne", "addr:country": "SE", "addr:housenumber": "4", "addr:postcode": "82020", "addr:street": "Turbinv\u00e4gen", "amenity": "restaurant", "building": "yes", "building:levels": "1", "name": "Ljusne-turbinen", "opening_hours": "Mo-Th 09:00-22:00; Fr 09:00-24:00; Sa 00:00-02:00,12:00-24:00; Su 00:00-02:00,09:00-22:00", "phone": "+46 270 67100", "website": "https://www.restaurangturbinen.se/"}}, {"type": "way", "id": 423680334, "nodes": [4232335710, 4232335706, 4232335714, 4232335705, 4232335710], "tags": {"amenity": "restaurant", "building": "yes"}}, {"type": "way", "id": 436407292, "nodes": [4343008517, 4343008510, 4343008512, 4343008511, 4343008514, 4343008515, 4343008516, 4343008518, 4343008517], "tags": {"amenity": "cafe", "building": "yes"}}, {"type": "way", "id": 531320345, "nodes": [5157716953, 5157717155, 5157734851, 5157735248, 5157716953], "tags": {"amenity": "restaurant", "building": "yes", "name": "Plejset vid \u00e5n"}}, {"type": "way", "id": 823938416, "nodes": [7692759853, 7692759854, 7692759855, 7692759858, 7692759856, 7692759857, 7692759853], "tags": {"addr:city": "Sandarne", "addr:country": "SE", "addr:housenumber": "2616", "addr:postcode": "82022", "addr:street": "Nyplan", "amenity": "restaurant", "building": "yes", "cuisine": "pizza", "name": "Sandarne Pizzeria", "opening_hours": "Mo-Su 11:00-21:00", "parking": "yes", "phone": "+4627060588", "website": "https://www.sandarnepizzeria.se/"}}, {"type": "way", "id": 825219447, "nodes": [7705449620, 7705449621, 7705449622, 7705449623, 7705449624, 7705449625, 7705449626, 7705449627, 7705449628, 7705449629, 7705449630, 7705449631, 7705449632, 7705449633, 7705449634, 7705449635, 7705449636, 7705449620], "tags": {"amenity": "restaurant", "building": "yes", "name": "Rasta Hagsta", "opening_hours": "Mo-Su 07:00-22:00"}}, {"type": "way", "id": 893442027, "nodes": [8303863073, 8303863058, 8303863057, 8303863070, 8303863071, 8303863056, 8303863055, 8303863072, 8303863073], "tags": {"amenity": "restaurant", "building": "house", "cuisine": "fish", "delivery": "no", "name": "Bergmans Fisk Saltharsfj\u00e4rden", "operator": "Bergmans Fisk Saltharsfj\u00e4rden", "outdoor_seating": "yes", "reservation": "yes", "smoking": "outside", "takeaway": "no", "wheelchair": "yes"}}, {"type": "way", "id": 1010751223, "nodes": [9325198195, 9325198196, 9325198197, 9325198198, 9325198195], "tags": {"amenity": "restaurant", "building": "yes"}}]}