{"version": 0.6, "generator": "Overpass API 0.7.61.5 4133829e", "osm3s": {"timestamp_osm_base": "2024-03-14T21:59:00Z", "copyright": "The data included in this document is from www.openstreetmap.org. The data is made available under ODbL."}, "elements": [{"type": "node", "id": 35181570, "lat": 59.8494267, "lon": 16.6467982, "tags": {"amenity": "cafe", "cuisine": "coffee_shop", "description": "Self-service coffee and small cakes only", "name": "T\u00e4rnabadet"}}, {"type": "node", "id": 75702353, "lat": 59.6730192, "lon": 16.724451, "tags": {"amenity": "cafe", "name": "Tortuna Pizza & Spel"}}, {"type": "node", "id": 75803461, "lat": 59.623122, "lon": 16.5933133, "tags": {"amenity": "restaurant", "name": "Alberts Bistro"}}, {"type": "node", "id": 78503144, "lat": 59.6111888, "lon": 16.543649, "tags": {"amenity": "restaurant", "created_by": "JOSM", "name": "Harrys"}}, {"type": "node", "id": 78503147, "lat": 59.6110568, "lon": 16.5437239, "tags": {"amenity": "cafe", "name": "Coffeehouse"}}, {"type": "node", "id": 78503153, "lat": 59.6110245, "lon": 16.5517559, "tags": {"addr:city": "V\u00e4ster\u00e5s", "addr:country": "SE", "addr:housenumber": "4", "addr:postcode": "722 12", "addr:street": "Stora gatan", "amenity": "restaurant", "capacity": "50", "cuisine": "italian", "name": "Limone", "website": "https://gastrogate.com/restaurang/limone/"}}, {"type": "node", "id": 78509318, "lat": 59.6113348, "lon": 16.5487097, "tags": {"amenity": "cafe", "name": "Cornetto Bar"}}, {"type": "node", "id": 78509321, "lat": 59.6116227, "lon": 16.5490619, "tags": {"amenity": "cafe", "created_by": "JOSM", "name": "R & R Bar"}}, {"type": "node", "id": 81395810, "lat": 59.6126543, "lon": 16.5482357, "tags": {"amenity": "restaurant", "name": "Best Western Hotell Esplanade"}}, {"type": "node", "id": 81401467, "lat": 59.6123293, "lon": 16.5482166, "tags": {"addr:city": "V\u00e4ster\u00e5s", "addr:country": "SE", "addr:housenumber": "2", "addr:postcode": "722 13", "addr:street": "Smedjegatan", "amenity": "restaurant", "capacity": "25", "cuisine": "pizza", "name": "Pizzeria Amore", "website": "https://pizzeriaamore.se/"}}, {"type": "node", "id": 81458176, "lat": 59.6117708, "lon": 16.5482909, "tags": {"addr:city": "V\u00e4ster\u00e5s", "addr:country": "SE", "addr:housenumber": "27", "addr:postcode": "722 13", "addr:street": "Kopparbergsv\u00e4gen", "amenity": "restaurant", "capacity": "50", "cuisine": "greek", "name": "Grekiska kolgrillsbaren", "website": "http://www.grekiskakolgrillsbaren.se/"}}, {"type": "node", "id": 81458179, "lat": 59.6117524, "lon": 16.5489617, "tags": {"amenity": "cafe", "created_by": "JOSM", "name": "Nyaexelsior"}}, {"type": "node", "id": 81458209, "lat": 59.6076517, "lon": 16.551968, "tags": {"amenity": "cafe", "brand": "Wayne's Coffee", "brand:wikidata": "Q2637272", "cuisine": "coffee_shop", "name": "Wayne's Coffee", "takeaway": "yes", "wheelchair": "yes"}}, {"type": "node", "id": 81489689, "lat": 59.6034832, "lon": 16.5487828, "tags": {"amenity": "cafe", "name": "Hamn Cafet", "name:en": "Harbour Cafe"}}, {"type": "node", "id": 81489694, "lat": 59.6021519, "lon": 16.5463347, "tags": {"amenity": "restaurant", "name": "M\u00e4larkrogen"}}, {"type": "node", "id": 81489734, "lat": 59.603292, "lon": 16.5515973, "tags": {"amenity": "restaurant", "name": "Restaurang Real", "wheelchair": "yes"}}, {"type": "node", "id": 81489738, "lat": 59.6034597, "lon": 16.5509573, "tags": {"amenity": "cafe", "cuisine": "pizza", "name": "Kajen's fik", "source": "Owner of Kajen's fik", "website": "http://www.kajensfik.se", "wheelchair": "yes", "wifi": "no"}}, {"type": "node", "id": 81511677, "lat": 59.6109285, "lon": 16.5419692, "tags": {"amenity": "restaurant", "check_date": "2023-10-03", "created_by": "JOSM", "name": "Restaurang Bellman"}}, {"type": "node", "id": 81515497, "lat": 59.6106154, "lon": 16.5417494, "tags": {"amenity": "restaurant", "check_date": "2023-10-03", "cuisine": "tapas", "name": "Pinchos", "website": "https://www.pinchos.se/restaurant?id=se-vasteras-stora-torget"}}, {"type": "node", "id": 81534105, "lat": 59.6103798, "lon": 16.5449675, "tags": {"amenity": "cafe", "check_date": "2023-10-03", "created_by": "JOSM", "name": "Fr\u00e4lsningsarmen"}}, {"type": "node", "id": 278816157, "lat": 59.620413, "lon": 16.5938803, "tags": {"amenity": "restaurant", "cuisine": "pizza", "name": "Pizzeria Valentino"}}, {"type": "node", "id": 449113842, "lat": 59.9218964, "lon": 16.608552, "tags": {"amenity": "restaurant", "cuisine": "pizza", "name": "Restaurang Liljas"}}, {"type": "node", "id": 552938531, "lat": 59.6524915, "lon": 16.5510887, "tags": {"amenity": "restaurant", "cuisine": "pizza", "name": "Pizzeria N\u00e4ckrosen"}}, {"type": "node", "id": 639539497, "lat": 59.9248674, "lon": 16.6068699, "tags": {"addr:city": "Sala", "addr:country": "SE", "addr:housenumber": "2", "addr:postcode": "733 38", "addr:street": "Stationsplan", "amenity": "cafe", "cuisine": "coffee_shop", "description": "Hantverks\u00f6l, mat och fika", "name": "Cafe Jernv\u00e4gen", "opening_hours": "Mo-Fr 08:00-18:00; Sa 11:00-23:58; Su 11:00-17:00", "website": "https://www.cafejernvagen.se/"}}, {"type": "node", "id": 655264482, "lat": 59.9258485, "lon": 16.6091684, "tags": {"amenity": "restaurant", "name": "Lilla G\u00f6mman"}}, {"type": "node", "id": 656415608, "lat": 59.9213292, "lon": 16.5818849, "tags": {"amenity": "cafe", "name": "Caf\u00e9 L\u00e4rkan"}}, {"type": "node", "id": 666454257, "lat": 59.5962014, "lon": 16.492122, "tags": {"amenity": "restaurant", "name": "Restaurang Kurdistan"}}, {"type": "node", "id": 694362162, "lat": 59.9280999, "lon": 16.5675726, "tags": {"addr:city": "Sala", "addr:postcode": "73336", "addr:street": "M\u00e5ns Ols 100", "amenity": "restaurant", "cuisine": "regional", "name": "M\u00e5ns Ols utv\u00e4rdshus", "opening_hours": "Su-Th 10:00-16:00; Fr,Sa 10:00-22:00"}}, {"type": "node", "id": 736342017, "lat": 59.8612587, "lon": 16.447969, "tags": {"amenity": "restaurant", "name": "Brunnsrestaurangen", "wheelchair": "yes"}}, {"type": "node", "id": 795333923, "lat": 59.9429469, "lon": 16.716511, "tags": {"amenity": "restaurant", "name": "Golfresturangen"}}, {"type": "node", "id": 1098461963, "lat": 59.6099348, "lon": 16.5416402, "tags": {"amenity": "cafe", "name": "Kalle p\u00e5 Sp\u00e5ngen"}}, {"type": "node", "id": 1103761821, "lat": 59.6121391, "lon": 16.5475024, "tags": {"addr:city": "V\u00e4ster\u00e5s", "addr:country": "SE", "addr:housenumber": "2", "addr:postcode": "722 13", "addr:street": "Smedjegatan", "amenity": "restaurant", "check_date": "2023-10-03", "cuisine": "chinese", "name": "Choy's Garden", "website": "https://gastrogate.com/restaurang/choysgarden/"}}, {"type": "node", "id": 1103822957, "lat": 59.6114601, "lon": 16.5342591}, {"type": "node", "id": 1103823042, "lat": 59.6117026, "lon": 16.5339464}, {"type": "node", "id": 1103823055, "lat": 59.6115371, "lon": 16.5339325}, {"type": "node", "id": 1103823261, "lat": 59.6114262, "lon": 16.5341097}, {"type": "node", "id": 1103823292, "lat": 59.6117496, "lon": 16.5341534}, {"type": "node", "id": 1103823318, "lat": 59.6115268, "lon": 16.5338871}, {"type": "node", "id": 1103823379, "lat": 59.6114727, "lon": 16.5340683}, {"type": "node", "id": 1103823412, "lat": 59.6116497, "lon": 16.534242}, {"type": "node", "id": 1103823486, "lat": 59.6116211, "lon": 16.5341162}, {"type": "node", "id": 1103823506, "lat": 59.6116895, "lon": 16.5337427}, {"type": "node", "id": 1103823515, "lat": 59.6117302, "lon": 16.5339219}, {"type": "node", "id": 1103823528, "lat": 59.6114579, "lon": 16.5340029}, {"type": "node", "id": 1103962786, "lat": 59.5979572, "lon": 16.5154749}, {"type": "node", "id": 1103962843, "lat": 59.5980365, "lon": 16.5153369}, {"type": "node", "id": 1103962869, "lat": 59.5982112, "lon": 16.5154345}, {"type": "node", "id": 1103962956, "lat": 59.5981891, "lon": 16.5159958}, {"type": "node", "id": 1103962978, "lat": 59.5980904, "lon": 16.5154578}, {"type": "node", "id": 1103963041, "lat": 59.5981643, "lon": 16.5153292}, {"type": "node", "id": 1103963146, "lat": 59.5982696, "lon": 16.5158558}, {"type": "node", "id": 1103963216, "lat": 59.5981384, "lon": 16.515561}, {"type": "node", "id": 1104336159, "lat": 59.5825564, "lon": 16.5689823}, {"type": "node", "id": 1104336183, "lat": 59.5828589, "lon": 16.5687107}, {"type": "node", "id": 1104336196, "lat": 59.5828458, "lon": 16.5690286}, {"type": "node", "id": 1104336208, "lat": 59.5825695, "lon": 16.5686643}, {"type": "node", "id": 1105619511, "lat": 59.6125399, "lon": 16.5561811, "tags": {"amenity": "restaurant", "cuisine": "thai", "name": "Gulab Thai"}}, {"type": "node", "id": 1116968386, "lat": 59.5645066, "lon": 16.5072094}, {"type": "node", "id": 1116968491, "lat": 59.5643796, "lon": 16.5070561}, {"type": "node", "id": 1116968501, "lat": 59.5646223, "lon": 16.5068361}, {"type": "node", "id": 1116968571, "lat": 59.5644953, "lon": 16.5066828}, {"type": "node", "id": 1132168212, "lat": 59.6269778, "lon": 16.9496083, "tags": {"amenity": "restaurant", "cuisine": "pizza", "name": "Pizzeria Hummelsta"}}, {"type": "node", "id": 1300488352, "lat": 59.6378978, "lon": 16.5867032, "tags": {"amenity": "restaurant", "brand": "Amica", "name": "Amica Lugna Gatan", "website": "https://gastrogate.com/restaurang/magneten-dagens/"}}, {"type": "node", "id": 1309376426, "lat": 59.7768107, "lon": 16.9285237, "tags": {"amenity": "restaurant", "cuisine": "pizza", "name": "SG"}}, {"type": "node", "id": 1376693465, "lat": 59.5613099, "lon": 17.0180372, "tags": {"amenity": "cafe", "name": "Pauza", "opening_hours": "Mo-Su"}}, {"type": "node", "id": 1392016090, "lat": 59.610181, "lon": 16.5422877, "tags": {"amenity": "bar", "check_date": "2023-10-03", "name": "The Circus", "website": "https://www.thecircus.se/"}}, {"type": "node", "id": 1392016091, "lat": 59.6102724, "lon": 16.5424294, "tags": {"amenity": "restaurant", "check_date": "2023-10-03", "name": "Frank", "website": "https://www.frankbistro.com/"}}, {"type": "node", "id": 1449135570, "lat": 59.6358295, "lon": 17.0784471, "tags": {"addr:city": "Enk\u00f6ping", "addr:country": "SE", "addr:housenumber": "24", "addr:street": "Torggatan", "amenity": "restaurant", "cuisine": "thai", "name": "YA Asiatiskt k\u00f6k", "website": "http://www.yakoket.se/"}}, {"type": "node", "id": 1450168458, "lat": 59.6329432, "lon": 17.0742982, "tags": {"amenity": "restaurant", "cuisine": "thai", "name": "Vita Elefanten"}}, {"type": "node", "id": 1477139181, "lat": 59.9320369, "lon": 16.9750998}, {"type": "node", "id": 1495700604, "lat": 59.6060451, "lon": 16.5320204, "tags": {"amenity": "restaurant", "cuisine": "pizza", "name": "Viking Pizzeria"}}, {"type": "node", "id": 1615339912, "lat": 59.6098754, "lon": 16.5418338, "tags": {"amenity": "restaurant", "cuisine": "regional", "name": "Nya Hattfabriken", "website": "https://nyahattfabriken.se/"}}, {"type": "node", "id": 1652012872, "lat": 59.5538402, "lon": 16.6609702, "tags": {"amenity": "cafe", "name": "G\u00e4ddeholms Caf\u00e9", "website": "http://www.xn--gddeholmsherrgrd-vnb5a.se/"}}, {"type": "node", "id": 1668557519, "lat": 59.5979562, "lon": 16.5155392}, {"type": "node", "id": 1668557521, "lat": 59.5979729, "lon": 16.5155102}, {"type": "node", "id": 1668557546, "lat": 59.5979968, "lon": 16.5156304}, {"type": "node", "id": 1668557548, "lat": 59.598, "lon": 16.5156249}, {"type": "node", "id": 1668557551, "lat": 59.5980291, "lon": 16.5156903}, {"type": "node", "id": 1668557552, "lat": 59.5980426, "lon": 16.5156668}, {"type": "node", "id": 1668557557, "lat": 59.5980912, "lon": 16.5158543}, {"type": "node", "id": 1668557570, "lat": 59.5981109, "lon": 16.5158201}, {"type": "node", "id": 1668557577, "lat": 59.5981226, "lon": 16.515925}, {"type": "node", "id": 1668557579, "lat": 59.5981423, "lon": 16.5158908}, {"type": "node", "id": 1668557580, "lat": 59.5981426, "lon": 16.5159287}, {"type": "node", "id": 1668557583, "lat": 59.5981519, "lon": 16.5159124}, {"type": "node", "id": 1668557585, "lat": 59.5981661, "lon": 16.5159816}, {"type": "node", "id": 1668557598, "lat": 59.5981755, "lon": 16.5159653}, {"type": "node", "id": 1675904125, "lat": 59.6415542, "lon": 16.5708831, "tags": {"amenity": "restaurant", "name": "\u00c5karnas Hus"}}, {"type": "node", "id": 1697835248, "lat": 59.5861399, "lon": 16.6221459, "tags": {"addr:city": "V\u00e4ster\u00e5s", "addr:country": "SE", "addr:housenumber": "73", "addr:street": "Flottiljgatan", "amenity": "restaurant", "name": "H\u00e4ssl\u00f6 Werdshus", "website": "http://www.hasslowerdshus.se/"}}, {"type": "node", "id": 1708700034, "lat": 59.5963649, "lon": 16.5865119, "tags": {"addr:city": "V\u00e4ster\u00e5s", "addr:country": "SE", "addr:housenumber": "1", "addr:street": "Strandtorget", "amenity": "restaurant", "name": "\u00d6ster M\u00e4larstrands Krog"}}, {"type": "node", "id": 1711800924, "lat": 59.6093071, "lon": 16.6260682}, {"type": "node", "id": 1711800927, "lat": 59.6093484, "lon": 16.6258519}, {"type": "node", "id": 1711800931, "lat": 59.6093916, "lon": 16.626166}, {"type": "node", "id": 1711800932, "lat": 59.6093974, "lon": 16.6261355}, {"type": "node", "id": 1711800933, "lat": 59.6094216, "lon": 16.6259065}, {"type": "node", "id": 1711800935, "lat": 59.6094319, "lon": 16.626196}, {"type": "node", "id": 1711800936, "lat": 59.6094406, "lon": 16.6261503}, {"type": "node", "id": 1711800938, "lat": 59.6095081, "lon": 16.6259554}, {"type": "node", "id": 1711800939, "lat": 59.6095179, "lon": 16.625904}, {"type": "node", "id": 1711800940, "lat": 59.6095312, "lon": 16.6262178}, {"type": "node", "id": 1711800942, "lat": 59.6095721, "lon": 16.6260031}, {"type": "node", "id": 1721028228, "lat": 59.5922385, "lon": 16.5145846}, {"type": "node", "id": 1721028237, "lat": 59.5923095, "lon": 16.5144238}, {"type": "node", "id": 1721028238, "lat": 59.5923113, "lon": 16.5147099}, {"type": "node", "id": 1721028242, "lat": 59.5923822, "lon": 16.5145491}, {"type": "node", "id": 1738288137, "lat": 59.6119829, "lon": 16.5447805, "tags": {"addr:city": "V\u00e4ster\u00e5s", "addr:country": "SE", "addr:housenumber": "26B", "addr:postcode": "722 15", "addr:street": "Vasagatan", "amenity": "restaurant", "changing_table": "yes", "changing_table:count": "1", "changing_table:fee": "no", "changing_table:location": "wheelchair_toilet", "check_date": "2023-07-25", "cuisine": "italian", "description:en": "They have no pizza!", "dog": "yes", "drinking_water:refill": "yes", "highchair": "yes", "level": "0", "lunch": "menu", "lunch:menu": "mo-fr 11:30-14:00", "name": "Piazza Di Spagna", "opening_hours:signed": "no", "outdoor_seating": "yes", "payment:cash": "no", "payment:credit_cards": "yes", "payment:debit_cards": "yes", "reusable_packaging:offer": "yes", "service:electricity": "yes", "toilets": "yes", "toilets:access": "customers", "toilets:unisex": "yes", "toilets:wheelchair": "yes", "website": "https://www.dispagna.se/", "wheelchair": "yes"}}, {"type": "node", "id": 1764459048, "lat": 59.7796218, "lon": 16.9729479, "tags": {"addr:city": "Fj\u00e4rdhundra", "addr:country": "SE", "addr:housenumber": "4", "addr:postcode": "749 72", "addr:street": "SIMTUNA FORSBY", "amenity": "restaurant", "cuisine": "international", "internet_access": "no", "name": "Forsby kvarn", "outdoor_seating": "yes", "toilets": "yes", "website": "http://www.forsbykvarnkafe.se/"}}, {"type": "node", "id": 1798671282, "lat": 59.6228161, "lon": 16.5472527, "tags": {"addr:city": "V\u00e4ster\u00e5s", "addr:country": "SE", "addr:housenumber": "36", "addr:postcode": "722 19", "addr:street": "Kristiansborgsall\u00e9n", "amenity": "restaurant", "cuisine": "thai", "name": "Gr\u00f6na Woken", "takeaway": "only"}}, {"type": "node", "id": 1800660695, "lat": 59.6152852, "lon": 16.5320498, "tags": {"addr:city": "V\u00e4ster\u00e5s", "addr:country": "SE", "addr:housenumber": "1", "addr:postcode": "722 17", "addr:street": "Skultunav\u00e4gen", "amenity": "restaurant", "name": "Falkenbergska kvarnen", "phone": "+46-21-382626"}}, {"type": "node", "id": 1801913704, "lat": 59.6139054, "lon": 16.4716337, "tags": {"amenity": "restaurant", "cuisine": "pizza", "name": "The Palm"}}, {"type": "node", "id": 1871914020, "lat": 59.8120221, "lon": 16.6372546, "tags": {"amenity": "restaurant", "cuisine": "pizza", "name": "Pizzeria Ransta"}}, {"type": "node", "id": 1885779240, "lat": 59.6063242, "lon": 16.4816143, "tags": {"addr:city": "V\u00e4ster\u00e5s", "addr:country": "SE", "addr:housenumber": "6B", "addr:postcode": "721 33", "addr:street": "Hejargr\u00e4nd", "amenity": "restaurant", "cuisine": "pizza;italian;thai", "name": "Indianen", "website": "http://www.indianen.se/"}}, {"type": "node", "id": 1893805578, "lat": 59.6117025, "lon": 16.5461141, "tags": {"addr:city": "V\u00e4ster\u00e5s", "addr:country": "SE", "addr:housenumber": "6", "addr:postcode": "721 01", "addr:street": "Smedjegatan", "amenity": "restaurant", "capacity": "50", "cuisine": "indian", "name": "Nojon Moni", "name:en": "Nojon Moni", "website": "https://nojonmoni.se/"}}, {"type": "node", "id": 1894263890, "lat": 59.6106101, "lon": 16.5459596, "tags": {"addr:city": "V\u00e4ster\u00e5s", "addr:country": "SE", "addr:housenumber": "14", "addr:postcode": "722 15", "addr:street": "Vasagatan", "amenity": "restaurant", "capacity": "50", "check_date": "2023-10-03", "cuisine": "regional", "name": "Varda", "website": "https://www.restaurangvarda.se/"}}, {"type": "node", "id": 1894270106, "lat": 59.6113702, "lon": 16.5467748, "tags": {"addr:city": "V\u00e4ster\u00e5s", "addr:country": "SE", "addr:housenumber": "13", "addr:postcode": "722 13", "addr:street": "Sturegatan", "amenity": "restaurant", "capacity": "50", "cuisine": "pizza", "name": "Sturegatans Pizzeria", "website": "https://sturegatanspizzeria.se"}}, {"type": "node", "id": 1894271203, "lat": 59.6114776, "lon": 16.5471562, "tags": {"addr:city": "V\u00e4ster\u00e5s", "addr:country": "SE", "addr:housenumber": "20", "addr:postcode": "722 13", "addr:street": "Sturegatan", "amenity": "restaurant", "capacity": "50", "cuisine": "thai", "name": "Spicy Hot", "website": "https://www.spicyhot.se/"}}, {"type": "node", "id": 1894363489, "lat": 59.6112145, "lon": 16.5482526, "tags": {"addr:city": "V\u00e4ster\u00e5s", "addr:country": "SE", "addr:housenumber": "1", "addr:postcode": "722 13", "addr:street": "Snickargatan", "amenity": "restaurant", "capacity": "50", "cuisine": "indian", "name": "Laxmi", "website": "https://www.laxmiindisk.se/"}}, {"type": "node", "id": 1894703310, "lat": 59.6096463, "lon": 16.5486354, "tags": {"amenity": "cafe", "internet_access": "yes", "name": "Good Game", "website": "https://www.good-game.se/"}}, {"type": "node", "id": 1894703338, "lat": 59.6102166, "lon": 16.5489233, "tags": {"addr:city": "V\u00e4ster\u00e5s", "addr:country": "SE", "addr:housenumber": "7", "addr:postcode": "722 12", "addr:street": "Stora Gatan", "amenity": "restaurant", "capacity": "50", "cuisine": "italian", "name": "Ristorante Ruffino", "website": "https://gastrogate.com/restaurang/ruffino/"}}, {"type": "node", "id": 1894828730, "lat": 59.6111067, "lon": 16.5512524, "tags": {"addr:city": "V\u00e4ster\u00e5s", "addr:country": "SE", "addr:housenumber": "4", "addr:postcode": "722 14", "addr:street": "Karlsgatan", "amenity": "restaurant", "capacity": "50", "cuisine": "italian", "name": "Fragolino", "website": "https://gastrogate.com/restaurang/fragolino/"}}, {"type": "node", "id": 1900773103, "lat": 59.9437749, "lon": 16.2808342, "tags": {"addr:city": "V\u00e4sterf\u00e4rnebo", "addr:country": "SE", "addr:housenumber": "6", "addr:postcode": "73360", "addr:street": "Salbohedsv\u00e4gen", "amenity": "cafe", "contact:facebook": "https://www.facebook.com/fiketifarnebo/", "cuisine": "burger;coffee_shop;ice_cream;regional", "internet_access": "no", "name": "Fiket i F\u00e4rnebo", "opening_hours": "Mo-Fr 11:00-18:00; Sa 11:00-15:00", "outdoor_seating": "yes", "smoking": "outside"}}, {"type": "node", "id": 1911691273, "lat": 59.6084273, "lon": 16.5404175, "tags": {"addr:city": "V\u00e4ster\u00e5s", "addr:country": "SE", "addr:housenumber": "45", "addr:postcode": "722 12", "addr:street": "Stora gatan", "amenity": "restaurant", "capacity": "50", "cuisine": "tapas", "name": "Indigo", "website": "https://restaurangindigo.com/"}}, {"type": "node", "id": 1911692273, "lat": 59.6086386, "lon": 16.5417005, "tags": {"addr:city": "V\u00e4ster\u00e5s", "addr:country": "SE", "addr:housenumber": "41", "addr:postcode": "722 12", "addr:street": "Stora gatan", "amenity": "restaurant", "capacity": "100", "name": "Hong Kong", "website": "https://www.restaurant-hongkong.se/"}}, {"type": "node", "id": 1913701589, "lat": 59.6064662, "lon": 16.5445905, "tags": {"addr:city": "V\u00e4ster\u00e5s", "addr:country": "SE", "addr:housenumber": "1", "addr:postcode": "722 11", "addr:street": "Skepparbacken", "amenity": "restaurant", "cuisine": "regional", "name": "V\u00e4ster\u00e5s Slott", "website": "https://www.vasteras-slott.se/"}}, {"type": "node", "id": 1913708200, "lat": 59.6083918, "lon": 16.5377033, "tags": {"addr:city": "V\u00e4ster\u00e5s", "addr:country": "SE", "addr:housenumber": "21B", "addr:postcode": "724 61", "addr:street": "V\u00e4stra Ringv\u00e4gen", "amenity": "restaurant", "cuisine": "lebanese", "name": "Ceders Restaurang KolGrillBar", "website": "https://gastrogate.com/restaurang/ceders/"}}, {"type": "node", "id": 1914179947, "lat": 59.605525, "lon": 16.5501692, "tags": {"addr:city": "V\u00e4ster\u00e5s", "addr:country": "SE", "addr:housenumber": "21", "addr:postcode": "721 30", "addr:street": "Sigurdsgatan", "amenity": "restaurant", "cuisine": "regional", "name": "Kajutan"}}, {"type": "node", "id": 2145219187, "lat": 59.5800164, "lon": 16.6062575, "tags": {"amenity": "cafe", "name": "Caf\u00e9 Bj\u00f6rnen", "website": "https://ansgarsforsamlingen.se/bjorno/"}}, {"type": "node", "id": 2206769487, "lat": 59.594613, "lon": 16.5921625, "tags": {"amenity": "cafe", "name": "V\u00e4ster\u00e5s Sj\u00f6scoutk\u00e5r"}}, {"type": "node", "id": 2261553851, "lat": 59.6113937, "lon": 16.5467595, "tags": {"amenity": "cafe", "name": "Caf\u00e9 Gr\u00e4nden", "website": "https://cafegranden.se/"}}, {"type": "node", "id": 2571442610, "lat": 59.644468, "lon": 17.0878665, "tags": {"addr:city": "Enk\u00f6ping", "addr:country": "SE", "addr:housename": "(Stationshuset)", "addr:housenumber": "12", "addr:postcode": "745 34", "addr:street": "Bang\u00e5rdsgatan", "amenity": "cafe", "internet_access": "wired", "name": "Imaginary World Gaming Center", "note": "Imaginary World is a computer gaming center founded 2010, where people play League of Legends, Warface or \"Steam\" games online in groups, with their friends. Every Saturday night from 22:00-07:00 there is a \"Night Gibb\" for members. \"Magic\" is played MTG.", "phone": "+46-171-17 12 00", "source": "Owner"}}, {"type": "node", "id": 2582006530, "lat": 59.6095806, "lon": 16.5407941, "tags": {"addr:city": "V\u00e4ster\u00e5s", "addr:country": "SE", "addr:housenumber": "4", "addr:postcode": "72211", "addr:street": "Kungsgatan", "amenity": "bar", "name": "Blue Moon Bar", "website": "https://bluemoonbar.se/"}}, {"type": "node", "id": 2582011052, "lat": 59.6105553, "lon": 16.5440523, "tags": {"addr:city": "V\u00e4ster\u00e5s", "addr:country": "SE", "addr:housenumber": "1", "addr:postcode": "722 15", "addr:street": "Torggatan", "amenity": "nightclub", "check_date": "2023-10-03", "name": "Publik", "website": "https://www.pblk.se/"}}, {"type": "node", "id": 2582015535, "lat": 59.6110188, "lon": 16.5531002, "tags": {"addr:city": "V\u00e4ster\u00e5s", "addr:country": "SE", "addr:housenumber": "3", "addr:postcode": "722 12", "addr:street": "Stora gatan", "amenity": "restaurant", "capacity": "100", "cuisine": "regional", "name": "2 Rum & K\u00f6k", "website": "http://www.2rumokok.com/"}}, {"type": "node", "id": 2582017593, "lat": 59.6107699, "lon": 16.5498357, "tags": {"amenity": "bar", "name": "Karlsson p\u00e5 Taket"}}, {"type": "node", "id": 2582020657, "lat": 59.6084849, "lon": 16.5470895, "tags": {"addr:city": "V\u00e4ster\u00e5s", "addr:postcode": "722 12", "addr:street": "Fiskartorget", "amenity": "restaurant", "capacity": "100", "cuisine": "regional", "name": "Stadshusrestaurangen", "website": "https://gastrogate.com/restaurang/stadshusrestaurangen/", "wheelchair": "limited"}}, {"type": "node", "id": 2582021985, "lat": 59.6096791, "lon": 16.5426761, "tags": {"addr:city": "V\u00e4ster\u00e5s", "addr:country": "SE", "addr:housenumber": "6", "addr:postcode": "722 16", "addr:street": "Slottsgatan", "amenity": "restaurant", "capacity": "50", "cuisine": "regional", "name": "\u00c5", "website": "https://arestobar.gastrogate.com/"}}, {"type": "node", "id": 2582025825, "lat": 59.6088754, "lon": 16.5500173, "tags": {"addr:city": "V\u00e4ster\u00e5s", "addr:country": "SE", "addr:housenumber": "1", "addr:postcode": "722 13", "addr:street": "Kopparbergsv\u00e4gen", "amenity": "restaurant", "cuisine": "regional", "name": "Konserthusterassen", "website": "https://gastrogate.com/restaurang/konserthusterrassen/"}}, {"type": "node", "id": 2582089493, "lat": 59.6097513, "lon": 16.4954248, "tags": {"addr:city": "V\u00e4ster\u00e5s", "addr:country": "SE", "addr:housenumber": "1", "addr:postcode": "724 70", "addr:street": "R\u00e5by centrum", "amenity": "restaurant", "capacity": "25", "cuisine": "pizza", "name": "R\u00e5byrian", "opening_hours": "Mo-Th 11:00-20:45; Fr 11:00-21:45; Su 12:00-21:45"}}, {"type": "node", "id": 2582091622, "lat": 59.6143437, "lon": 16.5820129, "tags": {"addr:city": "V\u00e4ster\u00e5s", "addr:country": "SE", "addr:housenumber": "19", "addr:postcode": "723 44", "addr:street": "Klockartorpsgatan", "amenity": "restaurant", "cuisine": "pizza", "name": "La Pizza"}}, {"type": "node", "id": 2582095008, "lat": 59.6032494, "lon": 16.5517796, "tags": {"addr:city": "V\u00e4ster\u00e5s", "addr:postcode": "722 10", "addr:street": "M\u00e4largatan", "amenity": "restaurant", "cuisine": "international", "name": "Absolut Grill"}}, {"type": "node", "id": 2619993441, "lat": 59.6166319, "lon": 16.2247646}, {"type": "node", "id": 2681303155, "lat": 59.6992927, "lon": 16.2470597, "tags": {"addr:city": "Surahammar", "addr:country": "SE", "addr:housenumber": "2", "addr:postcode": "735 37", "addr:street": "Enb\u00e4rsv\u00e4gen", "amenity": "restaurant", "name": "W\u00e4rdshuset Rondellen", "opening_hours": "Mo-Fr 08:00-15:00; Sa,Su 10:00-16:00", "phone": "+46-220-33000", "website": "http://www.wardshusetrondellen.se"}}, {"type": "node", "id": 2707748732, "lat": 59.6107, "lon": 16.546556, "tags": {"addr:city": "V\u00e4ster\u00e5s", "addr:country": "SE", "addr:housenumber": "9", "addr:postcode": "722 12", "addr:street": "Hantverkargatan", "amenity": "cafe", "brand": "Espresso House", "brand:wikidata": "Q10489162", "cuisine": "coffee_shop", "name": "Espresso House Hantverkargatan", "operator": "Espresso House", "outdoor_seating": "yes", "smoking": "outside", "takeaway": "yes", "website": "https://espressohouse.com/", "wheelchair": "yes"}}, {"type": "node", "id": 3090229711, "lat": 59.6091359, "lon": 16.5438598, "tags": {"addr:city": "V\u00e4ster\u00e5s", "addr:country": "SE", "addr:housenumber": "35", "addr:postcode": "722 12", "addr:street": "Stora Gatan", "amenity": "restaurant", "cuisine": "regional", "name": "Brasserie Stadsparken", "website": "https://www.brasseriestadsparken.se/"}}, {"type": "node", "id": 3123830529, "lat": 59.6344305, "lon": 17.0770477, "tags": {"addr:city": "Enk\u00f6ping", "addr:country": "SE", "addr:housenumber": "318", "addr:postcode": "745 35", "addr:street": "Kungsgatan", "amenity": "cafe", "name": "Caf\u00e9 Magnifik", "phone": "+46-171-29697", "website": "http://cafemagnifik.se/"}}, {"type": "node", "id": 3402678113, "lat": 59.590142, "lon": 16.500879, "tags": {"amenity": "restaurant", "name": "BBQ Star"}}, {"type": "node", "id": 3402678126, "lat": 59.591134, "lon": 16.515628, "tags": {"amenity": "restaurant", "name": "Restaurang Djuphamnen"}}, {"type": "node", "id": 3402678140, "lat": 59.595839, "lon": 16.493817, "tags": {"amenity": "restaurant", "cuisine": "pizza", "name": "Alibabba kolgrill & vedugnspizzeria"}}, {"type": "node", "id": 3484285981, "lat": 59.600272, "lon": 16.521313, "tags": {"amenity": "restaurant", "name": "Reyhan Resturang & Kolgrill"}}, {"type": "node", "id": 3490289661, "lat": 59.6033478, "lon": 16.5488262, "tags": {"amenity": "cafe", "name": "Carlsson pa Kajen", "website": "https://carlssonpakajen.se/"}}, {"type": "node", "id": 3511126078, "lat": 59.6038011, "lon": 16.5501206, "tags": {"alt_name": "K9", "amenity": "restaurant", "check_date": "2023-07-26", "email": "info@kajplats9.se", "level": "0", "lunch": "yes", "name": "Kajplats 9", "opening_hours": "Mo-Fr 11:30-23:00; Sa 12:00-23:00; Su 12:00-21:00", "website": "https://kajplats9.se", "wheelchair": "yes"}}, {"type": "node", "id": 3549320041, "lat": 59.6323963, "lon": 16.6457596}, {"type": "node", "id": 3549320042, "lat": 59.6322676, "lon": 16.6455088}, {"type": "node", "id": 3549320043, "lat": 59.6323239, "lon": 16.6453955}, {"type": "node", "id": 3549320044, "lat": 59.6324527, "lon": 16.6456463}, {"type": "node", "id": 3635364905, "lat": 59.6005533, "lon": 16.488988, "tags": {"amenity": "restaurant", "cuisine": "pizza", "name": "Jojo's pizzeria"}}, {"type": "node", "id": 3635364906, "lat": 59.6091723, "lon": 16.5063618, "tags": {"amenity": "restaurant", "name": "R\u00e5by restaurang"}}, {"type": "node", "id": 3677712806, "lat": 59.6880724, "lon": 16.6236635, "tags": {"amenity": "restaurant", "cuisine": "pizza", "name": "Tillbergakrogen"}}, {"type": "node", "id": 3677720446, "lat": 59.683745, "lon": 16.6202498, "tags": {"amenity": "restaurant", "cuisine": "kebab", "name": "Tr\u00e4ffen"}}, {"type": "node", "id": 3684728103, "lat": 59.607648, "lon": 16.551581, "tags": {"amenity": "cafe", "brand": "Espresso House", "brand:wikidata": "Q10489162", "brand:wikipedia": "en:Espresso House", "cuisine": "coffee_shop", "name": "Espresso House", "takeaway": "yes"}}, {"type": "node", "id": 3700798626, "lat": 59.6365741, "lon": 17.0799315, "tags": {"amenity": "cafe", "name": "Caf\u00e9 Samt", "phone": "+46 171 27500", "shop": "musical_instrument", "website": "https://www.cafesamt.se"}}, {"type": "node", "id": 3702636280, "lat": 59.631773, "lon": 17.076519, "tags": {"addr:city": "Enk\u00f6ping", "addr:postcode": "749 35", "addr:street": "Hamngatan", "amenity": "restaurant", "name": "Hamnmagasinen", "source": "survey", "website": "https://www.hamnmagasinen.se/"}}, {"type": "node", "id": 3717475439, "lat": 59.718318, "lon": 16.427794, "tags": {"amenity": "restaurant", "name": "Eie's"}}, {"type": "node", "id": 3717475454, "lat": 59.598203, "lon": 16.512281, "tags": {"amenity": "restaurant", "cuisine": "pizza", "name": "Lorenzo"}}, {"type": "node", "id": 3717475466, "lat": 59.717978, "lon": 16.420747, "tags": {"amenity": "restaurant", "name": "Restaurang Bruksgatan 6"}}, {"type": "node", "id": 3717475486, "lat": 59.617513, "lon": 16.564586, "tags": {"amenity": "restaurant", "name": "Malmens Resturang"}}, {"type": "node", "id": 3731960746, "lat": 59.6642871, "lon": 16.5928683, "tags": {"amenity": "restaurant", "cuisine": "pizza", "name": "Dino's Pizzeria"}}, {"type": "node", "id": 3898963837, "lat": 59.634517, "lon": 17.0767884, "tags": {"amenity": "cafe", "name": "Kaf\u00e9 Systrar Tv\u00e5"}}, {"type": "node", "id": 3898963838, "lat": 59.6344651, "lon": 17.0764309, "tags": {"amenity": "cafe", "name": "Tant Gredelin"}}, {"type": "node", "id": 3898963839, "lat": 59.6356986, "lon": 17.076702, "tags": {"amenity": "cafe", "craft": "confectionery", "name": "Tammerfors"}}, {"type": "node", "id": 3917437156, "lat": 59.6121574, "lon": 16.4682844, "tags": {"addr:city": "V\u00e4ster\u00e5s", "addr:housenumber": "8", "addr:postcode": "721 38", "addr:street": "Hallsta G\u00e5rdsgata", "amenity": "restaurant", "cuisine": "burger;pizza", "name": "Br\u00f6dernas", "opening_hours": "Mo-Su 11:00-20:00", "phone": "02173040", "website": "https://www.brodernas.nu"}}, {"type": "node", "id": 3917437260, "lat": 59.6120861, "lon": 16.4680098, "tags": {"amenity": "restaurant", "cuisine": "regional", "name": "Mickes husman"}}, {"type": "node", "id": 3917437262, "lat": 59.6133424, "lon": 16.466777, "tags": {"amenity": "restaurant", "name": "Tzatziki"}}, {"type": "node", "id": 3965773314, "lat": 59.9359679, "lon": 16.8675108}, {"type": "node", "id": 3965773317, "lat": 59.9359904, "lon": 16.867979}, {"type": "node", "id": 3965773324, "lat": 59.9360705, "lon": 16.8679637}, {"type": "node", "id": 3965773325, "lat": 59.9360727, "lon": 16.868008}, {"type": "node", "id": 3965773337, "lat": 59.9361605, "lon": 16.8674739}, {"type": "node", "id": 3965773338, "lat": 59.9361681, "lon": 16.8676328}, {"type": "node", "id": 3965773339, "lat": 59.9361815, "lon": 16.8679424}, {"type": "node", "id": 3965773340, "lat": 59.9361836, "lon": 16.8679867}, {"type": "node", "id": 3965773342, "lat": 59.936187, "lon": 16.8676292}, {"type": "node", "id": 3965773343, "lat": 59.9361927, "lon": 16.8677481}, {"type": "node", "id": 3965773349, "lat": 59.9362151, "lon": 16.8677438}, {"type": "node", "id": 3965773353, "lat": 59.9362243, "lon": 16.8679342}, {"type": "node", "id": 3992249108, "lat": 59.6587676, "lon": 17.0768626}, {"type": "node", "id": 3992249109, "lat": 59.6587704, "lon": 17.0769721}, {"type": "node", "id": 3992249110, "lat": 59.6587577, "lon": 17.0770733}, {"type": "node", "id": 3992249111, "lat": 59.6586981, "lon": 17.0770479}, {"type": "node", "id": 3992249112, "lat": 59.6585096, "lon": 17.0770887}, {"type": "node", "id": 3992249114, "lat": 59.6585222, "lon": 17.0769765}, {"type": "node", "id": 3992249115, "lat": 59.6584921, "lon": 17.076898}, {"type": "node", "id": 3992249116, "lat": 59.6586875, "lon": 17.0771687}, {"type": "node", "id": 3992249118, "lat": 59.6586433, "lon": 17.0771381, "tags": {"entrance": "yes"}}, {"type": "node", "id": 3992249119, "lat": 59.6585916, "lon": 17.0771984}, {"type": "node", "id": 3992249120, "lat": 59.6585658, "lon": 17.0771032}, {"type": "node", "id": 3992249121, "lat": 59.6585402, "lon": 17.0768466}, {"type": "node", "id": 3992249122, "lat": 59.6585448, "lon": 17.0767417}, {"type": "node", "id": 3992249123, "lat": 59.6586016, "lon": 17.0767605}, {"type": "node", "id": 3992249124, "lat": 59.6586661, "lon": 17.0766723}, {"type": "node", "id": 3992249125, "lat": 59.6587039, "lon": 17.0767019}, {"type": "node", "id": 3992249126, "lat": 59.6587381, "lon": 17.0767787}, {"type": "node", "id": 4022228314, "lat": 59.6377549, "lon": 17.0659041, "tags": {"amenity": "restaurant", "cuisine": "pizza", "name": "Picasso"}}, {"type": "node", "id": 4179513491, "lat": 59.5915288, "lon": 16.2475394, "tags": {"amenity": "restaurant", "name": "Hallsta krog"}}, {"type": "node", "id": 4382972281, "lat": 59.643288, "lon": 17.0867165, "tags": {"amenity": "restaurant", "name": "Drottningens pizzeria", "opening_hours": "Mo-Fr 10:30-21:00; Sa,Su 12:00-21:00"}}, {"type": "node", "id": 4386911819, "lat": 59.6438993, "lon": 17.0869887, "tags": {"amenity": "cafe", "name": "Konditori Drott"}}, {"type": "node", "id": 4386982271, "lat": 59.6427376, "lon": 17.0692357, "tags": {"amenity": "restaurant", "name": "Saby jay thaimat"}}, {"type": "node", "id": 4395397991, "lat": 59.648208, "lon": 17.0853855, "tags": {"amenity": "restaurant", "cuisine": "regional", "delivery": "no", "name": "Landars K\u00f6k & Bar", "opening_hours": "Mo-Fr 10:00-15:00", "smoking": "no", "takeaway": "yes"}}, {"type": "node", "id": 4397693234, "lat": 59.6398296, "lon": 17.0612525, "tags": {"amenity": "restaurant", "name": "Thairestaurang"}}, {"type": "node", "id": 4400970064, "lat": 59.6369315, "lon": 17.0671065, "tags": {"amenity": "restaurant", "name": "Restaurang Sarajevo"}}, {"type": "node", "id": 4455557872, "lat": 59.9205279, "lon": 16.5994581}, {"type": "node", "id": 4455557873, "lat": 59.9204297, "lon": 16.5996056}, {"type": "node", "id": 4455557874, "lat": 59.9203027, "lon": 16.5994635}, {"type": "node", "id": 4455557876, "lat": 59.9203336, "lon": 16.5993441}, {"type": "node", "id": 4455557877, "lat": 59.920425, "lon": 16.5994461}, {"type": "node", "id": 4455558104, "lat": 59.9204534, "lon": 16.599254}, {"type": "node", "id": 4731921674, "lat": 59.6015281, "lon": 16.576018, "tags": {"amenity": "cafe", "name": "\u00d6hrman\u015b caf\u00e9"}}, {"type": "node", "id": 4731921677, "lat": 59.6010094, "lon": 16.5762395, "tags": {"amenity": "restaurant", "name": "Bryggans bar och caf\u00e9", "website": "https://www.bryggans.se/"}}, {"type": "node", "id": 4731921681, "lat": 59.599781, "lon": 16.5789351, "tags": {"amenity": "restaurant", "cuisine": "pizza", "name": "M\u00e4larparkens pizzeria"}}, {"type": "node", "id": 4924483609, "lat": 59.6118148, "lon": 16.563108, "tags": {"addr:country": "SE", "addr:housenumber": "2", "addr:street": "Bj\u00f6rn\u00f6v\u00e4gen", "amenity": "cafe", "name": "Sportk\u00f6ket", "opening_hours": "Mo-Fr 11:00-14:30"}}, {"type": "node", "id": 4930785264, "lat": 59.6196223, "lon": 16.4612335}, {"type": "node", "id": 4930785276, "lat": 59.6105107, "lon": 16.5474594, "tags": {"addr:city": "V\u00e4ster\u00e5s", "addr:country": "SE", "addr:housenumber": "7", "addr:postcode": "722 13", "addr:street": "Sturegatan", "amenity": "restaurant", "cuisine": "sushi", "name": "Sushi Yama", "opening_hours": "Mo-Th 10:00-19:00, Fr 10:00-20:00, Sa 11:00-17:00, Su 12:00-17:00", "phone": "+4621-338 03 46", "website": "https://www.sushiyama.se/"}}, {"type": "node", "id": 4998390760, "lat": 59.9201161, "lon": 16.6052369, "tags": {"addr:city": "Sala", "addr:country": "SE", "addr:housenumber": "7 B", "addr:postcode": "73330", "addr:street": "Stora Torget", "amenity": "restaurant", "capacity": "50", "cuisine": "regional", "name": "Restaurang Stora Torget", "opening_hours": "Mo-Sa 11:00-23:00", "outdoor_seating": "yes", "phone": "+46 224 12900", "smoking": "no", "takeaway": "no"}}, {"type": "node", "id": 4998427021, "lat": 59.9187879, "lon": 16.6077745, "tags": {"addr:city": "Sala", "addr:country": "SE", "addr:housenumber": "26", "addr:postcode": "73331", "addr:street": "Brunnsgatan", "amenity": "restaurant", "capacity": "100", "cuisine": "regional;steak_house", "name": "Mat & Prat, Norrmanska G\u00e5rden", "opening_hours": "Mo-Tu 11:00-21:00; We-Th 11:00-22:00; Fr 11:00-01:00; Sa 12:00-01:00; Su closed", "outdoor_seating": "yes", "phone": "+46 224 103 50"}}, {"type": "node", "id": 4998561662, "lat": 59.9214349, "lon": 16.6092653, "tags": {"amenity": "restaurant", "cuisine": "chinese;japanese", "name": "Amitai"}}, {"type": "node", "id": 5010051694, "lat": 59.9069086, "lon": 16.5742296}, {"type": "node", "id": 5010051695, "lat": 59.9068494, "lon": 16.5739721}, {"type": "node", "id": 5010051696, "lat": 59.9069658, "lon": 16.5738657}, {"type": "node", "id": 5010051697, "lat": 59.907025, "lon": 16.5741232}, {"type": "node", "id": 5043742812, "lat": 59.5681046, "lon": 16.8590132}, {"type": "node", "id": 5043742813, "lat": 59.5680546, "lon": 16.8594748}, {"type": "node", "id": 5043742814, "lat": 59.568142, "lon": 16.8595147}, {"type": "node", "id": 5043742815, "lat": 59.5681959, "lon": 16.8590549}, {"type": "node", "id": 5111617521, "lat": 59.6024836, "lon": 16.4853801, "tags": {"amenity": "restaurant", "name": "La Siesta", "opening_hours": "Mo-Su 11:00-21:00", "phone": "+46 21 300760", "website": "https://www.lasiesta.nu/"}}, {"type": "node", "id": 5265300103, "lat": 59.5453983, "lon": 16.2508722}, {"type": "node", "id": 5265300104, "lat": 59.5454191, "lon": 16.2509419}, {"type": "node", "id": 5265300105, "lat": 59.545472, "lon": 16.2511193}, {"type": "node", "id": 5265300106, "lat": 59.5455911, "lon": 16.251519}, {"type": "node", "id": 5265300107, "lat": 59.5456324, "lon": 16.2514711}, {"type": "node", "id": 5265300108, "lat": 59.5457958, "lon": 16.2512816}, {"type": "node", "id": 5265300109, "lat": 59.5457422, "lon": 16.2511015}, {"type": "node", "id": 5265300110, "lat": 59.5457114, "lon": 16.2509981}, {"type": "node", "id": 5265300111, "lat": 59.545685, "lon": 16.2510287}, {"type": "node", "id": 5265300112, "lat": 59.5456109, "lon": 16.2507801}, {"type": "node", "id": 5265300113, "lat": 59.5455912, "lon": 16.250803}, {"type": "node", "id": 5265300114, "lat": 59.5455817, "lon": 16.2507712}, {"type": "node", "id": 5265300115, "lat": 59.5455634, "lon": 16.2507924}, {"type": "node", "id": 5265300116, "lat": 59.5455387, "lon": 16.2507094}, {"type": "node", "id": 5595759727, "lat": 59.8620062, "lon": 16.4556463}, {"type": "node", "id": 5595759728, "lat": 59.8618957, "lon": 16.4556426}, {"type": "node", "id": 5595759729, "lat": 59.8618957, "lon": 16.4556046}, {"type": "node", "id": 5595759730, "lat": 59.8618386, "lon": 16.455616}, {"type": "node", "id": 5595759731, "lat": 59.8618405, "lon": 16.4555591}, {"type": "node", "id": 5595759732, "lat": 59.8617433, "lon": 16.4555705}, {"type": "node", "id": 5595759733, "lat": 59.8617548, "lon": 16.4559384}, {"type": "node", "id": 5595759734, "lat": 59.8618462, "lon": 16.4559346}, {"type": "node", "id": 5595759735, "lat": 59.8618462, "lon": 16.4558929}, {"type": "node", "id": 5595759736, "lat": 59.8618995, "lon": 16.4558967}, {"type": "node", "id": 5595759737, "lat": 59.8619014, "lon": 16.4558512}, {"type": "node", "id": 5595759738, "lat": 59.8620138, "lon": 16.4558588}, {"type": "node", "id": 5639343651, "lat": 59.9256991, "lon": 16.5976853}, {"type": "node", "id": 5684174150, "lat": 59.9196073, "lon": 16.6049634, "tags": {"amenity": "cafe"}}, {"type": "node", "id": 5849262586, "lat": 59.5648716, "lon": 16.2330384, "tags": {"amenity": "restaurant", "cuisine": "pizza", "fixme": "Addera namn p\u00e5 pizzeria"}}, {"type": "node", "id": 5849262604, "lat": 59.6103913, "lon": 16.6133414, "tags": {"addr:country": "SE", "addr:housenumber": "3", "addr:street": "Kranbyggargatan", "amenity": "cafe", "name": "Brynolf bagare", "opening_hours": "Mo-Fr 07:00-18:00; Sa 09:00-16:00; Su 11:00-16:00", "phone": "+4621177070", "shop": "pastry", "website": "https://www.brynolf-bagare.se/"}}, {"type": "node", "id": 6155206094, "lat": 59.609434, "lon": 16.6258414}, {"type": "node", "id": 6349656571, "lat": 59.610968, "lon": 16.5513622, "tags": {"amenity": "restaurant", "name": "H\u00f6rnet Officern"}}, {"type": "node", "id": 6708249915, "lat": 59.9320532, "lon": 16.9643533, "tags": {"addr:city": "Morgong\u00e5va", "addr:country": "SE", "addr:housenumber": "32", "addr:postcode": "74451", "addr:street": "Nya Uppsalav\u00e4gen", "amenity": "restaurant", "cuisine": "pizza;kebab;hamburgare;sallad", "description": "Pizzor, kebab, burgare etc. Gungor f\u00f6r barnen p\u00e5 baksidan.", "name": "G\u00e5vans Pizzeria", "opening_hours": "Mo-Su 11:00-21:00", "phone": "+46224-60737"}}, {"type": "node", "id": 6708249916, "lat": 59.9332004, "lon": 16.9578228, "tags": {"amenity": "cafe", "cuisine": "godis;glass;fika;post;Spel", "name": "Candystore"}}, {"type": "node", "id": 6708249917, "lat": 59.9331393, "lon": 16.9564608, "tags": {"amenity": "restaurant", "name": "MY K\u00f6k och Bar"}}, {"type": "node", "id": 6708249918, "lat": 59.9346547, "lon": 16.957648, "tags": {"amenity": "restaurant", "name": "Pee Cham Thaimat"}}, {"type": "node", "id": 6708254156, "lat": 59.9321487, "lon": 16.9771137}, {"type": "node", "id": 6708254157, "lat": 59.9326888, "lon": 16.9752669}, {"type": "node", "id": 6708254158, "lat": 59.93194, "lon": 16.9764717}, {"type": "node", "id": 6724693143, "lat": 59.5679497, "lon": 16.859292}, {"type": "node", "id": 6724693144, "lat": 59.5679347, "lon": 16.8594201}, {"type": "node", "id": 6724693145, "lat": 59.5680203, "lon": 16.8593242}, {"type": "node", "id": 6724693146, "lat": 59.5680457, "lon": 16.8591073}, {"type": "node", "id": 6724693147, "lat": 59.5680912, "lon": 16.8591281}, {"type": "node", "id": 6791386377, "lat": 59.6027513, "lon": 16.5500021, "tags": {"addr:city": "V\u00e4ster\u00e5s", "addr:country": "SE", "addr:housenumber": "1-3", "addr:postcode": "722 10", "addr:street": "F\u00e4rjkajen, kajplats", "amenity": "restaurant", "cuisine": "regional", "email": "bokning@pramenvasteras.se", "lunch": "yes", "name": "Pr\u00e5men", "opening_hours": "Mo-Tu 11:00-14:00; We-Th 11:00-14:00,17:00-23:00; Fr 11:00-14:00,17:00-24:00; Sa 16:00-24:00", "phone": "+46 21 448 49 99", "reservation": "recommended", "website": "https://pramenvasteras.se/", "wheelchair": "yes"}}, {"type": "node", "id": 6822045261, "lat": 59.619472, "lon": 16.4614954}, {"type": "node", "id": 6822045262, "lat": 59.6196852, "lon": 16.4611237}, {"type": "node", "id": 6822045263, "lat": 59.6196074, "lon": 16.4609493}, {"type": "node", "id": 6822045264, "lat": 59.619394, "lon": 16.461321}, {"type": "node", "id": 6840521190, "lat": 59.9182295, "lon": 16.6124481}, {"type": "node", "id": 6840521191, "lat": 59.9181728, "lon": 16.6126888}, {"type": "node", "id": 6840521192, "lat": 59.9180878, "lon": 16.6126135}, {"type": "node", "id": 6840521193, "lat": 59.9181409, "lon": 16.6123648}, {"type": "node", "id": 6904700626, "lat": 59.9181303, "lon": 16.6126511}, {"type": "node", "id": 6915448945, "lat": 59.9282992, "lon": 16.5673991}, {"type": "node", "id": 6915448946, "lat": 59.9281894, "lon": 16.5673472}, {"type": "node", "id": 6915448947, "lat": 59.9281552, "lon": 16.5676355}, {"type": "node", "id": 6915448948, "lat": 59.928265, "lon": 16.5676874}, {"type": "node", "id": 7005004108, "lat": 59.563391, "lon": 16.2295857}, {"type": "node", "id": 7005004109, "lat": 59.5634684, "lon": 16.2294758}, {"type": "node", "id": 7005004110, "lat": 59.5634046, "lon": 16.2292719}, {"type": "node", "id": 7005004111, "lat": 59.5633162, "lon": 16.2293873}, {"type": "node", "id": 7159469086, "lat": 59.6357674, "lon": 17.078577, "tags": {"addr:city": "Enk\u00f6ping", "addr:country": "SE", "addr:housenumber": "24", "addr:street": "Torggatan", "amenity": "restaurant", "check_date": "2020-01-25", "cuisine": "tapas", "name": "Caliente Tapas Bar", "website": "https://www.caliente.se/enkoping"}}, {"type": "node", "id": 7161128885, "lat": 59.6352034, "lon": 17.0792207, "tags": {"amenity": "restaurant", "cuisine": "sushi", "name": "ESA Sushi Bar"}}, {"type": "node", "id": 7171203698, "lat": 59.6138543, "lon": 16.22764, "tags": {"amenity": "restaurant", "cuisine": "pizza", "name": "Pizzeria Maistro"}}, {"type": "node", "id": 7171203699, "lat": 59.6108828, "lon": 16.2367736, "tags": {"amenity": "restaurant", "cuisine": "pizza", "name": "Pizzeria Milano"}}, {"type": "node", "id": 7200884919, "lat": 59.6095777, "lon": 16.4533126, "tags": {"addr:city": "V\u00e4ster\u00e5s", "addr:country": "SE", "addr:housenumber": "17", "addr:postcode": "721 38", "addr:street": "Krankroksgatan", "amenity": "restaurant", "cuisine": "sushi", "name": "Sushi Yama", "opening_hours": "Mo-Fr 10:00-20:00; Sa-Su 10:00-18:00", "phone": "+46 21 13 42 44", "website": "https://www.sushiyama.se/"}}, {"type": "node", "id": 7200932379, "lat": 59.6167748, "lon": 16.4625286, "tags": {"addr:city": "V\u00e4ster\u00e5s", "addr:country": "SE", "addr:housenumber": "12", "addr:postcode": "721 38", "addr:street": "Traversgatan", "amenity": "restaurant", "cuisine": "sushi", "name": "Sushi Yama Express", "opening_hours": "Mo-Su 10:00-21:00", "phone": "+46 21 448 52 63", "website": "https://www.sushiyama.se/"}}, {"type": "node", "id": 7200950867, "lat": 59.6093908, "lon": 16.620491, "tags": {"addr:city": "V\u00e4ster\u00e5s", "addr:country": "SE", "addr:housenumber": "134", "addr:postcode": "721 34", "addr:street": "Stockholmsv\u00e4gen", "amenity": "restaurant", "cuisine": "sushi", "name": "Sushi Yama Express", "opening_hours": "Mo-Su 10:00-21:00", "phone": "+46 21 448 52 66", "website": "https://www.sushiyama.se/"}}, {"type": "node", "id": 7274590872, "lat": 59.6194718, "lon": 16.4611858}, {"type": "node", "id": 7274590873, "lat": 59.6194929, "lon": 16.4611485}, {"type": "node", "id": 7274590874, "lat": 59.6194446, "lon": 16.4614341}, {"type": "node", "id": 7274590875, "lat": 59.6194257, "lon": 16.4613922}, {"type": "node", "id": 7274590876, "lat": 59.6195436, "lon": 16.4613705}, {"type": "node", "id": 7274590877, "lat": 59.6195188, "lon": 16.461414}, {"type": "node", "id": 7274590878, "lat": 59.6196404, "lon": 16.4612016}, {"type": "node", "id": 7274590879, "lat": 59.6196347, "lon": 16.4612611}, {"type": "node", "id": 7274590880, "lat": 59.6196529, "lon": 16.4612295}, {"type": "node", "id": 7274590881, "lat": 59.6195288, "lon": 16.4614363}, {"type": "node", "id": 7274590882, "lat": 59.6195536, "lon": 16.461393}, {"type": "node", "id": 7274590883, "lat": 59.6194344, "lon": 16.4614517}, {"type": "node", "id": 7274590884, "lat": 59.6194157, "lon": 16.4614097}, {"type": "node", "id": 7274590885, "lat": 59.6194572, "lon": 16.4611531}, {"type": "node", "id": 7274590886, "lat": 59.6194784, "lon": 16.4611161}, {"type": "node", "id": 7291127045, "lat": 59.9381935, "lon": 16.864393}, {"type": "node", "id": 7291127047, "lat": 59.9380214, "lon": 16.8646542}, {"type": "node", "id": 7291127048, "lat": 59.9380787, "lon": 16.8644758}, {"type": "node", "id": 7291127049, "lat": 59.9380558, "lon": 16.8644569}, {"type": "node", "id": 7291127050, "lat": 59.9380725, "lon": 16.864376}, {"type": "node", "id": 7291127051, "lat": 59.9380999, "lon": 16.8643986}, {"type": "node", "id": 7291127052, "lat": 59.9381145, "lon": 16.8643279}, {"type": "node", "id": 7414509409, "lat": 59.6104468, "lon": 16.5464545, "tags": {"amenity": "cafe", "brand": "Caff\u00e8 Nero", "brand:wikidata": "Q675808", "bulk_purchase": "yes", "cuisine": "coffee_shop", "name": "Caff\u00e8 Nero", "takeaway": "yes"}}, {"type": "node", "id": 7629714003, "lat": 59.7131342, "lon": 17.0852992, "tags": {"amenity": "cafe", "name": "H\u00e4rnevi plantskola"}}, {"type": "node", "id": 7705438863, "lat": 59.6242612, "lon": 16.5513834, "tags": {"amenity": "cafe", "name": "Runes caf\u00e9"}}, {"type": "node", "id": 7798568289, "lat": 59.9474431, "lon": 16.2770781}, {"type": "node", "id": 7798568290, "lat": 59.9473593, "lon": 16.2774117}, {"type": "node", "id": 7798568291, "lat": 59.9473984, "lon": 16.2774509}, {"type": "node", "id": 7798568292, "lat": 59.9473379, "lon": 16.2776919}, {"type": "node", "id": 7798568293, "lat": 59.9474852, "lon": 16.2778394}, {"type": "node", "id": 7798568294, "lat": 59.9476295, "lon": 16.2772647}, {"type": "node", "id": 7969324647, "lat": 59.6359293, "lon": 16.5451521, "tags": {"addr:city": "V\u00e4ster\u00e5s", "addr:housenumber": "23", "addr:postcode": "722 23", "addr:street": "Norrleden", "amenity": "restaurant", "cuisine": "asian;japanese;chinese;sushi", "drive_in": "yes", "name": "ChopChop Gryta", "opening_hours": "Mo-Fr 10:30-21:00; Sa-Su 11:00-21:00", "phone": "+46 21 4755709", "takeaway": "yes", "website": "https://chopchop.se/restaurants/gryta/"}}, {"type": "node", "id": 7990946552, "lat": 59.601466, "lon": 16.6960269, "tags": {"amenity": "restaurant", "cuisine": "pizza", "name": "Irsta Pizzeria", "opening_hours": "Mo-Th 11:00-21:00; Fr 11:00-22:00; Sa-Su 12:00-21:00", "phone": "+46-(0)21-20900"}}, {"type": "node", "id": 8938142340, "lat": 59.6165972, "lon": 16.4627635, "tags": {"amenity": "restaurant", "cuisine": "pizza", "name": "Pitzerian", "website": "http://www.pitzerianv\u00e4ster\u00e5s.se/"}}, {"type": "node", "id": 8972213761, "lat": 59.6043702, "lon": 16.5586425, "tags": {"amenity": "restaurant", "cuisine": "pizza", "name": "Lill\u00e5Uddens krog"}}, {"type": "node", "id": 8972220037, "lat": 59.6041194, "lon": 16.5584237, "tags": {"addr:street": "Verksgatan 15", "amenity": "restaurant", "cuisine": "sushi", "name": "Udden Japanese Cuisine", "opening_hours": "Mo-Th 11:30-20:00; Fr 11:30-21:00; Sa 12:00-21:00; Su 12:00-19:00", "phone": "+4621-4448606", "website": "https://www.uddenvasteras.se/"}}, {"type": "node", "id": 8998421459, "lat": 59.6347783, "lon": 17.0776932, "tags": {"amenity": "restaurant", "name": "Lilla Japan sushi"}}, {"type": "node", "id": 8998423272, "lat": 59.634835, "lon": 17.0777906, "tags": {"amenity": "restaurant", "name": "Bombance"}}, {"type": "node", "id": 9105516717, "lat": 59.6427205, "lon": 17.0688262, "tags": {"amenity": "cafe", "name": "Ayla Caf\u00e9"}}, {"type": "node", "id": 9105517721, "lat": 59.6426678, "lon": 17.0693488, "tags": {"amenity": "restaurant", "cuisine": "pizza", "name": "Enk\u00f6pings Pizzeria"}}, {"type": "node", "id": 9192289262, "lat": 59.6365578, "lon": 16.5383731, "tags": {"amenity": "restaurant", "cuisine": "fish;pizza"}}, {"type": "node", "id": 9346907326, "lat": 59.9256322, "lon": 16.5976286}, {"type": "node", "id": 9346907327, "lat": 59.9255975, "lon": 16.5977919}, {"type": "node", "id": 9346907328, "lat": 59.9256645, "lon": 16.5978485}, {"type": "node", "id": 9354110738, "lat": 59.5919975, "lon": 16.5137823, "tags": {"addr:street": "Slakterigatan", "amenity": "restaurant", "contact:instagram": "ribhaus", "name": "Ribhaus Hamburgare", "name:en": "Ribhaus Hamburgers", "opening_hours": "Tu-Fr 11:00-20:00; Sa-Su 11:00-16:00", "phone": "+46722042781", "website": "https://www.ribhaus.com/"}}, {"type": "node", "id": 9354110739, "lat": 59.5914517, "lon": 16.5148845, "tags": {"addr:street": "Slakterigatan", "amenity": "restaurant", "name": "Nora's Pizzeria", "opening_hours": "Tu-Th 11:00-15:00; Fr 11:00-20:00; Sa-Su 11:00-16:00", "phone": "+467384497383", "website": "https://www.norasvst.com/"}}, {"type": "node", "id": 9997742778, "lat": 59.6117161, "lon": 16.5472285, "tags": {"amenity": "restaurant", "cuisine": "asian", "name": "YumYum", "website": "https://yumyum.se/"}}, {"type": "node", "id": 9997760373, "lat": 59.61254, "lon": 16.5401658, "tags": {"amenity": "cafe", "name": "Caf\u00e9 Malin"}}, {"type": "node", "id": 10089774977, "lat": 59.6161811, "lon": 16.5569046, "tags": {"addr:city": "V\u00e4ster\u00e5s", "addr:country": "SE", "addr:housenumber": "4", "addr:postcode": "72130", "addr:street": "Kopparlundsv\u00e4gen", "amenity": "restaurant", "name": "Heat Kopparlunden"}}, {"type": "node", "id": 10089774978, "lat": 59.6085834, "lon": 16.624039, "tags": {"addr:city": "V\u00e4ster\u00e5s", "addr:country": "SE", "addr:housenumber": "144", "addr:postcode": "721 34", "addr:street": "Stockholmsv\u00e4gen", "addr:unit": "A", "amenity": "restaurant", "cuisine": "asian", "name": "Spicy Hot H\u00e4lla", "opening_hours": "Mo-Su 10:30-21:00"}}, {"type": "node", "id": 10231800978, "lat": 59.6165951, "lon": 16.2246403}, {"type": "node", "id": 10231800979, "lat": 59.6165228, "lon": 16.2247341}, {"type": "node", "id": 10231800980, "lat": 59.6165631, "lon": 16.2248607}, {"type": "node", "id": 10281903211, "lat": 59.6132037, "lon": 16.4654567, "tags": {"amenity": "restaurant", "cuisine": "asian", "name": "YUM YUM", "outdoor_seating": "no", "takeaway": "yes"}}, {"type": "node", "id": 10749364907, "lat": 59.6101916, "lon": 16.5420195, "tags": {"addr:housenumber": "2", "addr:street": "Kungsgatan", "amenity": "cafe", "name": "Maria Therese - Ett litet bageri"}}, {"type": "node", "id": 10814132318, "lat": 59.5948092, "lon": 16.4926389, "tags": {"addr:city": "V\u00e4ster\u00e5s", "addr:housenumber": "4", "addr:postcode": "721 33", "addr:street": "Gjutj\u00e4rnsgatan", "amenity": "restaurant", "building": "no", "cuisine": "syrian", "description": "Permanent food truck", "name": "Fahdoo", "opening_hours": "Mo-Fr 11:00-19:00; Sa-Su 12:00-19:00", "phone": "+46 72 842 75 60"}}, {"type": "node", "id": 10896140456, "lat": 59.9200885, "lon": 16.6076642, "tags": {"amenity": "cafe", "brand": "Wayne's Coffee", "brand:wikidata": "Q2637272", "cuisine": "coffee_shop", "name": "Wayne's coffee", "takeaway": "yes"}}, {"type": "node", "id": 10960996872, "lat": 59.9391653, "lon": 16.8605741, "tags": {"amenity": "restaurant"}}, {"type": "node", "id": 10964842068, "lat": 59.9169394, "lon": 16.616938}, {"type": "node", "id": 10964842069, "lat": 59.9169751, "lon": 16.6173033}, {"type": "node", "id": 10964842070, "lat": 59.9168546, "lon": 16.6173501}, {"type": "node", "id": 10964842071, "lat": 59.916819, "lon": 16.6169848}, {"type": "node", "id": 11016477705, "lat": 59.6218875, "lon": 16.5362276, "tags": {"addr:housenumber": "58", "addr:postcode": "722 18", "addr:street": "Vasagatan", "amenity": "restaurant", "cuisine": "japanese;sushi", "name": "Orgil Sushi Vasagatan", "opening_hours": "Mo-Fr 11:00-20:00; Sa-Su 12:00-20:00", "phone": "+46 21 33 33 15", "website": "https://www.orgilsushi.com/vasagatan"}}, {"type": "node", "id": 11033974951, "lat": 59.9320813, "lon": 16.9751112}, {"type": "node", "id": 11033980946, "lat": 59.9320122, "lon": 16.9767731}, {"type": "node", "id": 11033980950, "lat": 59.9325299, "lon": 16.976201}, {"type": "node", "id": 11033980961, "lat": 59.9327702, "lon": 16.9762057}, {"type": "node", "id": 11033980962, "lat": 59.9330031, "lon": 16.9757407}, {"type": "node", "id": 11033980963, "lat": 59.9330725, "lon": 16.9750479}, {"type": "node", "id": 11033980964, "lat": 59.9327415, "lon": 16.9748279}, {"type": "node", "id": 11070059524, "lat": 59.6093099, "lon": 16.5435983, "tags": {"amenity": "bar", "check_date": "2023-07-26", "level": "0", "name": "Bar&mat"}}, {"type": "node", "id": 11070128802, "lat": 59.6029182, "lon": 16.5501282, "tags": {"addr:city": "V\u00e4ster\u00e5s", "addr:country": "SE", "addr:housenumber": "1-3", "addr:postcode": "722 10", "addr:street": "F\u00e4rjkajen", "amenity": "restaurant", "check_date": "2023-07-26", "email": "bokning@pramenvasteras.se", "lunch": "yes", "name": "Magsinet", "phone": "+46 21 448 49 99", "website": "https://magasinetvasteras.se"}}, {"type": "node", "id": 11070190005, "lat": 59.6116485, "lon": 16.5442726, "tags": {"amenity": "cafe", "breakfast": "yes", "changing_table": "no", "check_date": "2023-07-26", "drinking_water:refill": "yes", "email": "anna@systrarna.net", "indoor_seating": "yes", "kids_area": "no", "level": "1", "name": "Systrarna", "official_name": "Systrarna Ericsson AB", "opening_hours": "Mo-Fr 10:00-19:00; Sa 10:00-17:00; Su 12:00-17:00", "payment:cash": "yes", "payment:credit_cards": "yes", "payment:debit_cards": "yes", "reusable_packaging:offer": "yes", "toilets": "no", "website": "https://systrarna.net"}}, {"type": "node", "id": 11071694521, "lat": 59.937186, "lon": 16.8692224, "tags": {"addr:city": "Heby", "addr:housenumber": "2A", "addr:postcode": "74431", "addr:street": "Ytterv\u00e4gen", "amenity": "restaurant", "cuisine": "pizza", "name": "Heby Pizzeria"}}, {"type": "node", "id": 11096440183, "lat": 59.9381222, "lon": 16.8647374}, {"type": "node", "id": 11096440184, "lat": 59.9380379, "lon": 16.8645745}, {"type": "node", "id": 11096440185, "lat": 59.9380553, "lon": 16.8645889}, {"type": "node", "id": 11098571411, "lat": 59.9203984, "lon": 16.599331}, {"type": "node", "id": 11098571412, "lat": 59.9204352, "lon": 16.5994319}, {"type": "node", "id": 11152532721, "lat": 59.6991668, "lon": 16.246693}, {"type": "node", "id": 11152532722, "lat": 59.6990532, "lon": 16.2467074}, {"type": "node", "id": 11152532723, "lat": 59.6990624, "lon": 16.2469898}, {"type": "node", "id": 11152532724, "lat": 59.6990447, "lon": 16.2470692}, {"type": "node", "id": 11152532725, "lat": 59.6990482, "lon": 16.2471789}, {"type": "node", "id": 11152532726, "lat": 59.6990647, "lon": 16.247235}, {"type": "node", "id": 11152532727, "lat": 59.6991001, "lon": 16.2472747}, {"type": "node", "id": 11152532728, "lat": 59.6991331, "lon": 16.2472817}, {"type": "node", "id": 11152532729, "lat": 59.6991955, "lon": 16.2472093}, {"type": "node", "id": 11152532730, "lat": 59.6993247, "lon": 16.2471929}, {"type": "node", "id": 11152532731, "lat": 59.6993177, "lon": 16.2469771}, {"type": "node", "id": 11152532732, "lat": 59.6991765, "lon": 16.246995}, {"type": "node", "id": 11172416426, "lat": 59.6136527, "lon": 16.4686072, "tags": {"addr:city": "V\u00e4ster\u00e5s", "addr:housenumber": "10", "addr:postcode": "721 38", "addr:street": "Traversgatan", "amenity": "restaurant", "cuisine": "sushi;japanese;poke", "drive_through": "no", "email": "erikslund@ikosushi.se", "level": "0", "name": "Iko sushi", "opening_hours": "Mo-Su 10:30-21:00", "phone": "+46 21 810120", "takeaway": "yes", "website": "https://www.ikosushi.se/", "website:menu": "https://www.ikosushi.se/meny/"}}, {"type": "node", "id": 11172416428, "lat": 59.6135618, "lon": 16.4683933, "tags": {"addr:city": "V\u00e4ster\u00e5s", "addr:housenumber": "10", "addr:postcode": "721 38", "addr:street": "Traversgatan", "amenity": "restaurant", "contact:facebook": "https://www.facebook.com/Phooddistrict", "cuisine": "vietnamese", "email": "hej@wordpress-829844-2940625.cloudwaysapps.com", "level": "0", "name": "Phood District", "opening_hours": "Mo\u2013Su 11:00\u201321:00", "phone": "+46 21 312131", "website": "https://www.phooddistrict.se/", "website:menu": "https://www.phooddistrict.se/meny/"}}, {"type": "node", "id": 11172416430, "lat": 59.6135115, "lon": 16.4682106, "tags": {"addr:city": "V\u00e4ster\u00e5s", "addr:housenumber": "10", "addr:postcode": "721 38", "addr:street": "Traversgatan", "amenity": "restaurant", "contact:facebook": "https://www.facebook.com/SpicyHotSverige/", "cuisine": "asian", "drive_through": "yes", "level": "0", "name": "Spicy Hot", "opening_hours": "Mo-Su 10:30-21:00", "phone": "+46 21 811211", "takeaway": "yes", "website": "https://www.spicyhot.se/", "website:menu": "https://www.spicyhot.se/menyer/"}}, {"type": "node", "id": 11174484611, "lat": 59.6585418, "lon": 17.076811, "tags": {"entrance": "yes"}}, {"type": "node", "id": 11174484613, "lat": 59.6586137, "lon": 17.0766632}, {"type": "node", "id": 11290585780, "lat": 59.6396582, "lon": 16.5637339, "tags": {"addr:city": "V\u00e4ster\u00e5s", "addr:housenumber": "5", "addr:postcode": "721 37", "addr:street": "Str\u00f6mledningsgatan", "amenity": "restaurant", "name": "Mickes Husman", "website": "https://mickeshusman.se/catering/"}}, {"type": "node", "id": 11364271203, "lat": 59.9034164, "lon": 17.0629709}, {"type": "node", "id": 11364271204, "lat": 59.9032801, "lon": 17.0630202}, {"type": "node", "id": 11364271205, "lat": 59.9032604, "lon": 17.0628039}, {"type": "node", "id": 11364271206, "lat": 59.9033967, "lon": 17.0627546}, {"type": "way", "id": 95152461, "nodes": [1103823506, 1103823318, 1103823055, 1103823528, 1103823379, 1103823261, 1103822957, 1103823486, 1103823412, 1103823292, 1103823042, 1103823515, 1103823506], "tags": {"addr:city": "V\u00e4ster\u00e5s", "addr:country": "SE", "addr:housenumber": "10", "addr:postcode": "724 61", "addr:street": "Dj\u00e4knebergsgatan", "amenity": "restaurant", "building": "yes", "cuisine": "regional", "name": "Dj\u00e4knebergets restaurang", "website": "https://www.djakneberget.se/"}}, {"type": "way", "id": 95164396, "nodes": [1668557598, 1668557585, 1668557580, 1668557583, 1668557579, 1668557577, 1668557557, 1668557570, 1668557552, 1668557551, 1668557548, 1668557546, 1668557519, 1668557521, 1103962786, 1103962843, 1103962978, 1103963041, 1103962869, 1103963216, 1103963146, 1103962956, 1668557598], "tags": {"amenity": "restaurant", "building": "yes", "name": "Ya mal al shamal"}}, {"type": "way", "id": 95194901, "nodes": [1104336183, 1104336208, 1104336159, 1104336196, 1104336183], "tags": {"amenity": "restaurant", "building": "yes", "name": "\u00d6krogen Elba", "source": "Bing", "website": "https://www.roomsupport.se/"}}, {"type": "way", "id": 96384011, "nodes": [1116968501, 1116968571, 1116968491, 1116968386, 1116968501], "tags": {"amenity": "restaurant", "building": "yes", "cuisine": "regional", "source": "Bing"}}, {"type": "way", "id": 159080600, "nodes": [1711800935, 1711800931, 1711800932, 1711800924, 1711800927, 1711800933, 6155206094, 1711800939, 1711800938, 1711800942, 1711800940, 1711800936, 1711800935], "tags": {"amenity": "restaurant", "branch": "H\u00e4lla", "brand": "Pizza Hut", "brand:wikidata": "Q191615", "building": "yes", "cuisine": "pizza", "name": "Pizza Hut", "operator": "Pizza Hut"}}, {"type": "way", "id": 160041599, "nodes": [1721028228, 1721028237, 1721028242, 1721028238, 1721028228], "tags": {"amenity": "restaurant", "building": "yes", "name": "Matstugan"}}, {"type": "way", "id": 348885737, "nodes": [3549320041, 3549320042, 3549320043, 3549320044, 3549320041], "tags": {"addr:country": "SE", "addr:housenumber": "5", "addr:street": "Anundsh\u00f6g", "amenity": "cafe", "building": "yes", "contact:email": "ingrid.jonsson@vasteras.se", "contact:phone": "+46 21 39 15 53", "contact:website": "http://www.anundshog.se/artikel.asp?strukturId=232", "cuisine": "sandwich", "internet_access": "no", "name": "Cafe Anund", "opening_hours": "We 11:00-20:00; Th,Fr,Sa,Su,PH 11:00-16:00; Jun 20 off", "smoking": "no"}}, {"type": "way", "id": 393372318, "nodes": [3965773314, 3965773337, 3965773338, 3965773342, 3965773343, 3965773349, 3965773353, 3965773339, 3965773340, 3965773325, 3965773324, 3965773317, 3965773314], "tags": {"addr:city": "Heby", "addr:housenumber": "1", "addr:postcode": "74431", "addr:street": "Brogatan", "amenity": "restaurant", "building": "yes", "name": "Heby W\u00e4rdshus", "website": "http://www.hebywardshus.se/"}}, {"type": "way", "id": 396419956, "nodes": [3992249121, 11174484611, 3992249122, 3992249123, 11174484613, 3992249124, 3992249125, 3992249126, 3992249108, 3992249109, 3992249110, 3992249111, 3992249116, 3992249118, 3992249119, 3992249120, 3992249112, 3992249114, 3992249115, 3992249121], "tags": {"amenity": "restaurant", "building": "yes", "name": "Dinners"}}, {"type": "way", "id": 448551660, "nodes": [4455558104, 4455557872, 4455557873, 4455557874, 4455557876, 4455557877, 11098571412, 11098571411, 4455558104], "tags": {"addr:city": "Sala", "addr:country": "SE", "addr:housenumber": "4", "addr:postcode": "73330", "addr:street": "Ekebygatan", "amenity": "restaurant", "building": "yes", "cuisine": "italian_pizza;pizza", "name": "H\u00f6ga Grader", "website": "http://h\u00f6gagrader.se"}}, {"type": "way", "id": 512378123, "nodes": [5010051697, 5010051694, 5010051695, 5010051696, 5010051697], "tags": {"amenity": "restaurant", "building": "yes", "name": "V\u00e4rdshuset"}}, {"type": "way", "id": 516709530, "nodes": [5043742815, 5043742814, 5043742813, 6724693144, 6724693143, 6724693145, 6724693146, 6724693147, 5043742812, 5043742815], "tags": {"amenity": "restaurant", "building": "yes", "name": "V\u00e4ster\u00e5s Camping \u00c4ngs\u00f6", "website": "https://www.vasterascamping.se/"}}, {"type": "way", "id": 544712525, "nodes": [5265300103, 5265300104, 5265300105, 5265300106, 5265300107, 5265300108, 5265300109, 5265300110, 5265300111, 5265300112, 5265300113, 5265300114, 5265300115, 5265300116, 5265300103], "tags": {"amenity": "restaurant", "building": "yes", "name": "Westerqvarn"}}, {"type": "way", "id": 585581639, "nodes": [5595759727, 5595759728, 5595759729, 5595759730, 5595759731, 5595759732, 5595759733, 5595759734, 5595759735, 5595759736, 5595759737, 5595759738, 5595759727], "tags": {"amenity": "restaurant", "building": "yes", "name": "Skogsg\u00e5rden", "phone": "0224-54600", "website": "https://satrabrunn.se"}}, {"type": "way", "id": 713464431, "nodes": [6708254156, 11033980950, 11033980961, 11033980962, 11033980963, 11033980964, 6708254157, 11033974951, 1477139181, 6708254158, 11033980946, 6708254156], "tags": {"amenity": "restaurant", "landuse": "farmyard", "name": "Ramsj\u00f6g\u00e5rd"}}, {"type": "way", "id": 727989572, "nodes": [6822045264, 7274590872, 7274590885, 7274590886, 7274590873, 6822045263, 6822045262, 7274590878, 7274590880, 7274590879, 4930785264, 7274590876, 7274590882, 7274590881, 7274590877, 6822045261, 7274590874, 7274590883, 7274590884, 7274590875, 6822045264], "tags": {"amenity": "restaurant", "building": "yes", "cuisine": "asian", "name": "ChopChop Asian Express", "takeaway": "yes", "website": "https://chopchop.se/"}}, {"type": "way", "id": 730185102, "nodes": [6840521190, 6840521191, 6904700626, 6840521192, 6840521193, 6840521190], "tags": {"amenity": "restaurant", "building": "yes", "cuisine": "pizza"}}, {"type": "way", "id": 738515832, "nodes": [6915448945, 6915448946, 6915448947, 6915448948, 6915448945], "tags": {"amenity": "restaurant", "building": "yes", "name": "M\u00e5ns Ols Utv\u00e4rdshus"}}, {"type": "way", "id": 749078743, "nodes": [7005004108, 7005004109, 7005004110, 7005004111, 7005004108], "tags": {"amenity": "restaurant", "building": "yes", "cuisine": "pizza"}}, {"type": "way", "id": 780866335, "nodes": [7291127045, 11096440183, 7291127047, 11096440184, 11096440185, 7291127048, 7291127049, 7291127050, 7291127051, 7291127052, 7291127045], "tags": {"addr:housenumber": "10", "addr:street": "Kyrkogatan", "amenity": "cafe", "building": "yes", "name": "Jessans Konditori"}}, {"type": "way", "id": 835505828, "nodes": [7798568294, 7798568293, 7798568292, 7798568291, 7798568290, 7798568289, 7798568294], "tags": {"amenity": "restaurant", "building": "yes", "name": "V\u00e4sterf\u00e4rnebo restaurang och pizza"}}, {"type": "way", "id": 1013116678, "nodes": [5639343651, 9346907326, 9346907327, 9346907328, 5639343651], "tags": {"amenity": "restaurant", "building": "yes", "cuisine": "pizza"}}, {"type": "way", "id": 1118747805, "nodes": [2619993441, 10231800978, 10231800979, 10231800980, 2619993441], "tags": {"amenity": "restaurant", "building": "yes", "cuisine": "burger;kebab;pizza", "name": "Pizzeria Metropol"}}, {"type": "way", "id": 1180590545, "nodes": [10964842068, 10964842069, 10964842070, 10964842071, 10964842068], "tags": {"addr:city": "Sala", "addr:housenumber": "2", "addr:street": "V\u00e4sbygatan", "amenity": "restaurant", "building": "yes", "name": "Stekhuset i Sala"}}, {"type": "way", "id": 1203062554, "nodes": [11152532721, 11152532722, 11152532723, 11152532724, 11152532725, 11152532726, 11152532727, 11152532728, 11152532729, 11152532730, 11152532731, 11152532732, 11152532721], "tags": {"amenity": "restaurant", "building": "yes"}}, {"type": "way", "id": 1225440272, "nodes": [11364271203, 11364271204, 11364271205, 11364271206, 11364271203], "tags": {"addr:city": "Vittinge", "addr:housenumber": "2A", "addr:postcode": "74495", "addr:street": "\u00d6sbyv\u00e4gen", "amenity": "restaurant", "building": "yes", "name": "Pizzeria Vittinge"}}]}