{"version": 0.6, "generator": "Overpass API 0.7.61.5 4133829e", "osm3s": {"timestamp_osm_base": "2024-03-14T21:59:00Z", "copyright": "The data included in this document is from www.openstreetmap.org. The data is made available under ODbL."}, "elements": [{"type": "node", "id": 255860553, "lat": 57.9873841, "lon": 15.6346691, "tags": {"amenity": "cafe", "name": "Cafe Columbia"}}, {"type": "node", "id": 1375341496, "lat": 58.0146565, "lon": 15.9236195, "tags": {"amenity": "cafe"}}, {"type": "node", "id": 1769542874, "lat": 58.0153177, "lon": 15.4269389, "tags": {"amenity": "cafe", "name": "Aff\u00e4ren Svalsj\u00f6", "website": "https://www.helldorff.se/"}}, {"type": "node", "id": 1782012307, "lat": 57.9900212, "lon": 15.6345119, "tags": {"addr:country": "SE", "addr:housenumber": "25c", "addr:street": "Storgatan", "amenity": "restaurant", "cuisine": "pizza", "name": "R\u00f6da Huset"}}, {"type": "node", "id": 1833993459, "lat": 57.900425, "lon": 15.8399709, "tags": {"amenity": "cafe", "cuisine": "ice_cream", "internet_access": "no", "name": "Annas Cafe", "opening_hours": "Mo,Tu 09:00-15:00; We-Fr 09:00-17:00; Sa 09:00-13:00", "phone": "+46 494-30648", "smoking": "no", "website": "http://annascafeihorn.blogspot.de"}}, {"type": "node", "id": 2960104040, "lat": 57.9871659, "lon": 15.6329754, "tags": {"amenity": "restaurant", "name": "Capri Restaurang Pizzeria", "source": "survey"}}, {"type": "node", "id": 2981170439, "lat": 58.1221567, "lon": 15.4449372, "tags": {"amenity": "cafe", "contact:phone": "+46 706 441443", "contact:website": "http://www.amundebosodergard.se", "cuisine": "ice_cream", "name": "Amundebo S\u00f6derg\u00e5rd"}}, {"type": "node", "id": 3058801449, "lat": 57.7946121, "lon": 15.5401049}, {"type": "node", "id": 3058801450, "lat": 57.7946366, "lon": 15.5398956}, {"type": "node", "id": 3058801451, "lat": 57.7944294, "lon": 15.5398103}, {"type": "node", "id": 3058801452, "lat": 57.7944049, "lon": 15.5400196}, {"type": "node", "id": 5014703495, "lat": 57.8977383, "lon": 15.8365506, "tags": {"amenity": "restaurant", "delivery": "no", "takeaway": "no"}}, {"type": "node", "id": 5018323341, "lat": 58.1995199, "lon": 16.0011015, "tags": {"amenity": "restaurant", "cuisine": "thai"}}, {"type": "node", "id": 5063340533, "lat": 58.1391721, "lon": 15.6789228}, {"type": "node", "id": 5063340534, "lat": 58.1391204, "lon": 15.6788143}, {"type": "node", "id": 5063340535, "lat": 58.1390692, "lon": 15.6789019}, {"type": "node", "id": 5063340536, "lat": 58.1389951, "lon": 15.6787464}, {"type": "node", "id": 5063340537, "lat": 58.1387715, "lon": 15.6791292}, {"type": "node", "id": 5063340538, "lat": 58.1389102, "lon": 15.6794162}, {"type": "node", "id": 5063340539, "lat": 58.1390016, "lon": 15.6792596}, {"type": "node", "id": 5063340540, "lat": 58.1390248, "lon": 15.6793081}, {"type": "node", "id": 5063340541, "lat": 58.1391214, "lon": 15.6791427}, {"type": "node", "id": 5063340542, "lat": 58.1390864, "lon": 15.6790694}, {"type": "node", "id": 5786981357, "lat": 58.125366, "lon": 15.4340588, "tags": {"amenity": "cafe", "internet_access": "no", "opening_hours": "Mo-Fr 09:30-18:00; Sa 08:00-15:00; PH off", "smoking": "no", "wheelchair": "yes"}}, {"type": "node", "id": 6292128465, "lat": 57.9705131, "lon": 15.6184414, "tags": {"amenity": "restaurant"}}, {"type": "node", "id": 6617869520, "lat": 58.1370354, "lon": 15.6995797}, {"type": "node", "id": 6617869521, "lat": 58.13695, "lon": 15.6994467}, {"type": "node", "id": 6617869522, "lat": 58.1368816, "lon": 15.6994601}, {"type": "node", "id": 6617869523, "lat": 58.1368023, "lon": 15.699632}, {"type": "node", "id": 6617869524, "lat": 58.1368031, "lon": 15.699759}, {"type": "node", "id": 6617869525, "lat": 58.1368889, "lon": 15.6998952}, {"type": "node", "id": 6617869526, "lat": 58.1369674, "lon": 15.6999014}, {"type": "node", "id": 6617869527, "lat": 58.1370393, "lon": 15.6997342}, {"type": "node", "id": 7851549345, "lat": 58.2045791, "lon": 16.0078707}, {"type": "node", "id": 7851549346, "lat": 58.2044848, "lon": 16.0081065}, {"type": "node", "id": 7851549347, "lat": 58.2043435, "lon": 16.0079277}, {"type": "node", "id": 7851549348, "lat": 58.2044291, "lon": 16.0076756}, {"type": "node", "id": 9188675517, "lat": 58.1388755, "lon": 15.6793436}, {"type": "node", "id": 9188675518, "lat": 58.1388582, "lon": 15.6793733}, {"type": "node", "id": 9188675519, "lat": 58.1388284, "lon": 15.6793108}, {"type": "node", "id": 9188675520, "lat": 58.1388447, "lon": 15.6792828}, {"type": "node", "id": 9960130555, "lat": 58.0217834, "lon": 15.8987891}, {"type": "node", "id": 9960130556, "lat": 58.0217446, "lon": 15.8987611}, {"type": "node", "id": 9960130557, "lat": 58.0217196, "lon": 15.8988844}, {"type": "node", "id": 9960130558, "lat": 58.0217584, "lon": 15.8989124}, {"type": "node", "id": 9960130563, "lat": 58.0217511, "lon": 15.8988325, "tags": {"amenity": "cafe", "name": "Caf\u00e9 P\u00e4rlan"}}, {"type": "node", "id": 10010944878, "lat": 58.1238329, "lon": 15.6891638, "tags": {"amenity": "restaurant"}}, {"type": "way", "id": 301757293, "nodes": [3058801449, 3058801450, 3058801451, 3058801452, 3058801449], "tags": {"addr:city": "Gullringen", "addr:housename": "Brosj\u00f6g\u00e5rden", "addr:place": "Ydrefors", "addr:postcode": "59873", "amenity": "cafe", "building": "yes", "cuisine": "coffee_shop", "internet_access": "yes", "name": "Brosj\u00f6g\u00e5rden", "opening_hours": "Jun-Aug: Mo-Su 12:00-21:00", "phone": "+46 492-800 22", "smoking": "no", "source": "http://www.ydrefors.se/", "website": "http://www.ydrefors.se/", "wheelchair": "limited"}}, {"type": "way", "id": 519211252, "nodes": [5063340533, 5063340534, 5063340535, 5063340536, 5063340537, 9188675520, 9188675519, 9188675518, 9188675517, 5063340538, 5063340539, 5063340540, 5063340541, 5063340542, 5063340533], "tags": {"amenity": "restaurant", "building": "yes", "cuisine": "pizza;regional", "name": "Kinda Motell", "rooms": "10", "shop": "convenience", "tourism": "motel", "website": "https://www.kindamotell.se/"}}, {"type": "way", "id": 704707250, "nodes": [6617869521, 6617869522, 6617869523, 6617869524, 6617869525, 6617869526, 6617869527, 6617869520, 6617869521], "tags": {"amenity": "restaurant", "building": "yes"}}, {"type": "way", "id": 841523614, "nodes": [7851549345, 7851549346, 7851549347, 7851549348, 7851549345], "tags": {"amenity": "restaurant", "building": "yes"}}, {"type": "way", "id": 1087051413, "nodes": [9960130555, 9960130556, 9960130557, 9960130558, 9960130555], "tags": {"amenity": "cafe", "building": "yes"}}]}