{"version": 0.6, "generator": "Overpass API 0.7.61.5 4133829e", "osm3s": {"timestamp_osm_base": "2024-03-14T21:59:00Z", "copyright": "The data included in this document is from www.openstreetmap.org. The data is made available under ODbL."}, "elements": [{"type": "node", "id": 102639659, "lat": 58.8039289, "lon": 14.0591672, "tags": {"amenity": "restaurant", "cuisine": "pizza", "name": "Milano"}}, {"type": "node", "id": 420367569, "lat": 58.8026588, "lon": 14.0580269, "tags": {"amenity": "cafe", "name": "Hamnmagasinet"}}, {"type": "node", "id": 430465535, "lat": 58.7479166, "lon": 14.1081793, "tags": {"amenity": "cafe", "name": "Hajstorps Slusscaf\u00e9 & Vandrarhem", "website": "https://www.hajstorp.com/sv-SE"}}, {"type": "node", "id": 441989749, "lat": 58.7109326, "lon": 13.8226073, "tags": {"amenity": "cafe", "name": "Caf\u00e9 Mumma"}}, {"type": "node", "id": 441989921, "lat": 58.7081012, "lon": 13.8222892, "tags": {"amenity": "cafe", "name": "Br\u00f6dboden"}}, {"type": "node", "id": 441990845, "lat": 58.7110749, "lon": 13.8193578, "tags": {"amenity": "restaurant", "name": "Sill & Dynamit"}}, {"type": "node", "id": 441990891, "lat": 58.7098762, "lon": 13.8232453, "tags": {"amenity": "cafe"}}, {"type": "node", "id": 441990908, "lat": 58.7099041, "lon": 13.8273823, "tags": {"amenity": "cafe", "name": "Lundstedts Konditori"}}, {"type": "node", "id": 441992397, "lat": 58.6931115, "lon": 13.8591563, "tags": {"amenity": "restaurant", "name": "Rattugglan"}}, {"type": "node", "id": 441993473, "lat": 58.7084022, "lon": 13.8208243, "tags": {"addr:city": "Mariestad", "addr:country": "SE", "addr:housenumber": "8", "addr:postcode": "54230", "addr:street": "Kungsgatan", "amenity": "restaurant", "contact:website": "http://www.kingfishermariestad.se/", "cuisine": "indian", "name": "Kingfisher", "smoking": "no"}}, {"type": "node", "id": 441993545, "lat": 58.7070949, "lon": 13.8206318, "tags": {"amenity": "restaurant"}}, {"type": "node", "id": 479755927, "lat": 58.710434, "lon": 13.8225679, "tags": {"amenity": "restaurant", "cuisine": "pizza", "name": "Pizzeria Candys Bistro"}}, {"type": "node", "id": 479756139, "lat": 58.7104007, "lon": 13.8217268, "tags": {"amenity": "restaurant", "name": "Rhodos"}}, {"type": "node", "id": 635867642, "lat": 58.7553737, "lon": 14.3334162, "tags": {"amenity": "cafe"}}, {"type": "node", "id": 902984232, "lat": 58.7118826, "lon": 13.7966294, "tags": {"amenity": "cafe", "name": "B\u00e4cken", "note": "only in summer"}}, {"type": "node", "id": 903259958, "lat": 58.7075514, "lon": 13.8211421, "tags": {"addr:city": "Mariestad", "addr:country": "SE", "addr:housenumber": "5", "addr:street": "Kungsgatan", "amenity": "restaurant", "name": "Lindbloms"}}, {"type": "node", "id": 1570462571, "lat": 58.7086235, "lon": 13.8199403, "tags": {"amenity": "cafe", "name": "Konditori"}}, {"type": "node", "id": 1637525473, "lat": 58.7074427, "lon": 14.1280068, "tags": {"addr:city": "T\u00f6reboda", "addr:country": "SE", "addr:housenumber": "1", "addr:postcode": "545 30", "addr:street": "Norra Torggatan", "amenity": "restaurant", "cuisine": "chinese", "name": "Fuhua Kina Restaurang", "phone": "+46-506-10900", "wheelchair": "no"}}, {"type": "node", "id": 1801777545, "lat": 58.8369702, "lon": 13.9810558, "tags": {"amenity": "cafe", "name": "G\u00e5rdshuset i Sj\u00f6torp"}}, {"type": "node", "id": 1801777562, "lat": 58.8360852, "lon": 13.9803278}, {"type": "node", "id": 1871204622, "lat": 58.6827789, "lon": 14.4890618, "tags": {"amenity": "restaurant", "name": "Tivedens mat", "website": "https://www.tivedensmat.se/"}}, {"type": "node", "id": 2484816963, "lat": 58.9870082, "lon": 14.0924156, "tags": {"amenity": "restaurant", "cuisine": "kebab;pizza", "name": "Pizzeria Glada Laxen", "opening_hours": "Mo-Su 11:00-22:00"}}, {"type": "node", "id": 3622507887, "lat": 58.8021565, "lon": 14.0593051, "tags": {"amenity": "cafe", "name": "Daisy's Kaf\u00e9 & Kuriosa"}}, {"type": "node", "id": 3641302210, "lat": 58.8835249, "lon": 14.2950212, "tags": {"amenity": "restaurant", "name": "6:an"}}, {"type": "node", "id": 4199180191, "lat": 58.7065868, "lon": 14.1256583, "tags": {"addr:city": "T\u00f6reboda", "addr:country": "SE", "addr:housenumber": "8", "addr:postcode": "54530", "addr:street": "\u00d6stra Torggatan", "amenity": "cafe", "cuisine": "ice_cream", "name": "Ingeli's Bageri och Cafe", "outdoor_seating": "yes", "phone": "+46 506-12202", "smoking": "no", "wheelchair": "yes"}}, {"type": "node", "id": 4340473510, "lat": 58.7090484, "lon": 14.1225306}, {"type": "node", "id": 4340473511, "lat": 58.7090905, "lon": 14.1226532}, {"type": "node", "id": 4340473512, "lat": 58.7089437, "lon": 14.1228648}, {"type": "node", "id": 4340473513, "lat": 58.7088975, "lon": 14.122758}, {"type": "node", "id": 4524318089, "lat": 58.7100821, "lon": 13.8225647, "tags": {"addr:country": "SE", "addr:housenumber": "17", "addr:postcode": "54230", "addr:street": "\u00d6sterl\u00e5nggatan", "amenity": "cafe", "email": "lindhscafe@hotmail.com", "name": "Lindhs Caf\u00e9", "name:sv": "Lindhs Caf\u00e9", "phone": "+46-50110382", "website": "http://www.lindhscafe.se"}}, {"type": "node", "id": 5739942837, "lat": 58.685377, "lon": 13.8461427, "tags": {"amenity": "restaurant"}}, {"type": "node", "id": 5798183206, "lat": 58.7109106, "lon": 13.8201891, "tags": {"amenity": "cafe", "name": "Tr\u00e4dg\u00e5rdscaf\u00e9"}}, {"type": "node", "id": 5798183213, "lat": 58.7112045, "lon": 13.8192449, "tags": {"alt_name": "Hamnrestaurangen Bojen", "amenity": "restaurant", "name": "Mariestads hamnrestaurang"}}, {"type": "node", "id": 6462448880, "lat": 58.7149951, "lon": 13.8218617}, {"type": "node", "id": 6462448881, "lat": 58.714963, "lon": 13.8218983}, {"type": "node", "id": 6462448882, "lat": 58.71494, "lon": 13.821824}, {"type": "node", "id": 6462448883, "lat": 58.7149722, "lon": 13.8217874}, {"type": "node", "id": 6583317312, "lat": 58.7149505, "lon": 13.8252897, "tags": {"amenity": "restaurant", "name": "Caf\u00e9 Holmen"}}, {"type": "node", "id": 6583317313, "lat": 58.7156502, "lon": 13.8273787, "tags": {"addr:city": "Mariestad", "addr:country": "SE", "addr:housenumber": "32", "addr:postcode": "54230", "addr:street": "Nygatan", "amenity": "restaurant", "cuisine": "regional", "name": "Sj\u00f6terrassen"}}, {"type": "node", "id": 6586271754, "lat": 58.7085576, "lon": 13.8213425, "tags": {"amenity": "restaurant", "name": "Sand"}}, {"type": "node", "id": 6586271755, "lat": 58.7093214, "lon": 13.8228311, "tags": {"amenity": "cafe", "name": "Glasskiosken"}}, {"type": "node", "id": 6586271756, "lat": 58.7087567, "lon": 13.822371, "tags": {"amenity": "restaurant"}}, {"type": "node", "id": 6586271757, "lat": 58.7092491, "lon": 13.8240098, "tags": {"amenity": "bar", "name": "Pipes of Scotland"}}, {"type": "node", "id": 6586271758, "lat": 58.7099071, "lon": 13.8268092, "tags": {"addr:street": "Stockholmsv\u00e4gen", "amenity": "restaurant", "cuisine": "fish", "diet:vegan": "no", "diet:vegetarian": "yes", "name": "Heda K\u00f6k & Skafferi", "opening_hours": "Mo-Fr 09:00-15:30", "phone": "0730 485 285", "website": "https://www.hedakok.se/se"}}, {"type": "node", "id": 6586271761, "lat": 58.7083802, "lon": 13.8211569, "tags": {"alt_name": "Restaurang & Pizzeria Luna", "amenity": "restaurant", "cuisine": "pizza", "name": "Luna", "website": "https://restaurangluna.se/"}}, {"type": "node", "id": 6605266025, "lat": 58.7862371, "lon": 14.0821069}, {"type": "node", "id": 6605266026, "lat": 58.7862536, "lon": 14.0822858}, {"type": "node", "id": 6605266027, "lat": 58.7864339, "lon": 14.0822239}, {"type": "node", "id": 6605266028, "lat": 58.7864408, "lon": 14.0822997}, {"type": "node", "id": 6605266029, "lat": 58.7865086, "lon": 14.0822764}, {"type": "node", "id": 6605266030, "lat": 58.7865197, "lon": 14.0823961}, {"type": "node", "id": 6605266031, "lat": 58.7866119, "lon": 14.0823644}, {"type": "node", "id": 6605266032, "lat": 58.7866512, "lon": 14.0824365}, {"type": "node", "id": 6605266033, "lat": 58.7866601, "lon": 14.0825658}, {"type": "node", "id": 6605266034, "lat": 58.7867542, "lon": 14.0825418}, {"type": "node", "id": 6605266035, "lat": 58.7867397, "lon": 14.0823303}, {"type": "node", "id": 6605266036, "lat": 58.7866237, "lon": 14.0821824}, {"type": "node", "id": 6605266037, "lat": 58.7866051, "lon": 14.0819804}, {"type": "node", "id": 7345471472, "lat": 58.7118067, "lon": 13.8189563}, {"type": "node", "id": 7345471473, "lat": 58.7118046, "lon": 13.8192705}, {"type": "node", "id": 7345471474, "lat": 58.7117548, "lon": 13.8192694}, {"type": "node", "id": 7345471475, "lat": 58.7117569, "lon": 13.8189551}, {"type": "node", "id": 7345471476, "lat": 58.7117353, "lon": 13.819308}, {"type": "node", "id": 7345471477, "lat": 58.7117362, "lon": 13.8194559}, {"type": "node", "id": 7345471478, "lat": 58.7116106, "lon": 13.8194588}, {"type": "node", "id": 7345471479, "lat": 58.7116097, "lon": 13.8193109}, {"type": "node", "id": 7345471480, "lat": 58.7115509, "lon": 13.8193645}, {"type": "node", "id": 7345471481, "lat": 58.7115946, "lon": 13.8193472}, {"type": "node", "id": 7345471482, "lat": 58.7115615, "lon": 13.8190381}, {"type": "node", "id": 7345471483, "lat": 58.7115178, "lon": 13.8190554}, {"type": "node", "id": 7671615742, "lat": 58.6779237, "lon": 13.8142868}, {"type": "node", "id": 7671615743, "lat": 58.6776542, "lon": 13.8141325}, {"type": "node", "id": 7671615744, "lat": 58.6775984, "lon": 13.8144925}, {"type": "node", "id": 7671615745, "lat": 58.6778679, "lon": 13.8146468}, {"type": "node", "id": 7924241431, "lat": 58.8101525, "lon": 13.7126896, "tags": {"amenity": "restaurant", "cuisine": "regional", "name": "Laxhall hamnkrog & konferens"}}, {"type": "node", "id": 8920038706, "lat": 58.8613541, "lon": 14.2182163}, {"type": "node", "id": 8920038707, "lat": 58.8615293, "lon": 14.2186435}, {"type": "node", "id": 8920038708, "lat": 58.8616205, "lon": 14.2185044}, {"type": "node", "id": 8920038709, "lat": 58.8614982, "lon": 14.2182212}, {"type": "node", "id": 8920038710, "lat": 58.8615603, "lon": 14.2181209}, {"type": "node", "id": 8920038711, "lat": 58.8614934, "lon": 14.2179662}, {"type": "node", "id": 8933000357, "lat": 58.8360665, "lon": 13.9802051}, {"type": "node", "id": 8933000358, "lat": 58.8361391, "lon": 13.9801725}, {"type": "node", "id": 8933000359, "lat": 58.8361541, "lon": 13.9802969}, {"type": "node", "id": 8933000360, "lat": 58.8360901, "lon": 13.980368}, {"type": "node", "id": 8933000361, "lat": 58.835946, "lon": 13.9804326}, {"type": "node", "id": 8933000362, "lat": 58.8359212, "lon": 13.980226}, {"type": "node", "id": 8933000363, "lat": 58.8360615, "lon": 13.980163}, {"type": "node", "id": 9916900717, "lat": 58.7089188, "lon": 14.1278569, "tags": {"addr:country": "SE", "addr:housenumber": "6", "addr:street": "Kungsgatan", "amenity": "restaurant", "cuisine": "american", "name": "Mandy's Diner"}}, {"type": "node", "id": 10924041932, "lat": 58.7090445, "lon": 13.8231385, "tags": {"addr:city": "Mariestad", "addr:country": "SE", "addr:housenumber": "4", "addr:postcode": "54230", "addr:street": "Nya torget", "amenity": "restaurant", "cuisine": "burger;pizza", "name": "Br\u00f6dernas", "opening_hours": "Su-Tu 11:30-20:00; We-Th 11:30-21:00; Fr-Sa 11:30-22:00", "phone": "050110585", "website": "https://www.brodernas.nu"}}, {"type": "node", "id": 11008353439, "lat": 58.7046355, "lon": 13.8197095, "tags": {"addr:country": "SE", "addr:housenumber": "6", "addr:street": "Hertig Karls Torg", "amenity": "restaurant", "cuisine": "thai", "name": "Wilais Thai Kitchen", "opening_hours": "Mo, We, Th 11:00-20:00; Tu 11:00-15:00; Fr 11:00-21:00; Sa 12:00-21:00; Su 12:00-20:00", "phone": "+46 050115123", "website": "https://www.wilaisushi.se/meny-thai/"}}, {"type": "node", "id": 11008379674, "lat": 58.7050431, "lon": 13.8200353, "tags": {"addr:country": "SE", "addr:housenumber": "2", "amenity": "restaurant", "cuisine": "sushi;taco", "name": "Wilais Sushi", "opening_hours": "Mo, We, Th 11:00-20:00; Tu 11:00-15:00; Fr 11:00-21:00; Sa 12:00-21:00; Su 12:00-20:00", "phone": "+46 0501385632", "website": "https://www.wilaisushi.se/hem-sushi/"}}, {"type": "node", "id": 11472898445, "lat": 58.709789, "lon": 13.8431897, "tags": {"addr:city": "Mariestad", "addr:housenumber": "4", "addr:postcode": "54232", "addr:street": "Parkv\u00e4gen", "amenity": "cafe", "name": "W\u00e4stg\u00f6tabagar'n", "opening_hours": "Mo-Fr 08:00-18:00; Sa 09:00-13:00", "phone": "+46 501 138 10", "shop": "bakery", "website": "https://www.wastgotabagarn.se/"}}, {"type": "node", "id": 11533829504, "lat": 58.7103328, "lon": 13.8274131, "tags": {"amenity": "restaurant", "cuisine": "indian", "name": "Tandoori"}}, {"type": "way", "id": 436169854, "nodes": [4340473510, 4340473511, 4340473512, 4340473513, 4340473510], "tags": {"addr:city": "T\u00f6reboda", "addr:country": "SE", "addr:housenumber": "2", "addr:postcode": "545 30", "addr:street": "Nygatan", "amenity": "restaurant", "building": "hotel", "name": "Pr\u00e4stg\u00e5rden Restaurang & pensionat", "phone": "+46 506 125 00", "source": "survey", "tourism": "hotel", "website": "https://prastgarden.nu/"}}, {"type": "way", "id": 688948092, "nodes": [6462448883, 6462448880, 6462448881, 6462448882, 6462448883], "tags": {"amenity": "cafe", "building": "yes"}}, {"type": "way", "id": 703371363, "nodes": [6605266025, 6605266026, 6605266027, 6605266028, 6605266029, 6605266030, 6605266031, 6605266032, 6605266033, 6605266034, 6605266035, 6605266036, 6605266037, 6605266025], "tags": {"addr:city": "Lyrestad", "addr:country": "SE", "addr:housenumber": "1", "addr:postcode": "548 93", "addr:street": "Norrqvarns Slussomr\u00e5de", "amenity": "restaurant", "building": "hotel", "building:levels": "4", "name": "Norrqvarn Hotell & Konferens", "tourism": "hotel", "website": "https://www.norrqvarn.se/"}}, {"type": "way", "id": 785782174, "nodes": [7345471472, 7345471473, 7345471474, 7345471475, 7345471472], "tags": {"amenity": "cafe", "building": "yes"}}, {"type": "way", "id": 785782175, "nodes": [7345471476, 7345471477, 7345471478, 7345471479, 7345471476], "tags": {"amenity": "cafe", "building": "yes"}}, {"type": "way", "id": 785782176, "nodes": [7345471480, 7345471481, 7345471482, 7345471483, 7345471480], "tags": {"amenity": "cafe", "building": "yes"}}, {"type": "way", "id": 821627434, "nodes": [7671615742, 7671615743, 7671615744, 7671615745, 7671615742], "tags": {"amenity": "restaurant", "building": "yes", "name": "Dinners Mariestad", "website": "https://dinners.se/dinners-mariestad/"}}, {"type": "way", "id": 964355537, "nodes": [8920038706, 8920038707, 8920038708, 8920038709, 8920038710, 8920038711, 8920038706], "tags": {"amenity": "restaurant", "building": "yes", "name": "Lisas Krog"}}, {"type": "way", "id": 965620419, "nodes": [8933000363, 8933000362, 8933000361, 8933000360, 1801777562, 8933000359, 8933000358, 8933000357, 8933000363], "tags": {"amenity": "restaurant", "building": "yes", "name": "Kajutan", "phone": "+46 501-51480", "tourism": "guest_house", "website": "https://www.kajutansjotorp.com/"}}]}