{"version": 0.6, "generator": "Overpass API 0.7.61.5 4133829e", "osm3s": {"timestamp_osm_base": "2024-03-13T21:57:00Z", "copyright": "The data included in this document is from www.openstreetmap.org. The data is made available under ODbL."}, "elements": [{"type": "node", "id": 1185723631, "lat": 42.144382, "lon": 41.6759371, "tags": {"amenity": "bank", "atm": "yes", "bic": "TBCBGE22", "brand": "\u10d7\u10d8\u10d1\u10d8\u10e1\u10d8 \u10d1\u10d0\u10dc\u10d9\u10d8", "brand:en": "TBC Bank", "brand:ru": "\u0422\u0438\u0411\u0438\u0421\u0438 \u0411\u0430\u043d\u043a", "brand:wikidata": "Q2620975", "contact:facebook": "https://www.facebook.com/tbcbank", "contact:linkedin": "https://www.linkedin.com/company/tbc-bank/", "contact:phone": "+995322272727", "contact:twitter": "https://twitter.com/JSCTBC", "contact:website": "https://www.tbcbank.ge", "contact:youtube": "https://www.youtube.com/user/TBCBankTV", "name": "\u10d7\u10d8\u10d1\u10d8\u10e1\u10d8 \u10d1\u10d0\u10dc\u10d9\u10d8", "name:en": "TBC Bank", "name:ka": "\u10d7\u10d8\u10d1\u10d8\u10e1\u10d8 \u10d1\u10d0\u10dc\u10d9\u10d8", "name:ru": "\u0422\u0438\u0411\u0438\u0421\u0438 \u0411\u0430\u043d\u043a", "operator:wikidata": "Q2620975", "short_name:en": "TBC", "short_name:ka": "\u10d7\u10d8\u10d1\u10d8\u10e1\u10d8", "short_name:ru": "\u0422\u0438\u0411\u0438\u0421\u0438", "source": "JumpStart International"}}, {"type": "node", "id": 1185723950, "lat": 42.1492476, "lon": 41.6594452, "tags": {"amenity": "bank", "atm": "yes", "bic": "LBRTGE22", "brand": "\u10da\u10d8\u10d1\u10d4\u10e0\u10d7\u10d8", "brand:en": "Liberty", "brand:ru": "\u041b\u0438\u0431\u0435\u0440\u0442\u0438", "brand:wikidata": "Q6541585", "contact:email": "info@lb.ge", "contact:facebook": "https://facebook.com/libertybank.ge", "contact:instagram": "https://instagram.com/liberty_bank_", "contact:linkedin": "https://linkedin.com/company/libertybankge", "contact:phone": "+995322555500", "contact:website": "https://libertybank.ge", "name": "\u10da\u10d8\u10d1\u10d4\u10e0\u10d7\u10d8", "name:en": "Liberty", "name:ka": "\u10da\u10d8\u10d1\u10d4\u10e0\u10d7\u10d8", "name:ru": "\u041b\u0438\u0431\u0435\u0440\u0442\u0438", "operator:wikidata": "Q6541585", "source": "JumpStart International"}}, {"type": "node", "id": 1185725683, "lat": 42.1497301, "lon": 41.6597985, "tags": {"amenity": "atm", "fixme": "This bank as a brand doesn't exist now. Please, check", "operator": "Bank Republic", "source": "JumpStart International"}}, {"type": "node", "id": 1185726489, "lat": 42.2678107, "lon": 42.062559, "tags": {"amenity": "bank", "atm": "yes", "bic": "BAGAGE22", "brand": "\u10e1\u10d0\u10e5\u10d0\u10e0\u10d7\u10d5\u10d4\u10da\u10dd\u10e1 \u10d1\u10d0\u10dc\u10d9\u10d8", "brand:en": "Bank of Georgia", "brand:ru": "\u0411\u0430\u043d\u043a \u0413\u0440\u0443\u0437\u0438\u0438", "brand:tr": "G\u00fcrcistan Bankas\u0131", "brand:wikidata": "Q2469733", "contact:email": "customerservice@bog.ge", "contact:instagram": "https://instagram.com/bankofgeorgia", "contact:linkedin": "https://linkedin.com/company/bank-of-georgia", "contact:phone": "+995322444444", "contact:website": "https://bankofgeorgia.ge", "contact:youtube": "https://youtube.com/user/BankofGeorgiaTV", "name": "\u10e1\u10d0\u10e5\u10d0\u10e0\u10d7\u10d5\u10d4\u10da\u10dd\u10e1 \u10d1\u10d0\u10dc\u10d9\u10d8", "name:en": "Bank of Georgia", "name:ka": "\u10e1\u10d0\u10e5\u10d0\u10e0\u10d7\u10d5\u10d4\u10da\u10dd\u10e1 \u10d1\u10d0\u10dc\u10d9\u10d8", "name:ru": "\u0411\u0430\u043d\u043a \u0413\u0440\u0443\u0437\u0438\u0438", "name:tr": "G\u00fcrcistan Bankas\u0131", "opening_hours": "Mo-Fr 10:00-17:30; Sa 10:00-14:00", "operator:wikidata": "Q2469733", "short_name:en": "BoG", "source": "JumpStart International", "wikidata": "Q2469733"}}, {"type": "node", "id": 1185727018, "lat": 42.1511005, "lon": 41.6606235, "tags": {"amenity": "bank", "atm": "yes", "fixme": "This bank as a brand doesn't exist now. Please, check", "name": "\u10d5\u10d8\u10d7\u10d8\u10d1\u10d8 \u10d1\u10d0\u10dc\u10d9\u10d8", "name:en": "VTB Bank", "name:ka": "\u10d5\u10d8\u10d7\u10d8\u10d1\u10d8 \u10d1\u10d0\u10dc\u10d9\u10d8", "source": "JumpStart International"}}, {"type": "node", "id": 1185727116, "lat": 42.151199, "lon": 41.6608386, "tags": {"amenity": "atm", "fixme": "This bank as a brand doesn't exist now. Please, check", "operator": "VTB Bank", "source": "JumpStart International"}}, {"type": "node", "id": 1185728065, "lat": 42.1483809, "lon": 41.662393, "tags": {"amenity": "bank", "atm": "yes", "bic": "BAGAGE22", "brand": "\u10e1\u10d0\u10e5\u10d0\u10e0\u10d7\u10d5\u10d4\u10da\u10dd\u10e1 \u10d1\u10d0\u10dc\u10d9\u10d8", "brand:en": "Bank of Georgia", "brand:ru": "\u0411\u0430\u043d\u043a \u0413\u0440\u0443\u0437\u0438\u0438", "brand:tr": "G\u00fcrcistan Bankas\u0131", "brand:wikidata": "Q2469733", "contact:email": "customerservice@bog.ge", "contact:instagram": "https://instagram.com/bankofgeorgia", "contact:linkedin": "https://linkedin.com/company/bank-of-georgia", "contact:phone": "+995322444444", "contact:website": "https://bankofgeorgia.ge", "contact:youtube": "https://youtube.com/user/BankofGeorgiaTV", "name": "\u10e1\u10d0\u10e5\u10d0\u10e0\u10d7\u10d5\u10d4\u10da\u10dd\u10e1 \u10d1\u10d0\u10dc\u10d9\u10d8", "name:en": "Bank of Georgia", "name:ka": "\u10e1\u10d0\u10e5\u10d0\u10e0\u10d7\u10d5\u10d4\u10da\u10dd\u10e1 \u10d1\u10d0\u10dc\u10d9\u10d8", "name:ru": "\u0411\u0430\u043d\u043a \u0413\u0440\u0443\u0437\u0438\u0438", "name:tr": "G\u00fcrcistan Bankas\u0131", "opening_hours": "Mo-Fr 10:00-17:30; Sa 10:00-14:00", "operator:wikidata": "Q2469733", "short_name:en": "BoG", "source": "JumpStart International"}}, {"type": "node", "id": 1185728399, "lat": 42.1507778, "lon": 41.659307, "tags": {"amenity": "atm", "brand": "\u10e1\u10d0\u10e5\u10d0\u10e0\u10d7\u10d5\u10d4\u10da\u10dd\u10e1 \u10d1\u10d0\u10dc\u10d9\u10d8", "brand:en": "Bank of Georgia", "brand:ru": "\u0411\u0430\u043d\u043a \u0413\u0440\u0443\u0437\u0438\u0438", "brand:tr": "G\u00fcrcistan Bankas\u0131", "brand:wikidata": "Q2469733", "cash_out": "yes", "contact:email": "customerservice@bog.ge", "contact:instagram": "https://instagram.com/bankofgeorgia", "contact:linkedin": "https://linkedin.com/company/bank-of-georgia", "contact:phone": "+995322444444", "contact:website": "https://bankofgeorgia.ge", "contact:youtube": "https://youtube.com/user/BankofGeorgiaTV", "currency:EUR": "yes", "currency:GEL": "yes", "currency:USD": "yes", "language:en": "yes", "language:ka": "yes", "opening_hours": "24/7", "operator": "\u10e1\u10d0\u10e5\u10d0\u10e0\u10d7\u10d5\u10d4\u10da\u10dd\u10e1 \u10d1\u10d0\u10dc\u10d9\u10d8", "operator:en": "Bank of Georgia", "operator:wikidata": "Q2469733", "source": "JumpStart International"}}, {"type": "node", "id": 1185728606, "lat": 42.1414144, "lon": 41.676718, "tags": {"amenity": "bank", "atm": "yes", "fixme": "This bank as a brand doesn't exist now. Please, check", "name": "\u10d5\u10d8\u10d7\u10d8\u10d1\u10d8 \u10d1\u10d0\u10dc\u10d9\u10d8", "name:en": "VTB Bank", "name:ka": "\u10d5\u10d8\u10d7\u10d8\u10d1\u10d8 \u10d1\u10d0\u10dc\u10d9\u10d8", "name:ru": "VTB Bank", "source": "JumpStart International", "website": "https://www.vtb.ge/"}}, {"type": "node", "id": 1185729216, "lat": 42.1452686, "lon": 41.6689278, "tags": {"amenity": "atm", "brand": "\u10d7\u10d8\u10d1\u10d8\u10e1\u10d8 \u10d1\u10d0\u10dc\u10d9\u10d8", "brand:en": "TBC Bank", "brand:ru": "\u0422\u0438\u0411\u0438\u0421\u0438 \u0411\u0430\u043d\u043a", "brand:wikidata": "Q2620975", "cash_out": "yes", "contact:facebook": "https://www.facebook.com/tbcbank", "contact:linkedin": "https://www.linkedin.com/company/tbc-bank/", "contact:phone": "+995322272727", "contact:twitter": "https://twitter.com/JSCTBC", "contact:website": "https://www.tbcbank.ge", "contact:youtube": "https://www.youtube.com/user/TBCBankTV", "currency:EUR": "yes", "currency:GEL": "yes", "currency:USD": "yes", "language:en": "yes", "language:ka": "yes", "operator": "\u10d7\u10d8\u10d1\u10d8\u10e1\u10d8 \u10d1\u10d0\u10dc\u10d9\u10d8", "operator:wikidata": "Q2620975", "source": "JumpStart International"}}, {"type": "node", "id": 1185730059, "lat": 42.1493, "lon": 41.6596082, "tags": {"amenity": "atm", "brand": "\u10da\u10d8\u10d1\u10d4\u10e0\u10d7\u10d8", "brand:en": "Liberty", "brand:ru": "\u041b\u0438\u0431\u0435\u0440\u0442\u0438", "brand:wikidata": "Q6541585", "cash_out": "yes", "contact:email": "info@lb.ge", "contact:facebook": "https://facebook.com/libertybank.ge", "contact:instagram": "https://instagram.com/liberty_bank_", "contact:linkedin": "https://linkedin.com/company/libertybankge", "contact:phone": "+995322555500", "contact:website": "https://libertybank.ge", "currency:EUR": "yes", "currency:GEL": "yes", "currency:USD": "yes", "language:en": "yes", "language:ka": "yes", "operator": "\u10da\u10d8\u10d1\u10d4\u10e0\u10d7\u10d8 \u10d1\u10d0\u10dc\u10d9\u10d8", "operator:wikidata": "Q6541585", "source": "JumpStart International"}}, {"type": "node", "id": 1185730212, "lat": 42.1515647, "lon": 41.6588776, "tags": {"amenity": "atm", "brand": "ProCredit Bank", "brand:en": "ProCredit Bank", "brand:ru": "\u041f\u0440\u043e\u041a\u0440\u0435\u0434\u0438\u0442 \u0411\u0430\u043d\u043a", "brand:wikidata": "Q1046186", "cash_in": "no", "cash_out": "yes", "contact:facebook": "https://facebook.com/procreditbankgeorgia", "contact:instagram": "https://instagram.com/procreditbankgeorgia", "contact:phone": "+995322202222", "contact:website": "https://procreditbank.ge", "currency:EUR": "no", "currency:GEL": "yes", "currency:USD": "no", "language:en": "yes", "language:ka": "yes", "language:ru": "no", "operator": "\u10de\u10e0\u10dd\u10d9\u10e0\u10d4\u10d3\u10d8\u10e2 \u10d1\u10d0\u10dc\u10d9\u10d8", "source": "JumpStart International"}}, {"type": "node", "id": 1185731165, "lat": 42.1508341, "lon": 41.6592668, "tags": {"amenity": "atm", "fixme": "This bank as a brand doesn't exist now. Please, check", "operator": "Bank Republic", "source": "JumpStart International"}}, {"type": "node", "id": 1185731731, "lat": 42.1454942, "lon": 41.6775869, "tags": {"amenity": "bank", "atm": "yes", "bic": "MIBGGE22", "brand": "ProCredit Bank", "brand:en": "ProCredit Bank", "brand:ru": "\u041f\u0440\u043e\u041a\u0440\u0435\u0434\u0438\u0442 \u0411\u0430\u043d\u043a", "contact:email": "geo.info@procredit-group.com", "contact:facebook": "https://facebook.com/procreditbankgeorgia", "contact:instagram": "https://instagram.com/procreditbankgeorgia", "contact:phone": "+995322202222", "contact:website": "https://procreditbank.ge", "name": "\u10de\u10e0\u10dd\u10d9\u10e0\u10d4\u10d3\u10d8\u10e2 \u10d1\u10d0\u10dc\u10d9\u10d8", "name:en": "ProCredit Bank", "name:ka": "\u10de\u10e0\u10dd\u10d9\u10e0\u10d4\u10d3\u10d8\u10e2 \u10d1\u10d0\u10dc\u10d9\u10d8", "name:ru": "\u041f\u0440\u043e\u041a\u0440\u0435\u0434\u0438\u0442 \u0411\u0430\u043d\u043a", "source": "JumpStart International"}}, {"type": "node", "id": 1185733216, "lat": 42.1517256, "lon": 41.660941, "tags": {"amenity": "atm", "brand": "\u10d7\u10d8\u10d1\u10d8\u10e1\u10d8 \u10d1\u10d0\u10dc\u10d9\u10d8", "brand:en": "TBC Bank", "brand:ru": "\u0422\u0438\u0411\u0438\u0421\u0438 \u0411\u0430\u043d\u043a", "brand:wikidata": "Q2620975", "cash_out": "yes", "contact:facebook": "https://www.facebook.com/tbcbank", "contact:linkedin": "https://www.linkedin.com/company/tbc-bank/", "contact:phone": "+995322272727", "contact:twitter": "https://twitter.com/JSCTBC", "contact:website": "https://www.tbcbank.ge", "contact:youtube": "https://www.youtube.com/user/TBCBankTV", "currency:EUR": "yes", "currency:GEL": "yes", "currency:USD": "yes", "language:en": "yes", "language:ka": "yes", "operator": "\u10d7\u10d8\u10d1\u10d8\u10e1\u10d8 \u10d1\u10d0\u10dc\u10d9\u10d8", "operator:wikidata": "Q2620975", "source": "JumpStart International"}}, {"type": "node", "id": 1185733300, "lat": 42.1483163, "lon": 41.662515, "tags": {"amenity": "atm", "brand": "\u10e1\u10d0\u10e5\u10d0\u10e0\u10d7\u10d5\u10d4\u10da\u10dd\u10e1 \u10d1\u10d0\u10dc\u10d9\u10d8", "brand:en": "Bank of Georgia", "brand:ru": "\u0411\u0430\u043d\u043a \u0413\u0440\u0443\u0437\u0438\u0438", "brand:tr": "G\u00fcrcistan Bankas\u0131", "brand:wikidata": "Q2469733", "cash_out": "yes", "contact:email": "customerservice@bog.ge", "contact:instagram": "https://instagram.com/bankofgeorgia", "contact:linkedin": "https://linkedin.com/company/bank-of-georgia", "contact:phone": "+995322444444", "contact:website": "https://bankofgeorgia.ge", "contact:youtube": "https://youtube.com/user/BankofGeorgiaTV", "currency:EUR": "yes", "currency:GEL": "yes", "currency:USD": "yes", "language:en": "yes", "language:ka": "yes", "opening_hours": "24/7", "operator": "\u10e1\u10d0\u10e5\u10d0\u10e0\u10d7\u10d5\u10d4\u10da\u10dd\u10e1 \u10d1\u10d0\u10dc\u10d9\u10d8", "operator:en": "Bank of Georgia", "operator:wikidata": "Q2469733", "source": "JumpStart International"}}, {"type": "node", "id": 1185733724, "lat": 42.2690113, "lon": 42.0569266, "tags": {"amenity": "bank", "atm": "yes", "fixme": "This bank as a brand doesn't exist now. Please, check", "name": "\u10e2\u10d0\u10dd \u10de\u10e0\u10d8\u10d5\u10d0\u10e2 \u10d1\u10d0\u10dc\u10d9\u10d8 (Tao Private Bank)", "name:en": "Tao Private Bank", "name:ka": "\u10e2\u10d0\u10dd \u10de\u10e0\u10d8\u10d5\u10d0\u10e2 \u10d1\u10d0\u10dc\u10d9\u10d8", "source": "JumpStart International"}}, {"type": "node", "id": 1185734047, "lat": 42.1515141, "lon": 41.6590097, "tags": {"amenity": "bank", "atm": "yes", "bic": "MIBGGE22", "brand": "ProCredit Bank", "brand:en": "ProCredit Bank", "brand:ru": "\u041f\u0440\u043e\u041a\u0440\u0435\u0434\u0438\u0442 \u0411\u0430\u043d\u043a", "contact:email": "geo.info@procredit-group.com", "contact:facebook": "https://facebook.com/procreditbankgeorgia", "contact:instagram": "https://instagram.com/procreditbankgeorgia", "contact:phone": "+995322202222", "contact:website": "https://procreditbank.ge", "name": "\u10de\u10e0\u10dd\u10d9\u10e0\u10d4\u10d3\u10d8\u10e2 \u10d1\u10d0\u10dc\u10d9\u10d8", "name:en": "ProCredit Bank", "name:ka": "\u10de\u10e0\u10dd\u10d9\u10e0\u10d4\u10d3\u10d8\u10e2 \u10d1\u10d0\u10dc\u10d9\u10d8", "name:ru": "\u041f\u0440\u043e\u041a\u0440\u0435\u0434\u0438\u0442 \u0411\u0430\u043d\u043a", "source": "JumpStart International"}}, {"type": "node", "id": 4235476915, "lat": 42.0876112, "lon": 42.0367792, "tags": {"amenity": "bank", "atm": "yes", "bic": "JSCRGE22", "brand": "\u10d9\u10e0\u10d4\u10d3\u10dd \u10d1\u10d0\u10dc\u10d9\u10d8", "brand:en": "Credo Bank", "brand:ru": "\u041a\u0440\u0435\u0434\u043e \u0411\u0430\u043d\u043a", "contact:email": "info@credo.ge", "contact:facebook": "https://facebook.com/CredoBank", "contact:instagram": "https://instagram.com/credobank", "contact:linkedin": "https://linkedin.com/company/credo-bank", "contact:phone": "+995322424242", "contact:website": "https://credobank.ge", "contact:youtube": "https://youtube.com/channel/UC2Y_pR9O5bmlCiFGfoX5bmw", "name": "\u10d9\u10e0\u10d4\u10d3\u10dd \u10d1\u10d0\u10dc\u10d9\u10d8", "name:en": "Credo Bank", "name:ka": "\u10d9\u10e0\u10d4\u10d3\u10dd \u10d1\u10d0\u10dc\u10d9\u10d8", "name:ru": "\u041a\u0440\u0435\u0434\u043e \u0411\u0430\u043d\u043a", "short_name:en": "Credo", "short_name:ka": "\u10d9\u10e0\u10d4\u10d3\u10dd", "short_name:ru": "\u041a\u0440\u0435\u0434\u043e"}}, {"type": "node", "id": 4312317390, "lat": 42.0912457, "lon": 42.0403073, "tags": {"amenity": "atm", "brand": "\u10da\u10d8\u10d1\u10d4\u10e0\u10d7\u10d8", "brand:en": "Liberty", "brand:ru": "\u041b\u0438\u0431\u0435\u0440\u0442\u0438", "brand:wikidata": "Q6541585", "cash_out": "yes", "contact:email": "info@lb.ge", "contact:facebook": "https://facebook.com/libertybank.ge", "contact:instagram": "https://instagram.com/liberty_bank_", "contact:linkedin": "https://linkedin.com/company/libertybankge", "contact:phone": "+995322555500", "contact:website": "https://libertybank.ge", "currency:EUR": "yes", "currency:GEL": "yes", "currency:USD": "yes", "language:en": "yes", "language:ka": "yes", "operator": "\u10da\u10d8\u10d1\u10d4\u10e0\u10d7\u10d8 \u10d1\u10d0\u10dc\u10d9\u10d8", "operator:wikidata": "Q6541585"}}, {"type": "node", "id": 4312319090, "lat": 42.0912118, "lon": 42.0401967, "tags": {"amenity": "bank", "atm": "yes", "bic": "LBRTGE22", "brand": "\u10da\u10d8\u10d1\u10d4\u10e0\u10d7\u10d8", "brand:en": "Liberty", "brand:ru": "\u041b\u0438\u0431\u0435\u0440\u0442\u0438", "brand:wikidata": "Q6541585", "contact:email": "info@lb.ge", "contact:facebook": "https://facebook.com/libertybank.ge", "contact:instagram": "https://instagram.com/liberty_bank_", "contact:linkedin": "https://linkedin.com/company/libertybankge", "contact:phone": "+995322555500", "contact:website": "https://libertybank.ge", "name": "\u10da\u10d8\u10d1\u10d4\u10e0\u10d7\u10d8", "name:en": "Liberty", "name:ka": "\u10da\u10d8\u10d1\u10d4\u10e0\u10d7\u10d8", "name:ru": "\u041b\u0438\u0431\u0435\u0440\u0442\u0438", "operator:wikidata": "Q6541585"}}, {"type": "node", "id": 4315008141, "lat": 42.1659156, "lon": 41.6804487, "tags": {"amenity": "atm", "fixme": "This bank as a brand doesn't exist now. Please, check", "opening_hours": "24/7", "operator": "vtb"}}, {"type": "node", "id": 4476611695, "lat": 42.1422546, "lon": 41.6765155, "tags": {"amenity": "atm", "brand": "\u10e1\u10d0\u10e5\u10d0\u10e0\u10d7\u10d5\u10d4\u10da\u10dd\u10e1 \u10d1\u10d0\u10dc\u10d9\u10d8", "brand:en": "Bank of Georgia", "brand:ru": "\u0411\u0430\u043d\u043a \u0413\u0440\u0443\u0437\u0438\u0438", "brand:tr": "G\u00fcrcistan Bankas\u0131", "brand:wikidata": "Q2469733", "cash_out": "yes", "contact:email": "customerservice@bog.ge", "contact:instagram": "https://instagram.com/bankofgeorgia", "contact:linkedin": "https://linkedin.com/company/bank-of-georgia", "contact:phone": "+995322444444", "contact:website": "https://bankofgeorgia.ge", "contact:youtube": "https://youtube.com/user/BankofGeorgiaTV", "currency:EUR": "yes", "currency:GEL": "yes", "currency:USD": "yes", "language:en": "yes", "language:ka": "yes", "operator": "\u10e1\u10d0\u10e5\u10d0\u10e0\u10d7\u10d5\u10d4\u10da\u10dd\u10e1 \u10d1\u10d0\u10dc\u10d9\u10d8", "operator:wikidata": "Q2469733"}}, {"type": "node", "id": 4813432628, "lat": 42.1499839, "lon": 41.6597703, "tags": {"amenity": "bank", "fixme": "This bank as a brand doesn't exist now. Please, check", "name:ru": "\u0431\u0430\u043d\u043a \u0440\u0435\u0441\u043f\u0443\u0431\u043b\u0438\u043a\u0430"}}, {"type": "node", "id": 4832681242, "lat": 41.9978269, "lon": 41.7598975, "tags": {"amenity": "bank"}}, {"type": "node", "id": 5079625521, "lat": 41.9995113, "lon": 41.7801783, "tags": {"amenity": "atm"}}, {"type": "node", "id": 5916182564, "lat": 42.0851037, "lon": 42.1228454, "tags": {"amenity": "bank", "atm": "yes", "bic": "LBRTGE22", "brand": "\u10da\u10d8\u10d1\u10d4\u10e0\u10d7\u10d8", "brand:en": "Liberty", "brand:ru": "\u041b\u0438\u0431\u0435\u0440\u0442\u0438", "brand:wikidata": "Q6541585", "contact:email": "info@lb.ge", "contact:facebook": "https://facebook.com/libertybank.ge", "contact:instagram": "https://instagram.com/liberty_bank_", "contact:linkedin": "https://linkedin.com/company/libertybankge", "contact:phone": "+995322555500", "contact:website": "https://libertybank.ge", "name": "\u10da\u10d8\u10d1\u10d4\u10e0\u10d7\u10d8", "name:en": "Liberty", "name:ka": "\u10da\u10d8\u10d1\u10d4\u10e0\u10d7\u10d8", "name:ru": "\u041b\u0438\u0431\u0435\u0440\u0442\u0438", "operator:wikidata": "Q6541585"}}, {"type": "node", "id": 6536446055, "lat": 42.1438984, "lon": 41.6766933, "tags": {"amenity": "bank", "atm": "yes", "bic": "TBCBGE22", "brand": "\u10d7\u10d8\u10d1\u10d8\u10e1\u10d8 \u10d1\u10d0\u10dc\u10d9\u10d8", "brand:en": "TBC Bank", "brand:ru": "\u0422\u0438\u0411\u0438\u0421\u0438 \u0411\u0430\u043d\u043a", "brand:wikidata": "Q2620975", "contact:facebook": "https://www.facebook.com/tbcbank", "contact:linkedin": "https://www.linkedin.com/company/tbc-bank/", "contact:phone": "+995322272727", "contact:twitter": "https://twitter.com/JSCTBC", "contact:website": "https://www.tbcbank.ge", "contact:youtube": "https://www.youtube.com/user/TBCBankTV", "description": "tbc bank", "name": "\u10d7\u10d8\u10d1\u10d8\u10e1\u10d8 \u10d1\u10d0\u10dc\u10d9\u10d8", "name:en": "TBC Bank", "name:ka": "\u10d7\u10d8\u10d1\u10d8\u10e1\u10d8 \u10d1\u10d0\u10dc\u10d9\u10d8", "name:ru": "\u0422\u0438\u0411\u0438\u0421\u0438 \u0411\u0430\u043d\u043a", "operator:wikidata": "Q2620975", "short_name:en": "TBC", "short_name:ka": "\u10d7\u10d8\u10d1\u10d8\u10e1\u10d8", "short_name:ru": "\u0422\u0438\u0411\u0438\u0421\u0438"}}, {"type": "node", "id": 9084210017, "lat": 41.9229075, "lon": 41.9999696, "tags": {"amenity": "atm", "brand": "\u10d1\u10d0\u10d6\u10d8\u10e1\u10d1\u10d0\u10dc\u10d9\u10d8", "brand:en": "BasisBank", "brand:ru": "\u0411\u0430\u0437\u0438\u0441\u0411\u0430\u043d\u043a", "brand:wikidata": "Q16365625", "cash_in": "no", "cash_out": "yes", "check_date": "2023-04-18", "contact:email": "info@basisbank.ge", "contact:facebook": "https://facebook.com/Basisbank", "contact:instagram": "https://instagram.com/basis_bank", "contact:linkedin": "https://linkedin.com/company/jsc-basisbank", "contact:phone": "+995322922922", "contact:website": "https://bb.ge", "contact:youtube": "https://youtube.com/user/basisbankhualing", "currency:EUR": "no", "currency:GEL": "yes", "currency:USD": "no", "language:en": "yes", "language:ka": "yes", "language:ru": "no", "opening_hours": "24/7", "operator": "\u10d1\u10d0\u10d6\u10d8\u10e1\u10d1\u10d0\u10dc\u10d9\u10d8", "operator:wikidata": "Q16365625"}}, {"type": "node", "id": 9998322142, "lat": 42.2221162, "lon": 41.7966535, "tags": {"amenity": "atm"}}, {"type": "node", "id": 10051699517, "lat": 41.9222427, "lon": 42.0025674, "tags": {"amenity": "atm", "brand": "\u10e1\u10d0\u10e5\u10d0\u10e0\u10d7\u10d5\u10d4\u10da\u10dd\u10e1 \u10d1\u10d0\u10dc\u10d9\u10d8", "brand:en": "Bank of Georgia", "brand:ru": "\u0411\u0430\u043d\u043a \u0413\u0440\u0443\u0437\u0438\u0438", "brand:tr": "G\u00fcrcistan Bankas\u0131", "brand:wikidata": "Q2469733", "cash_out": "yes", "contact:email": "customerservice@bog.ge", "contact:instagram": "https://instagram.com/bankofgeorgia", "contact:linkedin": "https://linkedin.com/company/bank-of-georgia", "contact:phone": "+995322444444", "contact:website": "https://bankofgeorgia.ge", "contact:youtube": "https://youtube.com/user/BankofGeorgiaTV", "currency:EUR": "yes", "currency:GEL": "yes", "currency:USD": "yes", "language:en": "yes", "language:ka": "yes", "opening_hours": "24/7", "operator": "\u10e1\u10d0\u10e5\u10d0\u10e0\u10d7\u10d5\u10d4\u10da\u10dd\u10e1 \u10d1\u10d0\u10dc\u10d9\u10d8", "operator:en": "Bank of Georgia", "operator:ru": "\u0411\u0430\u043d\u043a \u0413\u0440\u0443\u0437\u0438\u0438", "operator:tr": "G\u00fcrcistan Bankas\u0131", "operator:wikidata": "Q2469733"}}, {"type": "node", "id": 10680656709, "lat": 41.9228636, "lon": 41.9999701, "tags": {"amenity": "bank", "atm": "yes", "bic": "CBASGE22", "brand": "\u10d1\u10d0\u10d6\u10d8\u10e1\u10d1\u10d0\u10dc\u10d9\u10d8", "brand:en": "BasisBank", "brand:ru": "\u0411\u0430\u0437\u0438\u0441\u0411\u0430\u043d\u043a", "brand:wikidata": "Q16365625", "check_date": "2023-04-18", "contact:email": "info@basisbank.ge", "contact:facebook": "https://facebook.com/Basisbank", "contact:instagram": "https://instagram.com/basis_bank", "contact:linkedin": "https://linkedin.com/company/jsc-basisbank", "contact:phone": "+995322922922", "contact:website": "https://bb.ge", "contact:youtube": "https://youtube.com/user/basisbankhualing", "name": "\u10d1\u10d0\u10d6\u10d8\u10e1\u10d1\u10d0\u10dc\u10d9\u10d8", "name:en": "BasisBank", "name:ka": "\u10d1\u10d0\u10d6\u10d8\u10e1\u10d1\u10d0\u10dc\u10d9\u10d8", "name:ru": "\u0411\u0430\u0437\u0438\u0441\u0411\u0430\u043d\u043a", "opening_hours": "Mo-Fr 10:00-18:00; Sa 10:00-14:30", "operator:wikidata": "Q16365625"}}, {"type": "node", "id": 10680656710, "lat": 42.1416196, "lon": 41.6771373, "tags": {"amenity": "bank", "atm": "yes", "bic": "CBASGE22", "brand": "\u10d1\u10d0\u10d6\u10d8\u10e1\u10d1\u10d0\u10dc\u10d9\u10d8", "brand:en": "BasisBank", "brand:ru": "\u0411\u0430\u0437\u0438\u0441\u0411\u0430\u043d\u043a", "brand:wikidata": "Q16365625", "contact:email": "info@basisbank.ge", "contact:facebook": "https://facebook.com/Basisbank", "contact:instagram": "https://instagram.com/basis_bank", "contact:linkedin": "https://linkedin.com/company/jsc-basisbank", "contact:phone": "+995322922922", "contact:website": "https://bb.ge", "contact:youtube": "https://youtube.com/user/basisbankhualing", "name": "\u10d1\u10d0\u10d6\u10d8\u10e1\u10d1\u10d0\u10dc\u10d9\u10d8", "name:en": "BasisBank", "name:ka": "\u10d1\u10d0\u10d6\u10d8\u10e1\u10d1\u10d0\u10dc\u10d9\u10d8", "name:ru": "\u0411\u0430\u0437\u0438\u0441\u0411\u0430\u043d\u043a", "opening_hours": "Mo-Fr 10:00-18:00; Sa 10:00-14:30", "operator:wikidata": "Q16365625"}}, {"type": "node", "id": 10688161484, "lat": 42.1662504, "lon": 41.6518763, "tags": {"amenity": "atm", "brand": "\u10d1\u10d0\u10d6\u10d8\u10e1\u10d1\u10d0\u10dc\u10d9\u10d8", "brand:en": "BasisBank", "brand:ru": "\u0411\u0430\u0437\u0438\u0441\u0411\u0430\u043d\u043a", "brand:wikidata": "Q16365625", "cash_in": "no", "cash_out": "yes", "contact:email": "info@basisbank.ge", "contact:facebook": "https://facebook.com/Basisbank", "contact:instagram": "https://instagram.com/basis_bank", "contact:linkedin": "https://linkedin.com/company/jsc-basisbank", "contact:phone": "+995322922922", "contact:website": "https://bb.ge", "contact:youtube": "https://youtube.com/user/basisbankhualing", "currency:EUR": "no", "currency:GEL": "yes", "currency:USD": "no", "language:en": "yes", "language:ka": "yes", "language:ru": "no", "opening_hours": "24/7", "operator": "\u10d1\u10d0\u10d6\u10d8\u10e1\u10d1\u10d0\u10dc\u10d9\u10d8", "operator:wikidata": "Q16365625"}}, {"type": "node", "id": 10688170513, "lat": 42.1509684, "lon": 41.6603306, "tags": {"amenity": "atm", "brand": "\u10d1\u10d0\u10d6\u10d8\u10e1\u10d1\u10d0\u10dc\u10d9\u10d8", "brand:en": "BasisBank", "brand:ru": "\u0411\u0430\u0437\u0438\u0441\u0411\u0430\u043d\u043a", "brand:wikidata": "Q16365625", "cash_in": "no", "cash_out": "yes", "contact:email": "info@basisbank.ge", "contact:facebook": "https://facebook.com/Basisbank", "contact:instagram": "https://instagram.com/basis_bank", "contact:linkedin": "https://linkedin.com/company/jsc-basisbank", "contact:phone": "+995322922922", "contact:website": "https://bb.ge", "contact:youtube": "https://youtube.com/user/basisbankhualing", "currency:EUR": "no", "currency:GEL": "yes", "currency:USD": "no", "language:en": "yes", "language:ka": "yes", "language:ru": "no", "opening_hours": "24/7", "operator": "\u10d1\u10d0\u10d6\u10d8\u10e1\u10d1\u10d0\u10dc\u10d9\u10d8", "operator:wikidata": "Q16365625"}}, {"type": "node", "id": 10822029726, "lat": 41.9242376, "lon": 42.0031532, "tags": {"amenity": "atm", "brand": "\u10d7\u10d8\u10d1\u10d8\u10e1\u10d8 \u10d1\u10d0\u10dc\u10d9\u10d8", "brand:en": "TBC Bank", "brand:ru": "\u0422\u0438\u0411\u0438\u0421\u0438 \u0411\u0430\u043d\u043a", "brand:wikidata": "Q2620975", "cash_out": "yes", "contact:facebook": "https://www.facebook.com/tbcbank", "contact:linkedin": "https://www.linkedin.com/company/tbc-bank/", "contact:phone": "+995322272727", "contact:twitter": "https://twitter.com/JSCTBC", "contact:website": "https://www.tbcbank.ge", "contact:youtube": "https://www.youtube.com/user/TBCBankTV", "currency:EUR": "yes", "currency:GEL": "yes", "currency:USD": "yes", "language:en": "yes", "language:ka": "yes", "opening_hours": "24/7", "operator": "\u10d7\u10d8\u10d1\u10d8\u10e1\u10d8 \u10d1\u10d0\u10dc\u10d9\u10d8", "operator:wikidata": "Q2620975"}}, {"type": "node", "id": 10822029728, "lat": 41.9242383, "lon": 42.0034967, "tags": {"amenity": "atm", "brand": "\u10da\u10d8\u10d1\u10d4\u10e0\u10d7\u10d8", "brand:en": "Liberty", "brand:ru": "\u041b\u0438\u0431\u0435\u0440\u0442\u0438", "brand:wikidata": "Q6541585", "cash_out": "yes", "contact:email": "info@lb.ge", "contact:facebook": "https://facebook.com/libertybank.ge", "contact:instagram": "https://instagram.com/liberty_bank_", "contact:linkedin": "https://linkedin.com/company/libertybankge", "contact:phone": "+995322555500", "contact:website": "https://libertybank.ge", "currency:EUR": "yes", "currency:GEL": "yes", "currency:USD": "yes", "language:en": "yes", "language:ka": "yes", "opening_hours": "24/7", "operator": "\u10da\u10d8\u10d1\u10d4\u10e0\u10d7\u10d8 \u10d1\u10d0\u10dc\u10d9\u10d8", "operator:wikidata": "Q6541585"}}, {"type": "node", "id": 10822029732, "lat": 41.9229765, "lon": 42.0027698, "tags": {"amenity": "atm", "brand": "\u10d1\u10d0\u10d6\u10d8\u10e1\u10d1\u10d0\u10dc\u10d9\u10d8", "brand:en": "BasisBank", "brand:ru": "\u0411\u0430\u0437\u0438\u0441\u0411\u0430\u043d\u043a", "brand:wikidata": "Q16365625", "cash_in": "no", "cash_out": "yes", "contact:email": "info@basisbank.ge", "contact:facebook": "https://facebook.com/Basisbank", "contact:instagram": "https://instagram.com/basis_bank", "contact:linkedin": "https://linkedin.com/company/jsc-basisbank", "contact:phone": "+995322922922", "contact:website": "https://bb.ge", "contact:youtube": "https://youtube.com/user/basisbankhualing", "currency:EUR": "no", "currency:GEL": "yes", "currency:USD": "no", "language:en": "yes", "language:ka": "yes", "language:ru": "no", "opening_hours": "24/7", "operator": "\u10d1\u10d0\u10d6\u10d8\u10e1\u10d1\u10d0\u10dc\u10d9\u10d8", "operator:wikidata": "Q16365625"}}, {"type": "node", "id": 10822029733, "lat": 41.9242635, "lon": 42.00312, "tags": {"amenity": "bank", "atm": "yes", "bic": "TBCBGE22", "brand": "\u10d7\u10d8\u10d1\u10d8\u10e1\u10d8 \u10d1\u10d0\u10dc\u10d9\u10d8", "brand:en": "TBC Bank", "brand:ru": "\u0422\u0438\u0411\u0438\u0421\u0438 \u0411\u0430\u043d\u043a", "brand:wikidata": "Q2620975", "check_date": "2023-04-18", "contact:facebook": "https://www.facebook.com/tbcbank", "contact:linkedin": "https://www.linkedin.com/company/tbc-bank/", "contact:phone": "+995322272727", "contact:twitter": "https://twitter.com/JSCTBC", "contact:website": "https://www.tbcbank.ge", "contact:youtube": "https://www.youtube.com/user/TBCBankTV", "name": "\u10d7\u10d8\u10d1\u10d8\u10e1\u10d8 \u10d1\u10d0\u10dc\u10d9\u10d8", "name:en": "TBC Bank", "name:ka": "\u10d7\u10d8\u10d1\u10d8\u10e1\u10d8 \u10d1\u10d0\u10dc\u10d9\u10d8", "name:ru": "\u0422\u0438\u0411\u0438\u0421\u0438 \u0411\u0430\u043d\u043a", "opening_hours": "Mo-Fr 10:00-17:30; Sa 10:00-14:00; Su off", "operator:wikidata": "Q2620975", "short_name:en": "TBC", "short_name:ka": "\u10d7\u10d8\u10d1\u10d8\u10e1\u10d8", "short_name:ru": "\u0422\u0438\u0411\u0438\u0421\u0438", "wheelchair": "yes"}}, {"type": "node", "id": 10822029738, "lat": 41.9242972, "lon": 42.0034939, "tags": {"amenity": "bank", "atm": "yes", "bic": "LBRTGE22", "brand": "\u10da\u10d8\u10d1\u10d4\u10e0\u10d7\u10d8", "brand:en": "Liberty", "brand:ru": "\u041b\u0438\u0431\u0435\u0440\u0442\u0438", "brand:wikidata": "Q6541585", "check_date": "2023-04-18", "contact:email": "info@lb.ge", "contact:facebook": "https://facebook.com/libertybank.ge", "contact:instagram": "https://instagram.com/liberty_bank_", "contact:linkedin": "https://linkedin.com/company/libertybankge", "contact:phone": "+995322555500", "contact:website": "https://libertybank.ge", "name": "\u10da\u10d8\u10d1\u10d4\u10e0\u10d7\u10d8", "name:en": "Liberty", "name:ka": "\u10da\u10d8\u10d1\u10d4\u10e0\u10d7\u10d8", "name:ru": "\u041b\u0438\u0431\u0435\u0440\u0442\u0438", "opening_hours": "Mo-Fr 10:00-17:30; Sa 10:00-14:30; Su off", "operator:wikidata": "Q6541585", "wheelchair": "yes"}}, {"type": "node", "id": 10822081713, "lat": 41.9222857, "lon": 42.0042065, "tags": {"amenity": "atm", "brand": "\u10d7\u10d8\u10d1\u10d8\u10e1\u10d8 \u10d1\u10d0\u10dc\u10d9\u10d8", "brand:en": "TBC Bank", "brand:ka": "\u10d7\u10d8\u10d1\u10d8\u10e1\u10d8 \u10d1\u10d0\u10dc\u10d9\u10d8", "brand:ru": "\u0422\u0438\u0411\u0438\u0421\u0438 \u0411\u0430\u043d\u043a", "brand:wikidata": "Q2620975", "cash_out": "yes", "check_date": "2023-04-18", "contact:facebook": "https://www.facebook.com/tbcbank", "contact:linkedin": "https://www.linkedin.com/company/tbc-bank/", "contact:phone": "+995322272727", "contact:twitter": "https://twitter.com/JSCTBC", "contact:website": "https://www.tbcbank.ge", "contact:youtube": "https://www.youtube.com/user/TBCBankTV", "currency:EUR": "yes", "currency:GEL": "yes", "currency:USD": "yes", "language:en": "yes", "language:ka": "yes", "opening_hours": "24/7", "operator": "\u10d7\u10d8\u10d1\u10d8\u10e1\u10d8 \u10d1\u10d0\u10dc\u10d9\u10d8", "operator:wikidata": "Q2620975"}}, {"type": "node", "id": 10822081716, "lat": 41.922294, "lon": 42.0042544, "tags": {"amenity": "bank", "atm": "yes", "bic": "TBCBGE22", "brand": "\u10d7\u10d8\u10d1\u10d8\u10e1\u10d8 \u10d1\u10d0\u10dc\u10d9\u10d8", "brand:en": "TBC Bank", "brand:ka": "\u10d7\u10d8\u10d1\u10d8\u10e1\u10d8 \u10d1\u10d0\u10dc\u10d9\u10d8", "brand:ru": "\u0422\u0438\u0411\u0438\u0421\u0438 \u0411\u0430\u043d\u043a", "brand:wikidata": "Q2620975", "check_date": "2023-04-18", "contact:facebook": "https://www.facebook.com/tbcbank", "contact:linkedin": "https://www.linkedin.com/company/tbc-bank/", "contact:phone": "+995322272727", "contact:twitter": "https://twitter.com/JSCTBC", "contact:website": "https://www.tbcbank.ge", "contact:youtube": "https://www.youtube.com/user/TBCBankTV", "name": "\u10d7\u10d8\u10d1\u10d8\u10e1\u10d8 \u10d1\u10d0\u10dc\u10d9\u10d8", "name:en": "TBC Bank", "name:ka": "\u10d7\u10d8\u10d1\u10d8\u10e1\u10d8 \u10d1\u10d0\u10dc\u10d9\u10d8", "name:ru": "\u0422\u0438\u0411\u0438\u0421\u0438 \u0411\u0430\u043d\u043a", "operator:wikidata": "Q2620975", "short_name:en": "TBC", "short_name:ka": "\u10d7\u10d8\u10d1\u10d8\u10e1\u10d8", "short_name:ru": "\u0422\u0438\u0411\u0438\u0421\u0438"}}, {"type": "node", "id": 10822081719, "lat": 41.922962, "lon": 42.0036597, "tags": {"amenity": "bank", "atm": "yes", "bic": "BAGAGE22", "brand": "\u10e1\u10d0\u10e5\u10d0\u10e0\u10d7\u10d5\u10d4\u10da\u10dd\u10e1 \u10d1\u10d0\u10dc\u10d9\u10d8", "brand:en": "Bank of Georgia", "brand:ka": "\u10e1\u10d0\u10e5\u10d0\u10e0\u10d7\u10d5\u10d4\u10da\u10dd\u10e1 \u10d1\u10d0\u10dc\u10d9\u10d8", "brand:ru": "\u0411\u0430\u043d\u043a \u0413\u0440\u0443\u0437\u0438\u0438", "brand:tr": "G\u00fcrcistan Bankas\u0131", "brand:wikidata": "Q2469733", "check_date": "2023-04-18", "contact:email": "customerservice@bog.ge", "contact:instagram": "https://instagram.com/bankofgeorgia", "contact:linkedin": "https://linkedin.com/company/bank-of-georgia", "contact:phone": "+995322444444", "contact:website": "https://bankofgeorgia.ge", "contact:youtube": "https://youtube.com/user/BankofGeorgiaTV", "name": "\u10e1\u10d0\u10e5\u10d0\u10e0\u10d7\u10d5\u10d4\u10da\u10dd\u10e1 \u10d1\u10d0\u10dc\u10d9\u10d8", "name:en": "Bank of Georgia", "name:ka": "\u10e1\u10d0\u10e5\u10d0\u10e0\u10d7\u10d5\u10d4\u10da\u10dd\u10e1 \u10d1\u10d0\u10dc\u10d9\u10d8", "name:ru": "\u0411\u0430\u043d\u043a \u0413\u0440\u0443\u0437\u0438\u0438", "name:tr": "G\u00fcrcistan Bankas\u0131", "opening_hours": "Mo-Fr 10:00-17:30; Sa 10:00-14:00", "operator:wikidata": "Q2469733", "payment:cash": "yes", "payment:cash:EUR": "yes", "payment:cash:USD": "yes", "payment:coins": "no", "short_name:en": "BoG"}}, {"type": "node", "id": 10822081721, "lat": 41.9229995, "lon": 42.003618, "tags": {"amenity": "atm", "brand": "\u10e1\u10d0\u10e5\u10d0\u10e0\u10d7\u10d5\u10d4\u10da\u10dd\u10e1 \u10d1\u10d0\u10dc\u10d9\u10d8", "brand:en": "Bank of Georgia", "brand:ka": "\u10e1\u10d0\u10e5\u10d0\u10e0\u10d7\u10d5\u10d4\u10da\u10dd\u10e1 \u10d1\u10d0\u10dc\u10d9\u10d8", "brand:ru": "\u0411\u0430\u043d\u043a \u0413\u0440\u0443\u0437\u0438\u0438", "brand:tr": "G\u00fcrcistan Bankas\u0131", "brand:wikidata": "Q2469733", "cash_out": "yes", "check_date": "2023-04-18", "contact:email": "customerservice@bog.ge", "contact:instagram": "https://instagram.com/bankofgeorgia", "contact:linkedin": "https://linkedin.com/company/bank-of-georgia", "contact:phone": "+995322444444", "contact:website": "https://bankofgeorgia.ge", "contact:youtube": "https://youtube.com/user/BankofGeorgiaTV", "currency:EUR": "yes", "currency:GEL": "yes", "currency:USD": "yes", "language:en": "yes", "language:ka": "yes", "opening_hours": "24/7", "operator": "\u10e1\u10d0\u10e5\u10d0\u10e0\u10d7\u10d5\u10d4\u10da\u10dd\u10e1 \u10d1\u10d0\u10dc\u10d9\u10d8", "operator:wikidata": "Q2469733"}}, {"type": "node", "id": 10822113216, "lat": 41.9222577, "lon": 42.0028322, "tags": {"amenity": "atm", "brand": "\u10d7\u10d8\u10d1\u10d8\u10e1\u10d8 \u10d1\u10d0\u10dc\u10d9\u10d8", "brand:en": "TBC Bank", "brand:ka": "\u10d7\u10d8\u10d1\u10d8\u10e1\u10d8 \u10d1\u10d0\u10dc\u10d9\u10d8", "brand:ru": "\u0422\u0438\u0411\u0438\u0421\u0438 \u0411\u0430\u043d\u043a", "brand:wikidata": "Q2620975", "cash_out": "yes", "contact:facebook": "https://www.facebook.com/tbcbank", "contact:linkedin": "https://www.linkedin.com/company/tbc-bank/", "contact:phone": "+995322272727", "contact:twitter": "https://twitter.com/JSCTBC", "contact:website": "https://www.tbcbank.ge", "contact:youtube": "https://www.youtube.com/user/TBCBankTV", "currency:EUR": "yes", "currency:GEL": "yes", "currency:USD": "yes", "language:en": "yes", "language:ka": "yes", "opening_hours": "24/7", "operator": "\u10d7\u10d8\u10d1\u10d8\u10e1\u10d8 \u10d1\u10d0\u10dc\u10d9\u10d8", "operator:wikidata": "Q2620975"}}, {"type": "node", "id": 10822113226, "lat": 41.9222483, "lon": 42.0027116, "tags": {"amenity": "atm", "brand": "\u10da\u10d8\u10d1\u10d4\u10e0\u10d7\u10d8", "brand:en": "Liberty", "brand:ru": "\u041b\u0438\u0431\u0435\u0440\u0442\u0438", "brand:wikidata": "Q6541585", "cash_out": "yes", "contact:email": "info@lb.ge", "contact:facebook": "https://facebook.com/libertybank.ge", "contact:instagram": "https://instagram.com/liberty_bank_", "contact:linkedin": "https://linkedin.com/company/libertybankge", "contact:phone": "+995322555500", "contact:website": "https://libertybank.ge", "currency:EUR": "yes", "currency:GEL": "yes", "currency:USD": "yes", "language:en": "yes", "language:ka": "yes", "opening_hours": "24/7", "operator": "\u10da\u10d8\u10d1\u10d4\u10e0\u10d7\u10d8 \u10d1\u10d0\u10dc\u10d9\u10d8", "operator:wikidata": "Q6541585"}}, {"type": "node", "id": 10829332057, "lat": 42.086898, "lon": 42.0363591, "tags": {"amenity": "bank", "atm": "yes", "bic": "BAGAGE22", "brand": "\u10e1\u10d0\u10e5\u10d0\u10e0\u10d7\u10d5\u10d4\u10da\u10dd\u10e1 \u10d1\u10d0\u10dc\u10d9\u10d8", "brand:en": "Bank of Georgia", "brand:ru": "\u0411\u0430\u043d\u043a \u0413\u0440\u0443\u0437\u0438\u0438", "brand:tr": "G\u00fcrcistan Bankas\u0131", "brand:wikidata": "Q2469733", "contact:email": "customerservice@bog.ge", "contact:instagram": "https://instagram.com/bankofgeorgia", "contact:linkedin": "https://linkedin.com/company/bank-of-georgia", "contact:phone": "+995322444444", "contact:website": "https://bankofgeorgia.ge", "contact:youtube": "https://youtube.com/user/BankofGeorgiaTV", "name": "\u10e1\u10d0\u10e5\u10d0\u10e0\u10d7\u10d5\u10d4\u10da\u10dd\u10e1 \u10d1\u10d0\u10dc\u10d9\u10d8", "name:en": "Bank of Georgia", "name:ka": "\u10e1\u10d0\u10e5\u10d0\u10e0\u10d7\u10d5\u10d4\u10da\u10dd\u10e1 \u10d1\u10d0\u10dc\u10d9\u10d8", "name:ru": "\u0411\u0430\u043d\u043a \u0413\u0440\u0443\u0437\u0438\u0438", "name:tr": "G\u00fcrcistan Bankas\u0131", "opening_hours": "Mo-Fr 10:00-17:30; Sa 10:00-14:00", "operator:wikidata": "Q2469733", "short_name:en": "BoG", "wikipedia": "en:Bank of Georgia"}}, {"type": "node", "id": 10829332058, "lat": 41.9397299, "lon": 41.7666401, "tags": {"amenity": "atm", "brand": "\u10e1\u10d0\u10e5\u10d0\u10e0\u10d7\u10d5\u10d4\u10da\u10dd\u10e1 \u10d1\u10d0\u10dc\u10d9\u10d8", "brand:en": "Bank of Georgia", "brand:ru": "\u0411\u0430\u043d\u043a \u0413\u0440\u0443\u0437\u0438\u0438", "brand:tr": "G\u00fcrcistan Bankas\u0131", "brand:wikidata": "Q2469733", "cash_out": "yes", "contact:email": "customerservice@bog.ge", "contact:instagram": "https://instagram.com/bankofgeorgia", "contact:linkedin": "https://linkedin.com/company/bank-of-georgia", "contact:phone": "+995322444444", "contact:website": "https://bankofgeorgia.ge", "contact:youtube": "https://youtube.com/user/BankofGeorgiaTV", "currency:EUR": "yes", "currency:GEL": "yes", "currency:USD": "yes", "language:en": "yes", "language:ka": "yes", "opening_hours": "24/7", "operator": "\u10e1\u10d0\u10e5\u10d0\u10e0\u10d7\u10d5\u10d4\u10da\u10dd\u10e1 \u10d1\u10d0\u10dc\u10d9\u10d8", "operator:wikidata": "Q2469733"}}, {"type": "node", "id": 10829332059, "lat": 41.9923595, "lon": 41.7816791, "tags": {"amenity": "atm", "brand": "\u10e1\u10d0\u10e5\u10d0\u10e0\u10d7\u10d5\u10d4\u10da\u10dd\u10e1 \u10d1\u10d0\u10dc\u10d9\u10d8", "brand:en": "Bank of Georgia", "brand:ru": "\u0411\u0430\u043d\u043a \u0413\u0440\u0443\u0437\u0438\u0438", "brand:tr": "G\u00fcrcistan Bankas\u0131", "brand:wikidata": "Q2469733", "cash_out": "yes", "contact:email": "customerservice@bog.ge", "contact:instagram": "https://instagram.com/bankofgeorgia", "contact:linkedin": "https://linkedin.com/company/bank-of-georgia", "contact:phone": "+995322444444", "contact:website": "https://bankofgeorgia.ge", "contact:youtube": "https://youtube.com/user/BankofGeorgiaTV", "currency:EUR": "yes", "currency:GEL": "yes", "currency:USD": "yes", "language:en": "yes", "language:ka": "yes", "opening_hours": "24/7", "operator": "\u10e1\u10d0\u10e5\u10d0\u10e0\u10d7\u10d5\u10d4\u10da\u10dd\u10e1 \u10d1\u10d0\u10dc\u10d9\u10d8", "operator:wikidata": "Q2469733"}}, {"type": "node", "id": 10829332060, "lat": 42.086531, "lon": 42.0391095, "tags": {"amenity": "atm", "brand": "\u10e1\u10d0\u10e5\u10d0\u10e0\u10d7\u10d5\u10d4\u10da\u10dd\u10e1 \u10d1\u10d0\u10dc\u10d9\u10d8", "brand:en": "Bank of Georgia", "brand:ru": "\u0411\u0430\u043d\u043a \u0413\u0440\u0443\u0437\u0438\u0438", "brand:tr": "G\u00fcrcistan Bankas\u0131", "brand:wikidata": "Q2469733", "cash_out": "yes", "contact:email": "customerservice@bog.ge", "contact:instagram": "https://instagram.com/bankofgeorgia", "contact:linkedin": "https://linkedin.com/company/bank-of-georgia", "contact:phone": "+995322444444", "contact:website": "https://bankofgeorgia.ge", "contact:youtube": "https://youtube.com/user/BankofGeorgiaTV", "currency:EUR": "yes", "currency:GEL": "yes", "currency:USD": "yes", "language:en": "yes", "language:ka": "yes", "opening_hours": "24/7", "operator": "\u10e1\u10d0\u10e5\u10d0\u10e0\u10d7\u10d5\u10d4\u10da\u10dd\u10e1 \u10d1\u10d0\u10dc\u10d9\u10d8", "operator:wikidata": "Q2469733"}}, {"type": "node", "id": 10829332061, "lat": 41.926903, "lon": 42.0012151, "tags": {"amenity": "atm", "brand": "\u10e1\u10d0\u10e5\u10d0\u10e0\u10d7\u10d5\u10d4\u10da\u10dd\u10e1 \u10d1\u10d0\u10dc\u10d9\u10d8", "brand:en": "Bank of Georgia", "brand:ru": "\u0411\u0430\u043d\u043a \u0413\u0440\u0443\u0437\u0438\u0438", "brand:tr": "G\u00fcrcistan Bankas\u0131", "brand:wikidata": "Q2469733", "cash_out": "yes", "contact:email": "customerservice@bog.ge", "contact:instagram": "https://instagram.com/bankofgeorgia", "contact:linkedin": "https://linkedin.com/company/bank-of-georgia", "contact:phone": "+995322444444", "contact:website": "https://bankofgeorgia.ge", "contact:youtube": "https://youtube.com/user/BankofGeorgiaTV", "currency:EUR": "yes", "currency:GEL": "yes", "currency:USD": "yes", "language:en": "yes", "language:ka": "yes", "opening_hours": "24/7", "operator": "\u10e1\u10d0\u10e5\u10d0\u10e0\u10d7\u10d5\u10d4\u10da\u10dd\u10e1 \u10d1\u10d0\u10dc\u10d9\u10d8", "operator:wikidata": "Q2469733"}}, {"type": "node", "id": 10829332063, "lat": 41.930443, "lon": 41.97472, "tags": {"amenity": "atm", "brand": "\u10e1\u10d0\u10e5\u10d0\u10e0\u10d7\u10d5\u10d4\u10da\u10dd\u10e1 \u10d1\u10d0\u10dc\u10d9\u10d8", "brand:en": "Bank of Georgia", "brand:ru": "\u0411\u0430\u043d\u043a \u0413\u0440\u0443\u0437\u0438\u0438", "brand:tr": "G\u00fcrcistan Bankas\u0131", "brand:wikidata": "Q2469733", "cash_out": "yes", "contact:email": "customerservice@bog.ge", "contact:instagram": "https://instagram.com/bankofgeorgia", "contact:linkedin": "https://linkedin.com/company/bank-of-georgia", "contact:phone": "+995322444444", "contact:website": "https://bankofgeorgia.ge", "contact:youtube": "https://youtube.com/user/BankofGeorgiaTV", "currency:EUR": "yes", "currency:GEL": "yes", "currency:USD": "yes", "language:en": "yes", "language:ka": "yes", "opening_hours": "24/7", "operator": "\u10e1\u10d0\u10e5\u10d0\u10e0\u10d7\u10d5\u10d4\u10da\u10dd\u10e1 \u10d1\u10d0\u10dc\u10d9\u10d8", "operator:wikidata": "Q2469733"}}, {"type": "node", "id": 10829332064, "lat": 42.0869399, "lon": 42.0363805, "tags": {"amenity": "atm", "brand": "\u10e1\u10d0\u10e5\u10d0\u10e0\u10d7\u10d5\u10d4\u10da\u10dd\u10e1 \u10d1\u10d0\u10dc\u10d9\u10d8", "brand:en": "Bank of Georgia", "brand:ru": "\u0411\u0430\u043d\u043a \u0413\u0440\u0443\u0437\u0438\u0438", "brand:tr": "G\u00fcrcistan Bankas\u0131", "brand:wikidata": "Q2469733", "cash_out": "yes", "contact:email": "customerservice@bog.ge", "contact:instagram": "https://instagram.com/bankofgeorgia", "contact:linkedin": "https://linkedin.com/company/bank-of-georgia", "contact:phone": "+995322444444", "contact:website": "https://bankofgeorgia.ge", "contact:youtube": "https://youtube.com/user/BankofGeorgiaTV", "currency:EUR": "yes", "currency:GEL": "yes", "currency:USD": "yes", "language:en": "yes", "language:ka": "yes", "opening_hours": "24/7", "operator": "\u10e1\u10d0\u10e5\u10d0\u10e0\u10d7\u10d5\u10d4\u10da\u10dd\u10e1 \u10d1\u10d0\u10dc\u10d9\u10d8", "operator:wikidata": "Q2469733"}}, {"type": "node", "id": 10848228590, "lat": 42.1555974, "lon": 41.6701501, "tags": {"amenity": "atm", "brand": "\u10e1\u10d0\u10e5\u10d0\u10e0\u10d7\u10d5\u10d4\u10da\u10dd\u10e1 \u10d1\u10d0\u10dc\u10d9\u10d8", "brand:en": "Bank of Georgia", "brand:ru": "\u0411\u0430\u043d\u043a \u0413\u0440\u0443\u0437\u0438\u0438", "brand:tr": "G\u00fcrcistan Bankas\u0131", "brand:wikidata": "Q2469733", "cash_out": "yes", "contact:email": "customerservice@bog.ge", "contact:instagram": "https://instagram.com/bankofgeorgia", "contact:linkedin": "https://linkedin.com/company/bank-of-georgia", "contact:phone": "+995322444444", "contact:website": "https://bankofgeorgia.ge", "contact:youtube": "https://youtube.com/user/BankofGeorgiaTV", "currency:EUR": "yes", "currency:GEL": "yes", "currency:USD": "yes", "language:en": "yes", "language:ka": "yes", "opening_hours": "24/7", "operator": "\u10e1\u10d0\u10e5\u10d0\u10e0\u10d7\u10d5\u10d4\u10da\u10dd\u10e1 \u10d1\u10d0\u10dc\u10d9\u10d8", "operator:wikidata": "Q2469733"}}, {"type": "node", "id": 10848228594, "lat": 42.1580712, "lon": 41.6637129, "tags": {"amenity": "bank", "atm": "yes", "bic": "BAGAGE22", "brand": "\u10e1\u10d0\u10e5\u10d0\u10e0\u10d7\u10d5\u10d4\u10da\u10dd\u10e1 \u10d1\u10d0\u10dc\u10d9\u10d8", "brand:en": "Bank of Georgia", "brand:ru": "\u0411\u0430\u043d\u043a \u0413\u0440\u0443\u0437\u0438\u0438", "brand:tr": "G\u00fcrcistan Bankas\u0131", "brand:wikidata": "Q2469733", "contact:email": "customerservice@bog.ge", "contact:instagram": "https://instagram.com/bankofgeorgia", "contact:linkedin": "https://linkedin.com/company/bank-of-georgia", "contact:phone": "+995322444444", "contact:website": "https://bankofgeorgia.ge", "contact:youtube": "https://youtube.com/user/BankofGeorgiaTV", "name": "\u10e1\u10d0\u10e5\u10d0\u10e0\u10d7\u10d5\u10d4\u10da\u10dd\u10e1 \u10d1\u10d0\u10dc\u10d9\u10d8", "name:en": "Bank of Georgia", "name:ka": "\u10e1\u10d0\u10e5\u10d0\u10e0\u10d7\u10d5\u10d4\u10da\u10dd\u10e1 \u10d1\u10d0\u10dc\u10d9\u10d8", "name:ru": "\u0411\u0430\u043d\u043a \u0413\u0440\u0443\u0437\u0438\u0438", "name:tr": "G\u00fcrcistan Bankas\u0131", "opening_hours": "Mo-Sa 08:00-20:00", "operator:wikidata": "Q2469733", "short_name:en": "BoG"}}, {"type": "node", "id": 10848228595, "lat": 42.1663005, "lon": 41.652233, "tags": {"amenity": "bank", "atm": "yes", "bic": "BAGAGE22", "brand": "\u10e1\u10d0\u10e5\u10d0\u10e0\u10d7\u10d5\u10d4\u10da\u10dd\u10e1 \u10d1\u10d0\u10dc\u10d9\u10d8", "brand:en": "Bank of Georgia", "brand:ru": "\u0411\u0430\u043d\u043a \u0413\u0440\u0443\u0437\u0438\u0438", "brand:tr": "G\u00fcrcistan Bankas\u0131", "brand:wikidata": "Q2469733", "contact:email": "customerservice@bog.ge", "contact:instagram": "https://instagram.com/bankofgeorgia", "contact:linkedin": "https://linkedin.com/company/bank-of-georgia", "contact:phone": "+995322444444", "contact:website": "https://bankofgeorgia.ge", "contact:youtube": "https://youtube.com/user/BankofGeorgiaTV", "name": "\u10e1\u10d0\u10e5\u10d0\u10e0\u10d7\u10d5\u10d4\u10da\u10dd\u10e1 \u10d1\u10d0\u10dc\u10d9\u10d8", "name:en": "Bank of Georgia", "name:ka": "\u10e1\u10d0\u10e5\u10d0\u10e0\u10d7\u10d5\u10d4\u10da\u10dd\u10e1 \u10d1\u10d0\u10dc\u10d9\u10d8", "name:ru": "\u0411\u0430\u043d\u043a \u0413\u0440\u0443\u0437\u0438\u0438", "name:tr": "G\u00fcrcistan Bankas\u0131", "opening_hours": "Mo-Sa 00:00-00:00", "operator:wikidata": "Q2469733", "short_name:en": "BoG"}}, {"type": "node", "id": 10848228596, "lat": 42.1449527, "lon": 41.6765767, "tags": {"amenity": "bank", "atm": "yes", "bic": "BAGAGE22", "brand": "\u10e1\u10d0\u10e5\u10d0\u10e0\u10d7\u10d5\u10d4\u10da\u10dd\u10e1 \u10d1\u10d0\u10dc\u10d9\u10d8", "brand:en": "Bank of Georgia", "brand:ru": "\u0411\u0430\u043d\u043a \u0413\u0440\u0443\u0437\u0438\u0438", "brand:tr": "G\u00fcrcistan Bankas\u0131", "brand:wikidata": "Q2469733", "contact:email": "customerservice@bog.ge", "contact:instagram": "https://instagram.com/bankofgeorgia", "contact:linkedin": "https://linkedin.com/company/bank-of-georgia", "contact:phone": "+995322444444", "contact:website": "https://bankofgeorgia.ge", "contact:youtube": "https://youtube.com/user/BankofGeorgiaTV", "name": "\u10e1\u10d0\u10e5\u10d0\u10e0\u10d7\u10d5\u10d4\u10da\u10dd\u10e1 \u10d1\u10d0\u10dc\u10d9\u10d8", "name:en": "Bank of Georgia", "name:ka": "\u10e1\u10d0\u10e5\u10d0\u10e0\u10d7\u10d5\u10d4\u10da\u10dd\u10e1 \u10d1\u10d0\u10dc\u10d9\u10d8", "name:ru": "\u0411\u0430\u043d\u043a \u0413\u0440\u0443\u0437\u0438\u0438", "name:tr": "G\u00fcrcistan Bankas\u0131", "opening_hours": "Mo-Fr 10:00-17:30; Sa 10:00-14:00", "operator:wikidata": "Q2469733", "short_name:en": "BoG"}}, {"type": "node", "id": 10848228597, "lat": 42.1449984, "lon": 41.6765123, "tags": {"amenity": "atm", "brand": "\u10e1\u10d0\u10e5\u10d0\u10e0\u10d7\u10d5\u10d4\u10da\u10dd\u10e1 \u10d1\u10d0\u10dc\u10d9\u10d8", "brand:en": "Bank of Georgia", "brand:ru": "\u0411\u0430\u043d\u043a \u0413\u0440\u0443\u0437\u0438\u0438", "brand:tr": "G\u00fcrcistan Bankas\u0131", "brand:wikidata": "Q2469733", "cash_out": "yes", "contact:email": "customerservice@bog.ge", "contact:instagram": "https://instagram.com/bankofgeorgia", "contact:linkedin": "https://linkedin.com/company/bank-of-georgia", "contact:phone": "+995322444444", "contact:website": "https://bankofgeorgia.ge", "contact:youtube": "https://youtube.com/user/BankofGeorgiaTV", "currency:EUR": "yes", "currency:GEL": "yes", "currency:USD": "yes", "language:en": "yes", "language:ka": "yes", "opening_hours": "24/7", "operator": "\u10e1\u10d0\u10e5\u10d0\u10e0\u10d7\u10d5\u10d4\u10da\u10dd\u10e1 \u10d1\u10d0\u10dc\u10d9\u10d8", "operator:wikidata": "Q2469733"}}, {"type": "node", "id": 10848228598, "lat": 42.1320266, "lon": 41.684795, "tags": {"amenity": "atm", "brand": "\u10e1\u10d0\u10e5\u10d0\u10e0\u10d7\u10d5\u10d4\u10da\u10dd\u10e1 \u10d1\u10d0\u10dc\u10d9\u10d8", "brand:en": "Bank of Georgia", "brand:ru": "\u0411\u0430\u043d\u043a \u0413\u0440\u0443\u0437\u0438\u0438", "brand:tr": "G\u00fcrcistan Bankas\u0131", "brand:wikidata": "Q2469733", "cash_out": "yes", "contact:email": "customerservice@bog.ge", "contact:instagram": "https://instagram.com/bankofgeorgia", "contact:linkedin": "https://linkedin.com/company/bank-of-georgia", "contact:phone": "+995322444444", "contact:website": "https://bankofgeorgia.ge", "contact:youtube": "https://youtube.com/user/BankofGeorgiaTV", "currency:EUR": "yes", "currency:GEL": "yes", "currency:USD": "yes", "language:en": "yes", "language:ka": "yes", "opening_hours": "24/7", "operator": "\u10e1\u10d0\u10e5\u10d0\u10e0\u10d7\u10d5\u10d4\u10da\u10dd\u10e1 \u10d1\u10d0\u10dc\u10d9\u10d8", "operator:wikidata": "Q2469733"}}, {"type": "node", "id": 10848228599, "lat": 42.1670596, "lon": 41.6779457, "tags": {"amenity": "atm", "brand": "\u10e1\u10d0\u10e5\u10d0\u10e0\u10d7\u10d5\u10d4\u10da\u10dd\u10e1 \u10d1\u10d0\u10dc\u10d9\u10d8", "brand:en": "Bank of Georgia", "brand:ru": "\u0411\u0430\u043d\u043a \u0413\u0440\u0443\u0437\u0438\u0438", "brand:tr": "G\u00fcrcistan Bankas\u0131", "brand:wikidata": "Q2469733", "cash_out": "yes", "contact:email": "customerservice@bog.ge", "contact:instagram": "https://instagram.com/bankofgeorgia", "contact:linkedin": "https://linkedin.com/company/bank-of-georgia", "contact:phone": "+995322444444", "contact:website": "https://bankofgeorgia.ge", "contact:youtube": "https://youtube.com/user/BankofGeorgiaTV", "currency:EUR": "yes", "currency:GEL": "yes", "currency:USD": "yes", "language:en": "yes", "language:ka": "yes", "opening_hours": "24/7", "operator": "\u10e1\u10d0\u10e5\u10d0\u10e0\u10d7\u10d5\u10d4\u10da\u10dd\u10e1 \u10d1\u10d0\u10dc\u10d9\u10d8", "operator:wikidata": "Q2469733"}}, {"type": "node", "id": 10848228600, "lat": 42.1671931, "lon": 41.6806912, "tags": {"amenity": "atm", "brand": "\u10e1\u10d0\u10e5\u10d0\u10e0\u10d7\u10d5\u10d4\u10da\u10dd\u10e1 \u10d1\u10d0\u10dc\u10d9\u10d8", "brand:en": "Bank of Georgia", "brand:ru": "\u0411\u0430\u043d\u043a \u0413\u0440\u0443\u0437\u0438\u0438", "brand:tr": "G\u00fcrcistan Bankas\u0131", "brand:wikidata": "Q2469733", "cash_out": "yes", "contact:email": "customerservice@bog.ge", "contact:instagram": "https://instagram.com/bankofgeorgia", "contact:linkedin": "https://linkedin.com/company/bank-of-georgia", "contact:phone": "+995322444444", "contact:website": "https://bankofgeorgia.ge", "contact:youtube": "https://youtube.com/user/BankofGeorgiaTV", "currency:EUR": "yes", "currency:GEL": "yes", "currency:USD": "yes", "language:en": "yes", "language:ka": "yes", "opening_hours": "24/7", "operator": "\u10e1\u10d0\u10e5\u10d0\u10e0\u10d7\u10d5\u10d4\u10da\u10dd\u10e1 \u10d1\u10d0\u10dc\u10d9\u10d8", "operator:wikidata": "Q2469733"}}, {"type": "node", "id": 10848228601, "lat": 42.1439485, "lon": 41.6812759, "tags": {"amenity": "atm", "brand": "\u10e1\u10d0\u10e5\u10d0\u10e0\u10d7\u10d5\u10d4\u10da\u10dd\u10e1 \u10d1\u10d0\u10dc\u10d9\u10d8", "brand:en": "Bank of Georgia", "brand:ru": "\u0411\u0430\u043d\u043a \u0413\u0440\u0443\u0437\u0438\u0438", "brand:tr": "G\u00fcrcistan Bankas\u0131", "brand:wikidata": "Q2469733", "cash_out": "yes", "contact:email": "customerservice@bog.ge", "contact:instagram": "https://instagram.com/bankofgeorgia", "contact:linkedin": "https://linkedin.com/company/bank-of-georgia", "contact:phone": "+995322444444", "contact:website": "https://bankofgeorgia.ge", "contact:youtube": "https://youtube.com/user/BankofGeorgiaTV", "currency:EUR": "yes", "currency:GEL": "yes", "currency:USD": "yes", "language:en": "yes", "language:ka": "yes", "opening_hours": "24/7", "operator": "\u10e1\u10d0\u10e5\u10d0\u10e0\u10d7\u10d5\u10d4\u10da\u10dd\u10e1 \u10d1\u10d0\u10dc\u10d9\u10d8", "operator:wikidata": "Q2469733"}}, {"type": "node", "id": 10848228603, "lat": 42.2674565, "lon": 42.062493, "tags": {"amenity": "atm", "brand": "\u10e1\u10d0\u10e5\u10d0\u10e0\u10d7\u10d5\u10d4\u10da\u10dd\u10e1 \u10d1\u10d0\u10dc\u10d9\u10d8", "brand:en": "Bank of Georgia", "brand:ru": "\u0411\u0430\u043d\u043a \u0413\u0440\u0443\u0437\u0438\u0438", "brand:tr": "G\u00fcrcistan Bankas\u0131", "brand:wikidata": "Q2469733", "cash_out": "yes", "contact:email": "customerservice@bog.ge", "contact:instagram": "https://instagram.com/bankofgeorgia", "contact:linkedin": "https://linkedin.com/company/bank-of-georgia", "contact:phone": "+995322444444", "contact:website": "https://bankofgeorgia.ge", "contact:youtube": "https://youtube.com/user/BankofGeorgiaTV", "currency:EUR": "yes", "currency:GEL": "yes", "currency:USD": "yes", "language:en": "yes", "language:ka": "yes", "opening_hours": "24/7", "operator": "\u10e1\u10d0\u10e5\u10d0\u10e0\u10d7\u10d5\u10d4\u10da\u10dd\u10e1 \u10d1\u10d0\u10dc\u10d9\u10d8", "operator:wikidata": "Q2469733"}}, {"type": "node", "id": 10848270708, "lat": 42.1399866, "lon": 41.6755307, "tags": {"amenity": "atm", "brand": "\u10d1\u10d0\u10d6\u10d8\u10e1\u10d1\u10d0\u10dc\u10d9\u10d8", "brand:en": "BasisBank", "brand:ru": "\u0411\u0430\u0437\u0438\u0441\u0411\u0430\u043d\u043a", "brand:wikidata": "Q16365625", "cash_in": "no", "cash_out": "yes", "contact:email": "info@basisbank.ge", "contact:facebook": "https://facebook.com/Basisbank", "contact:instagram": "https://instagram.com/basis_bank", "contact:linkedin": "https://linkedin.com/company/jsc-basisbank", "contact:phone": "+995322922922", "contact:website": "https://bb.ge", "contact:youtube": "https://youtube.com/user/basisbankhualing", "currency:EUR": "no", "currency:GEL": "yes", "currency:USD": "no", "language:en": "yes", "language:ka": "yes", "language:ru": "no", "opening_hours": "24/7", "operator": "\u10d1\u10d0\u10d6\u10d8\u10e1\u10d1\u10d0\u10dc\u10d9\u10d8", "operator:wikidata": "Q16365625"}}, {"type": "node", "id": 10848291306, "lat": 42.2693523, "lon": 42.0609963, "tags": {"amenity": "atm", "brand": "\u10e1\u10d0\u10e5\u10d0\u10e0\u10d7\u10d5\u10d4\u10da\u10dd\u10e1 \u10d1\u10d0\u10dc\u10d9\u10d8", "brand:en": "Bank of Georgia", "brand:ru": "\u0411\u0430\u043d\u043a \u0413\u0440\u0443\u0437\u0438\u0438", "brand:tr": "G\u00fcrcistan Bankas\u0131", "brand:wikidata": "Q2469733", "cash_out": "yes", "contact:email": "customerservice@bog.ge", "contact:instagram": "https://instagram.com/bankofgeorgia", "contact:linkedin": "https://linkedin.com/company/bank-of-georgia", "contact:phone": "+995322444444", "contact:website": "https://bankofgeorgia.ge", "contact:youtube": "https://youtube.com/user/BankofGeorgiaTV", "currency:EUR": "yes", "currency:GEL": "yes", "currency:USD": "yes", "language:en": "yes", "language:ka": "yes", "opening_hours": "24/7", "operator": "\u10e1\u10d0\u10e5\u10d0\u10e0\u10d7\u10d5\u10d4\u10da\u10dd\u10e1 \u10d1\u10d0\u10dc\u10d9\u10d8", "operator:wikidata": "Q2469733"}}, {"type": "node", "id": 10848291307, "lat": 42.1344057, "lon": 41.6859055, "tags": {"amenity": "atm", "brand": "\u10e1\u10d0\u10e5\u10d0\u10e0\u10d7\u10d5\u10d4\u10da\u10dd\u10e1 \u10d1\u10d0\u10dc\u10d9\u10d8", "brand:en": "Bank of Georgia", "brand:ru": "\u0411\u0430\u043d\u043a \u0413\u0440\u0443\u0437\u0438\u0438", "brand:tr": "G\u00fcrcistan Bankas\u0131", "brand:wikidata": "Q2469733", "cash_out": "yes", "contact:email": "customerservice@bog.ge", "contact:instagram": "https://instagram.com/bankofgeorgia", "contact:linkedin": "https://linkedin.com/company/bank-of-georgia", "contact:phone": "+995322444444", "contact:website": "https://bankofgeorgia.ge", "contact:youtube": "https://youtube.com/user/BankofGeorgiaTV", "currency:EUR": "yes", "currency:GEL": "yes", "currency:USD": "yes", "language:en": "yes", "language:ka": "yes", "opening_hours": "24/7", "operator": "\u10e1\u10d0\u10e5\u10d0\u10e0\u10d7\u10d5\u10d4\u10da\u10dd\u10e1 \u10d1\u10d0\u10dc\u10d9\u10d8", "operator:wikidata": "Q2469733"}}, {"type": "node", "id": 10848291312, "lat": 42.115551, "lon": 41.696221, "tags": {"amenity": "atm", "brand": "\u10e1\u10d0\u10e5\u10d0\u10e0\u10d7\u10d5\u10d4\u10da\u10dd\u10e1 \u10d1\u10d0\u10dc\u10d9\u10d8", "brand:en": "Bank of Georgia", "brand:ru": "\u0411\u0430\u043d\u043a \u0413\u0440\u0443\u0437\u0438\u0438", "brand:tr": "G\u00fcrcistan Bankas\u0131", "brand:wikidata": "Q2469733", "cash_out": "yes", "contact:email": "customerservice@bog.ge", "contact:instagram": "https://instagram.com/bankofgeorgia", "contact:linkedin": "https://linkedin.com/company/bank-of-georgia", "contact:phone": "+995322444444", "contact:website": "https://bankofgeorgia.ge", "contact:youtube": "https://youtube.com/user/BankofGeorgiaTV", "currency:EUR": "yes", "currency:GEL": "yes", "currency:USD": "yes", "language:en": "yes", "language:ka": "yes", "opening_hours": "24/7", "operator": "\u10e1\u10d0\u10e5\u10d0\u10e0\u10d7\u10d5\u10d4\u10da\u10dd\u10e1 \u10d1\u10d0\u10dc\u10d9\u10d8", "operator:wikidata": "Q2469733"}}, {"type": "node", "id": 10848291315, "lat": 42.1676737, "lon": 41.6538476, "tags": {"amenity": "atm", "brand": "\u10e1\u10d0\u10e5\u10d0\u10e0\u10d7\u10d5\u10d4\u10da\u10dd\u10e1 \u10d1\u10d0\u10dc\u10d9\u10d8", "brand:en": "Bank of Georgia", "brand:ru": "\u0411\u0430\u043d\u043a \u0413\u0440\u0443\u0437\u0438\u0438", "brand:tr": "G\u00fcrcistan Bankas\u0131", "brand:wikidata": "Q2469733", "cash_out": "yes", "contact:email": "customerservice@bog.ge", "contact:instagram": "https://instagram.com/bankofgeorgia", "contact:linkedin": "https://linkedin.com/company/bank-of-georgia", "contact:phone": "+995322444444", "contact:website": "https://bankofgeorgia.ge", "contact:youtube": "https://youtube.com/user/BankofGeorgiaTV", "currency:EUR": "yes", "currency:GEL": "yes", "currency:USD": "yes", "language:en": "yes", "language:ka": "yes", "opening_hours": "24/7", "operator": "\u10e1\u10d0\u10e5\u10d0\u10e0\u10d7\u10d5\u10d4\u10da\u10dd\u10e1 \u10d1\u10d0\u10dc\u10d9\u10d8", "operator:wikidata": "Q2469733"}}, {"type": "node", "id": 10848291318, "lat": 42.1405675, "lon": 41.6721029, "tags": {"amenity": "atm", "brand": "\u10e1\u10d0\u10e5\u10d0\u10e0\u10d7\u10d5\u10d4\u10da\u10dd\u10e1 \u10d1\u10d0\u10dc\u10d9\u10d8", "brand:en": "Bank of Georgia", "brand:ru": "\u0411\u0430\u043d\u043a \u0413\u0440\u0443\u0437\u0438\u0438", "brand:tr": "G\u00fcrcistan Bankas\u0131", "brand:wikidata": "Q2469733", "cash_out": "yes", "contact:email": "customerservice@bog.ge", "contact:instagram": "https://instagram.com/bankofgeorgia", "contact:linkedin": "https://linkedin.com/company/bank-of-georgia", "contact:phone": "+995322444444", "contact:website": "https://bankofgeorgia.ge", "contact:youtube": "https://youtube.com/user/BankofGeorgiaTV", "currency:EUR": "yes", "currency:GEL": "yes", "currency:USD": "yes", "language:en": "yes", "language:ka": "yes", "opening_hours": "24/7", "operator": "\u10e1\u10d0\u10e5\u10d0\u10e0\u10d7\u10d5\u10d4\u10da\u10dd\u10e1 \u10d1\u10d0\u10dc\u10d9\u10d8", "operator:wikidata": "Q2469733"}}, {"type": "node", "id": 10848291321, "lat": 42.2695087, "lon": 42.0452571, "tags": {"amenity": "atm", "brand": "\u10e1\u10d0\u10e5\u10d0\u10e0\u10d7\u10d5\u10d4\u10da\u10dd\u10e1 \u10d1\u10d0\u10dc\u10d9\u10d8", "brand:en": "Bank of Georgia", "brand:ru": "\u0411\u0430\u043d\u043a \u0413\u0440\u0443\u0437\u0438\u0438", "brand:tr": "G\u00fcrcistan Bankas\u0131", "brand:wikidata": "Q2469733", "cash_out": "yes", "contact:email": "customerservice@bog.ge", "contact:instagram": "https://instagram.com/bankofgeorgia", "contact:linkedin": "https://linkedin.com/company/bank-of-georgia", "contact:phone": "+995322444444", "contact:website": "https://bankofgeorgia.ge", "contact:youtube": "https://youtube.com/user/BankofGeorgiaTV", "currency:EUR": "yes", "currency:GEL": "yes", "currency:USD": "yes", "language:en": "yes", "language:ka": "yes", "opening_hours": "24/7", "operator": "\u10e1\u10d0\u10e5\u10d0\u10e0\u10d7\u10d5\u10d4\u10da\u10dd\u10e1 \u10d1\u10d0\u10dc\u10d9\u10d8", "operator:wikidata": "Q2469733"}}, {"type": "node", "id": 10848291325, "lat": 42.158059, "lon": 41.663729, "tags": {"amenity": "atm", "brand": "\u10e1\u10d0\u10e5\u10d0\u10e0\u10d7\u10d5\u10d4\u10da\u10dd\u10e1 \u10d1\u10d0\u10dc\u10d9\u10d8", "brand:en": "Bank of Georgia", "brand:ru": "\u0411\u0430\u043d\u043a \u0413\u0440\u0443\u0437\u0438\u0438", "brand:tr": "G\u00fcrcistan Bankas\u0131", "brand:wikidata": "Q2469733", "cash_out": "yes", "contact:email": "customerservice@bog.ge", "contact:instagram": "https://instagram.com/bankofgeorgia", "contact:linkedin": "https://linkedin.com/company/bank-of-georgia", "contact:phone": "+995322444444", "contact:website": "https://bankofgeorgia.ge", "contact:youtube": "https://youtube.com/user/BankofGeorgiaTV", "currency:EUR": "yes", "currency:GEL": "yes", "currency:USD": "yes", "language:en": "yes", "language:ka": "yes", "opening_hours": "24/7", "operator": "\u10e1\u10d0\u10e5\u10d0\u10e0\u10d7\u10d5\u10d4\u10da\u10dd\u10e1 \u10d1\u10d0\u10dc\u10d9\u10d8", "operator:wikidata": "Q2469733"}}, {"type": "node", "id": 10848291327, "lat": 42.2674684, "lon": 42.0624983, "tags": {"amenity": "atm", "brand": "\u10e1\u10d0\u10e5\u10d0\u10e0\u10d7\u10d5\u10d4\u10da\u10dd\u10e1 \u10d1\u10d0\u10dc\u10d9\u10d8", "brand:en": "Bank of Georgia", "brand:ru": "\u0411\u0430\u043d\u043a \u0413\u0440\u0443\u0437\u0438\u0438", "brand:tr": "G\u00fcrcistan Bankas\u0131", "brand:wikidata": "Q2469733", "cash_out": "yes", "contact:email": "customerservice@bog.ge", "contact:instagram": "https://instagram.com/bankofgeorgia", "contact:linkedin": "https://linkedin.com/company/bank-of-georgia", "contact:phone": "+995322444444", "contact:website": "https://bankofgeorgia.ge", "contact:youtube": "https://youtube.com/user/BankofGeorgiaTV", "currency:EUR": "yes", "currency:GEL": "yes", "currency:USD": "yes", "language:en": "yes", "language:ka": "yes", "opening_hours": "24/7", "operator": "\u10e1\u10d0\u10e5\u10d0\u10e0\u10d7\u10d5\u10d4\u10da\u10dd\u10e1 \u10d1\u10d0\u10dc\u10d9\u10d8", "operator:wikidata": "Q2469733"}}, {"type": "node", "id": 10848291328, "lat": 42.268626, "lon": 42.0634693, "tags": {"amenity": "atm", "brand": "\u10e1\u10d0\u10e5\u10d0\u10e0\u10d7\u10d5\u10d4\u10da\u10dd\u10e1 \u10d1\u10d0\u10dc\u10d9\u10d8", "brand:en": "Bank of Georgia", "brand:ru": "\u0411\u0430\u043d\u043a \u0413\u0440\u0443\u0437\u0438\u0438", "brand:tr": "G\u00fcrcistan Bankas\u0131", "brand:wikidata": "Q2469733", "cash_out": "yes", "contact:email": "customerservice@bog.ge", "contact:instagram": "https://instagram.com/bankofgeorgia", "contact:linkedin": "https://linkedin.com/company/bank-of-georgia", "contact:phone": "+995322444444", "contact:website": "https://bankofgeorgia.ge", "contact:youtube": "https://youtube.com/user/BankofGeorgiaTV", "currency:EUR": "yes", "currency:GEL": "yes", "currency:USD": "yes", "language:en": "yes", "language:ka": "yes", "opening_hours": "24/7", "operator": "\u10e1\u10d0\u10e5\u10d0\u10e0\u10d7\u10d5\u10d4\u10da\u10dd\u10e1 \u10d1\u10d0\u10dc\u10d9\u10d8", "operator:wikidata": "Q2469733"}}, {"type": "node", "id": 10848291333, "lat": 42.254514, "lon": 42.0482129, "tags": {"amenity": "atm", "brand": "\u10e1\u10d0\u10e5\u10d0\u10e0\u10d7\u10d5\u10d4\u10da\u10dd\u10e1 \u10d1\u10d0\u10dc\u10d9\u10d8", "brand:en": "Bank of Georgia", "brand:ru": "\u0411\u0430\u043d\u043a \u0413\u0440\u0443\u0437\u0438\u0438", "brand:tr": "G\u00fcrcistan Bankas\u0131", "brand:wikidata": "Q2469733", "cash_out": "yes", "contact:email": "customerservice@bog.ge", "contact:instagram": "https://instagram.com/bankofgeorgia", "contact:linkedin": "https://linkedin.com/company/bank-of-georgia", "contact:phone": "+995322444444", "contact:website": "https://bankofgeorgia.ge", "contact:youtube": "https://youtube.com/user/BankofGeorgiaTV", "currency:EUR": "yes", "currency:GEL": "yes", "currency:USD": "yes", "language:en": "yes", "language:ka": "yes", "opening_hours": "24/7", "operator": "\u10e1\u10d0\u10e5\u10d0\u10e0\u10d7\u10d5\u10d4\u10da\u10dd\u10e1 \u10d1\u10d0\u10dc\u10d9\u10d8", "operator:wikidata": "Q2469733"}}, {"type": "node", "id": 10848291335, "lat": 42.1468481, "lon": 41.679275, "tags": {"amenity": "atm", "brand": "\u10e1\u10d0\u10e5\u10d0\u10e0\u10d7\u10d5\u10d4\u10da\u10dd\u10e1 \u10d1\u10d0\u10dc\u10d9\u10d8", "brand:en": "Bank of Georgia", "brand:ru": "\u0411\u0430\u043d\u043a \u0413\u0440\u0443\u0437\u0438\u0438", "brand:tr": "G\u00fcrcistan Bankas\u0131", "brand:wikidata": "Q2469733", "cash_out": "yes", "contact:email": "customerservice@bog.ge", "contact:instagram": "https://instagram.com/bankofgeorgia", "contact:linkedin": "https://linkedin.com/company/bank-of-georgia", "contact:phone": "+995322444444", "contact:website": "https://bankofgeorgia.ge", "contact:youtube": "https://youtube.com/user/BankofGeorgiaTV", "currency:EUR": "yes", "currency:GEL": "yes", "currency:USD": "yes", "language:en": "yes", "language:ka": "yes", "opening_hours": "24/7", "operator": "\u10e1\u10d0\u10e5\u10d0\u10e0\u10d7\u10d5\u10d4\u10da\u10dd\u10e1 \u10d1\u10d0\u10dc\u10d9\u10d8", "operator:wikidata": "Q2469733"}}, {"type": "node", "id": 10848291336, "lat": 42.1660258, "lon": 41.6519434, "tags": {"amenity": "atm", "brand": "\u10e1\u10d0\u10e5\u10d0\u10e0\u10d7\u10d5\u10d4\u10da\u10dd\u10e1 \u10d1\u10d0\u10dc\u10d9\u10d8", "brand:en": "Bank of Georgia", "brand:ru": "\u0411\u0430\u043d\u043a \u0413\u0440\u0443\u0437\u0438\u0438", "brand:tr": "G\u00fcrcistan Bankas\u0131", "brand:wikidata": "Q2469733", "cash_out": "yes", "contact:email": "customerservice@bog.ge", "contact:instagram": "https://instagram.com/bankofgeorgia", "contact:linkedin": "https://linkedin.com/company/bank-of-georgia", "contact:phone": "+995322444444", "contact:website": "https://bankofgeorgia.ge", "contact:youtube": "https://youtube.com/user/BankofGeorgiaTV", "currency:EUR": "yes", "currency:GEL": "yes", "currency:USD": "yes", "language:en": "yes", "language:ka": "yes", "opening_hours": "24/7", "operator": "\u10e1\u10d0\u10e5\u10d0\u10e0\u10d7\u10d5\u10d4\u10da\u10dd\u10e1 \u10d1\u10d0\u10dc\u10d9\u10d8", "operator:wikidata": "Q2469733"}}, {"type": "node", "id": 10848291337, "lat": 42.1446901, "lon": 41.675933, "tags": {"amenity": "atm", "brand": "\u10e1\u10d0\u10e5\u10d0\u10e0\u10d7\u10d5\u10d4\u10da\u10dd\u10e1 \u10d1\u10d0\u10dc\u10d9\u10d8", "brand:en": "Bank of Georgia", "brand:ru": "\u0411\u0430\u043d\u043a \u0413\u0440\u0443\u0437\u0438\u0438", "brand:tr": "G\u00fcrcistan Bankas\u0131", "brand:wikidata": "Q2469733", "cash_out": "yes", "contact:email": "customerservice@bog.ge", "contact:instagram": "https://instagram.com/bankofgeorgia", "contact:linkedin": "https://linkedin.com/company/bank-of-georgia", "contact:phone": "+995322444444", "contact:website": "https://bankofgeorgia.ge", "contact:youtube": "https://youtube.com/user/BankofGeorgiaTV", "currency:EUR": "yes", "currency:GEL": "yes", "currency:USD": "yes", "language:en": "yes", "language:ka": "yes", "opening_hours": "24/7", "operator": "\u10e1\u10d0\u10e5\u10d0\u10e0\u10d7\u10d5\u10d4\u10da\u10dd\u10e1 \u10d1\u10d0\u10dc\u10d9\u10d8", "operator:wikidata": "Q2469733"}}, {"type": "node", "id": 10851652350, "lat": 41.9228399, "lon": 42.0052144, "tags": {"amenity": "atm", "brand": "\u10e1\u10d0\u10e5\u10d0\u10e0\u10d7\u10d5\u10d4\u10da\u10dd\u10e1 \u10d1\u10d0\u10dc\u10d9\u10d8", "brand:en": "Bank of Georgia", "brand:ka": "\u10e1\u10d0\u10e5\u10d0\u10e0\u10d7\u10d5\u10d4\u10da\u10dd\u10e1 \u10d1\u10d0\u10dc\u10d9\u10d8", "brand:ru": "\u0411\u0430\u043d\u043a \u0413\u0440\u0443\u0437\u0438\u0438", "brand:tr": "G\u00fcrcistan Bankas\u0131", "brand:wikidata": "Q2469733", "cash_out": "yes", "contact:email": "customerservice@bog.ge", "contact:instagram": "https://instagram.com/bankofgeorgia", "contact:linkedin": "https://linkedin.com/company/bank-of-georgia", "contact:phone": "+995322444444", "contact:website": "https://bankofgeorgia.ge", "contact:youtube": "https://youtube.com/user/BankofGeorgiaTV", "currency:EUR": "yes", "currency:GEL": "yes", "currency:USD": "yes", "language:en": "yes", "language:ka": "yes", "opening_hours": "24/7", "operator": "\u10e1\u10d0\u10e5\u10d0\u10e0\u10d7\u10d5\u10d4\u10da\u10dd\u10e1 \u10d1\u10d0\u10dc\u10d9\u10d8", "operator:wikidata": "Q2469733"}}, {"type": "node", "id": 10851652380, "lat": 41.922327, "lon": 42.0001102, "tags": {"amenity": "atm", "brand": "\u10e1\u10d0\u10e5\u10d0\u10e0\u10d7\u10d5\u10d4\u10da\u10dd\u10e1 \u10d1\u10d0\u10dc\u10d9\u10d8", "brand:en": "Bank of Georgia", "brand:ru": "\u0411\u0430\u043d\u043a \u0413\u0440\u0443\u0437\u0438\u0438", "brand:tr": "G\u00fcrcistan Bankas\u0131", "brand:wikidata": "Q2469733", "cash_out": "yes", "contact:email": "customerservice@bog.ge", "contact:instagram": "https://instagram.com/bankofgeorgia", "contact:linkedin": "https://linkedin.com/company/bank-of-georgia", "contact:phone": "+995322444444", "contact:website": "https://bankofgeorgia.ge", "contact:youtube": "https://youtube.com/user/BankofGeorgiaTV", "currency:EUR": "yes", "currency:GEL": "yes", "currency:USD": "yes", "language:en": "yes", "language:ka": "yes", "opening_hours": "24/7", "operator": "\u10e1\u10d0\u10e5\u10d0\u10e0\u10d7\u10d5\u10d4\u10da\u10dd\u10e1 \u10d1\u10d0\u10dc\u10d9\u10d8", "operator:wikidata": "Q2469733"}}, {"type": "node", "id": 10852002516, "lat": 41.9226164, "lon": 42.0031733, "tags": {"amenity": "atm", "brand": "\u10e1\u10d0\u10e5\u10d0\u10e0\u10d7\u10d5\u10d4\u10da\u10dd\u10e1 \u10d1\u10d0\u10dc\u10d9\u10d8", "brand:en": "Bank of Georgia", "brand:ka": "\u10e1\u10d0\u10e5\u10d0\u10e0\u10d7\u10d5\u10d4\u10da\u10dd\u10e1 \u10d1\u10d0\u10dc\u10d9\u10d8", "brand:ru": "\u0411\u0430\u043d\u043a \u0413\u0440\u0443\u0437\u0438\u0438", "brand:tr": "G\u00fcrcistan Bankas\u0131", "brand:wikidata": "Q2469733", "cash_out": "yes", "contact:email": "customerservice@bog.ge", "contact:instagram": "https://instagram.com/bankofgeorgia", "contact:linkedin": "https://linkedin.com/company/bank-of-georgia", "contact:phone": "+995322444444", "contact:website": "https://bankofgeorgia.ge", "contact:youtube": "https://youtube.com/user/BankofGeorgiaTV", "currency:EUR": "yes", "currency:GEL": "yes", "currency:USD": "yes", "language:en": "yes", "language:ka": "yes", "opening_hours": "24/7", "operator": "\u10e1\u10d0\u10e5\u10d0\u10e0\u10d7\u10d5\u10d4\u10da\u10dd\u10e1 \u10d1\u10d0\u10dc\u10d9\u10d8", "operator:wikidata": "Q2469733"}}, {"type": "node", "id": 10883817904, "lat": 42.1155287, "lon": 41.6961059, "tags": {"amenity": "payment_terminal", "contact:email": "customerservice@bog.ge", "contact:phone": "+995 32 244 44 44", "contact:website": "https://bankofgeorgia.ge/", "opening_hours": "24/7", "payment:cash": "yes", "payment:cash:EUR": "yes", "payment:cash:USD": "yes", "payment:coins": "no"}}, {"type": "node", "id": 10883893816, "lat": 42.1523543, "lon": 41.6681332, "tags": {"amenity": "payment_terminal", "contact:email": "customerservice@bog.ge", "contact:phone": "+995 32 244 44 44", "contact:website": "https://bankofgeorgia.ge/", "opening_hours": "24/7", "payment:cash": "yes", "payment:cash:EUR": "yes", "payment:cash:USD": "yes", "payment:coins": "no"}}, {"type": "node", "id": 10883893817, "lat": 42.1486298, "lon": 41.6755414, "tags": {"amenity": "payment_terminal", "contact:email": "customerservice@bog.ge", "contact:phone": "+995 32 244 44 44", "contact:website": "https://bankofgeorgia.ge/", "opening_hours": "24/7", "payment:cash": "yes", "payment:cash:EUR": "yes", "payment:cash:USD": "yes", "payment:coins": "no"}}, {"type": "node", "id": 10910972884, "lat": 41.9522375, "lon": 41.7635608, "tags": {"amenity": "payment_terminal", "contact:email": "customerservice@bog.ge", "contact:phone": "+995 32 244 44 44", "contact:website": "https://bankofgeorgia.ge/", "opening_hours": "24/7", "payment:cash": "yes", "payment:cash:EUR": "yes", "payment:cash:USD": "yes", "payment:coins": "no"}}, {"type": "node", "id": 10910972886, "lat": 42.0417475, "lon": 41.8111512, "tags": {"amenity": "payment_terminal", "contact:email": "customerservice@bog.ge", "contact:phone": "+995 32 244 44 44", "contact:website": "https://bankofgeorgia.ge/", "opening_hours": "24/7", "payment:cash": "yes", "payment:cash:EUR": "yes", "payment:cash:USD": "yes", "payment:coins": "no"}}, {"type": "node", "id": 10910972887, "lat": 41.9993684, "lon": 41.7801502, "tags": {"amenity": "payment_terminal", "contact:email": "customerservice@bog.ge", "contact:phone": "+995 32 244 44 44", "contact:website": "https://bankofgeorgia.ge", "opening_hours": "24/7", "payment:cash": "yes", "payment:cash:EUR": "yes", "payment:cash:USD": "yes", "payment:coins": "no"}}, {"type": "node", "id": 10910972888, "lat": 42.0334146, "lon": 41.7431384, "tags": {"amenity": "payment_terminal", "contact:email": "customerservice@bog.ge", "contact:phone": "+995 32 244 44 44", "contact:website": "https://bankofgeorgia.ge/", "opening_hours": "24/7", "payment:cash": "yes", "payment:cash:EUR": "yes", "payment:cash:USD": "yes", "payment:coins": "no"}}, {"type": "node", "id": 10910972889, "lat": 42.0886688, "lon": 42.032522, "tags": {"amenity": "payment_terminal", "contact:email": "customerservice@bog.ge", "contact:phone": "+995 32 244 44 44", "contact:website": "https://bankofgeorgia.ge/", "opening_hours": "24/7", "payment:cash": "yes", "payment:cash:EUR": "yes", "payment:cash:USD": "yes", "payment:coins": "no"}}, {"type": "node", "id": 10910972890, "lat": 42.0817296, "lon": 42.0483577, "tags": {"amenity": "payment_terminal", "contact:email": "customerservice@bog.ge", "contact:phone": "+995 32 244 44 44", "contact:website": "https://bankofgeorgia.ge/", "opening_hours": "24/7", "payment:cash": "yes", "payment:cash:EUR": "yes", "payment:cash:USD": "yes", "payment:coins": "no"}}, {"type": "node", "id": 10910972891, "lat": 41.9415267, "lon": 41.8913894, "tags": {"amenity": "payment_terminal", "contact:email": "customerservice@bog.ge", "contact:phone": "+995 32 244 44 44", "contact:website": "https://bankofgeorgia.ge", "opening_hours": "24/7", "payment:cash": "yes", "payment:cash:EUR": "yes", "payment:cash:USD": "yes", "payment:coins": "no"}}, {"type": "node", "id": 10910972892, "lat": 41.9328594, "lon": 41.8037134, "tags": {"amenity": "payment_terminal", "contact:email": "customerservice@bog.ge", "contact:phone": "+995 32 244 44 44", "contact:website": "https://bankofgeorgia.ge/", "opening_hours": "24/7", "payment:cash": "yes", "payment:cash:EUR": "yes", "payment:cash:USD": "yes", "payment:coins": "no"}}, {"type": "node", "id": 10910972893, "lat": 41.9225964, "lon": 42.0172441, "tags": {"amenity": "payment_terminal", "contact:email": "customerservice@bog.ge", "contact:phone": "+995 32 244 44 44", "contact:website": "https://bankofgeorgia.ge/", "opening_hours": "24/7", "payment:cash": "yes", "payment:cash:EUR": "yes", "payment:cash:USD": "yes", "payment:coins": "no"}}, {"type": "node", "id": 10910972894, "lat": 41.9988242, "lon": 41.7765158, "tags": {"amenity": "payment_terminal", "contact:email": "customerservice@bog.ge", "contact:phone": "+995 32 244 44 44", "contact:website": "https://bankofgeorgia.ge/", "opening_hours": "24/7", "payment:cash": "yes", "payment:cash:EUR": "yes", "payment:cash:USD": "yes", "payment:coins": "no"}}, {"type": "node", "id": 10910972895, "lat": 42.0888061, "lon": 42.0321518, "tags": {"amenity": "payment_terminal", "contact:email": "customerservice@bog.ge", "contact:phone": "+995 32 244 44 44", "contact:website": "https://bankofgeorgia.ge/", "opening_hours": "24/7", "payment:cash": "yes", "payment:cash:EUR": "yes", "payment:cash:USD": "yes", "payment:coins": "no"}}, {"type": "node", "id": 10910972896, "lat": 41.9267194, "lon": 42.0280534, "tags": {"amenity": "payment_terminal", "contact:email": "customerservice@bog.ge", "contact:phone": "+995 32 244 44 44", "contact:website": "https://bankofgeorgia.ge/", "opening_hours": "24/7", "payment:cash": "yes", "payment:cash:EUR": "yes", "payment:cash:USD": "yes", "payment:coins": "no"}}, {"type": "node", "id": 10910972897, "lat": 41.9290182, "lon": 42.0353114, "tags": {"amenity": "payment_terminal", "contact:email": "customerservice@bog.ge", "contact:phone": "+995 32 244 44 44", "contact:website": "https://bankofgeorgia.ge/", "opening_hours": "24/7", "payment:cash": "yes", "payment:cash:EUR": "yes", "payment:cash:USD": "yes", "payment:coins": "no"}}, {"type": "node", "id": 10910972898, "lat": 41.9315525, "lon": 41.9882521, "tags": {"amenity": "payment_terminal", "contact:email": "customerservice@bog.ge", "contact:phone": "+995 32 244 44 44", "contact:website": "https://bankofgeorgia.ge/", "opening_hours": "24/7", "payment:cash": "yes", "payment:cash:EUR": "yes", "payment:cash:USD": "yes", "payment:coins": "no"}}, {"type": "node", "id": 10910972899, "lat": 42.0887166, "lon": 42.0326507, "tags": {"amenity": "payment_terminal", "contact:email": "customerservice@bog.ge", "contact:phone": "+995 32 244 44 44", "contact:website": "https://bankofgeorgia.ge/", "opening_hours": "24/7", "payment:cash": "yes", "payment:cash:EUR": "yes", "payment:cash:USD": "yes", "payment:coins": "no"}}, {"type": "node", "id": 10910972900, "lat": 41.9328734, "lon": 41.9866455, "tags": {"amenity": "payment_terminal", "contact:email": "customerservice@bog.ge", "contact:phone": "+995 32 244 44 44", "contact:website": "https://bankofgeorgia.ge/", "opening_hours": "24/7", "payment:cash": "yes", "payment:cash:EUR": "yes", "payment:cash:USD": "yes", "payment:coins": "no"}}, {"type": "node", "id": 10910972901, "lat": 42.088637, "lon": 42.03264, "tags": {"amenity": "payment_terminal", "contact:email": "customerservice@bog.ge", "contact:phone": "+995 32 244 44 44", "contact:website": "https://bankofgeorgia.ge/", "opening_hours": "24/7", "payment:cash": "yes", "payment:cash:EUR": "yes", "payment:cash:USD": "yes", "payment:coins": "no"}}, {"type": "node", "id": 10910972903, "lat": 42.0806864, "lon": 42.049723, "tags": {"amenity": "payment_terminal", "contact:email": "customerservice@bog.ge", "contact:phone": "+995 32 244 44 44", "contact:website": "https://bankofgeorgia.ge/", "opening_hours": "24/7", "payment:cash": "yes", "payment:cash:EUR": "yes", "payment:cash:USD": "yes", "payment:coins": "no"}}, {"type": "node", "id": 10944122669, "lat": 42.1689302, "lon": 41.6738248, "tags": {"amenity": "payment_terminal", "brand:wikidata": "Q2469733", "contact:email": "customerservice@bog.ge", "contact:phone": "+995 32 244 44 44", "contact:website": "https://bankofgeorgia.ge/", "opening_hours": "24/7", "operator:wikidata": "Q2469733"}}, {"type": "node", "id": 10944128609, "lat": 42.2601585, "lon": 42.1158905, "tags": {"amenity": "payment_terminal", "brand:wikidata": "Q2469733", "contact:email": "customerservice@bog.ge", "contact:phone": "+995 32 244 44 44", "contact:website": "https://bankofgeorgia.ge/", "opening_hours": "24/7", "operator:wikidata": "Q2469733"}}, {"type": "node", "id": 10944128610, "lat": 42.1113701, "lon": 41.7000389, "tags": {"amenity": "payment_terminal", "brand:wikidata": "Q2469733", "contact:email": "customerservice@bog.ge", "contact:phone": "+995 32 244 44 44", "contact:website": "https://bankofgeorgia.ge/", "opening_hours": "24/7", "operator:wikidata": "Q2469733"}}, {"type": "node", "id": 10944128616, "lat": 42.2688222, "lon": 42.0751155, "tags": {"amenity": "payment_terminal", "brand:wikidata": "Q2469733", "contact:email": "customerservice@bog.ge", "contact:phone": "+995 32 244 44 44", "contact:website": "https://bankofgeorgia.ge/", "opening_hours": "24/7", "operator:wikidata": "Q2469733"}}, {"type": "node", "id": 10944128622, "lat": 42.2722479, "lon": 42.0728302, "tags": {"amenity": "payment_terminal", "brand:wikidata": "Q2469733", "contact:email": "customerservice@bog.ge", "contact:phone": "+995 32 244 44 44", "contact:website": "https://bankofgeorgia.ge/", "opening_hours": "24/7", "operator:wikidata": "Q2469733"}}, {"type": "node", "id": 10944128623, "lat": 42.270158, "lon": 42.0534083, "tags": {"amenity": "payment_terminal", "brand:wikidata": "Q2469733", "contact:email": "customerservice@bog.ge", "contact:phone": "+995 32 244 44 44", "contact:website": "https://bankofgeorgia.ge/", "opening_hours": "24/7", "operator:wikidata": "Q2469733"}}, {"type": "node", "id": 10944128625, "lat": 42.2691477, "lon": 42.0571768, "tags": {"amenity": "payment_terminal", "brand:wikidata": "Q2469733", "contact:email": "customerservice@bog.ge", "contact:phone": "+995 32 244 44 44", "contact:website": "https://bankofgeorgia.ge/", "opening_hours": "24/7", "operator:wikidata": "Q2469733"}}, {"type": "node", "id": 10944128626, "lat": 42.2682982, "lon": 42.057032, "tags": {"amenity": "payment_terminal", "brand:wikidata": "Q2469733", "contact:email": "customerservice@bog.ge", "contact:phone": "+995 32 244 44 44", "contact:website": "https://bankofgeorgia.ge/", "opening_hours": "24/7", "operator:wikidata": "Q2469733"}}, {"type": "node", "id": 10944128627, "lat": 42.1409454, "lon": 41.6765714, "tags": {"amenity": "payment_terminal", "brand:wikidata": "Q2469733", "contact:email": "customerservice@bog.ge", "contact:phone": "+995 32 244 44 44", "contact:website": "https://bankofgeorgia.ge/", "opening_hours": "24/7", "operator:wikidata": "Q2469733"}}, {"type": "node", "id": 10944128628, "lat": 42.2647214, "lon": 42.0507986, "tags": {"amenity": "payment_terminal", "brand:wikidata": "Q2469733", "contact:email": "customerservice@bog.ge", "contact:phone": "+995 32 244 44 44", "contact:website": "https://bankofgeorgia.ge/", "opening_hours": "24/7", "operator:wikidata": "Q2469733"}}, {"type": "node", "id": 10944128629, "lat": 42.2682625, "lon": 42.0566887, "tags": {"amenity": "payment_terminal", "brand:wikidata": "Q2469733", "contact:email": "customerservice@bog.ge", "contact:phone": "+995 32 244 44 44", "contact:website": "https://bankofgeorgia.ge/", "opening_hours": "24/7", "operator:wikidata": "Q2469733"}}, {"type": "node", "id": 10944128630, "lat": 42.1503201, "lon": 41.6803855, "tags": {"amenity": "payment_terminal", "brand:wikidata": "Q2469733", "contact:email": "customerservice@bog.ge", "contact:phone": "+995 32 244 44 44", "contact:website": "https://bankofgeorgia.ge/", "opening_hours": "24/7", "operator:wikidata": "Q2469733"}}, {"type": "node", "id": 10944128631, "lat": 42.1522688, "lon": 41.6875202, "tags": {"amenity": "payment_terminal", "brand:wikidata": "Q2469733", "contact:email": "customerservice@bog.ge", "contact:phone": "+995 32 244 44 44", "contact:website": "https://bankofgeorgia.ge/", "opening_hours": "24/7", "operator:wikidata": "Q2469733"}}, {"type": "node", "id": 10944128632, "lat": 42.1579795, "lon": 41.6763514, "tags": {"amenity": "payment_terminal", "brand:wikidata": "Q2469733", "contact:email": "customerservice@bog.ge", "contact:phone": "+995 32 244 44 44", "contact:website": "https://bankofgeorgia.ge/", "opening_hours": "24/7", "operator:wikidata": "Q2469733"}}, {"type": "node", "id": 10944128633, "lat": 42.144716, "lon": 41.669962, "tags": {"amenity": "payment_terminal", "brand:wikidata": "Q2469733", "contact:email": "customerservice@bog.ge", "contact:phone": "+995 32 244 44 44", "contact:website": "https://bankofgeorgia.ge/", "opening_hours": "24/7", "operator:wikidata": "Q2469733"}}, {"type": "node", "id": 10944128635, "lat": 42.2688004, "lon": 42.0569006, "tags": {"amenity": "payment_terminal", "brand:wikidata": "Q2469733", "contact:email": "customerservice@bog.ge", "contact:phone": "+995 32 244 44 44", "contact:website": "https://bankofgeorgia.ge/", "opening_hours": "24/7", "operator:wikidata": "Q2469733"}}, {"type": "node", "id": 10944128637, "lat": 42.2658052, "lon": 42.0569301, "tags": {"amenity": "payment_terminal", "brand:wikidata": "Q2469733", "contact:email": "customerservice@bog.ge", "contact:phone": "+995 32 244 44 44", "contact:website": "https://bankofgeorgia.ge/", "opening_hours": "24/7", "operator:wikidata": "Q2469733"}}, {"type": "node", "id": 10944128638, "lat": 42.2517226, "lon": 42.0474887, "tags": {"amenity": "payment_terminal", "brand:wikidata": "Q2469733", "contact:email": "customerservice@bog.ge", "contact:phone": "+995 32 244 44 44", "contact:website": "https://bankofgeorgia.ge/", "opening_hours": "24/7", "operator:wikidata": "Q2469733"}}, {"type": "node", "id": 10944128647, "lat": 42.2707356, "lon": 42.0684475, "tags": {"amenity": "payment_terminal", "brand:wikidata": "Q2469733", "contact:email": "customerservice@bog.ge", "contact:phone": "+995 32 244 44 44", "contact:website": "https://bankofgeorgia.ge/", "opening_hours": "24/7", "operator:wikidata": "Q2469733"}}, {"type": "node", "id": 10944128648, "lat": 42.2560744, "lon": 42.0015317, "tags": {"amenity": "payment_terminal", "brand:wikidata": "Q2469733", "contact:email": "customerservice@bog.ge", "contact:phone": "+995 32 244 44 44", "contact:website": "https://bankofgeorgia.ge/", "opening_hours": "24/7", "operator:wikidata": "Q2469733"}}, {"type": "node", "id": 10944128649, "lat": 42.2729664, "lon": 42.0752442, "tags": {"amenity": "payment_terminal", "brand:wikidata": "Q2469733", "contact:email": "customerservice@bog.ge", "contact:phone": "+995 32 244 44 44", "contact:website": "https://bankofgeorgia.ge/", "opening_hours": "24/7", "operator:wikidata": "Q2469733"}}, {"type": "node", "id": 10944128651, "lat": 42.2482084, "lon": 41.9482309, "tags": {"amenity": "payment_terminal", "brand:wikidata": "Q2469733", "contact:email": "customerservice@bog.ge", "contact:phone": "+995 32 244 44 44", "contact:website": "https://bankofgeorgia.ge/", "opening_hours": "24/7", "operator:wikidata": "Q2469733"}}, {"type": "node", "id": 10944128653, "lat": 42.2797299, "lon": 42.0169276, "tags": {"amenity": "payment_terminal", "brand:wikidata": "Q2469733", "contact:email": "customerservice@bog.ge", "contact:phone": "+995 32 244 44 44", "contact:website": "https://bankofgeorgia.ge/", "opening_hours": "24/7", "operator:wikidata": "Q2469733"}}, {"type": "node", "id": 10944128654, "lat": 42.2641259, "lon": 42.0815849, "tags": {"amenity": "payment_terminal", "brand:wikidata": "Q2469733", "contact:email": "customerservice@bog.ge", "contact:phone": "+995 32 244 44 44", "contact:website": "https://bankofgeorgia.ge/", "opening_hours": "24/7", "operator:wikidata": "Q2469733"}}, {"type": "node", "id": 10944128655, "lat": 42.2752607, "lon": 42.091375, "tags": {"amenity": "payment_terminal", "brand:wikidata": "Q2469733", "contact:email": "customerservice@bog.ge", "contact:phone": "+995 32 244 44 44", "contact:website": "https://bankofgeorgia.ge/", "opening_hours": "24/7", "operator:wikidata": "Q2469733"}}, {"type": "node", "id": 10944128657, "lat": 42.2689175, "lon": 42.0724171, "tags": {"amenity": "payment_terminal", "brand:wikidata": "Q2469733", "contact:email": "customerservice@bog.ge", "contact:phone": "+995 32 244 44 44", "contact:website": "https://bankofgeorgia.ge/", "opening_hours": "24/7", "operator:wikidata": "Q2469733"}}, {"type": "node", "id": 10944128658, "lat": 42.174862, "lon": 41.6696137, "tags": {"amenity": "payment_terminal", "brand:wikidata": "Q2469733", "contact:email": "customerservice@bog.ge", "contact:phone": "+995 32 244 44 44", "contact:website": "https://bankofgeorgia.ge/", "opening_hours": "24/7", "operator:wikidata": "Q2469733"}}, {"type": "node", "id": 10944128660, "lat": 42.139398, "lon": 41.677773, "tags": {"amenity": "payment_terminal", "brand:wikidata": "Q2469733", "contact:email": "customerservice@bog.ge", "contact:phone": "+995 32 244 44 44", "contact:website": "https://bankofgeorgia.ge/", "opening_hours": "24/7", "operator:wikidata": "Q2469733"}}, {"type": "node", "id": 10944128661, "lat": 42.1802209, "lon": 41.662227, "tags": {"amenity": "payment_terminal", "brand:wikidata": "Q2469733", "contact:email": "customerservice@bog.ge", "contact:phone": "+995 32 244 44 44", "contact:website": "https://bankofgeorgia.ge/", "opening_hours": "24/7", "operator:wikidata": "Q2469733"}}, {"type": "node", "id": 10944128662, "lat": 42.1497235, "lon": 41.6722906, "tags": {"amenity": "payment_terminal", "brand:wikidata": "Q2469733", "contact:email": "customerservice@bog.ge", "contact:phone": "+995 32 244 44 44", "contact:website": "https://bankofgeorgia.ge/", "opening_hours": "24/7", "operator:wikidata": "Q2469733"}}, {"type": "node", "id": 10944128663, "lat": 42.1399907, "lon": 41.6620499, "tags": {"amenity": "payment_terminal", "brand:wikidata": "Q2469733", "contact:email": "customerservice@bog.ge", "contact:phone": "+995 32 244 44 44", "contact:website": "https://bankofgeorgia.ge/", "opening_hours": "24/7", "operator:wikidata": "Q2469733"}}, {"type": "node", "id": 10944128664, "lat": 42.1500417, "lon": 41.6782988, "tags": {"amenity": "payment_terminal", "brand:wikidata": "Q2469733", "contact:email": "customerservice@bog.ge", "contact:phone": "+995 32 244 44 44", "contact:website": "https://bankofgeorgia.ge/", "opening_hours": "24/7", "operator:wikidata": "Q2469733"}}, {"type": "node", "id": 10944128665, "lat": 42.1321938, "lon": 41.6741038, "tags": {"amenity": "payment_terminal", "brand:wikidata": "Q2469733", "contact:email": "customerservice@bog.ge", "contact:phone": "+995 32 244 44 44", "contact:website": "https://bankofgeorgia.ge/", "opening_hours": "24/7", "operator:wikidata": "Q2469733"}}, {"type": "node", "id": 10944128666, "lat": 42.1508888, "lon": 41.6685623, "tags": {"amenity": "payment_terminal", "brand:wikidata": "Q2469733", "contact:email": "customerservice@bog.ge", "contact:phone": "+995 32 244 44 44", "contact:website": "https://bankofgeorgia.ge/", "opening_hours": "24/7", "operator:wikidata": "Q2469733"}}, {"type": "node", "id": 10944128669, "lat": 42.1085586, "lon": 41.6979056, "tags": {"amenity": "payment_terminal", "brand:wikidata": "Q2469733", "contact:email": "customerservice@bog.ge", "contact:phone": "+995 32 244 44 44", "contact:website": "https://bankofgeorgia.ge/", "opening_hours": "24/7", "operator:wikidata": "Q2469733"}}, {"type": "node", "id": 10944128670, "lat": 42.1896276, "lon": 41.7082617, "tags": {"amenity": "payment_terminal", "brand:wikidata": "Q2469733", "contact:email": "customerservice@bog.ge", "contact:phone": "+995 32 244 44 44", "contact:website": "https://bankofgeorgia.ge/", "opening_hours": "24/7", "operator:wikidata": "Q2469733"}}, {"type": "node", "id": 10944128671, "lat": 42.1910286, "lon": 41.7081838, "tags": {"amenity": "payment_terminal", "brand:wikidata": "Q2469733", "contact:email": "customerservice@bog.ge", "contact:phone": "+995 32 244 44 44", "contact:website": "https://bankofgeorgia.ge/", "opening_hours": "24/7", "operator:wikidata": "Q2469733"}}, {"type": "node", "id": 10944128672, "lat": 42.2740897, "lon": 42.081483, "tags": {"amenity": "payment_terminal", "brand:wikidata": "Q2469733", "contact:email": "customerservice@bog.ge", "contact:phone": "+995 32 244 44 44", "contact:website": "https://bankofgeorgia.ge/", "opening_hours": "24/7", "operator:wikidata": "Q2469733"}}, {"type": "node", "id": 10944128673, "lat": 42.1250763, "lon": 41.6902292, "tags": {"amenity": "payment_terminal", "brand:wikidata": "Q2469733", "contact:email": "customerservice@bog.ge", "contact:phone": "+995 32 244 44 44", "contact:website": "https://bankofgeorgia.ge/", "opening_hours": "24/7", "operator:wikidata": "Q2469733"}}, {"type": "node", "id": 10944128674, "lat": 42.147202, "lon": 41.6738891, "tags": {"amenity": "payment_terminal", "brand:wikidata": "Q2469733", "contact:email": "customerservice@bog.ge", "contact:phone": "+995 32 244 44 44", "contact:website": "https://bankofgeorgia.ge/", "opening_hours": "24/7", "operator:wikidata": "Q2469733"}}, {"type": "node", "id": 10961223118, "lat": 42.2689036, "lon": 42.0635122, "tags": {"amenity": "payment_terminal", "brand:wikidata": "Q2469733", "contact:email": "customerservice@bog.ge", "contact:phone": "+995 32 244 44 44", "contact:website": "https://bankofgeorgia.ge/", "opening_hours": "24/7", "operator:wikidata": "Q2469733"}}, {"type": "node", "id": 10961223121, "lat": 42.1390915, "lon": 41.6750488, "tags": {"amenity": "payment_terminal", "brand:wikidata": "Q2469733", "contact:email": "customerservice@bog.ge", "contact:phone": "+995 32 244 44 44", "contact:website": "https://bankofgeorgia.ge/", "opening_hours": "24/7", "operator:wikidata": "Q2469733"}}, {"type": "node", "id": 10961223126, "lat": 42.1310123, "lon": 41.6858518, "tags": {"amenity": "payment_terminal", "brand:wikidata": "Q2469733", "contact:email": "customerservice@bog.ge", "contact:phone": "+995 32 244 44 44", "contact:website": "https://bankofgeorgia.ge/", "opening_hours": "24/7", "operator:wikidata": "Q2469733"}}, {"type": "node", "id": 10961223127, "lat": 42.149222, "lon": 41.660735, "tags": {"amenity": "payment_terminal", "brand:wikidata": "Q2469733", "contact:email": "customerservice@bog.ge", "contact:phone": "+995 32 244 44 44", "contact:website": "https://bankofgeorgia.ge/", "opening_hours": "24/7", "operator:wikidata": "Q2469733"}}, {"type": "node", "id": 10961223130, "lat": 42.1459213, "lon": 41.6772312, "tags": {"amenity": "payment_terminal", "brand:wikidata": "Q2469733", "contact:email": "customerservice@bog.ge", "contact:phone": "+995 32 244 44 44", "contact:website": "https://bankofgeorgia.ge/", "opening_hours": "24/7", "operator:wikidata": "Q2469733"}}, {"type": "node", "id": 10961223132, "lat": 42.2691279, "lon": 42.0628202, "tags": {"amenity": "payment_terminal", "brand:wikidata": "Q2469733", "contact:email": "customerservice@bog.ge", "contact:phone": "+995 32 244 44 44", "contact:website": "https://bankofgeorgia.ge/", "opening_hours": "24/7", "operator:wikidata": "Q2469733"}}, {"type": "node", "id": 10961223133, "lat": 42.0878487, "lon": 42.0349467, "tags": {"amenity": "payment_terminal", "brand:wikidata": "Q2469733", "contact:email": "customerservice@bog.ge", "contact:phone": "+995 32 244 44 44", "contact:website": "https://bankofgeorgia.ge/", "opening_hours": "24/7", "operator:wikidata": "Q2469733"}}, {"type": "node", "id": 10961223135, "lat": 42.2682943, "lon": 42.0660657, "tags": {"amenity": "payment_terminal", "brand:wikidata": "Q2469733", "contact:email": "customerservice@bog.ge", "contact:phone": "+995 32 244 44 44", "contact:website": "https://bankofgeorgia.ge/", "opening_hours": "24/7", "operator:wikidata": "Q2469733"}}, {"type": "node", "id": 10961223137, "lat": 42.2698186, "lon": 42.0667228, "tags": {"amenity": "payment_terminal", "brand:wikidata": "Q2469733", "contact:email": "customerservice@bog.ge", "contact:phone": "+995 32 244 44 44", "contact:website": "https://bankofgeorgia.ge/", "opening_hours": "24/7", "operator:wikidata": "Q2469733"}}, {"type": "node", "id": 10961223140, "lat": 42.2682109, "lon": 42.0635659, "tags": {"amenity": "payment_terminal", "brand:wikidata": "Q2469733", "contact:email": "customerservice@bog.ge", "contact:phone": "+995 32 244 44 44", "contact:website": "https://bankofgeorgia.ge/", "opening_hours": "24/7", "operator:wikidata": "Q2469733"}}, {"type": "node", "id": 10961223141, "lat": 42.2683181, "lon": 42.0570642, "tags": {"amenity": "payment_terminal", "brand:wikidata": "Q2469733", "contact:email": "customerservice@bog.ge", "contact:phone": "+995 32 244 44 44", "contact:website": "https://bankofgeorgia.ge/", "opening_hours": "24/7", "operator:wikidata": "Q2469733"}}, {"type": "node", "id": 10961223142, "lat": 42.144597, "lon": 41.675798, "tags": {"amenity": "payment_terminal", "brand:wikidata": "Q2469733", "contact:email": "customerservice@bog.ge", "contact:phone": "+995 32 244 44 44", "contact:website": "https://bankofgeorgia.ge/", "opening_hours": "24/7", "operator:wikidata": "Q2469733"}}, {"type": "node", "id": 10961223143, "lat": 42.1476593, "lon": 41.6794777, "tags": {"amenity": "payment_terminal", "brand:wikidata": "Q2469733", "contact:email": "customerservice@bog.ge", "contact:phone": "+995 32 244 44 44", "contact:website": "https://bankofgeorgia.ge/", "opening_hours": "24/7", "operator:wikidata": "Q2469733"}}, {"type": "node", "id": 10961223144, "lat": 42.1453514, "lon": 41.676445, "tags": {"amenity": "payment_terminal", "brand:wikidata": "Q2469733", "contact:email": "customerservice@bog.ge", "contact:phone": "+995 32 244 44 44", "contact:website": "https://bankofgeorgia.ge/", "opening_hours": "24/7", "operator:wikidata": "Q2469733"}}, {"type": "node", "id": 10961223145, "lat": 42.267584, "lon": 42.059129, "tags": {"amenity": "payment_terminal", "brand:wikidata": "Q2469733", "contact:email": "customerservice@bog.ge", "contact:phone": "+995 32 244 44 44", "contact:website": "https://bankofgeorgia.ge/", "opening_hours": "24/7", "operator:wikidata": "Q2469733"}}, {"type": "node", "id": 10961223146, "lat": 42.2692192, "lon": 42.0600682, "tags": {"amenity": "payment_terminal", "brand:wikidata": "Q2469733", "contact:email": "customerservice@bog.ge", "contact:phone": "+995 32 244 44 44", "contact:website": "https://bankofgeorgia.ge/", "opening_hours": "24/7", "operator:wikidata": "Q2469733"}}, {"type": "node", "id": 10961223150, "lat": 42.0863838, "lon": 42.0389824, "tags": {"amenity": "payment_terminal", "brand:wikidata": "Q2469733", "contact:email": "customerservice@bog.ge", "contact:phone": "+995 32 244 44 44", "contact:website": "https://bankofgeorgia.ge/", "opening_hours": "24/7", "operator:wikidata": "Q2469733"}}, {"type": "node", "id": 10961223152, "lat": 42.2566183, "lon": 42.0495218, "tags": {"amenity": "payment_terminal", "brand:wikidata": "Q2469733", "contact:email": "customerservice@bog.ge", "contact:phone": "+995 32 244 44 44", "contact:website": "https://bankofgeorgia.ge/", "opening_hours": "24/7", "operator:wikidata": "Q2469733"}}, {"type": "node", "id": 10961223154, "lat": 42.2689651, "lon": 42.0607415, "tags": {"amenity": "payment_terminal", "brand:wikidata": "Q2469733", "contact:email": "customerservice@bog.ge", "contact:phone": "+995 32 244 44 44", "contact:website": "https://bankofgeorgia.ge/", "opening_hours": "24/7", "operator:wikidata": "Q2469733"}}, {"type": "node", "id": 10961223155, "lat": 42.1693306, "lon": 41.6803703, "tags": {"amenity": "payment_terminal", "brand:wikidata": "Q2469733", "contact:email": "customerservice@bog.ge", "contact:phone": "+995 32 244 44 44", "contact:website": "https://bankofgeorgia.ge/", "opening_hours": "24/7", "operator:wikidata": "Q2469733"}}, {"type": "node", "id": 10961223158, "lat": 42.2676512, "lon": 42.0597517, "tags": {"amenity": "payment_terminal", "brand:wikidata": "Q2469733", "contact:email": "customerservice@bog.ge", "contact:phone": "+995 32 244 44 44", "contact:website": "https://bankofgeorgia.ge/", "opening_hours": "24/7", "operator:wikidata": "Q2469733"}}, {"type": "node", "id": 10961223159, "lat": 42.1450243, "lon": 41.6757828, "tags": {"amenity": "payment_terminal", "brand:wikidata": "Q2469733", "contact:email": "customerservice@bog.ge", "contact:phone": "+995 32 244 44 44", "contact:website": "https://bankofgeorgia.ge/", "opening_hours": "24/7", "operator:wikidata": "Q2469733"}}, {"type": "node", "id": 10961223162, "lat": 42.1479497, "lon": 41.679849, "tags": {"amenity": "payment_terminal", "brand:wikidata": "Q2469733", "contact:email": "customerservice@bog.ge", "contact:phone": "+995 32 244 44 44", "contact:website": "https://bankofgeorgia.ge/", "opening_hours": "24/7", "operator:wikidata": "Q2469733"}}, {"type": "node", "id": 10971033883, "lat": 42.0878407, "lon": 42.0349574, "tags": {"amenity": "payment_terminal", "brand:wikidata": "Q2469733", "contact:email": "customerservice@bog.ge", "contact:phone": "+995 32 244 44 44", "contact:website": "https://bankofgeorgia.ge/", "opening_hours": "24/7", "operator:wikidata": "Q2469733"}}, {"type": "node", "id": 10971033885, "lat": 42.268266, "lon": 42.063593, "tags": {"amenity": "payment_terminal", "brand:wikidata": "Q2469733", "contact:email": "customerservice@bog.ge", "contact:phone": "+995 32 244 44 44", "contact:website": "https://bankofgeorgia.ge/", "opening_hours": "24/7", "operator:wikidata": "Q2469733"}}, {"type": "node", "id": 10971033886, "lat": 42.2676234, "lon": 42.0597196, "tags": {"amenity": "payment_terminal", "brand:wikidata": "Q2469733", "contact:email": "customerservice@bog.ge", "contact:phone": "+995 32 244 44 44", "contact:website": "https://bankofgeorgia.ge/", "opening_hours": "24/7", "operator:wikidata": "Q2469733"}}, {"type": "node", "id": 10971033895, "lat": 42.2694588, "lon": 42.0629311, "tags": {"amenity": "payment_terminal", "brand:wikidata": "Q2469733", "contact:email": "customerservice@bog.ge", "contact:phone": "+995 32 244 44 44", "contact:website": "https://bankofgeorgia.ge/", "opening_hours": "24/7", "operator:wikidata": "Q2469733"}}, {"type": "node", "id": 10971033897, "lat": 42.1421386, "lon": 41.6695976, "tags": {"amenity": "payment_terminal", "brand:wikidata": "Q2469733", "contact:email": "customerservice@bog.ge", "contact:phone": "+995 32 244 44 44", "contact:website": "https://bankofgeorgia.ge/", "opening_hours": "24/7", "operator:wikidata": "Q2469733"}}, {"type": "node", "id": 10971033898, "lat": 42.1468468, "lon": 41.6810265, "tags": {"amenity": "payment_terminal", "brand:wikidata": "Q2469733", "contact:email": "customerservice@bog.ge", "contact:phone": "+995 32 244 44 44", "contact:website": "https://bankofgeorgia.ge/", "opening_hours": "24/7", "operator:wikidata": "Q2469733"}}, {"type": "node", "id": 10971033900, "lat": 42.118081, "lon": 41.695068, "tags": {"amenity": "payment_terminal", "brand:wikidata": "Q2469733", "contact:email": "customerservice@bog.ge", "contact:phone": "+995 32 244 44 44", "contact:website": "https://bankofgeorgia.ge/", "opening_hours": "24/7", "operator:wikidata": "Q2469733"}}, {"type": "node", "id": 10971033901, "lat": 42.155896, "lon": 41.669984, "tags": {"amenity": "payment_terminal", "brand:wikidata": "Q2469733", "contact:email": "customerservice@bog.ge", "contact:phone": "+995 32 244 44 44", "contact:website": "https://bankofgeorgia.ge/", "opening_hours": "24/7", "operator:wikidata": "Q2469733"}}, {"type": "node", "id": 10971033902, "lat": 42.1335066, "lon": 41.6875362, "tags": {"amenity": "payment_terminal", "brand:wikidata": "Q2469733", "contact:email": "customerservice@bog.ge", "contact:phone": "+995 32 244 44 44", "contact:website": "https://bankofgeorgia.ge/", "opening_hours": "24/7", "operator:wikidata": "Q2469733"}}, {"type": "node", "id": 10971033903, "lat": 42.146243, "lon": 41.680374, "tags": {"amenity": "payment_terminal", "brand:wikidata": "Q2469733", "contact:email": "customerservice@bog.ge", "contact:phone": "+995 32 244 44 44", "contact:website": "https://bankofgeorgia.ge/", "opening_hours": "24/7", "operator:wikidata": "Q2469733"}}, {"type": "node", "id": 10971033904, "lat": 42.14754, "lon": 41.67964, "tags": {"amenity": "payment_terminal", "brand:wikidata": "Q2469733", "contact:email": "customerservice@bog.ge", "contact:phone": "+995 32 244 44 44", "contact:website": "https://bankofgeorgia.ge/", "opening_hours": "24/7", "operator:wikidata": "Q2469733"}}, {"type": "node", "id": 10971040105, "lat": 42.1488744, "lon": 41.6606659, "tags": {"amenity": "payment_terminal", "brand:wikidata": "Q2469733", "contact:email": "customerservice@bog.ge", "contact:phone": "+995 32 244 44 44", "contact:website": "https://bankofgeorgia.ge/", "opening_hours": "24/7", "operator:wikidata": "Q2469733"}}, {"type": "node", "id": 10971040106, "lat": 41.9222372, "lon": 42.000711, "tags": {"amenity": "payment_terminal", "brand:wikidata": "Q2469733", "contact:email": "customerservice@bog.ge", "contact:phone": "+995 32 244 44 44", "contact:website": "https://bankofgeorgia.ge/", "opening_hours": "24/7", "operator:wikidata": "Q2469733"}}, {"type": "node", "id": 10971040107, "lat": 42.1513023, "lon": 41.6612892, "tags": {"amenity": "payment_terminal", "brand:wikidata": "Q2469733", "contact:email": "customerservice@bog.ge", "contact:phone": "+995 32 244 44 44", "contact:website": "https://bankofgeorgia.ge/", "opening_hours": "24/7", "operator:wikidata": "Q2469733"}}, {"type": "node", "id": 10971040108, "lat": 41.9269309, "lon": 42.0005017, "tags": {"amenity": "payment_terminal", "brand:wikidata": "Q2469733", "contact:email": "customerservice@bog.ge", "contact:phone": "+995 32 244 44 44", "contact:website": "https://bankofgeorgia.ge/", "opening_hours": "24/7", "operator:wikidata": "Q2469733"}}, {"type": "node", "id": 10971040109, "lat": 41.9222472, "lon": 42.0029291, "tags": {"amenity": "payment_terminal", "brand:wikidata": "Q2469733", "contact:email": "customerservice@bog.ge", "contact:phone": "+995 32 244 44 44", "contact:website": "https://bankofgeorgia.ge/", "opening_hours": "24/7", "operator:wikidata": "Q2469733"}}, {"type": "node", "id": 10971040111, "lat": 41.9226204, "lon": 42.0036238, "tags": {"amenity": "payment_terminal", "brand:wikidata": "Q2469733", "contact:email": "customerservice@bog.ge", "contact:phone": "+995 32 244 44 44", "contact:website": "https://bankofgeorgia.ge/", "opening_hours": "24/7", "operator:wikidata": "Q2469733"}}, {"type": "node", "id": 10971040113, "lat": 41.9222053, "lon": 42.0006734, "tags": {"amenity": "payment_terminal", "brand:wikidata": "Q2469733", "contact:email": "customerservice@bog.ge", "contact:phone": "+995 32 244 44 44", "contact:website": "https://bankofgeorgia.ge/", "opening_hours": "24/7", "operator:wikidata": "Q2469733"}}, {"type": "node", "id": 10971040114, "lat": 41.9272742, "lon": 42.0042032, "tags": {"amenity": "payment_terminal", "brand:wikidata": "Q2469733", "contact:email": "customerservice@bog.ge", "contact:phone": "+995 32 244 44 44", "contact:website": "https://bankofgeorgia.ge/", "opening_hours": "24/7", "operator:wikidata": "Q2469733"}}, {"type": "node", "id": 10971040115, "lat": 41.922022, "lon": 41.999702, "tags": {"amenity": "payment_terminal", "brand:wikidata": "Q2469733", "contact:email": "customerservice@bog.ge", "contact:phone": "+995 32 244 44 44", "contact:website": "https://bankofgeorgia.ge/", "opening_hours": "24/7", "operator:wikidata": "Q2469733"}}, {"type": "node", "id": 10971040118, "lat": 41.9275742, "lon": 41.9974899, "tags": {"amenity": "payment_terminal", "brand:wikidata": "Q2469733", "contact:email": "customerservice@bog.ge", "contact:phone": "+995 32 244 44 44", "contact:website": "https://bankofgeorgia.ge/", "opening_hours": "24/7", "operator:wikidata": "Q2469733"}}, {"type": "node", "id": 10971040119, "lat": 41.9233665, "lon": 42.0004311, "tags": {"amenity": "payment_terminal", "brand:wikidata": "Q2469733", "contact:email": "customerservice@bog.ge", "contact:phone": "+995 32 244 44 44", "contact:website": "https://bankofgeorgia.ge/", "opening_hours": "24/7", "operator:wikidata": "Q2469733"}}, {"type": "node", "id": 10971040122, "lat": 42.1470349, "lon": 41.665011, "tags": {"amenity": "payment_terminal", "brand:wikidata": "Q2469733", "contact:email": "customerservice@bog.ge", "contact:phone": "+995 32 244 44 44", "contact:website": "https://bankofgeorgia.ge/", "opening_hours": "24/7", "operator:wikidata": "Q2469733"}}, {"type": "node", "id": 10971040123, "lat": 42.1562298, "lon": 41.6683638, "tags": {"amenity": "payment_terminal", "brand:wikidata": "Q2469733", "contact:email": "customerservice@bog.ge", "contact:phone": "+995 32 244 44 44", "contact:website": "https://bankofgeorgia.ge/", "opening_hours": "24/7", "operator:wikidata": "Q2469733"}}, {"type": "node", "id": 10971040125, "lat": 42.1523166, "lon": 41.6653651, "tags": {"amenity": "payment_terminal", "brand:wikidata": "Q2469733", "contact:email": "customerservice@bog.ge", "contact:phone": "+995 32 244 44 44", "contact:website": "https://bankofgeorgia.ge/", "opening_hours": "24/7", "operator:wikidata": "Q2469733"}}, {"type": "node", "id": 10971040126, "lat": 42.1473808, "lon": 41.6785851, "tags": {"amenity": "payment_terminal", "brand:wikidata": "Q2469733", "contact:email": "customerservice@bog.ge", "contact:phone": "+995 32 244 44 44", "contact:website": "https://bankofgeorgia.ge/", "opening_hours": "24/7", "operator:wikidata": "Q2469733"}}, {"type": "node", "id": 10971040130, "lat": 42.087685, "lon": 42.036411, "tags": {"amenity": "payment_terminal", "brand:wikidata": "Q2469733", "contact:email": "customerservice@bog.ge", "contact:phone": "+995 32 244 44 44", "contact:website": "https://bankofgeorgia.ge/", "opening_hours": "24/7", "operator:wikidata": "Q2469733"}}, {"type": "node", "id": 10971040133, "lat": 41.9236755, "lon": 42.0021973, "tags": {"amenity": "payment_terminal", "brand:wikidata": "Q2469733", "contact:email": "customerservice@bog.ge", "contact:phone": "+995 32 244 44 44", "contact:website": "https://bankofgeorgia.ge/", "opening_hours": "24/7", "operator:wikidata": "Q2469733"}}, {"type": "node", "id": 10971040310, "lat": 42.1500596, "lon": 41.6784489, "tags": {"amenity": "payment_terminal", "brand:wikidata": "Q2469733", "contact:email": "customerservice@bog.ge", "contact:phone": "+995 32 244 44 44", "contact:website": "https://bankofgeorgia.ge/", "opening_hours": "24/7", "operator:wikidata": "Q2469733"}}, {"type": "node", "id": 10994561327, "lat": 42.086182, "lon": 42.037514, "tags": {"amenity": "atm", "brand": "\u10e1\u10d0\u10e5\u10d0\u10e0\u10d7\u10d5\u10d4\u10da\u10dd\u10e1 \u10d1\u10d0\u10dc\u10d9\u10d8", "brand:en": "Bank of Georgia", "brand:ru": "\u0411\u0430\u043d\u043a \u0413\u0440\u0443\u0437\u0438\u0438", "brand:tr": "G\u00fcrcistan Bankas\u0131", "brand:wikidata": "Q2469733", "cash_out": "yes", "contact:email": "customerservice@bog.ge", "contact:instagram": "https://instagram.com/bankofgeorgia", "contact:linkedin": "https://linkedin.com/company/bank-of-georgia", "contact:phone": "+995322444444", "contact:website": "https://bankofgeorgia.ge", "contact:youtube": "https://youtube.com/user/BankofGeorgiaTV", "currency:EUR": "yes", "currency:GEL": "yes", "currency:USD": "yes", "language:en": "yes", "language:ka": "yes", "opening_hours": "24/7", "operator": "\u10e1\u10d0\u10e5\u10d0\u10e0\u10d7\u10d5\u10d4\u10da\u10dd\u10e1 \u10d1\u10d0\u10dc\u10d9\u10d8", "operator:wikidata": "Q2469733"}}, {"type": "node", "id": 10994763567, "lat": 41.9228956, "lon": 42.0051741, "tags": {"amenity": "payment_terminal", "brand:wikidata": "Q2469733", "contact:email": "customerservice@bog.ge", "contact:phone": "+995 32 244 44 44", "contact:website": "https://bankofgeorgia.ge/", "opening_hours": "24/7", "operator:wikidata": "Q2469733"}}, {"type": "node", "id": 10994763576, "lat": 42.088637, "lon": 42.03264, "tags": {"amenity": "payment_terminal", "brand:wikidata": "Q2469733", "contact:email": "customerservice@bog.ge", "contact:phone": "+995 32 244 44 44", "contact:website": "https://bankofgeorgia.ge/", "opening_hours": "24/7", "operator:wikidata": "Q2469733"}}, {"type": "node", "id": 11061888012, "lat": 42.0328815, "lon": 41.7439311, "tags": {"amenity": "payment_terminal", "check_date": "2023-07-22"}}, {"type": "node", "id": 11065167165, "lat": 42.0875909, "lon": 42.0368122, "tags": {"amenity": "atm", "brand": "\u10d9\u10e0\u10d4\u10d3\u10dd \u10d1\u10d0\u10dc\u10d9\u10d8", "brand:en": "Credo Bank", "brand:ru": "\u041a\u0440\u0435\u0434\u043e \u0411\u0430\u043d\u043a", "cash_in": "no", "cash_out": "yes", "contact:email": "info@credo.ge", "contact:facebook": "https://facebook.com/CredoBank", "contact:instagram": "https://instagram.com/credobank", "contact:linkedin": "https://linkedin.com/company/credo-bank", "contact:phone": "+995322424242", "contact:website": "https://credobank.ge", "contact:youtube": "https://youtube.com/channel/UC2Y_pR9O5bmlCiFGfoX5bmw", "currency:EUR": "no", "currency:GEL": "yes", "currency:USD": "no", "language:en": "yes", "language:ka": "yes", "language:ru": "no", "opening_hours": "24/7", "operator": "\u10d9\u10e0\u10d4\u10d3\u10dd \u10d1\u10d0\u10dc\u10d9\u10d8"}}, {"type": "node", "id": 11228914142, "lat": 42.0078164, "lon": 41.7805, "tags": {"amenity": "payment_terminal", "brand": "\u10d7\u10d8\u10d1\u10d8\u10e1\u10d8 \u10d1\u10d0\u10dc\u10d9\u10d8", "brand:en": "TBC Bank", "brand:ru": "\u0422\u0438\u0411\u0438\u0421\u0438 \u0411\u0430\u043d\u043a", "brand:wikidata": "Q2620975", "check_date": "2023-09-30", "contact:facebook": "https://www.facebook.com/tbcbank", "contact:linkedin": "https://www.linkedin.com/company/tbc-bank/", "contact:phone": "+995322272727", "contact:twitter": "https://twitter.com/JSCTBC", "contact:website": "https://www.tbcbank.ge", "contact:youtube": "https://www.youtube.com/user/TBCBankTV", "opening_hours": "24/7", "operator": "\u10d7\u10d8\u10d1\u10d8\u10e1\u10d8 \u10d1\u10d0\u10dc\u10d9\u10d8", "operator:wikidata": "Q2620975", "payment:cash": "yes", "payment:cash:EUR": "yes", "payment:cash:USD": "yes", "payment:coins": "no"}}]}