{"version": 0.6, "generator": "Overpass API 0.7.61.5 4133829e", "osm3s": {"timestamp_osm_base": "2024-03-13T23:10:52Z", "copyright": "The data included in this document is from www.openstreetmap.org. The data is made available under ODbL."}, "elements": [{"type": "node", "id": 1203449076, "lat": 42.0166257, "lon": 44.1456095, "tags": {"amenity": "restaurant", "name": "\u10e1\u10d0\u10e1\u10e2\u10e3\u10db\u10e0\u10dd \u10d3\u10d0 \u10e0\u10d4\u10e1\u10e2\u10dd\u10e0\u10d0\u10dc\u10d8 \u10d2\u10dd\u10e0\u10d8", "name:en": "Gori Hotel and Restaurant", "name:ka": "\u10e1\u10d0\u10e1\u10e2\u10e3\u10db\u10e0\u10dd \u10d3\u10d0 \u10e0\u10d4\u10e1\u10e2\u10dd\u10e0\u10d0\u10dc\u10d8 \u10d2\u10dd\u10e0\u10d8", "name:ru": "\u041e\u0442\u0435\u043b\u044c \u0438 \u0440\u0435\u0441\u0442\u043e\u0440\u0430\u043d \u00ab\u0413\u043e\u0440\u0438\u00bb", "source": "JumpStart International", "tourism": "hotel"}}, {"type": "node", "id": 1203507993, "lat": 41.9836202, "lon": 44.1100074, "tags": {"amenity": "cafe", "name": "\u10d0\u10d7\u10d0\u10e1\u10d4\u10e0\u10d7\u10d8 \u10e6\u10d0\u10db\u10d4 (Thousand and One Night)", "name:en": "Thousand and One Night", "name:ka": "\u10d0\u10d7\u10d0\u10e1 \u10d4\u10e0\u10d7\u10d8 \u10e6\u10d0\u10db\u10d4", "source": "JumpStart International"}}, {"type": "node", "id": 1203508176, "lat": 41.982509, "lon": 44.1074733, "tags": {"amenity": "restaurant", "name": "\u10e1\u10d0\u10db\u10d4\u10e4\u10dd", "name:en": "Samepo", "name:ka": "\u10e1\u10d0\u10db\u10d4\u10e4\u10dd", "name:ru": "\u0421\u0430\u043c\u0435\u043f\u043e", "source": "JumpStart International"}}, {"type": "node", "id": 1203508630, "lat": 41.9803681, "lon": 44.1105817}, {"type": "node", "id": 1203508665, "lat": 41.9817469, "lon": 44.1072129, "tags": {"amenity": "restaurant", "name": "\u10eb\u10d5\u10d4\u10da\u10d8 \u10d3\u10e3\u10e5\u10d0\u10dc\u10d8 (Old Dukani)", "name:en": "Old Dukani", "name:ka": "Restorani mzareulebi", "source": "JumpStart International"}}, {"type": "node", "id": 1203508671, "lat": 41.9805238, "lon": 44.1068522, "tags": {"amenity": "cafe", "name": "\u10ec\u10e7\u10d0\u10e0\u10dd\u10e1 \u10e3\u10d1\u10d0\u10dc\u10d8", "name:en": "Tskaros Ubani", "name:ka": "\u10ec\u10e7\u10d0\u10e0\u10dd\u10e1 \u10e3\u10d1\u10d0\u10dc\u10d8", "source": "JumpStart International"}}, {"type": "node", "id": 1203508709, "lat": 41.9819969, "lon": 44.1111728, "tags": {"amenity": "cafe", "name": "\u10e7\u10d0\u10d5\u10d8\u10e1 \u10e1\u10d0\u10ee\u10da\u10d8", "name:en": "Coffee House", "name:ka": "\u10e7\u10d0\u10d5\u10d8\u10e1 \u10e1\u10d0\u10ee\u10da\u10d8", "name:ru": "\u0414\u043e\u043c \u043a\u043e\u0444\u0435", "source": "JumpStart International"}}, {"type": "node", "id": 1203508997, "lat": 41.9991754, "lon": 44.1238299, "tags": {"amenity": "restaurant", "cuisine": "georgian", "name": "\u10d3\u10d0\u10e0\u10d8\u10d0\u10da\u10d8", "name:en": "Dariali", "name:ka": "\u10d3\u10d0\u10e0\u10d8\u10d0\u10da\u10d8", "source": "JumpStart International"}}, {"type": "node", "id": 1203510250, "lat": 41.9815284, "lon": 44.1105691, "tags": {"amenity": "cafe", "name": "\u10d9\u10d0\u10e4\u10d4 \u10d0\u10d5\u10d0\u10dc\u10d2\u10d0\u10e0\u10d3\u10d8", "name:en": "Avangardi Cafe", "name:ka": "\u10d9\u10d0\u10e4\u10d4 \u10d0\u10d5\u10d0\u10dc\u10d2\u10d0\u10e0\u10d3\u10d8", "name:ru": "\u041a\u0430\u0444\u0435 \u00ab\u0410\u0432\u0430\u043d\u0433\u0430\u0440\u0434\u00bb", "source": "JumpStart International"}}, {"type": "node", "id": 1203511574, "lat": 41.9978087, "lon": 44.1216581, "tags": {"amenity": "bar", "name": "\u10d0\u10dc\u10d6\u10dd\u10e0\u10d8\u10e1 \u10d1\u10d0\u10e0\u10d8 (Anzori's Bar)", "name:en": "Anzori's Bar", "name:ka": "\u10d0\u10dc\u10d6\u10dd\u10e0\u10d8\u10e1 \u10d1\u10d0\u10e0\u10d8", "source": "JumpStart International"}}, {"type": "node", "id": 1203511750, "lat": 41.9834881, "lon": 44.1117814, "tags": {"amenity": "bar", "name": "\u10e8\u10d0\u10e0\u10d3\u10d4\u10dc\u10d8 (Chardin)", "name:en": "Chardin", "name:ka": "\u10e8\u10d0\u10e0\u10d3\u10d4\u10dc\u10d8", "source": "JumpStart International"}}, {"type": "node", "id": 1203512691, "lat": 41.9838379, "lon": 44.1119702, "tags": {"amenity": "restaurant", "cuisine": "georgian", "name": "\u10d4\u10da \u10d3\u10d4\u10de\u10dd (El Depo)", "name:en": "El Depo", "name:ka": "\u10d4\u10da \u10d3\u10d4\u10de\u10dd", "source": "JumpStart International"}}, {"type": "node", "id": 1203512713, "lat": 41.9930346, "lon": 44.1223047, "tags": {"amenity": "restaurant", "name": "\u10d7\u10d1\u10d8\u10da\u10d8\u10e1\u10e3\u10e0\u10d8", "name:en": "Tbilisuri", "name:ka": "\u10d7\u10d1\u10d8\u10da\u10d8\u10e1\u10e3\u10e0\u10d8", "name:ru": "\u0422\u0431\u0438\u043b\u0438\u0441\u0443\u0440\u0438", "source": "JumpStart International"}}, {"type": "node", "id": 1203513376, "lat": 41.982708, "lon": 44.1024549, "tags": {"amenity": "cafe", "source": "JumpStart International"}}, {"type": "node", "id": 1203513434, "lat": 41.9822881, "lon": 44.1085571, "tags": {"amenity": "nightclub", "name": "\u10dc\u10d4\u10dd \u10d9\u10da\u10e3\u10d1\u10d8", "name:en": "Neo Club", "name:ka": "\u10dc\u10d4\u10dd \u10d9\u10da\u10e3\u10d1\u10d8", "name:ru": "Neo Club", "source": "JumpStart International"}}, {"type": "node", "id": 1700632576, "lat": 42.0162879, "lon": 44.0654389, "tags": {"amenity": "cafe", "name": "Smart Cafe"}}, {"type": "node", "id": 3030966002, "lat": 41.9785221, "lon": 44.1103979, "tags": {"amenity": "restaurant", "name": "Monadire (Hunter)"}}, {"type": "node", "id": 4169503191, "lat": 41.9877526, "lon": 44.1141477}, {"type": "node", "id": 4208415991, "lat": 42.0374328, "lon": 44.101326, "tags": {"amenity": "restaurant", "name": "\u10dc\u10d0\u10ed\u10d0\u10e0\u10db\u10d0\u10d2\u10d4\u10d5\u10d8", "name:en": "Nacharmaghevi", "name:ru": "\u041d\u0430\u0447\u0430\u0440\u043c\u0430\u0433\u0435\u0432\u0438", "opening_hours": "Mo-Su 12:00-00:00"}}, {"type": "node", "id": 4247827993, "lat": 41.9665708, "lon": 44.211865, "tags": {"amenity": "restaurant", "cuisine": "georgian", "name:en": "Cave Town"}}, {"type": "node", "id": 4309095489, "lat": 41.9660346, "lon": 44.2100172, "tags": {"amenity": "cafe"}}, {"type": "node", "id": 4341842489, "lat": 41.9816779, "lon": 44.1027468, "tags": {"amenity": "cafe", "name": "\u10d1\u10e3\u10dc\u10d2\u10d0\u10da\u10dd"}}, {"type": "node", "id": 4343881192, "lat": 41.9826154, "lon": 44.1121421, "tags": {"addr:street": "\u10e1\u10e2\u10d0\u10da\u10d8\u10dc\u10d8\u10e1 \u10d2\u10d0\u10db\u10d6\u10d8\u10e0\u10d8", "amenity": "bar", "name": "\u10d2\u10e0\u10d8\u10da-\u10d1\u10d0\u10e0\u10d8"}}, {"type": "node", "id": 4348589595, "lat": 41.983732, "lon": 44.1125317, "tags": {"addr:housenumber": "22", "addr:street": "Stalin street", "amenity": "cafe", "description": "Restaurant and Caf\u00e9", "name": "Caf\u00e9 22"}}, {"type": "node", "id": 4348589698, "lat": 41.9819005, "lon": 44.1111394, "tags": {"amenity": "cafe", "name": "Cafe Bar Champs - elysees", "phone": "+995557777558"}}, {"type": "node", "id": 4348629992, "lat": 41.9819232, "lon": 44.1133105, "tags": {"addr:street": "\u10d8. \u10ed\u10d0\u10d5\u10ed\u10d0\u10d5\u10d0\u10eb\u10d8\u10e1 \u10d2\u10d0\u10db\u10d6\u10d8\u10e0\u10d8 (I. Chavchavadze Ave)", "amenity": "cafe", "name": "\u10d9\u10d0\u10e4\u10d4 \u10dc\u10d8\u10d9\u10d0\u10da\u10d0", "name:en": "Cafe Nikala"}}, {"type": "node", "id": 4348665690, "lat": 41.9827381, "lon": 44.1175326, "tags": {"amenity": "restaurant", "name": "Dzmobis Dukani"}}, {"type": "node", "id": 4350631695, "lat": 41.9846636, "lon": 44.1044368, "tags": {"addr:street": "\u10d8. \u10ed\u10d0\u10d5\u10ed\u10d0\u10d5\u10d0\u10eb\u10d8\u10e1 \u10d2\u10d0\u10db\u10d6\u10d8\u10e0\u10d8 (I. Chavchavadze Ave)", "amenity": "cafe"}}, {"type": "node", "id": 4351256089, "lat": 41.9817685, "lon": 44.102699, "tags": {"addr:street": "\u10d2\u10e3\u10e0\u10d0\u10db\u10d8\u10e8\u10d5\u10d8\u10da\u10d8\u10e1 \u10e5\u10e3\u10e9\u10d0 (Guramishvili St)", "amenity": "bar", "email": "beqachitaia080@gmail.com", "internet_access": "wlan", "name": "\u10d1\u10e3\u10dc\u10d2\u10d0\u10da\u10dd", "name:en": "Bungalow", "opening_hours": "Mo-Su 12:00-01:00", "phone": "599772284"}}, {"type": "node", "id": 4361916191, "lat": 41.9946049, "lon": 44.1113342, "tags": {"amenity": "restaurant", "name": "\u10ee\u10d8\u10dc\u10d9\u10da\u10d8\u10e1 \u10e1\u10d0\u10ee\u10da\u10d8", "name:en": "Khinklis Saxli", "name:ka": "\u10ee\u10d8\u10dc\u10d9\u10da\u10d8\u10e1 \u10e1\u10d0\u10ee\u10da\u10d8", "name:ru": "\u0425\u0438\u043d\u043a\u043b\u0438\u0441 \u0421\u0430\u0445\u043b\u0438"}}, {"type": "node", "id": 4361916193, "lat": 41.9958308, "lon": 44.1116934, "tags": {"addr:street": "\u10ea\u10ee\u10d8\u10dc\u10d5\u10d0\u10da\u10d8\u10e1 \u10d2\u10d6\u10d0\u10e2\u10d9\u10d4\u10ea\u10d8\u10da\u10d8 (Tskhinvali Hwy)", "amenity": "restaurant", "name": "\u10db\u10d6\u10d8\u10e3\u10e0\u10d8", "name:en": "Mziuri", "name:ka": "\u10db\u10d6\u10d8\u10e3\u10e0\u10d8", "name:ru": "\u041c\u0437\u0438\u0443\u0440\u0438"}}, {"type": "node", "id": 4362385689, "lat": 41.9838834, "lon": 44.1055384, "tags": {"addr:street": "\u10d8. \u10ed\u10d0\u10d5\u10ed\u10d0\u10d5\u10d0\u10eb\u10d8\u10e1 \u10d2\u10d0\u10db\u10d6\u10d8\u10e0\u10d8 (I. Chavchavadze Ave)", "amenity": "cafe", "name": "\u10e1\u10d0\u10e1\u10dd\u10e1\u10d8\u10e1\u10d4", "name:ka": "\u10e1\u10d0\u10e1\u10dd\u10e1\u10d8\u10e1\u10d4", "name:ru": "\u0421\u043e\u0441\u0438\u0441\u043d\u0430\u044f"}}, {"type": "node", "id": 4387451691, "lat": 41.978897, "lon": 44.1151888, "tags": {"amenity": "restaurant", "name": "\u10e1\u10d0\u10da\u10ee\u10d8\u10dc\u10dd", "name:ka": "\u10e1\u10d0\u10da\u10ee\u10d8\u10dc\u10dd"}}, {"type": "node", "id": 4524036193, "lat": 41.9816414, "lon": 44.1142405, "tags": {"addr:housenumber": "52", "addr:postcode": "1400", "addr:street": "\u10d8. \u10ed\u10d0\u10d5\u10ed\u10d0\u10d5\u10d0\u10eb\u10d8\u10e1 \u10d2\u10d0\u10db\u10d6\u10d8\u10e0\u10d8 (I. Chavchavadze Ave)", "amenity": "cafe", "email": "datiko120@gmail.com", "name": "\u10d8\u10dc\u10e2\u10d4\u10e0\u10dc\u10d4\u10e2 \u10d9\u10d0\u10e4\u10d4", "name:en": "Internet Cafe", "opening_hours": "Mo-Su 10:00-22:00", "operator": "\u10d3\u10d0\u10d5\u10d8\u10d7 \u10db\u10dd\u10ea\u10d8\u10e5\u10e3\u10da\u10d0\u10e8\u10d5\u10d8\u10da\u10d8", "phone": "995593570602"}}, {"type": "node", "id": 4825976323, "lat": 41.9806472, "lon": 44.1105201}, {"type": "node", "id": 4825976324, "lat": 41.9806143, "lon": 44.1106757}, {"type": "node", "id": 4825976326, "lat": 41.980401, "lon": 44.1104261}, {"type": "node", "id": 4894845124, "lat": 41.9795116, "lon": 44.110855, "tags": {"addr:housenumber": "10", "addr:street": "\u10e1\u10e2\u10d0\u10da\u10d8\u10dc\u10d8\u10e1 \u10d2\u10d0\u10db\u10d6\u10d8\u10e0\u10d8", "amenity": "cafe", "internet_access": "wlan", "name:en": "Read Art Cafe"}}, {"type": "node", "id": 5303431917, "lat": 41.9825095, "lon": 44.1113666, "tags": {"addr:city": "\u10d2\u10dd\u10e0\u10d8", "addr:housenumber": "13", "addr:street": "\u10e1\u10e2\u10d0\u10da\u10d8\u10dc\u10d8\u10e1 \u10d2\u10d0\u10db\u10d6\u10d8\u10e0\u10d8", "amenity": "cafe", "cuisine": "pizza;burger;regional", "internet_access": "wlan", "internet_access:fee": "no", "internet_access:ssid": "deflore", "name": "Cafe de Flore", "opening_hours": "Mo-Su 10:00-22:00", "outdoor_seating": "no", "smoking": "yes"}}, {"type": "node", "id": 5623459922, "lat": 41.9879229, "lon": 44.1133228, "tags": {"amenity": "cafe"}}, {"type": "node", "id": 5646462035, "lat": 41.9877926, "lon": 44.1141056}, {"type": "node", "id": 5646462036, "lat": 41.9877649, "lon": 44.1141292}, {"type": "node", "id": 5646462037, "lat": 41.9877216, "lon": 44.1141266}, {"type": "node", "id": 5646462038, "lat": 41.9878589, "lon": 44.114144}, {"type": "node", "id": 5646462039, "lat": 41.9878148, "lon": 44.1142821}, {"type": "node", "id": 5646462040, "lat": 41.9876942, "lon": 44.1142124}, {"type": "node", "id": 5664289756, "lat": 42.0184148, "lon": 43.8953572, "tags": {"amenity": "restaurant", "name": "Restorani Bateti"}}, {"type": "node", "id": 5767710953, "lat": 41.9854221, "lon": 44.1109275, "tags": {"addr:street": "\u10d0. \u10ec\u10d4\u10e0\u10d4\u10d7\u10d4\u10da\u10d8\u10e1 \u10e5\u10e3\u10e9\u10d0", "amenity": "restaurant", "check_date": "2022-12-22", "cuisine": "hot_dog", "name:en": "Black Stars", "outdoor_seating": "yes"}}, {"type": "node", "id": 6068989292, "lat": 42.0215252, "lon": 43.8935567, "tags": {"amenity": "restaurant", "cuisine": "georgian", "name": "Restorani Bateti"}}, {"type": "node", "id": 6420459185, "lat": 41.9849644, "lon": 44.113281, "tags": {"amenity": "restaurant", "name": "L\u2019AVENUE"}}, {"type": "node", "id": 6470421094, "lat": 41.9661156, "lon": 44.2108823, "tags": {"amenity": "restaurant"}}, {"type": "node", "id": 6470421095, "lat": 41.9667571, "lon": 44.2138926, "tags": {"amenity": "restaurant"}}, {"type": "node", "id": 6555029485, "lat": 41.9816001, "lon": 44.107173, "tags": {"amenity": "restaurant", "name": "\u10db\u10d6\u10d0\u10e0\u10d4\u10e3\u10da\u10d4\u10d1\u10d8", "name:en": "Mzareulebi"}}, {"type": "node", "id": 6635608747, "lat": 41.9877754, "lon": 44.1141279}, {"type": "node", "id": 6635608748, "lat": 41.9877569, "lon": 44.1141366}, {"type": "node", "id": 6635608749, "lat": 41.9877839, "lon": 44.1141323}, {"type": "node", "id": 6653132729, "lat": 41.9849713, "lon": 44.1132598, "tags": {"amenity": "cafe", "name": "L'Avenue"}}, {"type": "node", "id": 6653174248, "lat": 41.9667182, "lon": 44.213828, "tags": {"amenity": "restaurant"}}, {"type": "node", "id": 6763572868, "lat": 41.9840588, "lon": 44.1086883, "tags": {"amenity": "restaurant", "name": "\u10d1\u10d4\u10e0\u10d8\u10d9\u10dd\u10dc\u10d8", "name:en": "Berikoni", "name:ka": "\u10d1\u10d4\u10e0\u10d8\u10d9\u10dd\u10dc\u10d8", "opening_hours": "Mo-Su 09:30-23:30"}}, {"type": "node", "id": 6805488211, "lat": 41.9818905, "lon": 44.1065499, "tags": {"addr:city": "\u10d2\u10dd\u10e0\u10d8", "addr:housenumber": "1", "addr:postcode": "1400", "addr:street": "\u10e0\u10e3\u10e1\u10e3\u10d3\u10d0\u10dc \u10e5\u10dd\u10e0\u10e5\u10d0\u10eb\u10d8\u10e1 \u10e5\u10e3\u10e9\u10d0", "amenity": "restaurant", "check_date": "2022-12-22", "cuisine": "regional", "internet_access": "wlan", "internet_access:fee": "customers", "name": "\u10e8\u10d8\u10dc \u10d3\u10d0 \u10d2\u10dd\u10e0\u10d8", "name:en": "Shin da Gori", "name:ka": "\u10e8\u10d8\u10dc \u10d3\u10d0 \u10d2\u10dd\u10e0\u10d8", "outdoor_seating": "yes", "takeaway": "yes", "website": "https://shindagori.ge/", "website:menu": "https://shindagori.ge/qr-menu", "wheelchair": "limited"}}, {"type": "node", "id": 6850939948, "lat": 41.9788221, "lon": 44.1105623, "tags": {"addr:housenumber": "8", "amenity": "restaurant", "name": "Melange Caf\u00e9", "website": "https://www.facebook.com/Cafe-Bar-MELANJI-922064077807432/"}}, {"type": "node", "id": 6862922985, "lat": 41.9655233, "lon": 44.2189153}, {"type": "node", "id": 6868110348, "lat": 42.008889, "lon": 44.106175, "tags": {"amenity": "restaurant", "contact:facebook": "https://www.facebook.com/chadrebi-109218526233283/", "name": "\u10ed\u10d0\u10d3\u10e0\u10d4\u10d1\u10d8"}}, {"type": "node", "id": 8320818902, "lat": 41.985857, "lon": 44.1137403, "tags": {"addr:city": "\u10d2\u10dd\u10e0\u10d8", "addr:housenumber": "26\u10d0", "addr:postcode": "1400", "addr:street": "\u10e1\u10e2\u10d0\u10da\u10d8\u10dc\u10d8\u10e1 \u10d2\u10d0\u10db\u10d6\u10d8\u10e0\u10d8", "amenity": "cafe", "internet_access": "yes", "internet_access:fee": "no", "name": "\u10d9\u10d0\u10e4\u10d4-\u10d1\u10d0\u10e0\u10d8 \"\u10d2\u10d4\u10dd\u10e0\u10d2\u10d8\u10d0 \u10d2\u10dd\u10da\u10d3\u10d8\"", "name:en": "Cafe-Bar \"Georgia Gold\"", "name:ka": "\u10d9\u10d0\u10e4\u10d4-\u10d1\u10d0\u10e0\u10d8 \"\u10d2\u10d4\u10dd\u10e0\u10d2\u10d8\u10d0 \u10d2\u10dd\u10da\u10d3\u10d8\"", "outdoor_seating": "no"}}, {"type": "node", "id": 9120204703, "lat": 41.9605403, "lon": 44.1550912, "tags": {"amenity": "restaurant", "cuisine": "local", "email": "restaurant.marani@outlook.com", "name": "\u10e0\u10d4\u10e1\u10e2\u10dd\u10e0\u10d0\u10dc\u10d8 \u10db\u10d0\u10e0\u10d0\u10dc\u10d8", "name:en": "Restaurant Marani", "phone": "+995 599 18 78 68"}}, {"type": "node", "id": 9318364034, "lat": 41.9754418, "lon": 44.105688, "tags": {"addr:city": "\u10d2\u10dd\u10e0\u10d8", "addr:postcode": "1400", "addr:street": "\u10d2\u10dd\u10e0\u10d8\u10ef\u10d5\u10e0\u10d8\u10e1 \u10e5\u10e3\u10e9\u10d0", "amenity": "restaurant", "name": "\u10d4\u10e0\u10d8\u10e1\u10dd\u10dc\u10d8", "name:en": "Erisoni", "name:ka": "\u10d4\u10e0\u10d8\u10e1\u10dd\u10dc\u10d8"}}, {"type": "node", "id": 9318373219, "lat": 41.9753503, "lon": 44.1053848}, {"type": "node", "id": 9318373220, "lat": 41.975576, "lon": 44.1054385}, {"type": "node", "id": 9318373221, "lat": 41.9755187, "lon": 44.1058822}, {"type": "node", "id": 9318373222, "lat": 41.9755551, "lon": 44.1059078}, {"type": "node", "id": 9318373223, "lat": 41.9755187, "lon": 44.1060176}, {"type": "node", "id": 9318373224, "lat": 41.9752843, "lon": 44.1058658}, {"type": "node", "id": 9998633314, "lat": 42.0217879, "lon": 43.895381, "tags": {"amenity": "cafe", "name": "Keria Karelshi"}}, {"type": "node", "id": 9998651302, "lat": 42.0217348, "lon": 44.1000367, "tags": {"amenity": "restaurant", "name": "Restaurant house of fish"}}, {"type": "node", "id": 9998651316, "lat": 42.032826, "lon": 44.1025835, "tags": {"amenity": "restaurant", "name": "Venecia"}}, {"type": "node", "id": 9998651318, "lat": 42.0355271, "lon": 44.1019334, "tags": {"amenity": "restaurant", "name": "Villa Park Gori"}}, {"type": "node", "id": 9998651329, "lat": 42.0025983, "lon": 44.1106102, "tags": {"amenity": "cafe", "name": "\u0414\u043e\u043c\u0430\u0448\u043d\u044f\u044f \u043a\u0443\u0445\u043d\u044f"}}, {"type": "node", "id": 9998651391, "lat": 41.9996796, "lon": 44.123805, "tags": {"amenity": "restaurant", "name": "Dariali"}}, {"type": "node", "id": 10280150204, "lat": 41.9816982, "lon": 44.1068372, "tags": {"amenity": "restaurant", "check_date": "2022-12-22", "name": "\u10d7\u10dd\u10e0\u10d8", "name:en": "Thor"}}, {"type": "node", "id": 10612446766, "lat": 41.98782, "lon": 44.1142584}, {"type": "node", "id": 10612446769, "lat": 41.9878562, "lon": 44.1141538}, {"type": "node", "id": 10983667705, "lat": 41.9843223, "lon": 44.0982512, "tags": {"amenity": "cafe", "contact:instagram": "kera_sweethome", "cuisine": "georgian", "name:en": "Ke&Ra", "name:ru": "\u041a\u0435\u0440\u0430"}}, {"type": "node", "id": 10994653113, "lat": 41.9652701, "lon": 44.2189099}, {"type": "node", "id": 10994653117, "lat": 41.965271, "lon": 44.2185344}, {"type": "node", "id": 10994653118, "lat": 41.965617, "lon": 44.2187691}, {"type": "node", "id": 10994653119, "lat": 41.96527, "lon": 44.2189273}, {"type": "node", "id": 10994653120, "lat": 41.965271, "lon": 44.2185116}, {"type": "node", "id": 10994653121, "lat": 41.965621, "lon": 44.2185169}, {"type": "node", "id": 11131417205, "lat": 41.9843947, "lon": 44.0980679, "tags": {"addr:street": "\u10e1\u10dd\u10ee\u10e3\u10db\u10d8\u10e1 \u10e5\u10e3\u10e9\u10d0", "amenity": "restaurant", "internet_access": "wlan", "name": "KE&RA", "phone": "577 38 02 20", "website": "https://www.instagram.com/kera_sweethome/"}}, {"type": "way", "id": 490413214, "nodes": [4825976323, 4825976324, 1203508630, 4825976326, 4825976323], "tags": {"addr:city": "\u10d2\u10dd\u10e0\u10d8", "addr:housenumber": "11\u10d0", "addr:postcode": "1400", "addr:street": "\u10e1\u10e2\u10d0\u10da\u10d8\u10dc\u10d8\u10e1 \u10d2\u10d0\u10db\u10d6\u10d8\u10e0\u10d8", "amenity": "cafe", "building": "yes", "building:levels": "2", "name": "\u10e1\u10de\u10dd\u10e0\u10e2 \u10d9\u10d0\u10e4\u10d4", "name:en": "Sport Cafe", "name:ka": "\u10e1\u10de\u10dd\u10e0\u10e2 \u10d9\u10d0\u10e4\u10d4", "source": "JumpStart International"}}, {"type": "way", "id": 591430316, "nodes": [5646462040, 5646462037, 4169503191, 6635608748, 5646462036, 6635608747, 6635608749, 5646462035, 5646462038, 10612446769, 10612446766, 5646462039, 5646462040], "tags": {"amenity": "restaurant", "building": "yes", "check_date": "2023-02-04", "name": "\u10e9\u10d8\u10dc\u10d4\u10d1\u10e3\u10da\u10d8", "name:en": "Chinebuli", "name:ka": "\u10e9\u10d8\u10dc\u10d4\u10d1\u10e3\u10da\u10d8", "name:ru": "\u0427\u0438\u043d\u0435\u0431\u0443\u043b\u0438"}}, {"type": "way", "id": 1009943385, "nodes": [9318373219, 9318373220, 9318373221, 9318373222, 9318373223, 9318373224, 9318373219], "tags": {"amenity": "restaurant", "building": "yes"}}, {"type": "way", "id": 1183923111, "nodes": [10994653121, 10994653120, 10994653117, 10994653113, 10994653119, 6862922985, 10994653118, 10994653121], "tags": {"amenity": "restaurant", "cuisine": "regional", "name": "\u10e0\u10d4\u10e1\u10e2\u10dd\u10e0\u10d0\u10dc\u10d8\"\u10e5\u10dd\u10e0\u10d7\u10d8\u10d0\u10e0\u10d3 \u10d9\u10d0\u10d9\u10da\u10d4\u10d1\u10d8\"", "name:en": "Courtyard Kaklebi", "name:ka": "\u10e0\u10d4\u10e1\u10e2\u10dd\u10e0\u10d0\u10dc\u10d8\"\u10e5\u10dd\u10e0\u10d7\u10d8\u10d0\u10e0\u10d3 \u10d9\u10d0\u10d9\u10da\u10d4\u10d1\u10d8\"", "opening_hours": "Mo-Su 11:00-20:00"}}]}