{"version": 0.6, "generator": "Overpass API 0.7.61.5 4133829e", "osm3s": {"timestamp_osm_base": "2024-03-14T21:59:00Z", "copyright": "The data included in this document is from www.openstreetmap.org. The data is made available under ODbL."}, "elements": [{"type": "node", "id": 290406285, "lat": 57.7362296, "lon": 15.6282507, "tags": {"amenity": "cafe", "created_by": "JOSM"}}, {"type": "node", "id": 765332863, "lat": 57.6117898, "lon": 15.6690536, "tags": {"amenity": "cafe", "diet:vegetarian": "yes", "indoor_seating": "yes", "name": "Caf\u00e9 S\u00f6rg\u00e5rden", "opening_hours": "Jun 11 - Jun 30 : Mo-Su 11:00-17:00; Jul 01 - Aug 14 : Mo-Su 10:00-18:00; Aug 15 - Aug 28 : Mo-Su 11:00-17:00", "outdoor_seating": "yes"}}, {"type": "node", "id": 765621131, "lat": 57.6169598, "lon": 15.5754721, "tags": {"addr:country": "SE", "addr:housenumber": "2", "addr:postcode": "57030", "addr:street": "Tr\u00e4dg\u00e5rdsgatan", "amenity": "restaurant", "cuisine": "asian", "name": "Sofias Restaurang", "website": "http://www.sofiasrestaurang.se/"}}, {"type": "node", "id": 1330806295, "lat": 57.4039086, "lon": 15.5034838, "tags": {"amenity": "restaurant", "cuisine": "pizza;regional;kebab", "name": "Kvills taverna"}}, {"type": "node", "id": 1359526516, "lat": 57.7581965, "lon": 15.7321428, "tags": {"alt_name": "www.soderhult.se", "amenity": "restaurant", "cuisine": "german", "name": "S\u00f6derhult"}}, {"type": "node", "id": 1451123659, "lat": 57.676149, "lon": 15.8454737, "tags": {"amenity": "restaurant", "name": "Hamnmagasinet"}}, {"type": "node", "id": 1771263307, "lat": 57.6650353, "lon": 15.8569746}, {"type": "node", "id": 1771263308, "lat": 57.6650515, "lon": 15.8566533}, {"type": "node", "id": 1771263309, "lat": 57.6651571, "lon": 15.8569961}, {"type": "node", "id": 1771263311, "lat": 57.6651734, "lon": 15.8566748}, {"type": "node", "id": 1771916529, "lat": 57.639404, "lon": 15.7018712, "tags": {"amenity": "cafe", "name": "Mossebo"}}, {"type": "node", "id": 1777530260, "lat": 57.4872397, "lon": 15.8437557, "tags": {"amenity": "restaurant", "name": "Salladsbar Amigos"}}, {"type": "node", "id": 1823506225, "lat": 57.6323478, "lon": 15.8315984, "tags": {"amenity": "restaurant", "cuisine": "regional", "name": "Ingebo Hagar", "organic": "only", "website": "http://www.ingebohagar.se"}}, {"type": "node", "id": 1843152045, "lat": 57.6979878, "lon": 16.0053783, "tags": {"amenity": "cafe", "check_date": "2023-09-18", "name": "Ostkakeboden", "opening_hours": "Mo-Fr 10:00-18:00, Jun 18-Aug 12", "operator": "Fr\u00f6dinge Mejeri", "website": "https://frodinge.se/om-froedinge/#ostkakeboden"}}, {"type": "node", "id": 1891627955, "lat": 57.6441436, "lon": 15.4152884, "tags": {"amenity": "cafe", "name": "Valbackens Toppstuga", "source": "local knowledge"}}, {"type": "node", "id": 2242805094, "lat": 57.3907201, "lon": 15.8240553, "tags": {"amenity": "restaurant", "cuisine": "pizza", "name": "Hotell M\u00e5lilla", "tourism": "hotel"}}, {"type": "node", "id": 2353537270, "lat": 57.6441088, "lon": 15.4154009}, {"type": "node", "id": 2353537272, "lat": 57.6441863, "lon": 15.4151756}, {"type": "node", "id": 2353537273, "lat": 57.6442466, "lon": 15.4152507}, {"type": "node", "id": 2353537274, "lat": 57.6441633, "lon": 15.4154706}, {"type": "node", "id": 2383309088, "lat": 57.7396606, "lon": 15.7985099, "tags": {"amenity": "restaurant", "cuisine": "pizza", "name": "Restaurang Wasa"}}, {"type": "node", "id": 2407713769, "lat": 57.6375716, "lon": 15.415603, "tags": {"amenity": "restaurant", "cuisine": "pizza;kebab;burger", "name": "Ingatorps Pizzeria", "outdoor_seating": "yes", "takeaway": "yes"}}, {"type": "node", "id": 2733988241, "lat": 57.6678639, "lon": 15.869438}, {"type": "node", "id": 2733988242, "lat": 57.6679883, "lon": 15.8691645}, {"type": "node", "id": 2759436677, "lat": 57.666138, "lon": 15.8568106}, {"type": "node", "id": 2759436678, "lat": 57.6661651, "lon": 15.8566236}, {"type": "node", "id": 2759436679, "lat": 57.6659828, "lon": 15.8565314}, {"type": "node", "id": 2759436680, "lat": 57.6659558, "lon": 15.8567183}, {"type": "node", "id": 2892140525, "lat": 57.672468, "lon": 15.8457703, "tags": {"amenity": "cafe", "name": "Lekladan"}}, {"type": "node", "id": 2892140529, "lat": 57.6730371, "lon": 15.845029, "tags": {"amenity": "restaurant", "cuisine": "regional", "name": "Stadsm\u00e4starg\u00e5rden"}}, {"type": "node", "id": 2892540085, "lat": 57.6738165, "lon": 15.8434767, "tags": {"amenity": "cafe", "name": "A Larssons Bageri"}}, {"type": "node", "id": 2892540087, "lat": 57.6739752, "lon": 15.8463456, "tags": {"amenity": "cafe", "name": "Gammelg\u00e5rdens Kaf\u00e9"}}, {"type": "node", "id": 2892540088, "lat": 57.676108, "lon": 15.8453095, "tags": {"amenity": "cafe", "name": "Hamnmagasinets Kaf\u00e9"}}, {"type": "node", "id": 2892540092, "lat": 57.6736101, "lon": 15.8436729, "tags": {"amenity": "restaurant", "cuisine": "regional", "name": "Linnea"}}, {"type": "node", "id": 2892540093, "lat": 57.6752146, "lon": 15.8432819, "tags": {"amenity": "restaurant", "name": "Majkens mat"}}, {"type": "node", "id": 2892540095, "lat": 57.6730714, "lon": 15.8440483, "tags": {"amenity": "cafe", "name": "Saltkr\u00e5kans Kaf\u00e9"}}, {"type": "node", "id": 2892540097, "lat": 57.675176, "lon": 15.8448643, "tags": {"amenity": "cafe", "name": "Stadshotellets pannkaksbuff\u00e9"}}, {"type": "node", "id": 2892540098, "lat": 57.6740189, "lon": 15.8484632, "tags": {"amenity": "cafe", "name": "Stubben"}}, {"type": "node", "id": 3523115446, "lat": 57.6678837, "lon": 15.8694695}, {"type": "node", "id": 3523115447, "lat": 57.6679463, "lon": 15.8695691}, {"type": "node", "id": 3523115448, "lat": 57.6680095, "lon": 15.8694302}, {"type": "node", "id": 3523115449, "lat": 57.6681154, "lon": 15.8695986}, {"type": "node", "id": 3523115450, "lat": 57.6681766, "lon": 15.869464}, {"type": "node", "id": 3523115456, "lat": 57.6681436, "lon": 15.8694115}, {"type": "node", "id": 3523538081, "lat": 57.6673773, "lon": 15.8465225}, {"type": "node", "id": 3523538082, "lat": 57.6673222, "lon": 15.8461093}, {"type": "node", "id": 3523538083, "lat": 57.6670508, "lon": 15.8462359}, {"type": "node", "id": 3523538084, "lat": 57.6671059, "lon": 15.8466491}, {"type": "node", "id": 3572995130, "lat": 57.6693326, "lon": 15.8505936}, {"type": "node", "id": 3572995131, "lat": 57.6693466, "lon": 15.8506252}, {"type": "node", "id": 3572995132, "lat": 57.6693542, "lon": 15.8506638}, {"type": "node", "id": 3572995133, "lat": 57.6693545, "lon": 15.8507048}, {"type": "node", "id": 3572995134, "lat": 57.6692723, "lon": 15.8508034}, {"type": "node", "id": 3572995135, "lat": 57.6691709, "lon": 15.8508891}, {"type": "node", "id": 3572995136, "lat": 57.6693475, "lon": 15.8507437}, {"type": "node", "id": 3572995137, "lat": 57.669334, "lon": 15.8507761}, {"type": "node", "id": 3572995138, "lat": 57.6693155, "lon": 15.8507982}, {"type": "node", "id": 3572995139, "lat": 57.6692942, "lon": 15.8508077}, {"type": "node", "id": 3572995140, "lat": 57.6691322, "lon": 15.8507303}, {"type": "node", "id": 3572995141, "lat": 57.6692283, "lon": 15.8506464}, {"type": "node", "id": 3572995142, "lat": 57.6692383, "lon": 15.8506116}, {"type": "node", "id": 3572995143, "lat": 57.6692537, "lon": 15.8505846}, {"type": "node", "id": 3572995144, "lat": 57.669273, "lon": 15.8505682}, {"type": "node", "id": 3572995145, "lat": 57.669294, "lon": 15.8505642}, {"type": "node", "id": 3572995146, "lat": 57.6693146, "lon": 15.850573}, {"type": "node", "id": 3583384258, "lat": 57.6375485, "lon": 15.4125525}, {"type": "node", "id": 3672550495, "lat": 57.6658814, "lon": 15.8545182, "tags": {"amenity": "cafe", "indoor_seating": "yes", "name": "Bakfickan", "outdoor_seating": "yes"}}, {"type": "node", "id": 3672550496, "lat": 57.665715, "lon": 15.8537859, "tags": {"amenity": "cafe"}}, {"type": "node", "id": 3674120039, "lat": 57.665357, "lon": 15.8550802, "tags": {"amenity": "restaurant", "cuisine": "asian", "indoor_seating": "yes", "name": "Tai Fu Quing", "outdoor_seating": "no"}}, {"type": "node", "id": 3676168522, "lat": 57.6662979, "lon": 15.8532743, "tags": {"amenity": "restaurant", "cuisine": "pizza", "name": "Piri Piri"}}, {"type": "node", "id": 4162013843, "lat": 57.3659931, "lon": 15.3958526, "tags": {"addr:city": "Vetlanda", "addr:country": "SE", "addr:hamlet": "Skir\u00f6", "addr:housenumber": "1", "addr:postcode": "574 96", "addr:street": "Tolja", "amenity": "cafe", "cuisine": "cake", "name": "Frenillas bod", "opening_hours": "Fr-Su 11:00-17:00", "website": "https://frenillasbod.se/"}}, {"type": "node", "id": 4684236303, "lat": 57.7191052, "lon": 15.8345173}, {"type": "node", "id": 4684236304, "lat": 57.7189706, "lon": 15.8346621}, {"type": "node", "id": 4684236305, "lat": 57.7190909, "lon": 15.8349679}, {"type": "node", "id": 4684236306, "lat": 57.7191883, "lon": 15.8348231}, {"type": "node", "id": 4684236307, "lat": 57.7191883, "lon": 15.8347694}, {"type": "node", "id": 4684236308, "lat": 57.7192313, "lon": 15.8347265}, {"type": "node", "id": 4684236309, "lat": 57.7191711, "lon": 15.8345173}, {"type": "node", "id": 4684236310, "lat": 57.7191282, "lon": 15.8345495}, {"type": "node", "id": 5011557092, "lat": 57.6165781, "lon": 15.5710327, "tags": {"addr:city": "Mariannelund", "addr:country": "SE", "addr:housenumber": "5 A-B", "addr:postcode": "589 97", "addr:street": "V\u00e4stra Storgatan", "amenity": "cafe", "contact:phone": "+46 723 587570", "cuisine": "ice_cream", "level": "0", "name": "Paj, Pytt & Pilsner", "operator": "Familjen Sandebo AB", "outdoor_seating": "yes", "payment:cash": "yes", "payment:maestro": "yes", "payment:mastercard": "yes", "payment:visa": "yes", "takeaway": "yes"}}, {"type": "node", "id": 5033134793, "lat": 57.6212669, "lon": 15.5972396, "tags": {"amenity": "cafe", "contact:phone": "+46 76 1632663", "contact:website": "http://www.zedigs.se/", "name": "Zedig's Glassfabrik & Konfektyr", "opening_hours": "Jun 17 - Sep 17: Mo-Su 09:00-20:00; Sep 18 - Jun 16: Mo-Su 10:00-18:00", "shop": "confectionery"}}, {"type": "node", "id": 5104160798, "lat": 57.5767941, "lon": 15.8091742, "tags": {"amenity": "restaurant", "name": "Golfrestaurang"}}, {"type": "node", "id": 5104160800, "lat": 57.5761555, "lon": 15.8052099, "tags": {"amenity": "restaurant", "name": "Fredenborgs Herrg\u00e5rd"}}, {"type": "node", "id": 5536395830, "lat": 57.407494, "lon": 15.6196141, "tags": {"amenity": "restaurant", "cuisine": "pizza", "name": "Em\u00e5baren"}}, {"type": "node", "id": 5696176501, "lat": 57.6374589, "lon": 15.41248}, {"type": "node", "id": 5696176502, "lat": 57.6373979, "lon": 15.4127432}, {"type": "node", "id": 5696176503, "lat": 57.6374875, "lon": 15.4128156}, {"type": "node", "id": 5840487225, "lat": 57.5018258, "lon": 15.8214866, "tags": {"amenity": "restaurant", "name": "Metropol"}}, {"type": "node", "id": 6502522186, "lat": 57.6662893, "lon": 15.8573819, "tags": {"amenity": "restaurant", "cuisine": "italian", "internet_access": "wlan", "name": "kharma Restaurang Nattklubb", "name:de": "Karma Restaurant & Nachtclub", "name:en": "Kharma Restaurant Nightclub", "opening_hours": "Mo-Su 11:00-02:00"}}, {"type": "node", "id": 6611153836, "lat": 57.6760649, "lon": 15.8570694, "tags": {"amenity": "cafe", "name": "Tr\u00e4dg\u00e5rdhuset", "outdoor_seating": "yes", "toilets": "yes"}}, {"type": "node", "id": 6629193586, "lat": 57.6651061, "lon": 15.8568291, "tags": {"addr:country": "SE", "addr:housenumber": "52", "addr:postcode": "59837", "addr:street": "Storgatan", "amenity": "restaurant", "cuisine": "regional", "name": "Smak by Simon", "website": "http://www.smakbysimon.se/"}}, {"type": "node", "id": 7796911085, "lat": 57.7585745, "lon": 15.8650792, "tags": {"amenity": "cafe"}}, {"type": "node", "id": 8892917846, "lat": 57.666441, "lon": 15.8558353, "tags": {"amenity": "restaurant", "changing_table": "no", "cuisine": "american;japanese", "highchair": "yes", "internet_access": "no", "level": "0", "name": "Burgers & Beers Restaurang & Pub", "opening_hours": "Mo-Su 12:00-22:30", "outdoor_seating": "yes", "smoking": "no", "takeaway": "yes", "toilets": "yes", "toilets:access": "customers", "toilets:wheelchair": "yes", "wheelchair": "limited"}}, {"type": "node", "id": 9007173265, "lat": 57.6771321, "lon": 15.8527455, "tags": {"amenity": "restaurant", "outdoor_seating": "yes"}}, {"type": "node", "id": 10731554330, "lat": 57.7430717, "lon": 15.8007874, "tags": {"amenity": "cafe", "name": "Cafe S\u00f6dra Vi", "opening_hours": "Su 11:00-16:00", "website": "sodravi.se"}}, {"type": "node", "id": 10736920968, "lat": 57.6669655, "lon": 15.8562426, "tags": {"amenity": "cafe", "name": "Caf\u00e9 Paris"}}, {"type": "way", "id": 165579916, "nodes": [1771263311, 1771263309, 1771263307, 1771263308, 1771263311], "tags": {"amenity": "restaurant", "building": "yes", "cuisine": "thai", "name": "Lindgrens Lila Thai"}}, {"type": "way", "id": 226572422, "nodes": [2353537273, 2353537274, 2353537270, 2353537272, 2353537273], "tags": {"amenity": "cafe", "building": "yes"}}, {"type": "way", "id": 270991425, "nodes": [2759436677, 2759436678, 2759436679, 2759436680, 2759436677], "tags": {"addr:city": "Vimmerby", "addr:country": "SE", "addr:housenumber": "14", "addr:postcode": "59837", "addr:street": "Drottninggatan", "amenity": "restaurant", "building": "yes", "cuisine": "pizza", "name": "Pizzeria Palma", "smoking": "outside"}}, {"type": "way", "id": 345667819, "nodes": [3523115446, 3523115447, 3523115448, 3523115449, 3523115450, 3523115456, 2733988242, 2733988241, 3523115446], "tags": {"amenity": "restaurant", "amenity_1": "school", "building": "yes", "delivery": "no"}}, {"type": "way", "id": 345707630, "nodes": [3523538081, 3523538082, 3523538083, 3523538084, 3523538081], "tags": {"amenity": "restaurant", "building": "yes", "name": "Sweet Chili"}}, {"type": "way", "id": 351507142, "nodes": [3572995140, 3572995141, 3572995142, 3572995143, 3572995144, 3572995145, 3572995146, 3572995130, 3572995131, 3572995132, 3572995133, 3572995136, 3572995137, 3572995138, 3572995139, 3572995134, 3572995135, 3572995140], "tags": {"amenity": "restaurant", "building": "yes", "cuisine": "burger", "name": "Mr. Burger"}}, {"type": "way", "id": 474475347, "nodes": [4684236303, 4684236304, 4684236305, 4684236306, 4684236307, 4684236308, 4684236309, 4684236310, 4684236303], "tags": {"amenity": "restaurant", "building": "yes"}}, {"type": "way", "id": 598500462, "nodes": [3583384258, 5696176501, 5696176502, 5696176503, 3583384258], "tags": {"addr:city": "Ingatorp", "addr:country": "SE", "addr:housenumber": "24", "addr:postcode": "57031", "addr:street": "Storgatan", "amenity": "cafe", "building": "yes", "cuisine": "coffee_shop;burger;regional;cafe", "internet_access": "yes", "internet_access:fee": "no", "name": "Regnb\u00e5gsdalens Caf\u00e9 & Guesthouse", "opening_hours": "Mo off; Tu-Th 11:00-20:00; Fr-Sa 11:00-23:00; Su 11:00-18:00", "outdoor_seating": "yes", "source": "local_knowledge", "tourism": "guest_house", "website": "https://www.regnbagsdalen.se/", "wifi": "yes"}}]}