{"version": 0.6, "generator": "Overpass API 0.7.61.5 4133829e", "osm3s": {"timestamp_osm_base": "2024-03-14T22:00:01Z", "copyright": "The data included in this document is from www.openstreetmap.org. The data is made available under ODbL."}, "elements": [{"type": "node", "id": 444870281, "lat": 60.3385897, "lon": 18.4425534, "tags": {"amenity": "nightclub", "contact:phone": "+46173-314 26", "name": "Hummelgrund"}}, {"type": "node", "id": 847268233, "lat": 60.3393138, "lon": 18.4391204, "tags": {"amenity": "cafe"}}, {"type": "node", "id": 860271885, "lat": 60.3289215, "lon": 18.3683655, "tags": {"addr:city": "\u00d6regrund", "addr:country": "SE", "addr:postcode": "742 43", "addr:street": "Skinn\u00e4s\u00e4ngarna", "amenity": "cafe", "name": "Sundboden", "website": "https://www.sundboden.se/"}}, {"type": "node", "id": 2296934381, "lat": 60.1746816, "lon": 18.191749, "tags": {"amenity": "restaurant", "name": "Gimo v\u00e4rdshus"}}, {"type": "node", "id": 2296934382, "lat": 60.1752065, "lon": 18.1911232, "tags": {"amenity": "restaurant", "cuisine": "burger", "name": "Lyktan"}}, {"type": "node", "id": 2296934383, "lat": 60.1733798, "lon": 18.1877952}, {"type": "node", "id": 2296934384, "lat": 60.1733206, "lon": 18.1879057}, {"type": "node", "id": 2296934385, "lat": 60.1733572, "lon": 18.1879908}, {"type": "node", "id": 2296934386, "lat": 60.1733431, "lon": 18.1880276}, {"type": "node", "id": 2296934387, "lat": 60.1733713, "lon": 18.1880957}, {"type": "node", "id": 2296934388, "lat": 60.1733854, "lon": 18.1880673}, {"type": "node", "id": 2296934389, "lat": 60.1734362, "lon": 18.1881666}, {"type": "node", "id": 2296934390, "lat": 60.1734996, "lon": 18.1880333}, {"type": "node", "id": 2457280740, "lat": 60.3392419, "lon": 18.4415832}, {"type": "node", "id": 2457280743, "lat": 60.339252, "lon": 18.4414403}, {"type": "node", "id": 2457280754, "lat": 60.3393157, "lon": 18.4416043}, {"type": "node", "id": 2457280757, "lat": 60.3393271, "lon": 18.4414646}, {"type": "node", "id": 2457280760, "lat": 60.3393307, "lon": 18.441418}, {"type": "node", "id": 2457280763, "lat": 60.3393841, "lon": 18.4416244}, {"type": "node", "id": 2457280770, "lat": 60.3393992, "lon": 18.4414411}, {"type": "node", "id": 2486378733, "lat": 60.3397097, "lon": 18.4416302}, {"type": "node", "id": 2486378736, "lat": 60.3397199, "lon": 18.4414768}, {"type": "node", "id": 2486378741, "lat": 60.3397679, "lon": 18.4416459}, {"type": "node", "id": 2486378743, "lat": 60.339778, "lon": 18.4414926}, {"type": "node", "id": 2658070434, "lat": 60.0640865, "lon": 18.0815558, "tags": {"amenity": "cafe", "cuisine": "coffee_shop", "name": "Centrumkonditoriet"}}, {"type": "node", "id": 2658073576, "lat": 60.0603458, "lon": 18.0832285, "tags": {"amenity": "restaurant", "cuisine": "pizza", "name": "Gossens pizzeria"}}, {"type": "node", "id": 2659172102, "lat": 60.0634585, "lon": 18.0810944}, {"type": "node", "id": 2659172104, "lat": 60.0635035, "lon": 18.081352}, {"type": "node", "id": 2659172106, "lat": 60.0633699, "lon": 18.0814456}, {"type": "node", "id": 2659172108, "lat": 60.0634005, "lon": 18.0816211}, {"type": "node", "id": 2659172110, "lat": 60.0633111, "lon": 18.0816837}, {"type": "node", "id": 2659172112, "lat": 60.0632355, "lon": 18.0812507}, {"type": "node", "id": 3677353095, "lat": 60.3711141, "lon": 18.1526005}, {"type": "node", "id": 3677353100, "lat": 60.3711596, "lon": 18.1528731}, {"type": "node", "id": 3677353102, "lat": 60.3711781, "lon": 18.1524131}, {"type": "node", "id": 3677353110, "lat": 60.371264, "lon": 18.1523484}, {"type": "node", "id": 3677353116, "lat": 60.3713567, "lon": 18.1526448}, {"type": "node", "id": 4350279455, "lat": 60.3516766, "lon": 18.4472707}, {"type": "node", "id": 4350279456, "lat": 60.3514812, "lon": 18.4472076}, {"type": "node", "id": 4350279457, "lat": 60.3514625, "lon": 18.4474443}, {"type": "node", "id": 4350279458, "lat": 60.3515216, "lon": 18.4474634}, {"type": "node", "id": 4350279459, "lat": 60.3515013, "lon": 18.4477206}, {"type": "node", "id": 4350279460, "lat": 60.3516375, "lon": 18.4477646}, {"type": "node", "id": 5023567121, "lat": 60.259693, "lon": 18.378699, "tags": {"amenity": "restaurant", "ele": "1.47", "name": "Marina Sportbar", "source": "survey", "website": "http://www.marinasportbar.se"}}, {"type": "node", "id": 5023567122, "lat": 60.2589923, "lon": 18.3742357, "tags": {"addr:city": "\u00d6sthammar", "addr:country": "SE", "addr:housenumber": "3", "addr:postcode": "742 31", "addr:street": "R\u00e5dhustorget", "amenity": "restaurant", "ele": "5.22", "name": "Restaurang Gladan", "opening_hours": "Mo-Th 15:00-20:00; Fr 11:00-22:00; Sa 12:00-22:00; Su 12:00-21:00", "phone": "+46-173-21500", "source": "survey"}}, {"type": "node", "id": 5023567123, "lat": 60.258744, "lon": 18.373604, "tags": {"amenity": "restaurant", "name": "Glenn Miller Bar & Restaurang", "source": "survey"}}, {"type": "node", "id": 5331460880, "lat": 60.2618416, "lon": 18.3646896}, {"type": "node", "id": 5331460881, "lat": 60.2616105, "lon": 18.3645688}, {"type": "node", "id": 5331460882, "lat": 60.2617242, "lon": 18.3636849}, {"type": "node", "id": 5331460883, "lat": 60.2619553, "lon": 18.3638057}, {"type": "node", "id": 5331571773, "lat": 60.2594006, "lon": 18.3715236}, {"type": "node", "id": 5331571774, "lat": 60.2593366, "lon": 18.3716761}, {"type": "node", "id": 5331571775, "lat": 60.2591793, "lon": 18.3714079}, {"type": "node", "id": 5331571776, "lat": 60.259203, "lon": 18.3713514}, {"type": "node", "id": 5331571777, "lat": 60.2591605, "lon": 18.371279}, {"type": "node", "id": 5331571778, "lat": 60.2592008, "lon": 18.3711829}, {"type": "node", "id": 6630762031, "lat": 60.1728726, "lon": 18.1847673, "tags": {"amenity": "restaurant", "name": "Gimo caf\u00e9 & restaurang"}}, {"type": "node", "id": 7057378285, "lat": 60.339248, "lon": 18.4414963}, {"type": "node", "id": 11009086664, "lat": 60.1787554, "lon": 18.1848797, "tags": {"amenity": "cafe", "name": "Kvarnen"}}, {"type": "node", "id": 11014229497, "lat": 60.1771677, "lon": 18.1789393, "tags": {"amenity": "restaurant", "name": "Matsalarna Sandvik"}}, {"type": "node", "id": 11196068100, "lat": 60.0466019, "lon": 18.0352229, "tags": {"amenity": "cafe", "name": "Modellj\u00e4rnv\u00e4gens hus caf\u00e9"}}, {"type": "way", "id": 220590041, "nodes": [2296934383, 2296934384, 2296934385, 2296934386, 2296934387, 2296934388, 2296934389, 2296934390, 2296934383], "tags": {"addr:city": "Gimo", "addr:country": "SE", "addr:housenumber": "13", "addr:postcode": "747 42", "addr:street": "Bj\u00f6rkv\u00e4gen", "amenity": "restaurant", "building": "yes", "cuisine": "pizza", "name": "Roma pizzeria"}}, {"type": "way", "id": 237863722, "nodes": [2457280757, 2457280743, 7057378285, 2457280740, 2457280754, 2457280757], "tags": {"amenity": "restaurant", "building": "yes", "name": "Slupen Bistro & Bar"}}, {"type": "way", "id": 237863730, "nodes": [2457280770, 2457280760, 2457280757, 2457280754, 2457280763, 2457280770], "tags": {"amenity": "restaurant", "building": "yes", "name": "Bojab\u00e4s"}}, {"type": "way", "id": 240956618, "nodes": [2486378741, 2486378733, 2486378736, 2486378743, 2486378741], "tags": {"amenity": "restaurant", "building": "yes", "name": "Hamnkrogen Bryggan"}}, {"type": "way", "id": 260428603, "nodes": [2659172102, 2659172104, 2659172106, 2659172108, 2659172110, 2659172112, 2659172102], "tags": {"amenity": "restaurant", "building": "yes", "cuisine": "pizza;greek;kebab", "name": "Olandsbaren"}}, {"type": "way", "id": 363567783, "nodes": [3677353110, 3677353116, 3677353100, 3677353095, 3677353102, 3677353110], "tags": {"amenity": "restaurant", "building": "yes", "name": "V\u00e4rdshuset"}}, {"type": "way", "id": 437211704, "nodes": [4350279455, 4350279456, 4350279457, 4350279458, 4350279459, 4350279460, 4350279455], "tags": {"addr:city": "Gr\u00e4s\u00f6", "addr:postcode": "74297", "addr:street": "Gr\u00e4s\u00f6badens camping", "amenity": "restaurant", "building": "yes", "capacity": "100", "name": "Restaurang Doppingen", "takeaway": "yes"}}, {"type": "way", "id": 552165478, "nodes": [5331460880, 5331460881, 5331460882, 5331460883, 5331460880], "tags": {"amenity": "restaurant", "building": "yes", "name": "Bowlan"}}, {"type": "way", "id": 552176726, "nodes": [5331571773, 5331571774, 5331571775, 5331571776, 5331571777, 5331571778, 5331571773], "tags": {"amenity": "cafe", "building": "yes", "name": "Adas Kaffestuga"}}]}