{"version": 0.6, "generator": "Overpass API 0.7.61.5 4133829e", "osm3s": {"timestamp_osm_base": "2024-03-14T21:59:00Z", "copyright": "The data included in this document is from www.openstreetmap.org. The data is made available under ODbL."}, "elements": [{"type": "node", "id": 659920458, "lat": 61.7271514, "lon": 17.1121444, "tags": {"addr:city": "Hudiksvall", "addr:country": "SE", "addr:housenumber": "13", "addr:street": "Hamngatan", "amenity": "restaurant", "check_date": "2023-12-16", "cuisine": "pizza", "name": "Kebab House", "opening_hours": "Mo-Fr 10:00-21:00; Sa-Su 11:00-21:00", "payment:cash": "yes", "payment:credit_cards": "yes", "payment:debit_cards": "yes", "phone": "+46 650 99 93 8"}}, {"type": "node", "id": 659920459, "lat": 61.7272003, "lon": 17.1098206, "tags": {"addr:city": "Hudiksvall", "addr:country": "SE", "addr:housenumber": "5", "addr:postcode": "82430", "addr:street": "Hamngatan", "amenity": "restaurant", "cuisine": "american", "name": "Old Texas Bar-B-Q Saloon", "opening_hours": "Mo-Fr 16:00-22:00; Sa-Su 12:00-23:00", "phone": "+46 650 12150", "website": "https://www.texassaloon.se/"}}, {"type": "node", "id": 662910086, "lat": 61.7426519, "lon": 17.0778468, "tags": {"addr:city": "Hudiksvall", "addr:country": "SE", "addr:postcode": "824 34", "addr:street": "Bj\u00f6rnmyrav\u00e4gen", "amenity": "restaurant", "name": "V\u00e4rdshuset Glada Hudik", "opening_hours": "Mo-Fr 07:00-22:00; Sa-Su 08:00-22:00", "phone": "+46 650-109 33", "website": "https://www.vardshusetgladahudik.se/"}}, {"type": "node", "id": 694536553, "lat": 61.7262769, "lon": 17.1076039, "tags": {"addr:city": "Hudiksvall", "addr:country": "SE", "addr:housenumber": "1", "addr:postcode": "824 34", "addr:street": "Bankgr\u00e4nd", "amenity": "restaurant", "check_date:opening_hours": "2022-07-28", "cuisine": "chinese", "name": "Ming", "opening_hours": "Tu-Th 11:00-20:00; Fr 11:00-21:00; Sa 12:00-21:00; Su 13:00-20:00", "website": "https://www.restaurangming.se/"}}, {"type": "node", "id": 694536572, "lat": 61.7272156, "lon": 17.1087853, "tags": {"addr:city": "Hudiksvall", "addr:country": "SE", "addr:housenumber": "5", "addr:postcode": "82430", "addr:street": "Hamngatan", "amenity": "restaurant", "check_date": "2023-12-16", "cuisine": "asian", "name": "Hot Chili", "opening_hours": "Mo-Th 11:00-20:00; Fr 11:00-21:00; Sa-Su 12:00-21:00", "payment:cash": "yes", "payment:credit_cards": "yes", "payment:debit_cards": "yes", "phone": "+46 650-75750", "website": "https://www.hotchili.se/"}}, {"type": "node", "id": 933141660, "lat": 61.37686, "lon": 17.104724, "tags": {"amenity": "restaurant", "cuisine": "fish", "name": "Restaurang Albertina"}}, {"type": "node", "id": 1251666151, "lat": 61.7222157, "lon": 17.1236903}, {"type": "node", "id": 1251666190, "lat": 61.7223288, "lon": 17.123088}, {"type": "node", "id": 1305248310, "lat": 61.7232547, "lon": 17.1498392, "tags": {"amenity": "restaurant"}}, {"type": "node", "id": 1365861922, "lat": 61.7279325, "lon": 17.1089385, "tags": {"addr:country": "SE", "addr:housenumber": "4", "addr:postcode": "82430", "addr:street": "K\u00e4ppuddsgatan", "amenity": "restaurant", "name": "Restaurang Jag & Du"}}, {"type": "node", "id": 1365910248, "lat": 61.727605, "lon": 17.1065928, "tags": {"addr:country": "SE", "addr:housenumber": "26", "addr:postcode": "82430", "addr:street": "Storgatan", "amenity": "cafe", "brand": "Espresso House", "brand:wikidata": "Q10489162", "brand:wikipedia": "en:Espresso House", "cuisine": "coffee_shop", "internet_access": "wlan", "internet_access:fee": "no", "name": "Espresso House", "outdoor_seating": "no", "takeaway": "yes"}}, {"type": "node", "id": 1366069940, "lat": 61.7275496, "lon": 17.1094882, "tags": {"addr:country": "SE", "addr:housenumber": "34", "addr:postcode": "82430", "addr:street": "Storgatan", "amenity": "restaurant", "name": "Hogges krog"}}, {"type": "node", "id": 1375840349, "lat": 61.7291341, "lon": 17.1087274, "tags": {"addr:country": "SE", "addr:housenumber": "7", "addr:street": "Tr\u00e4dg\u00e5rdsgatan", "amenity": "restaurant", "check_date": "2023-12-16", "cuisine": "regional", "email": "info@hudiksvall.pinchos.se", "name": "Pinchos", "opening_hours": "Mo-Tu off; We-Th 17:15-19:00; Fr 16:15-20:00; Sa 16:15-20:30; Su 16:15-18:45", "phone": "+46 70 335 12 97", "website": "https://www.pinchos.se/restaurant/se-hudiksvall-trad"}}, {"type": "node", "id": 1375840384, "lat": 61.7271936, "lon": 17.1101222, "tags": {"addr:housenumber": "9", "addr:street": "Hamngatan", "amenity": "cafe", "check_date": "2023-12-16", "email": "info@dackas.se", "name": "Dack\u00e5s Konditori", "opening_hours": "Mo-Fr 07:00-17:00; Sa 09:00-15:00; Su off", "payment:cash": "yes", "payment:credit_cards": "yes", "payment:debit_cards": "yes", "phone": "+46 650 12 32 9", "website": "https://dackas.se/"}}, {"type": "node", "id": 1375840462, "lat": 61.7270737, "lon": 17.1070909, "tags": {"addr:city": "Hudiksvall", "addr:country": "SE", "addr:housename": "Sundsvallsbanken", "addr:housenumber": "8", "addr:postcode": "824 43", "addr:street": "Stora Kyrkogatan", "amenity": "cafe", "cuisine": "sandwich", "name": "Jambo Sm\u00f6rg\u00e5scaf\u00e9", "website": "http://www.jambosmorgascafe.se"}}, {"type": "node", "id": 1401555324, "lat": 61.3615453, "lon": 16.3945037, "tags": {"addr:country": "SE", "addr:housenumber": "27", "addr:postcode": "82136", "addr:street": "Norrlandsv\u00e4gen", "amenity": "restaurant", "cuisine": "italian", "name": "Pizzeria Take Off", "website": "https://gastrogate.com/restaurang/takeoff"}}, {"type": "node", "id": 1401562335, "lat": 61.3439087, "lon": 16.3807896, "tags": {"addr:country": "SE", "addr:housenumber": "3", "addr:postcode": "82130", "addr:street": "Hantverkargatan", "alt_name": "Spicy Cow", "amenity": "restaurant", "cuisine": "steak_house", "name": "Stekhuset Spicy Cow", "website": "http://spicycow.com/"}}, {"type": "node", "id": 1496110341, "lat": 61.72629, "lon": 17.1116527, "tags": {"addr:city": "Hudiksvall", "addr:country": "SE", "addr:housenumber": "6", "addr:postcode": "824 43", "addr:street": "Hamngatan", "amenity": "restaurant", "branch": "Br\u00f6dernas", "check_date": "2023-12-16", "cuisine": "burger", "email": "hudiksvall@brodernas.nu", "name": "Br\u00f6dernas", "opening_hours": "Mo-Th 11:00-14:00,16:00-22:00; Fr 11:00-23:00; Sa 12:00-23:00; Su 12:00-21:00", "payment:cash": "yes", "payment:credit_cards": "yes", "payment:debit_cards": "yes", "phone": "+46 650 13 99 0", "website": "https://bstl.se/brodernas/95f853ec-4265-4526-ad64-8f97a75a01d5"}}, {"type": "node", "id": 1497886807, "lat": 61.7177238, "lon": 17.1771654}, {"type": "node", "id": 1497886847, "lat": 61.7175544, "lon": 17.1775069}, {"type": "node", "id": 1497886849, "lat": 61.7174904, "lon": 17.1774149}, {"type": "node", "id": 1497886851, "lat": 61.7176032, "lon": 17.1773555}, {"type": "node", "id": 1497886857, "lat": 61.7176437, "lon": 17.1774137}, {"type": "node", "id": 1497886890, "lat": 61.7176193, "lon": 17.1770152}, {"type": "node", "id": 1839055693, "lat": 61.5178694, "lon": 16.9771534, "tags": {"amenity": "restaurant", "name": "\u00c5ngersj\u00f6ns Mat och Vildmarkscamping"}}, {"type": "node", "id": 2100633378, "lat": 61.7456957, "lon": 17.117477, "tags": {"amenity": "restaurant", "cuisine": "pizza", "internet_access": "no", "name": "Pizzeria Pronto", "outdoor_seating": "yes", "takeaway": "yes", "toilets": "yes", "wheelchair": "limited"}}, {"type": "node", "id": 2202360959, "lat": 61.3507033, "lon": 16.3820077, "tags": {"amenity": "cafe", "name": "Kostbiten"}}, {"type": "node", "id": 2267631598, "lat": 61.726805, "lon": 17.1092546, "tags": {"amenity": "restaurant", "name": "Taste of India"}}, {"type": "node", "id": 2277822611, "lat": 61.5169819, "lon": 16.363984, "tags": {"amenity": "restaurant", "cuisine": "pizza", "name": "Vallsta Grill och Pizzeria"}}, {"type": "node", "id": 2858115124, "lat": 61.4056039, "lon": 16.5546159, "tags": {"amenity": "restaurant", "name": "V\u00e4xbo krog", "phone": "+46 278 666185", "website": "https://www.vaxbokrog.se/"}}, {"type": "node", "id": 2998903391, "lat": 61.4922038, "lon": 16.3898323, "tags": {"amenity": "cafe", "name": "Fagern\u00e4s caf\u00e9"}}, {"type": "node", "id": 3005155318, "lat": 61.3855555, "lon": 16.8836773, "tags": {"amenity": "cafe", "name": "Caf\u00e9 S\u00f6derblomsg\u00e5rden"}}, {"type": "node", "id": 3123590875, "lat": 61.3561543, "lon": 16.4054347}, {"type": "node", "id": 3123590876, "lat": 61.3559797, "lon": 16.4054831}, {"type": "node", "id": 3123590877, "lat": 61.3559552, "lon": 16.4050982}, {"type": "node", "id": 3123590878, "lat": 61.3561317, "lon": 16.4050492}, {"type": "node", "id": 3123590879, "lat": 61.3561342, "lon": 16.4050877}, {"type": "node", "id": 3123590880, "lat": 61.3561709, "lon": 16.4050775}, {"type": "node", "id": 3123590881, "lat": 61.3561838, "lon": 16.4052812}, {"type": "node", "id": 3123590882, "lat": 61.3561452, "lon": 16.4052919}, {"type": "node", "id": 3123612764, "lat": 61.3559128, "lon": 16.405084}, {"type": "node", "id": 3123612765, "lat": 61.3559075, "lon": 16.4049231}, {"type": "node", "id": 3123612766, "lat": 61.3557857, "lon": 16.4049403}, {"type": "node", "id": 3123612767, "lat": 61.3557909, "lon": 16.4051013}, {"type": "node", "id": 3123620517, "lat": 61.356102, "lon": 16.4050616}, {"type": "node", "id": 3123620520, "lat": 61.3559968, "lon": 16.4050818}, {"type": "node", "id": 3123922494, "lat": 61.3565152, "lon": 16.4121085}, {"type": "node", "id": 3123922495, "lat": 61.3565174, "lon": 16.4121839}, {"type": "node", "id": 3123922496, "lat": 61.3564275, "lon": 16.4121913}, {"type": "node", "id": 3123922497, "lat": 61.3564262, "lon": 16.4121174}, {"type": "node", "id": 3124034279, "lat": 61.3540195, "lon": 16.4007947}, {"type": "node", "id": 3124034280, "lat": 61.3539853, "lon": 16.4006457}, {"type": "node", "id": 3124034281, "lat": 61.3539678, "lon": 16.4006632}, {"type": "node", "id": 3124034282, "lat": 61.3539578, "lon": 16.4006732}, {"type": "node", "id": 3124034283, "lat": 61.3539384, "lon": 16.4006926}, {"type": "node", "id": 3124034284, "lat": 61.3538912, "lon": 16.4007397}, {"type": "node", "id": 3124034285, "lat": 61.3539206, "lon": 16.4008675}, {"type": "node", "id": 3124034286, "lat": 61.3538213, "lon": 16.4009666}, {"type": "node", "id": 3124034287, "lat": 61.3538669, "lon": 16.4011652}, {"type": "node", "id": 3124034288, "lat": 61.3539397, "lon": 16.4010925}, {"type": "node", "id": 3124034289, "lat": 61.3539505, "lon": 16.4011397}, {"type": "node", "id": 3124034290, "lat": 61.354071, "lon": 16.4010194}, {"type": "node", "id": 3124075765, "lat": 61.3548845, "lon": 16.4002515}, {"type": "node", "id": 3124075766, "lat": 61.35484, "lon": 16.4001181}, {"type": "node", "id": 3124075767, "lat": 61.3547743, "lon": 16.4001774}, {"type": "node", "id": 3124075768, "lat": 61.3547121, "lon": 16.4002404}, {"type": "node", "id": 3124075769, "lat": 61.3546481, "lon": 16.4003256}, {"type": "node", "id": 3124075770, "lat": 61.3545948, "lon": 16.4004257}, {"type": "node", "id": 3124075771, "lat": 61.3546393, "lon": 16.400511}, {"type": "node", "id": 3124075772, "lat": 61.3546926, "lon": 16.4003961}, {"type": "node", "id": 3124075773, "lat": 61.3547299, "lon": 16.4003516}, {"type": "node", "id": 3124075774, "lat": 61.3547903, "lon": 16.4002849}, {"type": "node", "id": 3124075775, "lat": 61.3548081, "lon": 16.4003479}, {"type": "node", "id": 3298839239, "lat": 61.3639338, "lon": 16.6078431, "tags": {"amenity": "cafe", "name": "Majas Caf\u00e9"}}, {"type": "node", "id": 3318199125, "lat": 61.3435861, "lon": 16.3641039, "tags": {"amenity": "restaurant", "cuisine": "burger", "name": "Jontas"}}, {"type": "node", "id": 3318210598, "lat": 61.373529, "lon": 16.3470773, "tags": {"amenity": "cafe", "cuisine": "coffee_shop", "name": "V\u00e4rmestuga, servering"}}, {"type": "node", "id": 3318210602, "lat": 61.374941, "lon": 16.3479621, "tags": {"amenity": "restaurant", "designation": "Sporthotell", "name": "Bolleg\u00e5rden", "outdoor_seating": "yes", "tourism": "hostel"}}, {"type": "node", "id": 5704982242, "lat": 61.5473548, "lon": 17.0053694}, {"type": "node", "id": 5704982243, "lat": 61.5472864, "lon": 17.005415}, {"type": "node", "id": 5704982244, "lat": 61.5473032, "lon": 17.0055442}, {"type": "node", "id": 5704982245, "lat": 61.5473579, "lon": 17.0055207}, {"type": "node", "id": 5704982249, "lat": 61.5473007, "lon": 17.0055252}, {"type": "node", "id": 5704982260, "lat": 61.5473248, "lon": 17.0054764, "tags": {"amenity": "restaurant", "name": "En\u00e5nger's Pizzeria"}}, {"type": "node", "id": 5759333022, "lat": 61.3118454, "lon": 17.0598404, "tags": {"amenity": "restaurant", "internet_access": "wlan", "name": "Pizzeria Aspendos"}}, {"type": "node", "id": 5835598303, "lat": 61.3494852, "lon": 16.3934834, "tags": {"amenity": "restaurant", "cuisine": "kebab;pizza", "name": "Milano"}}, {"type": "node", "id": 6585977632, "lat": 61.3069731, "lon": 17.0614408, "tags": {"amenity": "restaurant", "cuisine": "thai;sushi", "name": "Jin Thai"}}, {"type": "node", "id": 7605714603, "lat": 61.7304282, "lon": 17.1410355}, {"type": "node", "id": 7605714604, "lat": 61.7304943, "lon": 17.1412239}, {"type": "node", "id": 7605714605, "lat": 61.730635, "lon": 17.1410038}, {"type": "node", "id": 7605714606, "lat": 61.7305689, "lon": 17.1408155}, {"type": "node", "id": 7610554972, "lat": 61.7226809, "lon": 17.1233827}, {"type": "node", "id": 7610554973, "lat": 61.7225678, "lon": 17.1239849}, {"type": "node", "id": 7610554990, "lat": 61.7221115, "lon": 17.1320871}, {"type": "node", "id": 7610554991, "lat": 61.7218833, "lon": 17.1320682}, {"type": "node", "id": 7610554992, "lat": 61.7218793, "lon": 17.1322875}, {"type": "node", "id": 7610554993, "lat": 61.7221074, "lon": 17.1323065}, {"type": "node", "id": 7683607319, "lat": 61.7286336, "lon": 16.9638271}, {"type": "node", "id": 7683607320, "lat": 61.7287491, "lon": 16.9639164}, {"type": "node", "id": 7683607321, "lat": 61.7287896, "lon": 16.9636897}, {"type": "node", "id": 7683607322, "lat": 61.7286709, "lon": 16.963602}, {"type": "node", "id": 9183666256, "lat": 61.7275307, "lon": 17.1101941, "tags": {"addr:city": "Hudiksvall", "addr:country": "SE", "addr:housenumber": "36", "addr:postcode": "82432", "addr:street": "Storgatan", "amenity": "restaurant", "cuisine": "italian;napolitan_pizza", "email": "info@napule.se", "name": "Napul'e", "opening_hours": "Mo-Th 17:00-23:00; Fr 16:00-02:00; Sa 12:00-02:00; Su 13:00-22:00", "phone": "+46 650 33300", "website": "https://www.napule.se/"}}, {"type": "node", "id": 9671469445, "lat": 61.7305432, "lon": 17.0995449, "tags": {"amenity": "restaurant", "name": "Restaurang Pulsen"}}, {"type": "node", "id": 9673823738, "lat": 61.7360017, "lon": 16.8803093, "tags": {"addr:city": "Forsa", "addr:country": "SE", "addr:housenumber": "8", "addr:postcode": "82462", "addr:street": "Hillsta", "amenity": "restaurant", "name": "Ysteg\u00e5rn Caf\u00e9 & Bistro", "opening_hours": "Mo-Su 11:00-16:00", "website": "https://www.ystegarncafe.se/"}}, {"type": "node", "id": 9831089408, "lat": 61.4228911, "lon": 17.1629909}, {"type": "node", "id": 9831089409, "lat": 61.422773, "lon": 17.1633033}, {"type": "node", "id": 9831089410, "lat": 61.4228192, "lon": 17.1633796}, {"type": "node", "id": 9831089411, "lat": 61.4229373, "lon": 17.1630672}, {"type": "node", "id": 10111804369, "lat": 61.3966925, "lon": 16.8343125}, {"type": "node", "id": 10111804370, "lat": 61.3967185, "lon": 16.8342535}, {"type": "node", "id": 10111804371, "lat": 61.3967781, "lon": 16.8343685}, {"type": "node", "id": 10111804372, "lat": 61.3966184, "lon": 16.8341706}, {"type": "node", "id": 10111804373, "lat": 61.3966964, "lon": 16.8340067}, {"type": "node", "id": 10111804374, "lat": 61.3968288, "lon": 16.8342618}, {"type": "node", "id": 11124693099, "lat": 61.3414065, "lon": 16.390838, "tags": {"amenity": "cafe", "name": "Lilla k's Tr\u00e4dg\u00e5rdsk\u00f6k"}}, {"type": "node", "id": 11148978195, "lat": 61.3078833, "lon": 17.0693839, "tags": {"amenity": "cafe", "name": "Caf\u00e9 Bosse"}}, {"type": "node", "id": 11161109938, "lat": 61.396725, "lon": 16.834266}, {"type": "node", "id": 11194000203, "lat": 61.3967324, "lon": 16.8342803}, {"type": "node", "id": 11194000205, "lat": 61.3967099, "lon": 16.8340327, "tags": {"entrance": "yes"}}, {"type": "node", "id": 11194000210, "lat": 61.3966761, "lon": 16.834281}, {"type": "node", "id": 11194616641, "lat": 61.3654738, "lon": 16.9455297, "tags": {"amenity": "restaurant", "cuisine": "pizza", "name": "Kungsg\u00e5rden Pizzeria"}}, {"type": "way", "id": 136549246, "nodes": [1497886849, 1497886890, 1497886807, 1497886857, 1497886851, 1497886847, 1497886849], "tags": {"addr:city": "Hudiksvall", "addr:country": "SE", "addr:housenumber": "38", "addr:postcode": "82450", "addr:street": "Malnv\u00e4gen", "amenity": "restaurant", "building": "yes", "name": "Maln Hav & Krog", "phone": "+46 73 5072325", "website": "https://aktivitetsfabriken.se/malnhavochkrog/"}}, {"type": "way", "id": 307268715, "nodes": [3123590875, 3123590876, 3123590877, 3123620520, 3123620517, 3123590878, 3123590879, 3123590880, 3123590881, 3123590882, 3123590875], "tags": {"amenity": "restaurant", "building": "yes", "name": "Reng\u00e5rden"}}, {"type": "way", "id": 307270586, "nodes": [3123612764, 3123612765, 3123612766, 3123612767, 3123612764], "tags": {"amenity": "restaurant", "building": "yes", "name": "Solstugan"}}, {"type": "way", "id": 307296395, "nodes": [3123922494, 3123922495, 3123922496, 3123922497, 3123922494], "tags": {"amenity": "restaurant", "building": "yes", "name": "Pizzeria"}}, {"type": "way", "id": 307303660, "nodes": [3124034279, 3124034280, 3124034281, 3124034282, 3124034283, 3124034284, 3124034285, 3124034286, 3124034287, 3124034288, 3124034289, 3124034290, 3124034279], "tags": {"amenity": "restaurant", "building": "yes", "name": "Strandrestaurangen"}}, {"type": "way", "id": 307307061, "nodes": [3124075765, 3124075766, 3124075767, 3124075768, 3124075769, 3124075770, 3124075771, 3124075772, 3124075773, 3124075774, 3124075775, 3124075765], "tags": {"amenity": "cafe", "building": "yes"}}, {"type": "way", "id": 599748501, "nodes": [5704982242, 5704982243, 5704982249, 5704982244, 5704982245, 5704982242], "tags": {"amenity": "restaurant", "building": "yes", "cuisine": "pizza", "delivery": "no", "name": "En\u00e5nger's Pizza", "outdoor_seating": "yes"}}, {"type": "way", "id": 814210836, "nodes": [7605714603, 7605714604, 7605714605, 7605714606, 7605714603], "tags": {"addr:city": "Hudiksvall", "addr:country": "SE", "addr:housenumber": "3", "addr:postcode": "82451", "addr:street": "Videv\u00e4gen", "amenity": "restaurant", "building": "yes", "cuisine": "pizza", "name": "Pizzeria Amore", "survey:date": "2020-09-12"}}, {"type": "way", "id": 814771477, "nodes": [7610554972, 1251666190, 1251666151, 7610554973, 7610554972], "tags": {"amenity": "restaurant", "bar": "yes", "building": "yes", "name": "Strandpiren", "website": "https://strandpiren.se/"}}, {"type": "way", "id": 814771482, "nodes": [7610554990, 7610554991, 7610554992, 7610554993, 7610554990], "tags": {"amenity": "restaurant", "building": "yes", "name": "Parkhyddan", "opening_hours": "\"Enligt \u00f6verenskommelse\""}}, {"type": "way", "id": 822954866, "nodes": [7683607319, 7683607320, 7683607321, 7683607322, 7683607319], "tags": {"addr:city": "Forsa", "addr:country": "SE", "addr:housenumber": "2", "addr:postcode": "82065", "addr:street": "Norra Forsav\u00e4gen", "amenity": "restaurant", "building": "yes", "name": "Route 84", "opening_hours": "Mo-Th, Su 15:00-22:00; Fr, Sa 15:00-23:00", "website": "https://www.facebook.com/RestaurantRoute84"}}, {"type": "way", "id": 1071292445, "nodes": [9831089408, 9831089411, 9831089410, 9831089409, 9831089408], "tags": {"amenity": "cafe", "building": "yes", "internet_access": "yes"}}, {"type": "way", "id": 1105009990, "nodes": [10111804374, 10111804371, 11194000203, 11161109938, 10111804370, 10111804369, 11194000210, 10111804372, 10111804373, 11194000205, 10111804374], "tags": {"amenity": "cafe", "brand": "ICA N\u00e4ra", "building": "yes", "name": "ICA N\u00e4ra"}}]}