{"version": 0.6, "generator": "Overpass API 0.7.61.5 4133829e", "osm3s": {"timestamp_osm_base": "2024-03-14T22:05:05Z", "copyright": "The data included in this document is from www.openstreetmap.org. The data is made available under ODbL."}, "elements": [{"type": "node", "id": 1028596323, "lat": 58.5729232, "lon": 16.2108882, "tags": {"addr:city": "Norrk\u00f6ping", "addr:country": "SE", "addr:housenumber": "54", "addr:postcode": "603 59", "addr:street": "Timmermansgatan", "amenity": "pharmacy", "app:apple": "https://itunes.apple.com/se/app/apotek-hj%C3%A4rtat-n%C3%A4ra-dig/id1150817089", "app:google": "https://play.google.com/store/apps/details?id=com.presencekit.apotek.se&hl=en_US", "brand": "Apotek Hj\u00e4rtat", "brand:wikidata": "Q10416114", "healthcare": "pharmacy", "name": "Apotek Hj\u00e4rtat", "opening_hours": "Mo-Fr 10:00-20:00; Sa,Su 10:00-18:00", "operator": "Apotek Hj\u00e4rtat Retail AB", "owner": "ICA Gruppen AB", "ownership": "private", "phone": "+46771405405", "website:stock": "https://www.fass.se/"}}, {"type": "node", "id": 1108877885, "lat": 58.5869326, "lon": 16.1887757, "tags": {"addr:city": "Norrk\u00f6ping", "addr:country": "SE", "addr:housenumber": "56", "addr:postcode": "602 32", "addr:street": "Drottninggatan", "amenity": "pharmacy", "app:apple": "https://itunes.apple.com/se/app/apotek-hj%C3%A4rtat-n%C3%A4ra-dig/id1150817089", "app:google": "https://play.google.com/store/apps/details?id=com.presencekit.apotek.se&hl=en_US", "brand": "Apotek Hj\u00e4rtat", "brand:wikidata": "Q10416114", "healthcare": "pharmacy", "name": "Apotek Hj\u00e4rtat", "operator": "Apotek Hj\u00e4rtat Retail AB", "owner": "ICA Gruppen AB", "ownership": "private", "phone": "+46771405405", "website:stock": "https://www.fass.se/"}}, {"type": "node", "id": 1705133434, "lat": 58.5912907, "lon": 16.1914054, "tags": {"addr:street": "Hospitalsgatan", "amenity": "pharmacy", "app:apple": "https://itunes.apple.com/se/app/kronans-apotek/id1129771604?l=en", "app:google": "https://play.google.com/store/apps/details?id=se.kronansapotek.kronan", "brand": "Kronans Apotek", "dispensing": "yes", "healthcare": "pharmacy", "name": "Kronans Apotek", "opening_hours": "Mo-Fr 09:00-19:00, Sa 09:00-14:00", "operator": "Kronans Droghandel Apotek AB", "phone": "+46771612612", "website:stock": "https://www.fass.se/"}}, {"type": "node", "id": 2341949340, "lat": 58.5874589, "lon": 16.1910236, "tags": {"amenity": "pharmacy", "app:apk": "se.apoteket.recept", "app:apple": "https://itunes.apple.com/se/app/mitt-apotek/id1053398061", "branch": "Apoteket AB", "brand": "Apoteket", "brand:wikidata": "Q1785637", "healthcare": "pharmacy", "name": "Apoteket", "opening_hours": "Mo-Fr 09:00-19:00; Sa 10:00-17:00; Su 11:00-17:00", "operator": "Apoteket AB (556138-6532)", "owner": "Svenska Staten", "ownership": "national", "phone": "+46771450450", "website": "https://apoteket.se/", "website:stock": "https://www.fass.se/"}}, {"type": "node", "id": 2888636302, "lat": 58.5870795, "lon": 16.1885727, "tags": {"addr:city": "Norrk\u00f6ping", "addr:country": "SE", "addr:housenumber": "56", "addr:street": "Drottninggatan", "amenity": "clinic", "healthcare": "clinic", "name": "Kry v\u00e5rdcentral Spiran", "operator": "Kry", "website": "https://www.kry.se/vardcentraler/ostergotland/spiran/"}}, {"type": "node", "id": 4125680291, "lat": 58.591666, "lon": 16.224105, "tags": {"addr:country": "SE", "addr:housenumber": "43", "addr:street": "Importgatan", "amenity": "veterinary", "name": "Distriktsveterin\u00e4rerna", "opening_hours": "Mo-Fr 08:00-16:00", "phone": "+46 10-122 90 60", "website": "https://distriktsveterinarerna.se/"}}, {"type": "node", "id": 7913273915, "lat": 58.5751522, "lon": 16.2033414, "tags": {"addr:country": "SE", "addr:housenumber": "10", "addr:street": "S\u00f6dra torget", "amenity": "dentist", "branch": "Hageby", "brand": "Folktandv\u00e5rden", "brand:wikidata": "Q10497476", "healthcare": "dentist", "name": "Folktandv\u00e5rden", "operator": "Region \u00d6sterg\u00f6tland"}}, {"type": "node", "id": 7913273916, "lat": 58.574969, "lon": 16.2034752, "tags": {"addr:country": "SE", "addr:housenumber": "10", "addr:street": "S\u00f6dra torget", "amenity": "clinic", "healthcare": "clinic", "name": "Cityh\u00e4lsan S\u00f6der", "operator": "Region \u00d6sterg\u00f6tland", "operator:type": "public"}}, {"type": "node", "id": 8025129135, "lat": 58.5880073, "lon": 16.2029829, "tags": {"amenity": "clinic", "healthcare": "clinic", "name": "Helsa v\u00e5rdcentral \u00d6stertull"}}, {"type": "node", "id": 8050091586, "lat": 58.5892212, "lon": 16.1917639, "tags": {"amenity": "clinic", "healthcare": "nurse", "name": "Barnh\u00e4lsov\u00e5rdsenheten", "operator": "Region \u00d6sterg\u00f6tland"}}, {"type": "node", "id": 8494135310, "lat": 58.4806848, "lon": 16.3224424, "tags": {"addr:city": "S\u00f6derk\u00f6ping", "addr:country": "SE", "addr:housenumber": "2", "addr:postcode": "61430", "addr:street": "Hagatorget", "amenity": "pharmacy", "dispensing": "yes", "healthcare": "pharmacy", "name": "Apotek Hagatorget", "opening_hours": "Mo-Fr 09:00-18:00; Sa 10:00-14:00", "website": "https://apotek-hagatorget.business.site/"}}, {"type": "node", "id": 10809061168, "lat": 58.4743202, "lon": 16.3350396, "tags": {"amenity": "pharmacy", "brand": "Apoteksgruppen", "brand:wikidata": "Q10416129", "healthcare": "pharmacy", "name": "Apoteksgruppen"}}]}