{"version": 0.6, "generator": "Overpass API 0.7.61.5 4133829e", "osm3s": {"timestamp_osm_base": "2024-03-14T21:59:00Z", "copyright": "The data included in this document is from www.openstreetmap.org. The data is made available under ODbL."}, "elements": [{"type": "node", "id": 442743373, "lat": 58.9827192, "lon": 14.6260343, "tags": {"amenity": "restaurant", "name": "Rastpunkt Lax\u00e5"}}, {"type": "node", "id": 467121128, "lat": 58.7587987, "lon": 14.5935208, "tags": {"amenity": "cafe", "name": "Kaffestugan Tivedstorp", "website": "https://www.tivedstorp.se/"}}, {"type": "node", "id": 1320194617, "lat": 58.8154831, "lon": 14.5796268, "tags": {"amenity": "cafe", "name": "Bakstugan", "website": "http://www.bakstugan.eu/"}}, {"type": "node", "id": 1397405242, "lat": 58.6809901, "lon": 14.5984588, "tags": {"amenity": "restaurant", "name": "Restaurang Stenk\u00e4lleg\u00e5rden"}}, {"type": "node", "id": 1886839164, "lat": 59.0636836, "lon": 15.0049156, "tags": {"amenity": "restaurant", "name": "Restaurang Br\u00e4nd\u00e5sen", "smoking": "outside", "takeaway": "no", "wheelchair": "yes"}}, {"type": "node", "id": 1915169905, "lat": 58.9858706, "lon": 14.6368146, "tags": {"amenity": "restaurant", "cuisine": "pizza;burger;swedish", "name": "Knutens", "outdoor_seating": "yes", "phone": "+46 584 10280", "takeaway": "yes", "website": "http://www.knuten.nu/"}}, {"type": "node", "id": 2029723345, "lat": 58.8796255, "lon": 14.9023049, "tags": {"amenity": "cafe", "check_date": "2023-07-31", "name": "Tutingen", "smoking": "no"}}, {"type": "node", "id": 2111509169, "lat": 59.0665235, "lon": 15.1101764}, {"type": "node", "id": 2111509172, "lat": 59.066563, "lon": 15.1103895}, {"type": "node", "id": 2111509176, "lat": 59.0665933, "lon": 15.1103682}, {"type": "node", "id": 2111509181, "lat": 59.0665961, "lon": 15.1099752}, {"type": "node", "id": 2111509184, "lat": 59.0666071, "lon": 15.1104427}, {"type": "node", "id": 2111509187, "lat": 59.0666208, "lon": 15.1101081}, {"type": "node", "id": 2111509209, "lat": 59.066684, "lon": 15.1103888}, {"type": "node", "id": 2111509215, "lat": 59.0666931, "lon": 15.1104379}, {"type": "node", "id": 2111509221, "lat": 59.0667022, "lon": 15.1099007}, {"type": "node", "id": 2111509227, "lat": 59.0667235, "lon": 15.1100155}, {"type": "node", "id": 2111509247, "lat": 59.0667572, "lon": 15.1099918}, {"type": "node", "id": 2111509249, "lat": 59.0667688, "lon": 15.110294}, {"type": "node", "id": 2111509251, "lat": 59.0667837, "lon": 15.1103743}, {"type": "node", "id": 2111509256, "lat": 59.0668082, "lon": 15.1102664}, {"type": "node", "id": 2415289351, "lat": 59.0652448, "lon": 15.3368168, "tags": {"amenity": "restaurant", "cuisine": "pizza", "name": "Restaurang Manuel"}}, {"type": "node", "id": 2452726419, "lat": 58.9710856, "lon": 14.5437413}, {"type": "node", "id": 2452726420, "lat": 58.9710897, "lon": 14.5434041}, {"type": "node", "id": 2452726421, "lat": 58.9711618, "lon": 14.5437448}, {"type": "node", "id": 2452726422, "lat": 58.9711658, "lon": 14.5434075}, {"type": "node", "id": 2786549384, "lat": 59.061516, "lon": 15.339714, "tags": {"amenity": "restaurant", "cuisine": "pizza"}}, {"type": "node", "id": 3070826472, "lat": 59.0380524, "lon": 14.9001411}, {"type": "node", "id": 3070826473, "lat": 59.0380974, "lon": 14.9006047}, {"type": "node", "id": 3070826474, "lat": 59.0382144, "lon": 14.9000817}, {"type": "node", "id": 3070826476, "lat": 59.0382593, "lon": 14.9005454}, {"type": "node", "id": 3150628353, "lat": 58.8784926, "lon": 14.9064761, "tags": {"addr:country": "SE", "addr:housenumber": "6", "addr:street": "Lilla Bergsgatan", "amenity": "restaurant", "capacity": "250", "name": "Verket"}}, {"type": "node", "id": 3413889101, "lat": 58.9593448, "lon": 15.064544, "tags": {"addr:city": "\u00c5sbro", "addr:country": "SE", "addr:housenumber": "326", "addr:postcode": "69045", "addr:street": "V\u00e4stansj\u00f6v\u00e4gen", "amenity": "cafe", "cuisine": "sandwich", "email": "info@lerbackslabyrint.se", "name": "Labyrint Caf\u00e9", "outdoor_seating": "yes"}}, {"type": "node", "id": 3674137347, "lat": 58.7588359, "lon": 14.8034487, "tags": {"amenity": "restaurant", "name": "Olshammarsg\u00e5rden", "website": "http://olshammarsgarden.com"}}, {"type": "node", "id": 4329319490, "lat": 58.9044325, "lon": 14.7196008}, {"type": "node", "id": 4329319492, "lat": 58.9044651, "lon": 14.7195014}, {"type": "node", "id": 4329319497, "lat": 58.9045517, "lon": 14.7197469}, {"type": "node", "id": 4329319499, "lat": 58.9045842, "lon": 14.7196476}, {"type": "node", "id": 4359422483, "lat": 59.0633002, "lon": 15.0938784}, {"type": "node", "id": 4359422486, "lat": 59.0633836, "lon": 15.0941722}, {"type": "node", "id": 4359422488, "lat": 59.0633956, "lon": 15.0937759}, {"type": "node", "id": 4359422489, "lat": 59.0634791, "lon": 15.0940696}, {"type": "node", "id": 4809334611, "lat": 59.0940094, "lon": 15.3231695}, {"type": "node", "id": 4809334612, "lat": 59.0936959, "lon": 15.3230675}, {"type": "node", "id": 4809334613, "lat": 59.0937231, "lon": 15.322751}, {"type": "node", "id": 4809334614, "lat": 59.0940366, "lon": 15.3228529}, {"type": "node", "id": 5746700747, "lat": 58.9269467, "lon": 15.0314865, "tags": {"amenity": "cafe", "name": "R\u00f6nne kapell", "outdoor_seating": "yes"}}, {"type": "node", "id": 5864427966, "lat": 58.8789, "lon": 14.900992, "tags": {"amenity": "cafe", "ele": "86.33", "name": "Kaf\u00e9 K\u00e4llarvalvet", "source": "survey"}}, {"type": "node", "id": 6286926674, "lat": 58.6879102, "lon": 14.6184548, "tags": {"amenity": "restaurant", "cuisine": "regional", "name": "Stigmansgarden", "outdoor_seating": "yes"}}, {"type": "node", "id": 6533647747, "lat": 58.7720014, "lon": 14.5323837, "tags": {"amenity": "restaurant", "name": "Luripompa", "opening_hours": "We-Sa 15:00-22:00; Su 12:00-19:00", "website": "https://www.luripompa.se/"}}, {"type": "node", "id": 6708246958, "lat": 58.7828878, "lon": 14.969525}, {"type": "node", "id": 6708246959, "lat": 58.7830072, "lon": 14.9696551}, {"type": "node", "id": 6708246960, "lat": 58.7830785, "lon": 14.9694114}, {"type": "node", "id": 6708246961, "lat": 58.782959, "lon": 14.9692814}, {"type": "node", "id": 6781246121, "lat": 58.907486, "lon": 15.2013614}, {"type": "node", "id": 6781246122, "lat": 58.9072056, "lon": 15.2012587}, {"type": "node", "id": 6781246123, "lat": 58.907223, "lon": 15.2010809}, {"type": "node", "id": 6781246124, "lat": 58.9075034, "lon": 15.2011836}, {"type": "node", "id": 6872303288, "lat": 58.8792286, "lon": 14.9024532, "tags": {"addr:city": "Askersund", "addr:country": "SE", "addr:housenumber": "8", "addr:postcode": "696 30", "addr:street": "Sundsbrogatan", "amenity": "restaurant", "check_date": "2023-07-31", "indoor_seating": "yes", "name": "Cassandras Steakhouse", "outdoor_seating": "yes"}}, {"type": "node", "id": 7020546454, "lat": 58.8740422, "lon": 14.9083752, "tags": {"amenity": "restaurant", "check_date": "2021-07-08", "cuisine": "barbecue"}}, {"type": "node", "id": 7020583738, "lat": 58.8799172, "lon": 14.9021574, "tags": {"amenity": "restaurant", "check_date": "2023-07-31", "name": "Restaurang Casa mia"}}, {"type": "node", "id": 7022359005, "lat": 58.8801888, "lon": 14.902861, "tags": {"amenity": "restaurant", "check_date": "2023-07-31", "cuisine": "asian", "name": "Asian City"}}, {"type": "node", "id": 7875129063, "lat": 58.9879497, "lon": 14.6190505, "tags": {"addr:country": "SE", "addr:housenumber": "6", "addr:street": "Casselgatan", "amenity": "restaurant", "description": "Kinesisk, v\u00e4llagad mat.", "name": "Dahlins restaurang (kinamat)", "opening_hours": "Tu-Fr 11:00-21:00; Sa, Su 12:00-22:00", "phone": "+46 584 12868"}}, {"type": "node", "id": 8905283898, "lat": 58.8783308, "lon": 14.901693, "tags": {"amenity": "restaurant", "check_date": "2023-07-31", "name": "Sj\u00f6tullen"}}, {"type": "node", "id": 8906985884, "lat": 58.8785991, "lon": 14.9008342, "tags": {"amenity": "restaurant", "check_date": "2023-07-31", "cuisine": "waffle", "description": "Only open summertime", "name": "Mormor Ruths Skafferi", "outdoor_seating": "only"}}, {"type": "node", "id": 8907039636, "lat": 58.8784025, "lon": 14.8996415, "tags": {"amenity": "cafe"}}, {"type": "node", "id": 9860860896, "lat": 58.8800568, "lon": 14.9030983, "tags": {"amenity": "restaurant", "check_date": "2023-07-31", "name": "En trappa upp"}}, {"type": "node", "id": 11078570490, "lat": 58.880157, "lon": 14.9045463, "tags": {"amenity": "cafe", "check_date": "2023-07-31", "name": "Borgm\u00e4starinnans caf\u00e9"}}, {"type": "node", "id": 11543884070, "lat": 58.9836662, "lon": 14.627439, "tags": {"amenity": "restaurant", "name": "K\u00e4glor & K\u00e4k"}}, {"type": "way", "id": 201201716, "nodes": [2111509221, 2111509181, 2111509187, 2111509169, 2111509172, 2111509176, 2111509184, 2111509209, 2111509215, 2111509251, 2111509249, 2111509256, 2111509247, 2111509227, 2111509221], "tags": {"amenity": "restaurant", "building": "yes", "name": "Vid Sp\u00e5ret"}}, {"type": "way", "id": 237364629, "nodes": [2452726422, 2452726421, 2452726419, 2452726420, 2452726422], "tags": {"amenity": "restaurant", "building": "yes"}}, {"type": "way", "id": 302798906, "nodes": [3070826476, 3070826473, 3070826472, 3070826474, 3070826476], "tags": {"amenity": "restaurant", "building": "yes", "contact:phone": "+4658270111", "name": "Viiby krog", "website": "http://www.viibykrog.se/"}}, {"type": "way", "id": 434996040, "nodes": [4329319490, 4329319492, 4329319499, 4329319497, 4329319490], "tags": {"amenity": "cafe", "building": "yes", "name": "Revelbadets Camping", "operator": "Revelbadets Camping", "outdoor_seating": "yes"}}, {"type": "way", "id": 438211977, "nodes": [4359422483, 4359422488, 4359422489, 4359422486, 4359422483], "tags": {"amenity": "restaurant", "building": "yes", "name": "Pizzeria Picasso"}}, {"type": "way", "id": 488639200, "nodes": [4809334614, 4809334611, 4809334612, 4809334613, 4809334614], "tags": {"amenity": "cafe", "building": "yes", "contact:phone": "+46722123455;+46708142768", "name": "Nostalgifiket", "website": "http://www.nostalgifiket.se/"}}, {"type": "way", "id": 713463849, "nodes": [6708246961, 6708246960, 6708246959, 6708246958, 6708246961], "tags": {"addr:city": "Hammar", "addr:country": "SE", "addr:housenumber": "72", "addr:postcode": "69694", "addr:street": "Hargebadsv\u00e4gen", "amenity": "restaurant", "building": "yes", "name": "Hargebaden", "phone": "+46 583 770055", "source": "Survey"}}, {"type": "way", "id": 722961276, "nodes": [6781246124, 6781246121, 6781246122, 6781246123, 6781246124], "tags": {"amenity": "restaurant", "building": "yes", "name": "Krogensomintefinns", "outdoor_seating": "yes", "takeaway": "no", "website": "https://krogensomintefinns.se/"}}]}