{"version": 0.6, "generator": "Overpass API 0.7.61.5 4133829e", "osm3s": {"timestamp_osm_base": "2024-03-14T21:59:00Z", "copyright": "The data included in this document is from www.openstreetmap.org. The data is made available under ODbL."}, "elements": [{"type": "node", "id": 29953046, "lat": 57.6870423, "lon": 12.2062316, "tags": {"amenity": "restaurant", "cuisine": "thai", "name": "Thai Samila Take Away", "smoking": "no"}}, {"type": "node", "id": 308010222, "lat": 57.6851657, "lon": 12.0861637}, {"type": "node", "id": 308010224, "lat": 57.6851134, "lon": 12.0861637}, {"type": "node", "id": 308010225, "lat": 57.6851126, "lon": 12.0862377}, {"type": "node", "id": 308010227, "lat": 57.6852248, "lon": 12.0862281}, {"type": "node", "id": 445036941, "lat": 57.6891822, "lon": 12.8241759, "tags": {"addr:country": "SE", "addr:housenumber": "14", "addr:street": "Ryssn\u00e4sgatan", "amenity": "restaurant", "name": "Viareds 2 Kockar", "opening_hours": "Mo-Fr 07:00-16:30", "operator": "Viareds 2 Kockar AB", "phone": "+46 33257552", "website": "https://www.2kockar.com/"}}, {"type": "node", "id": 572585748, "lat": 57.6113819, "lon": 12.0747362, "tags": {"amenity": "cafe"}}, {"type": "node", "id": 732050962, "lat": 57.4459272, "lon": 12.1848449}, {"type": "node", "id": 732050965, "lat": 57.446029, "lon": 12.1851298}, {"type": "node", "id": 732050968, "lat": 57.4461361, "lon": 12.1852572}, {"type": "node", "id": 732050970, "lat": 57.4460392, "lon": 12.1847682}, {"type": "node", "id": 737259993, "lat": 57.7371863, "lon": 12.0595354, "tags": {"amenity": "restaurant", "contact:phone": "+46-31-265109", "contact:website": "https://www.ilovepizza.se/", "cuisine": "pizza", "name": "Utby Pizzeria", "smoking": "no", "takeaway": "yes"}}, {"type": "node", "id": 789413549, "lat": 57.6946858, "lon": 12.8349823, "tags": {"amenity": "restaurant", "name": "Ellag\u00e5rden"}}, {"type": "node", "id": 813065527, "lat": 57.6869367, "lon": 12.2107269, "tags": {"amenity": "restaurant", "cuisine": "pizza", "name": "Pizzeria Romas", "opening_hours": "Mo-Th 10:00-22:00; Fr 10:00-24:00; Sa 12:00-24:00; Su 12:00-22:00", "smoking": "no"}}, {"type": "node", "id": 831302508, "lat": 57.6578593, "lon": 12.1164433, "tags": {"amenity": "cafe", "name": "Caf\u00e9 Konditori Johns\u00e9ns", "wheelchair": "yes"}}, {"type": "node", "id": 857509988, "lat": 57.6600661, "lon": 12.0905196, "tags": {"amenity": "restaurant", "name": "R\u00e5da S\u00e4teri & G\u00e4stgifveri"}}, {"type": "node", "id": 907175973, "lat": 57.6906288, "lon": 12.2700562, "tags": {"amenity": "restaurant"}}, {"type": "node", "id": 1033714441, "lat": 57.6584544, "lon": 12.0605115}, {"type": "node", "id": 1033714487, "lat": 57.658407, "lon": 12.0605141}, {"type": "node", "id": 1033714523, "lat": 57.6584769, "lon": 12.0604014}, {"type": "node", "id": 1033714527, "lat": 57.6584586, "lon": 12.0604114}, {"type": "node", "id": 1033714652, "lat": 57.6584758, "lon": 12.0603032}, {"type": "node", "id": 1033714864, "lat": 57.6585523, "lon": 12.0599815}, {"type": "node", "id": 1033714908, "lat": 57.6584501, "lon": 12.0604494}, {"type": "node", "id": 1033714974, "lat": 57.658374, "lon": 12.0602476}, {"type": "node", "id": 1033715057, "lat": 57.6584619, "lon": 12.0604454}, {"type": "node", "id": 1033715171, "lat": 57.6584983, "lon": 12.0602992}, {"type": "node", "id": 1033715284, "lat": 57.6584094, "lon": 12.0605336}, {"type": "node", "id": 1033715289, "lat": 57.6583504, "lon": 12.0600568}, {"type": "node", "id": 1134446531, "lat": 57.6681762, "lon": 12.2944147}, {"type": "node", "id": 1318838361, "lat": 57.6676592, "lon": 12.5672187, "tags": {"addr:country": "SE", "addr:housenumber": "7", "addr:postcode": "51734", "addr:street": "Kungsbackav\u00e4gen", "amenity": "cafe", "name": "Diakonicenter V\u00e4gkorset"}}, {"type": "node", "id": 1318887213, "lat": 57.6688162, "lon": 12.5713908, "tags": {"addr:country": "SE", "addr:housenumber": "21", "addr:postcode": "51736", "addr:street": "G\u00f6teborgsv\u00e4gen", "amenity": "restaurant", "name": "Restaurang la Familia Macsad"}}, {"type": "node", "id": 1324081380, "lat": 57.6673766, "lon": 12.5731224, "tags": {"amenity": "cafe", "name": "Nederg\u00e5rdens caf\u00e9 och mat"}}, {"type": "node", "id": 1324263950, "lat": 57.6631818, "lon": 12.5412256, "tags": {"amenity": "restaurant", "name": "Restaurang Smakfullt"}}, {"type": "node", "id": 1361436989, "lat": 57.6700275, "lon": 12.5701797, "tags": {"addr:country": "SE", "addr:housenumber": "5B", "addr:street": "Ballebov\u00e4gen", "amenity": "restaurant", "cuisine": "italian", "name": "Pizza H\u00f6rnan", "outdoor_seating": "yes", "website": "http://www.pizzahornanbollebygd.se/"}}, {"type": "node", "id": 1486149152, "lat": 57.703843, "lon": 12.4434121, "tags": {"amenity": "restaurant", "cuisine": "pizza", "name": "Hind\u00e5s Pizzeria"}}, {"type": "node", "id": 1486149179, "lat": 57.7041812, "lon": 12.4432619, "tags": {"amenity": "restaurant", "cuisine": "international", "name": "Bykrogen Milano"}}, {"type": "node", "id": 1499681941, "lat": 57.6849088, "lon": 12.7851561, "tags": {"amenity": "cafe", "opening_hours": "11:00-17:00"}}, {"type": "node", "id": 1602367201, "lat": 57.3484177, "lon": 12.124851}, {"type": "node", "id": 1602367202, "lat": 57.3485388, "lon": 12.125067}, {"type": "node", "id": 1602367203, "lat": 57.3485959, "lon": 12.1246377}, {"type": "node", "id": 1602367206, "lat": 57.348682, "lon": 12.1247911}, {"type": "node", "id": 1608585176, "lat": 57.4946997, "lon": 12.0989696, "tags": {"amenity": "restaurant", "name": "Forsg\u00e5rdens Golfkrog"}}, {"type": "node", "id": 1609793899, "lat": 57.4881059, "lon": 12.0749732}, {"type": "node", "id": 1609793900, "lat": 57.4881501, "lon": 12.0748057}, {"type": "node", "id": 1609793904, "lat": 57.4883772, "lon": 12.0752206}, {"type": "node", "id": 1609793905, "lat": 57.4884213, "lon": 12.0750531}, {"type": "node", "id": 1633335952, "lat": 57.7404281, "lon": 12.1007586}, {"type": "node", "id": 1633335972, "lat": 57.7405258, "lon": 12.1011684}, {"type": "node", "id": 1633335987, "lat": 57.7405607, "lon": 12.1006567}, {"type": "node", "id": 1633336000, "lat": 57.7405941, "lon": 12.1013868}, {"type": "node", "id": 1633336016, "lat": 57.740629, "lon": 12.1015438}, {"type": "node", "id": 1633336023, "lat": 57.7406551, "lon": 12.1010592}, {"type": "node", "id": 1633336032, "lat": 57.7406695, "lon": 12.1013296}, {"type": "node", "id": 1633336037, "lat": 57.7407056, "lon": 12.1014856}, {"type": "node", "id": 1702988607, "lat": 57.3532311, "lon": 12.4775865, "tags": {"amenity": "restaurant", "name": "Hotellet Horred pizzeria"}}, {"type": "node", "id": 1836787296, "lat": 57.4882112, "lon": 12.0778733, "tags": {"amenity": "cafe", "name": "Caf\u00e9 M"}}, {"type": "node", "id": 1836787299, "lat": 57.4879399, "lon": 12.0768496, "tags": {"amenity": "restaurant", "name": "Cyrano"}}, {"type": "node", "id": 1836787327, "lat": 57.4881308, "lon": 12.0767447, "tags": {"amenity": "restaurant", "cuisine": "burger", "name": "@Burger"}}, {"type": "node", "id": 1836787353, "lat": 57.4872305, "lon": 12.0772733, "tags": {"amenity": "cafe", "name": "Naam caf\u00e9 & lounge"}}, {"type": "node", "id": 1836787365, "lat": 57.4880688, "lon": 12.0779941, "tags": {"amenity": "restaurant", "cuisine": "thai", "name": "Siam", "outdoor_seating": "no", "takeaway": "yes"}}, {"type": "node", "id": 1836787392, "lat": 57.487543, "lon": 12.0772343, "tags": {"amenity": "restaurant", "name": "Tullen 8:2 caf\u00e9-bistro", "outdoor_seating": "yes"}}, {"type": "node", "id": 1852479729, "lat": 57.7409382, "lon": 12.0847717, "tags": {"addr:city": "Partille", "addr:housenumber": "61", "addr:postcode": "433 30", "addr:street": "J\u00e4rnst\u00e5ngsv\u00e4gen", "amenity": "restaurant", "cuisine": "grill;turkish;kurdisk;kolgrill;kebab", "name": "Miwan Kolgrill", "opening_hours": "Mo-Fr 11:00-20:00", "phone": "+4631448060", "takeaway": "yes", "website": "www.miwan.se"}}, {"type": "node", "id": 2096944847, "lat": 57.7459181, "lon": 12.1751286, "tags": {"addr:country": "SE", "addr:street": "Jonseredsv\u00e4gen", "amenity": "restaurant", "cuisine": "pizza", "name": "Safir"}}, {"type": "node", "id": 2142296315, "lat": 57.66878, "lon": 12.5717831, "tags": {"amenity": "restaurant", "cuisine": "sushi", "name": "H\u00e4lso Sushi"}}, {"type": "node", "id": 2142298929, "lat": 57.6688937, "lon": 12.5686704, "tags": {"amenity": "restaurant", "cuisine": "pizza", "name": "Bollebygds Pizzeria"}}, {"type": "node", "id": 2260765713, "lat": 57.5749782, "lon": 12.0779836, "tags": {"amenity": "restaurant", "name": "Bykrogen"}}, {"type": "node", "id": 2260766678, "lat": 57.5746814, "lon": 12.0787932, "tags": {"addr:city": "Lindome", "addr:country": "SE", "addr:housenumber": "207", "addr:postcode": "437 42", "addr:street": "Gamla Riksv\u00e4gen", "amenity": "restaurant", "cuisine": "thai", "name": "Thai Corner"}}, {"type": "node", "id": 2260767301, "lat": 57.5762498, "lon": 12.0776539, "tags": {"amenity": "restaurant", "name": "La Strada"}}, {"type": "node", "id": 2302231538, "lat": 57.6697268, "lon": 12.2958839, "tags": {"amenity": "cafe", "brand": "Espresso House", "brand:wikidata": "Q10489162", "brand:wikipedia": "sv:Espresso House", "cuisine": "coffee_shop", "layer": "1", "name": "Espresso house", "smoking": "no", "takeaway": "yes"}}, {"type": "node", "id": 2302234465, "lat": 57.669224, "lon": 12.295567, "tags": {"amenity": "cafe", "name": "Haga cafe", "smoking": "no"}}, {"type": "node", "id": 2354535893, "lat": 57.6603387, "lon": 12.0904514, "tags": {"amenity": "cafe", "cuisine": "coffee_shop", "internet_access": "wlan", "internet_access:fee": "no", "name": "R\u00e5da s\u00e4teri Kaffestuga"}}, {"type": "node", "id": 2354536663, "lat": 57.6603904, "lon": 12.0904997, "tags": {"amenity": "cafe", "cuisine": "ice_cream", "internet_access": "wlan", "internet_access:fee": "no", "name": "R\u00e5da Gelato"}}, {"type": "node", "id": 2390624617, "lat": 57.7310902, "lon": 12.0624513, "tags": {"addr:country": "SE", "addr:housenumber": "27", "addr:street": "G\u00f6teborgsv\u00e4gen", "amenity": "restaurant", "cuisine": "indian", "email": "savedalen@mrsingh.se", "name": "Mr Singh", "opening_hours": "Mo-Fr 11:00-22:00; Sa-Su 11:00-21:00", "payment:cryptocurrencies": "no", "phone": "+46 705 100 820", "smoking": "no", "website": "https://www.mrsingh.se/savedalen/"}}, {"type": "node", "id": 2406062789, "lat": 57.4011771, "lon": 12.1040043}, {"type": "node", "id": 2406062790, "lat": 57.4011935, "lon": 12.1042982}, {"type": "node", "id": 2406062795, "lat": 57.4015335, "lon": 12.1039359}, {"type": "node", "id": 2406062796, "lat": 57.4015499, "lon": 12.1042298}, {"type": "node", "id": 2440489914, "lat": 57.7325339, "lon": 12.0760577, "tags": {"amenity": "cafe", "name": "S\u00e4vedalens G\u00e5rdscaf\u00e9 & Inredning", "shop": "interior_decoration"}}, {"type": "node", "id": 2574313056, "lat": 57.3189277, "lon": 12.1752608, "tags": {"amenity": "restaurant", "cuisine": "italian_pizza", "name": "Mona Lisa Pizzeria", "name:sv": "Lilla Beirut"}}, {"type": "node", "id": 2613368539, "lat": 57.7402939, "lon": 12.0983334}, {"type": "node", "id": 2613368543, "lat": 57.740316, "lon": 12.0984116}, {"type": "node", "id": 2613368545, "lat": 57.740339, "lon": 12.0982871}, {"type": "node", "id": 2613368546, "lat": 57.7403612, "lon": 12.0983637}, {"type": "node", "id": 2640773824, "lat": 57.6990854, "lon": 12.5817997, "tags": {"amenity": "restaurant", "name": "Grefvens restaurang"}}, {"type": "node", "id": 2640778221, "lat": 57.653809, "lon": 12.4979767, "tags": {"amenity": "restaurant", "cuisine": "pizza"}}, {"type": "node", "id": 2669902732, "lat": 57.6836449, "lon": 12.2082302, "tags": {"amenity": "restaurant", "cuisine": "pizza", "name": "Pizza House"}}, {"type": "node", "id": 2703148862, "lat": 57.5040505, "lon": 12.0779489}, {"type": "node", "id": 2703148864, "lat": 57.5040432, "lon": 12.0782835}, {"type": "node", "id": 2703148866, "lat": 57.5037181, "lon": 12.0782589}, {"type": "node", "id": 2703148868, "lat": 57.5037253, "lon": 12.0779288}, {"type": "node", "id": 2703148870, "lat": 57.5039045, "lon": 12.0779423}, {"type": "node", "id": 2703148872, "lat": 57.5039066, "lon": 12.0778472}, {"type": "node", "id": 2703148874, "lat": 57.5039973, "lon": 12.0778541}, {"type": "node", "id": 2703148875, "lat": 57.5039954, "lon": 12.0779447}, {"type": "node", "id": 2706032531, "lat": 57.5051432, "lon": 12.0684187, "tags": {"addr:city": "Kungsbacka", "addr:country": "SE", "addr:housenumber": "2", "addr:postcode": "43437", "addr:street": "Kabelgatan", "amenity": "restaurant", "capacity": "50", "cuisine": "pizza", "name": "Kungspizza"}}, {"type": "node", "id": 2844778020, "lat": 57.725745, "lon": 12.1291725, "tags": {"amenity": "restaurant", "cuisine": "pizza", "name": "Furulunds Pizzeria"}}, {"type": "node", "id": 2917212397, "lat": 57.679421, "lon": 12.0938851, "tags": {"addr:city": "M\u00f6lnlycke", "addr:country": "SE", "addr:housenumber": "2a", "addr:postcode": "43533", "addr:street": "Metodv\u00e4gen", "amenity": "restaurant", "cuisine": "pizza", "name": "Solsidan", "smoking": "no", "website": "https://sv-se.facebook.com/Solsidan", "wheelchair": "yes"}}, {"type": "node", "id": 3004041427, "lat": 57.6906547, "lon": 12.1104101}, {"type": "node", "id": 3004041428, "lat": 57.6906329, "lon": 12.110749}, {"type": "node", "id": 3004041430, "lat": 57.6905961, "lon": 12.1103341}, {"type": "node", "id": 3004046535, "lat": 57.6903082, "lon": 12.1108255}, {"type": "node", "id": 3004046536, "lat": 57.6903698, "lon": 12.1110333}, {"type": "node", "id": 3004046537, "lat": 57.6905892, "lon": 12.1108161}, {"type": "node", "id": 3004046538, "lat": 57.6905749, "lon": 12.1107061}, {"type": "node", "id": 3010415095, "lat": 57.6568319, "lon": 12.5375311, "tags": {"amenity": "cafe"}}, {"type": "node", "id": 3080033222, "lat": 57.6677824, "lon": 12.2940723}, {"type": "node", "id": 3080033223, "lat": 57.6677909, "lon": 12.2940406}, {"type": "node", "id": 3080034433, "lat": 57.6679018, "lon": 12.29399}, {"type": "node", "id": 3080034435, "lat": 57.6679133, "lon": 12.2939455}, {"type": "node", "id": 3080034436, "lat": 57.6679224, "lon": 12.2939076}, {"type": "node", "id": 3080034437, "lat": 57.6679698, "lon": 12.2942078}, {"type": "node", "id": 3080034438, "lat": 57.6679735, "lon": 12.2939983}, {"type": "node", "id": 3080034439, "lat": 57.6679741, "lon": 12.2939509}, {"type": "node", "id": 3080034440, "lat": 57.6679758, "lon": 12.2936855}, {"type": "node", "id": 3080034442, "lat": 57.6679924, "lon": 12.2948803}, {"type": "node", "id": 3080034444, "lat": 57.6680275, "lon": 12.2937288}, {"type": "node", "id": 3080034445, "lat": 57.6680413, "lon": 12.294692}, {"type": "node", "id": 3080034446, "lat": 57.6680536, "lon": 12.2949331}, {"type": "node", "id": 3080034450, "lat": 57.6680846, "lon": 12.2948081}, {"type": "node", "id": 3080034452, "lat": 57.6681006, "lon": 12.2940781}, {"type": "node", "id": 3080034454, "lat": 57.6681239, "lon": 12.2938789}, {"type": "node", "id": 3080034457, "lat": 57.66814, "lon": 12.2941135}, {"type": "node", "id": 3080034458, "lat": 57.6681638, "lon": 12.2938926}, {"type": "node", "id": 3080034461, "lat": 57.6681823, "lon": 12.2944609}, {"type": "node", "id": 3080034462, "lat": 57.6681888, "lon": 12.2939238}, {"type": "node", "id": 3080034463, "lat": 57.6682137, "lon": 12.2944291}, {"type": "node", "id": 3080034470, "lat": 57.6682906, "lon": 12.2951516}, {"type": "node", "id": 3080034472, "lat": 57.6683026, "lon": 12.2950894}, {"type": "node", "id": 3080034473, "lat": 57.6683443, "lon": 12.2945489}, {"type": "node", "id": 3080034474, "lat": 57.6683638, "lon": 12.2944684}, {"type": "node", "id": 3080034475, "lat": 57.6683691, "lon": 12.2952226}, {"type": "node", "id": 3080034476, "lat": 57.6683805, "lon": 12.2951802}, {"type": "node", "id": 3080034478, "lat": 57.6683902, "lon": 12.2944939}, {"type": "node", "id": 3080034482, "lat": 57.6684996, "lon": 12.295286}, {"type": "node", "id": 3080034483, "lat": 57.6685329, "lon": 12.2951665}, {"type": "node", "id": 3167911145, "lat": 57.731561, "lon": 12.0651645, "tags": {"addr:city": "S\u00e4vedalen", "addr:country": "SE", "addr:housenumber": "42", "addr:postcode": "43360", "addr:street": "G\u00f6teborgsv\u00e4gen", "amenity": "restaurant", "cuisine": "regional", "name": "Restaurang Mozart"}}, {"type": "node", "id": 3184357561, "lat": 57.728808, "lon": 12.051495, "tags": {"amenity": "restaurant", "cuisine": "pizza", "name": "Pizza Kebab Sallad Fr\u00e4ntorp", "payment:cryptocurrencies": "no", "smoking": "no"}}, {"type": "node", "id": 3186231269, "lat": 57.7311288, "lon": 12.0619844, "tags": {"amenity": "restaurant", "name": "Lilla thaik\u00f6ket", "opening_hours:signed": "no", "payment:cryptocurrencies": "no", "smoking": "no"}}, {"type": "node", "id": 3621478068, "lat": 57.6267476, "lon": 12.3201505}, {"type": "node", "id": 3621478070, "lat": 57.6267014, "lon": 12.3199989}, {"type": "node", "id": 3621478071, "lat": 57.6265775, "lon": 12.3201308}, {"type": "node", "id": 3621478072, "lat": 57.6266238, "lon": 12.3202824}, {"type": "node", "id": 3662259627, "lat": 57.556558, "lon": 12.5389005, "tags": {"addr:city": "Hyssna", "addr:country": "SE", "addr:housenumber": "3", "addr:postcode": "51168", "addr:street": "Lock\u00f6v.", "amenity": "restaurant", "cuisine": "pizza", "name": "Hyssna Pizzeria", "phone": "+46 320 39575", "smoking": "no", "takeaway": "yes"}}, {"type": "node", "id": 3734396230, "lat": 57.6874679, "lon": 12.2093842, "tags": {"amenity": "restaurant", "cuisine": "sushi", "name": "Landvetter sushi", "smoking": "no"}}, {"type": "node", "id": 3734396231, "lat": 57.7027555, "lon": 12.1454405, "tags": {"amenity": "restaurant", "name": "\u00d6jersj\u00f6 Pizzeria", "phone": "+4631988013"}}, {"type": "node", "id": 3734396233, "lat": 57.7408934, "lon": 12.0989952, "tags": {"amenity": "restaurant", "name": "Roma Pizzeria"}}, {"type": "node", "id": 3734396234, "lat": 57.7400578, "lon": 12.0894337, "tags": {"amenity": "restaurant", "name": "Restaurang Thai House"}}, {"type": "node", "id": 3734396236, "lat": 57.5621104, "lon": 12.5397457, "tags": {"amenity": "cafe", "name": "Kvarnen i Hyssna"}}, {"type": "node", "id": 3750570810, "lat": 57.4285263, "lon": 12.5258978, "tags": {"addr:city": "Bj\u00f6rketorp", "addr:country": "SE", "addr:housenumber": "1", "addr:postcode": "51994", "addr:street": "Lundav\u00e4gen", "amenity": "restaurant", "name": "Bj\u00f6rketorps Rest & Pizzeria"}}, {"type": "node", "id": 3796268145, "lat": 57.3890379, "lon": 12.190311}, {"type": "node", "id": 3796268146, "lat": 57.3890523, "lon": 12.1904614}, {"type": "node", "id": 3796268149, "lat": 57.3891054, "lon": 12.1902889}, {"type": "node", "id": 3796268151, "lat": 57.3891197, "lon": 12.1904393}, {"type": "node", "id": 4242960209, "lat": 57.6587983, "lon": 12.5011464, "tags": {"addr:street": "Bor\u00e5sv\u00e4gen", "amenity": "restaurant", "cuisine": "pizza", "name": "R\u00e4vlanda Pizzeria"}}, {"type": "node", "id": 4520817396, "lat": 57.6689358, "lon": 12.2963503, "tags": {"amenity": "cafe", "brand": "Espresso House", "brand:wikidata": "Q10489162", "brand:wikipedia": "sv:Espresso House", "cuisine": "coffee_shop", "name": "Espresso House", "takeaway": "yes"}}, {"type": "node", "id": 4520847102, "lat": 57.6678816, "lon": 12.295261, "tags": {"amenity": "cafe", "name": "Caffe Ritazza"}}, {"type": "node", "id": 4549707218, "lat": 57.5853006, "lon": 12.0997866, "tags": {"addr:city": "Lindome", "addr:country": "SE", "addr:housenumber": "2", "addr:postcode": "437 34", "addr:street": "Spinnm\u00e4starev\u00e4gen", "amenity": "restaurant", "capacity": "60", "cuisine": "regional", "name": "Lilla Spinneriet", "smoking": "no", "takeaway": "no"}}, {"type": "node", "id": 4692605873, "lat": 57.6905901, "lon": 12.1103705}, {"type": "node", "id": 4692605874, "lat": 57.690565, "lon": 12.1103585}, {"type": "node", "id": 4692605875, "lat": 57.6904688, "lon": 12.1106659}, {"type": "node", "id": 4692605876, "lat": 57.6904896, "lon": 12.1105492}, {"type": "node", "id": 4692605877, "lat": 57.690544, "lon": 12.110493}, {"type": "node", "id": 4692605879, "lat": 57.6905333, "lon": 12.1105693}, {"type": "node", "id": 4692605883, "lat": 57.6906467, "lon": 12.110667}, {"type": "node", "id": 4692605884, "lat": 57.6906587, "lon": 12.1106749}, {"type": "node", "id": 4692605885, "lat": 57.6906714, "lon": 12.1105939}, {"type": "node", "id": 4692605886, "lat": 57.6906607, "lon": 12.1105866}, {"type": "node", "id": 4692605887, "lat": 57.6906832, "lon": 12.1104244}, {"type": "node", "id": 4692605888, "lat": 57.6906611, "lon": 12.1103702}, {"type": "node", "id": 4974240810, "lat": 57.6851658, "lon": 12.0859916}, {"type": "node", "id": 4974240811, "lat": 57.6852243, "lon": 12.085986}, {"type": "node", "id": 4974240812, "lat": 57.6851658, "lon": 12.0860711}, {"type": "node", "id": 4974240813, "lat": 57.6851544, "lon": 12.0860719}, {"type": "node", "id": 4974240814, "lat": 57.6851658, "lon": 12.086122}, {"type": "node", "id": 4974240815, "lat": 57.6851546, "lon": 12.0861212}, {"type": "node", "id": 5140745371, "lat": 57.5073508, "lon": 12.6953884}, {"type": "node", "id": 5140745372, "lat": 57.5073105, "lon": 12.6951541}, {"type": "node", "id": 5140745373, "lat": 57.507162, "lon": 12.6952426}, {"type": "node", "id": 5140745374, "lat": 57.5072022, "lon": 12.6954768}, {"type": "node", "id": 5359465625, "lat": 57.7107465, "lon": 12.7924735, "tags": {"amenity": "restaurant", "name": "Kvarterskrogen i Sandared"}}, {"type": "node", "id": 5359465632, "lat": 57.7097284, "lon": 12.7930016, "tags": {"amenity": "restaurant", "name": "Sandareds Grill och Pizza"}}, {"type": "node", "id": 5359465633, "lat": 57.7097736, "lon": 12.7941123, "tags": {"amenity": "restaurant", "cuisine": "thai;sushi", "name": "Thai och Sushi"}}, {"type": "node", "id": 5465219363, "lat": 57.4873345, "lon": 12.0742935, "tags": {"amenity": "restaurant", "cuisine": "pizza", "name": "Rest. S\u00f6dra", "outdoor_seating": "yes"}}, {"type": "node", "id": 5465219364, "lat": 57.4862734, "lon": 12.0750626, "tags": {"amenity": "restaurant", "cuisine": "indian", "name": "Mr.India", "outdoor_seating": "no", "takeaway": "yes"}}, {"type": "node", "id": 5465219365, "lat": 57.4886679, "lon": 12.0765616, "tags": {"amenity": "restaurant", "cuisine": "pizza", "name": "Wally's Pizzeria", "outdoor_seating": "no", "takeaway": "yes"}}, {"type": "node", "id": 5465219366, "lat": 57.488539, "lon": 12.0752078, "tags": {"amenity": "restaurant", "name": "Grevens Gastro", "outdoor_seating": "yes", "toilets:wheelchair": "yes", "wheelchair": "yes"}}, {"type": "node", "id": 5465219367, "lat": 57.4943663, "lon": 12.0718645, "tags": {"amenity": "restaurant", "delivery": "no", "name": "Elofs H\u00f6rna", "outdoor_seating": "no", "smoking": "no", "takeaway": "no"}}, {"type": "node", "id": 5585999448, "lat": 57.6685402, "lon": 12.5701674, "tags": {"amenity": "restaurant", "cuisine": "pizza"}}, {"type": "node", "id": 5673341643, "lat": 57.487793, "lon": 12.6444172, "tags": {"addr:street": "\u00d6rbyv\u00e4gen", "amenity": "cafe", "name": "Erikshj\u00e4lpen secondhand", "opening_hours": "Tu, Th 14:00-18:00; Sa 10:00-14:00", "second_hand": "only", "shop": "charity", "website": "https://erikshjalpen.se/store/skene/"}}, {"type": "node", "id": 5679785998, "lat": 57.6758357, "lon": 12.0935668}, {"type": "node", "id": 5679785999, "lat": 57.6757336, "lon": 12.09346}, {"type": "node", "id": 5679786000, "lat": 57.6757316, "lon": 12.0934482}, {"type": "node", "id": 5679786001, "lat": 57.6757403, "lon": 12.0932262}, {"type": "node", "id": 5679786002, "lat": 57.6756976, "lon": 12.0932392}, {"type": "node", "id": 5679786003, "lat": 57.6755933, "lon": 12.0932986}, {"type": "node", "id": 5679786004, "lat": 57.6756992, "lon": 12.0932489}, {"type": "node", "id": 5679786005, "lat": 57.6757719, "lon": 12.093426}, {"type": "node", "id": 5682843738, "lat": 57.4269772, "lon": 12.28343, "tags": {"amenity": "cafe", "name": "Kaffestugan", "opening_hours": "Mo-Su 11:00-18:00"}}, {"type": "node", "id": 5840000705, "lat": 57.5384235, "lon": 12.1029478, "tags": {"amenity": "restaurant", "cuisine": "pizza", "name": "Annebergs Pizzeria", "website": "https://www.annebergspizzeria.se/"}}, {"type": "node", "id": 5882442053, "lat": 57.4827226, "lon": 12.0803681, "tags": {"addr:city": "Kungsbacka", "addr:country": "SE", "addr:housenumber": "5", "addr:postcode": "434 42", "addr:street": "Lilla Hantverksgatan", "amenity": "restaurant", "contact:phone": "+46 300-68 52 62", "cuisine": "asian;vietnamese", "delivery": "no", "name": "Cam Ranh", "opening_hours": "Mo-Su 11:00-20:00", "outdoor_seating": "yes", "takeaway": "yes"}}, {"type": "node", "id": 5882442054, "lat": 57.4859236, "lon": 12.0811719, "tags": {"amenity": "restaurant", "cuisine": "pizza", "name": "Marios Pizzeria"}}, {"type": "node", "id": 5882442058, "lat": 57.4864, "lon": 12.076264, "tags": {"amenity": "restaurant", "cuisine": "thai", "delivery": "no", "name": "Mhenam Thaik\u00f6k", "opening_hours": "Mo-Fr 11:00-20:30; Sa,Su 12:00-20:30", "outdoor_seating": "no", "takeaway": "yes"}}, {"type": "node", "id": 5921121989, "lat": 57.4879351, "lon": 12.0785295, "tags": {"amenity": "restaurant", "delivery": "no", "name": "Hantverkscafet Kungsbacka"}}, {"type": "node", "id": 5953377594, "lat": 57.6905684, "lon": 12.1107222}, {"type": "node", "id": 5985476729, "lat": 57.4008513, "lon": 12.2684996}, {"type": "node", "id": 5985476730, "lat": 57.4007571, "lon": 12.2688358}, {"type": "node", "id": 5985476731, "lat": 57.4008911, "lon": 12.2689535}, {"type": "node", "id": 5985476732, "lat": 57.4008748, "lon": 12.2690241}, {"type": "node", "id": 5985476733, "lat": 57.4009835, "lon": 12.269125}, {"type": "node", "id": 5985476734, "lat": 57.400998, "lon": 12.2690712}, {"type": "node", "id": 5985476735, "lat": 57.4011157, "lon": 12.2691821}, {"type": "node", "id": 5985476736, "lat": 57.4012914, "lon": 12.2692864}, {"type": "node", "id": 5985476737, "lat": 57.4013168, "lon": 12.2691283}, {"type": "node", "id": 5985476738, "lat": 57.4012518, "lon": 12.2690921}, {"type": "node", "id": 5985476739, "lat": 57.4013059, "lon": 12.2687787}, {"type": "node", "id": 5985476740, "lat": 57.4012335, "lon": 12.2687383}, {"type": "node", "id": 5985476741, "lat": 57.4011755, "lon": 12.269088}, {"type": "node", "id": 5985476742, "lat": 57.4011284, "lon": 12.2690644}, {"type": "node", "id": 5985476743, "lat": 57.4011556, "lon": 12.2689333}, {"type": "node", "id": 5985476744, "lat": 57.4010632, "lon": 12.2688425}, {"type": "node", "id": 5985476745, "lat": 57.4010777, "lon": 12.2687887}, {"type": "node", "id": 5985476746, "lat": 57.4010197, "lon": 12.2687349}, {"type": "node", "id": 5985476747, "lat": 57.4009799, "lon": 12.2688728}, {"type": "node", "id": 5985476748, "lat": 57.4009074, "lon": 12.2688056}, {"type": "node", "id": 5985476749, "lat": 57.40096, "lon": 12.2686105}, {"type": "node", "id": 5996302715, "lat": 57.4873085, "lon": 12.0770665, "tags": {"amenity": "cafe", "name": "Mocca"}}, {"type": "node", "id": 6004748988, "lat": 57.4871017, "lon": 12.0758192, "tags": {"amenity": "cafe", "cuisine": "cake", "name": "David Bagare", "shop": "bakery"}}, {"type": "node", "id": 6008219406, "lat": 57.4890086, "lon": 12.0776781, "tags": {"amenity": "restaurant", "delivery": "no", "name": "Rum 35", "outdoor_seating": "no", "takeaway": "no"}}, {"type": "node", "id": 6042325435, "lat": 57.4864732, "lon": 12.0752454, "tags": {"amenity": "restaurant", "cuisine": "sushi", "name": "Yuko Sushi", "outdoor_seating": "no"}}, {"type": "node", "id": 6049816391, "lat": 57.4879221, "lon": 12.0765464, "tags": {"amenity": "restaurant", "cuisine": "pizza", "name": "La Mama"}}, {"type": "node", "id": 6049818487, "lat": 57.4879819, "lon": 12.0755001, "tags": {"amenity": "restaurant", "cuisine": "italian;pizza", "name": "Bar Vinci", "outdoor_seating": "yes"}}, {"type": "node", "id": 6049818488, "lat": 57.4877916, "lon": 12.0753686, "tags": {"amenity": "restaurant", "name": "Ester"}}, {"type": "node", "id": 6055644099, "lat": 57.4876986, "lon": 12.0766431, "tags": {"amenity": "restaurant", "cuisine": "vietnamese", "delivery": "no", "name": "Bao Kitchen", "outdoor_seating": "yes"}}, {"type": "node", "id": 6055644105, "lat": 57.4847409, "lon": 12.0757177, "tags": {"amenity": "restaurant", "name": "Pinchos", "outdoor_seating": "yes"}}, {"type": "node", "id": 6055644132, "lat": 57.4832333, "lon": 12.0831376, "tags": {"amenity": "restaurant", "name": "Westers K\u00f6k AB"}}, {"type": "node", "id": 6179312917, "lat": 57.4873646, "lon": 12.078965, "tags": {"amenity": "restaurant", "cuisine": "pizza", "name": "Pizzakungen", "takeaway": "yes"}}, {"type": "node", "id": 6179312918, "lat": 57.487065, "lon": 12.0784278, "tags": {"amenity": "restaurant", "cuisine": "chinese", "name": "Chang Kang"}}, {"type": "node", "id": 6203432657, "lat": 57.5564505, "lon": 12.7843733, "tags": {"addr:city": "Fritsla", "addr:country": "SE", "addr:housenumber": "1", "addr:postcode": "51172", "addr:street": "Kommunalhusv\u00e4gen", "amenity": "restaurant", "cuisine": "pizza;kebab", "name": "Ramilio Pizzeria och Restaurang", "phone": "+46-320-70777"}}, {"type": "node", "id": 6205360562, "lat": 57.5567172, "lon": 12.7846891, "tags": {"addr:city": "Fritsla", "addr:country": "SE", "addr:housenumber": "27", "addr:postcode": "51172", "addr:street": "F\u00f6rl\u00e4ggarev\u00e4gen", "amenity": "cafe", "name": "Central Caf\u00e9t"}}, {"type": "node", "id": 6420870804, "lat": 57.4459891, "lon": 12.1851572}, {"type": "node", "id": 6420870805, "lat": 57.446064, "lon": 12.1853065}, {"type": "node", "id": 6559816427, "lat": 57.6361877, "lon": 12.1817184}, {"type": "node", "id": 6559816428, "lat": 57.6360263, "lon": 12.181636}, {"type": "node", "id": 6559816429, "lat": 57.6358408, "lon": 12.1818724}, {"type": "node", "id": 6559816430, "lat": 57.6360624, "lon": 12.1818834}, {"type": "node", "id": 6559816431, "lat": 57.6360096, "lon": 12.18175}, {"type": "node", "id": 6559816432, "lat": 57.6358692, "lon": 12.1816783}, {"type": "node", "id": 6559816433, "lat": 57.6360485, "lon": 12.1819786}, {"type": "node", "id": 6559816434, "lat": 57.6361565, "lon": 12.1819314}, {"type": "node", "id": 6877111067, "lat": 57.331509, "lon": 12.1542333, "tags": {"amenity": "cafe", "name": "R\u00e5gelunds Kiteskola"}}, {"type": "node", "id": 7098463292, "lat": 57.5181258, "lon": 12.0769182, "tags": {"addr:street": "Bj\u00f6rkrisv\u00e4gen", "amenity": "restaurant", "cuisine": "thai;asian", "name": "Hot \u2019n\u2019 Spice"}}, {"type": "node", "id": 7526442194, "lat": 57.5668466, "lon": 12.5120169, "tags": {"amenity": "cafe", "contact:website": "https://blommigtochprickigt.se/bageri-restaurang", "name": "Blommigt & Prickigt", "shop": "bakery"}}, {"type": "node", "id": 7526442223, "lat": 57.6255651, "lon": 12.4842238, "tags": {"amenity": "cafe", "contact:website": "https://engalycka.se/", "name": "Engalycka G\u00e5rd", "shop": "farm"}}, {"type": "node", "id": 7642212463, "lat": 57.5060895, "lon": 12.6980508, "tags": {"amenity": "restaurant", "name": "Herr Ober", "opening_hours": "Fr 11:30-19:00; Sa 12:00-18:00"}}, {"type": "node", "id": 7707604686, "lat": 57.5180082, "lon": 12.0773128, "tags": {"addr:street": "Bj\u00f6rkrisv\u00e4gen", "amenity": "restaurant", "cuisine": "burger;italian;italian_pizza;kebab;pizza", "name": "Bj\u00f6rkris pizzeria"}}, {"type": "node", "id": 8294536523, "lat": 57.6585202, "lon": 12.1063108, "tags": {"amenity": "restaurant", "name": "R\u00e5da rum", "opening_hours": "Mo-Su 10:00-16:00"}}, {"type": "node", "id": 8393846689, "lat": 57.6346847, "lon": 12.857114, "tags": {"amenity": "restaurant", "cuisine": "pizza"}}, {"type": "node", "id": 8393846690, "lat": 57.6346435, "lon": 12.8573091, "tags": {"amenity": "cafe"}}, {"type": "node", "id": 8682869972, "lat": 57.7374719, "lon": 12.1061485, "tags": {"addr:city": "Partille", "addr:country": "SE", "addr:housenumber": "3", "addr:postcode": "433 35", "addr:street": "Nils Henrikssons v\u00e4g", "amenity": "restaurant", "cuisine": "sushi", "name": "Sushi Yama", "opening_hours": "Mo-Su 10:00-20:00", "phone": "+46 31 55 35 05", "smoking": "no", "website": "https://www.sushiyama.se"}}, {"type": "node", "id": 8791319820, "lat": 57.4608694, "lon": 12.1716285, "tags": {"addr:city": "Fj\u00e4r\u00e5s", "addr:country": "SE", "addr:housenumber": "4", "addr:postcode": "439 71", "addr:street": "Rajgr\u00e4sv\u00e4gen", "amenity": "restaurant", "cuisine": "pizza", "diet:gluten_free": "yes", "diet:meat": "yes", "diet:vegetarian": "yes", "name": "Montana", "phone": "+46 300 541234", "website": "https://www.montanapizzeria.se/"}}, {"type": "node", "id": 8917795430, "lat": 57.3508249, "lon": 12.8860603, "tags": {"amenity": "nightclub", "description:en": "Nightclub operating since 1937", "name": "Kullaberg"}}, {"type": "node", "id": 8921744506, "lat": 57.4914735, "lon": 12.6423285}, {"type": "node", "id": 8921744507, "lat": 57.4915588, "lon": 12.6425092}, {"type": "node", "id": 8921744508, "lat": 57.4914723, "lon": 12.6426459}, {"type": "node", "id": 8921744509, "lat": 57.4913894, "lon": 12.6424674}, {"type": "node", "id": 9056376863, "lat": 57.3484919, "lon": 12.1247078}, {"type": "node", "id": 9056376864, "lat": 57.3485271, "lon": 12.1247704}, {"type": "node", "id": 9089437454, "lat": 57.4605495, "lon": 12.1717222, "tags": {"addr:city": "Fj\u00e4r\u00e5s", "addr:country": "SE", "addr:housenumber": "5", "addr:postcode": "439 71", "addr:street": "Rajgr\u00e4sv\u00e4gen", "amenity": "restaurant", "cuisine": "thai", "name": "The Thai", "phone": "+46 300 540008"}}, {"type": "node", "id": 9091101805, "lat": 57.485987, "lon": 12.0758736, "tags": {"amenity": "restaurant", "cuisine": "swedish", "name": "Hegli"}}, {"type": "node", "id": 9119004878, "lat": 57.4893936, "lon": 12.0736073, "tags": {"amenity": "restaurant", "cuisine": "pizza", "name": "I Love Pizza"}}, {"type": "node", "id": 9193817742, "lat": 57.6757787, "lon": 12.0937573}, {"type": "node", "id": 9193817743, "lat": 57.6756454, "lon": 12.0936179}, {"type": "node", "id": 9340226301, "lat": 57.4779939, "lon": 12.0692642, "tags": {"addr:country": "SE", "addr:housenumber": "75", "addr:postcode": "43451", "addr:street": "Gnejsv\u00e4gen", "amenity": "restaurant", "cuisine": "pizza", "name": "Oso pizzeria", "opening_hours": "Mo-Fr 11:00-21:00, Sa-Su 12:00-21:00", "phone": "0300681550", "website": "https://www.osopizzeria.com/"}}, {"type": "node", "id": 9587837027, "lat": 57.4882276, "lon": 12.6966384, "tags": {"amenity": "restaurant", "cuisine": "pizza", "name": "\u00d6rby Pizzeria", "takeaway": "yes"}}, {"type": "node", "id": 9911337988, "lat": 57.7322887, "lon": 12.0714178, "tags": {"amenity": "restaurant", "cuisine": "sushi", "name": "Tsuki Hana"}}, {"type": "node", "id": 9911468035, "lat": 57.7311611, "lon": 12.0642215, "tags": {"addr:country": "SE", "addr:housenumber": "33", "addr:street": "G\u00f6teborgsv\u00e4gen", "amenity": "restaurant", "branch": "S\u00e4vedalen", "cuisine": "french", "name": "Cyrano", "payment:cryptocurrencies": "no", "smoking": "no", "website": "https://www.cyrano.se/Restaurant/Detail?Url=cyrano-s\u00e4vedalen"}}, {"type": "node", "id": 9911484013, "lat": 57.7403988, "lon": 12.1214171, "tags": {"addr:country": "SE", "addr:housenumber": "3", "addr:street": "Portg\u00e5ngen", "amenity": "restaurant", "cuisine": "pizza", "email": "info@delissimo.se", "name": "Delissimo", "phone": "+46 704441404", "website": "http://delissimo.se"}}, {"type": "node", "id": 9911497051, "lat": 57.739389, "lon": 12.1070164, "tags": {"amenity": "restaurant", "cuisine": "sushi", "name": "Partille Sushi", "smoking": "no"}}, {"type": "node", "id": 9925477211, "lat": 57.7328321, "lon": 12.0743719, "tags": {"addr:country": "SE", "addr:housenumber": "80", "addr:street": "G\u00f6teborgsv\u00e4gen", "amenity": "restaurant", "name": "Piccolo Restaurang & Pub", "website": "https://www.restaurangpiccolo.se"}}, {"type": "node", "id": 9928243479, "lat": 57.7214377, "lon": 12.0528534, "tags": {"addr:country": "SE", "addr:housenumber": "15", "addr:street": "Diagnosv\u00e4gen", "air_conditioning": "yes", "amenity": "cafe", "bar": "no", "branch": "\u00d6stra sjukhuset", "brand": "Espresso House", "brand:wikidata": "Q10489162", "check_date": "2022-10-30", "cuisine": "coffee_shop", "internet_access": "wlan", "internet_access:fee": "no", "name": "Espresso House", "payment:mastercard": "yes", "payment:visa": "yes", "phone": "+46 76 521 94 20", "smoking": "no", "takeaway": "yes", "website": "https://espressohouse.com/coffee-shops/stra-sjukhuset/"}}, {"type": "node", "id": 9947052851, "lat": 57.6687687, "lon": 12.5676607, "tags": {"amenity": "cafe", "name": "Sara"}}, {"type": "node", "id": 10140505936, "lat": 57.7212954, "lon": 12.0537896, "tags": {"addr:country": "SE", "addr:floor": "3", "addr:housenumber": "5", "addr:street": "Journalv\u00e4gen", "air_conditioning": "yes", "amenity": "cafe", "bar": "no", "check_date": "2022-10-30", "contact:facebook": "https://www.facebook.com/profile.php?id=100054279920351", "email": "cafeluckan@gmail.com", "internet_access": "wlan", "internet_access:fee": "no", "level": "2", "name": "Luckan", "payment:mastercard": "yes", "payment:visa": "yes", "phone": "+46 31 343 43 40", "smoking": "no", "wheelchair": "yes"}}, {"type": "node", "id": 10285786483, "lat": 57.7354302, "lon": 12.0956128, "tags": {"addr:city": "Partille", "addr:country": "SE", "addr:housenumber": "1A", "addr:postcode": "43334", "addr:street": "Portg\u00e5ngen", "amenity": "restaurant", "cuisine": "pizza", "name": "Ibbes Pizzeria", "phone": "+46 31 449 553", "website": "https://ibbespartille.se"}}, {"type": "node", "id": 10296677852, "lat": 57.6570392, "lon": 12.1170771, "tags": {"amenity": "restaurant", "cuisine": "thai", "name": "Elmas Thaifood"}}, {"type": "node", "id": 10964993523, "lat": 57.7155744, "lon": 12.8346043}, {"type": "node", "id": 10964993524, "lat": 57.7156303, "lon": 12.834835}, {"type": "node", "id": 10964993525, "lat": 57.7157334, "lon": 12.8347465}, {"type": "node", "id": 10964993526, "lat": 57.7156833, "lon": 12.8345131}, {"type": "node", "id": 10964993528, "lat": 57.7159393, "lon": 12.8343434, "tags": {"amenity": "cafe", "name": "Ladan"}}, {"type": "node", "id": 11035822390, "lat": 57.6684126, "lon": 12.2944012}, {"type": "node", "id": 11035822391, "lat": 57.6683837, "lon": 12.2943769}, {"type": "node", "id": 11035822393, "lat": 57.6684016, "lon": 12.2942983}, {"type": "node", "id": 11063066069, "lat": 57.4910402, "lon": 12.0735629, "tags": {"amenity": "restaurant", "check_date": "2023-07-23", "cuisine": "greek", "name": "Grekiska Grill & Bar", "payment:mastercard": "yes", "payment:visa": "yes", "wheelchair": "yes"}}, {"type": "node", "id": 11063066070, "lat": 57.4911102, "lon": 12.0735784, "tags": {"amenity": "restaurant", "check_date": "2023-07-23", "cuisine": "burger", "name": "Br\u00f6dernas", "payment:mastercard": "yes", "payment:visa": "yes", "wheelchair": "yes"}}, {"type": "node", "id": 11063066071, "lat": 57.4912432, "lon": 12.0734054, "tags": {"amenity": "restaurant", "check_date": "2023-07-23", "name": "Zia Sweet & Salt"}}, {"type": "node", "id": 11291583843, "lat": 57.6617597, "lon": 12.1295267, "tags": {"amenity": "restaurant", "bar": "yes", "diet:gluten_free": "yes", "diet:vegan": "yes", "diet:vegetarian": "yes", "name": "Food Factory", "toilets": "yes"}}, {"type": "way", "id": 28049971, "nodes": [308010222, 308010224, 308010225, 308010227, 4974240811, 4974240810, 4974240812, 4974240813, 4974240815, 4974240814, 308010222], "tags": {"amenity": "cafe", "name": "Bertilssons Stuga", "website": "https://bertilssonsstuga.se/"}}, {"type": "way", "id": 59056525, "nodes": [732050962, 6420870804, 732050965, 6420870805, 732050968, 732050970, 732050962], "tags": {"amenity": "cafe", "building": "yes", "description:en": "Information on local area and small caf\u00e9 with coffee and small lunch.", "information": "office", "name": "Naturum Fj\u00e4r\u00e5s Br\u00e4cka", "tourism": "information"}}, {"type": "way", "id": 89100864, "nodes": [1033714864, 1033715171, 1033714652, 1033714523, 1033714527, 1033715057, 1033714908, 1033714441, 1033715284, 1033714487, 1033714974, 1033715289, 1033714864], "tags": {"amenity": "cafe", "building": "yes", "name": "Gunnebo Kaffehus och Krog", "opening_hours": "Jan-Jul: PH,Mo-Su 11:00-16:00; Jul-Aug: PH,Mo-Su 11:00-17:00; Sep-Dec: PH,Mo-Su 11:00-16:00"}}, {"type": "way", "id": 147040720, "nodes": [1602367203, 1602367206, 1602367202, 1602367201, 9056376863, 9056376864, 1602367203], "tags": {"addr:city": "\u00c5sa", "addr:housenumber": "7", "addr:postcode": "439 54", "addr:street": "S\u00f6rviksv\u00e4gen", "amenity": "restaurant", "building": "yes", "building:levels": "2", "cuisine": "international", "name": "Hvita Sand", "takeaway": "yes", "website": "https://hvitasand.com/"}}, {"type": "way", "id": 147816237, "nodes": [1609793899, 1609793900, 1609793905, 1609793904, 1609793899], "tags": {"amenity": "restaurant", "building": "yes", "name": "Harrys"}}, {"type": "way", "id": 150412731, "nodes": [1633336023, 1633335972, 1633335952, 1633335987, 1633336023], "tags": {"amenity": "restaurant", "building": "yes", "internet_access": "wlan", "internet_access:fee": "no", "name": "USA Today", "opening_hours": "Mo-Th 11:00-21:00; Fr 11:00-23:00; Sa 12:00-23:00; Su 12:00-21:00", "phone": "+46-31-444747", "smoking": "no", "source": "Bing Aerial", "website": "http://usarestaurang.se/"}}, {"type": "way", "id": 150412736, "nodes": [1633336037, 1633336016, 1633336000, 1633336032, 1633336037], "tags": {"amenity": "restaurant", "building": "yes", "cuisine": "thai", "name": "Dara Thai Mat", "opening_hours": "Mo-Fr 11:00-20:00; Sa-Su 12:00-20:00", "phone": "+46-31-493313", "source": "Bing Aerial", "takeaway": "yes", "website": "http://rakthaimat.se/"}}, {"type": "way", "id": 232236239, "nodes": [2406062796, 2406062790, 2406062789, 2406062795, 2406062796], "tags": {"amenity": "restaurant", "building": "yes", "name": "Kafe Manegen"}}, {"type": "way", "id": 255666269, "nodes": [2613368543, 2613368546, 2613368545, 2613368539, 2613368543], "tags": {"amenity": "restaurant", "building": "yes", "cuisine": "indian", "name": "Mantra TakeAway", "opening_hours": "Mo-Fr 11:00-20:00, Sa-Su 13:00-20:00", "phone": "+46-762-584626", "source": "Bing", "takeaway": "yes", "website": "http://mantratakeaway.com/"}}, {"type": "way", "id": 264655289, "nodes": [2703148862, 2703148864, 2703148866, 2703148868, 2703148870, 2703148872, 2703148874, 2703148875, 2703148862], "tags": {"amenity": "restaurant", "building": "yes", "name": "Matverket", "outdoor_seating": "no", "takeaway": "yes"}}, {"type": "way", "id": 296610217, "nodes": [3004041427, 4692605887, 4692605886, 4692605885, 4692605884, 4692605883, 3004041428, 3004046538, 5953377594, 3004046537, 3004046536, 3004046535, 4692605875, 4692605876, 4692605879, 4692605877, 4692605874, 4692605873, 3004041430, 4692605888, 3004041427], "tags": {"addr:city": "\u00d6jersj\u00f6", "addr:country": "SE", "addr:housenumber": "5", "addr:postcode": "43350", "addr:street": "Golfrundan", "amenity": "restaurant", "building": "yes", "name": "Partille Golfkrog", "opening_hours": "08:00-15:00"}}, {"type": "way", "id": 303606455, "nodes": [3080034450, 3080034445, 3080034442, 3080034446, 3080034450], "tags": {"amenity": "restaurant", "name": "Deli"}}, {"type": "way", "id": 303606457, "nodes": [3080034483, 3080034472, 3080034470, 3080034475, 3080034476, 3080034482, 3080034483], "tags": {"amenity": "cafe", "brand": "Espresso House", "brand:wikidata": "Q10489162", "brand:wikipedia": "sv:Espresso House", "cuisine": "coffee_shop", "indoor": "yes", "level": "1", "name": "Espresso House", "takeaway": "yes"}}, {"type": "way", "id": 303606461, "nodes": [3080034457, 3080034452, 3080034454, 3080034458, 3080034462, 3080034457], "tags": {"amenity": "cafe", "brand": "Joe & The Juice", "brand:wikidata": "Q26221514", "brand:wikipedia": "en:Joe & The Juice", "cuisine": "coffee_shop", "indoor": "yes", "level": "1", "name": "Joe & The Juice", "takeaway": "yes"}}, {"type": "way", "id": 303606462, "nodes": [3080034440, 3080034436, 3080034439, 3080034444, 3080034440], "tags": {"amenity": "restaurant", "indoor": "yes", "level": "1", "name": "O'Learys"}}, {"type": "way", "id": 303606463, "nodes": [3080034437, 3080033222, 3080033223, 3080034433, 3080034435, 3080034438, 3080034437], "tags": {"amenity": "restaurant", "indoor": "yes", "level": "1", "name": "O'Learys"}}, {"type": "way", "id": 303606468, "nodes": [3080034478, 11035822390, 11035822391, 11035822393, 3080034463, 1134446531, 3080034461, 3080034473, 3080034474, 3080034478], "tags": {"amenity": "bar", "name": "Schrimshaw Bar"}}, {"type": "way", "id": 356741381, "nodes": [3621478068, 3621478072, 3621478071, 3621478070, 3621478068], "tags": {"addr:city": "Landvetter", "addr:country": "SE", "addr:housenumber": "503", "addr:place": "Bertshult", "addr:postcode": "438 93", "alt_name": "Bertshult Caf\u00e9", "amenity": "cafe", "building": "yes", "contact:email": "samuelssonstig@telia.com", "contact:website": "http://www.sammelslantgard.se", "name": "Sammels G\u00e5rdscaf\u00e9", "produce": "vegetables;lamb", "shop": "farm", "source": "Bing", "website": "http://www.sammelslantgard.se"}}, {"type": "way", "id": 376170115, "nodes": [3796268149, 3796268151, 3796268146, 3796268145, 3796268149], "tags": {"amenity": "restaurant", "building": "yes", "delivery": "no", "image": "https://photos.app.goo.gl/Tme9adU45T2GqQbj7", "mapillary": "1182116958903775", "name": "Torpakiosken", "outdoor_seating": "yes"}}, {"type": "way", "id": 529130680, "nodes": [5140745373, 5140745372, 5140745371, 5140745374, 5140745373], "tags": {"amenity": "restaurant", "building": "yes", "cuisine": "chinese", "name": "Asien Garden"}}, {"type": "way", "id": 596126853, "nodes": [5679785999, 5679785998, 9193817742, 9193817743, 5679786003, 5679786002, 5679786004, 5679786001, 5679786005, 5679786000, 5679785999], "tags": {"addr:country": "SE", "addr:housenumber": "1", "addr:street": "Konstruktionsv\u00e4gen", "amenity": "restaurant", "building": "yes", "contact:website": "https://www.lunchrepubliken.se/", "name": "Lunchrepubliken", "smoking": "no"}}, {"type": "way", "id": 634199369, "nodes": [5985476729, 5985476730, 5985476731, 5985476732, 5985476733, 5985476734, 5985476735, 5985476736, 5985476737, 5985476738, 5985476739, 5985476740, 5985476741, 5985476742, 5985476743, 5985476744, 5985476745, 5985476746, 5985476747, 5985476748, 5985476749, 5985476729], "tags": {"addr:city": "Fj\u00e4r\u00e5s", "addr:country": "SE", "addr:housenumber": "181", "addr:postcode": "439 75", "addr:street": "F\u00f6rlandav\u00e4gen", "amenity": "restaurant", "building": "yes", "contact:website": "https://skarsgard.se/", "name": "Sk\u00e5rs G\u00e5rd"}}, {"type": "way", "id": 698532324, "nodes": [6559816427, 6559816428, 6559816431, 6559816432, 6559816429, 6559816433, 6559816430, 6559816434, 6559816427], "tags": {"addr:city": "M\u00f6lnlycke", "addr:country": "SE", "addr:housenumber": "1", "addr:postcode": "435 39", "addr:street": "Bol\u00e5sv\u00e4gen", "amenity": "restaurant", "building": "yes", "name": "Bol\u00e5s V\u00e4rdshus"}}, {"type": "way", "id": 964528418, "nodes": [8921744506, 8921744507, 8921744508, 8921744509, 8921744506], "tags": {"amenity": "restaurant", "building": "yes", "cuisine": "italian", "name": "Napoli", "stars": "0", "takeaway": "yes"}}, {"type": "way", "id": 1180612187, "nodes": [10964993523, 10964993524, 10964993525, 10964993526, 10964993523], "tags": {"amenity": "restaurant", "building": "yes", "cuisine": "pizza", "name": "Sj\u00f6markens Pizzeria", "phone": "033120080", "website": "https://sjomarkenspizzeria.se/"}}]}