{"version": 0.6, "generator": "Overpass API 0.7.61.5 4133829e", "osm3s": {"timestamp_osm_base": "2024-03-14T22:12:17Z", "copyright": "The data included in this document is from www.openstreetmap.org. The data is made available under ODbL."}, "elements": [{"type": "node", "id": 247823576, "lat": 57.708538, "lon": 11.9690246, "tags": {"amenity": "atm", "cash_in": "yes", "check_date": "2022-08-18", "created_by": "Potlatch 0.7b", "operator": "Bankomat"}}, {"type": "node", "id": 247823642, "lat": 57.7062069, "lon": 11.9678486, "tags": {"access": "private", "addr:city": "G\u00f6teborg", "addr:country": "SE", "addr:housenumber": "23A-23B", "addr:postcode": "40439", "addr:street": "\u00d6stra Hamngatan", "amenity": "bank", "branch": "Region V\u00e4st", "brand": "Handelsbanken", "brand:wikidata": "Q1421630", "brand:wikipedia": "sv:Handelsbanken", "level": "3;4", "name": "Handelsbanken", "office": "financial", "operator": "Svenska Handelsbanken AB (publ)", "short_name": "Handelsbanken RV"}}, {"type": "node", "id": 267583790, "lat": 57.6646954, "lon": 11.8741782, "tags": {"amenity": "atm"}}, {"type": "node", "id": 286068142, "lat": 57.7093873, "lon": 11.966984, "tags": {"amenity": "bank", "brand": "Nordea", "brand:wikidata": "Q1123823", "brand:wikipedia": "sv:Nordea", "name": "Nordea", "operator": "Nordea"}}, {"type": "node", "id": 286076107, "lat": 57.7085038, "lon": 11.97342, "tags": {"amenity": "atm", "brand": "Bankomat", "brand:wikipedia": "sv:Bankomat", "cash_in": "no", "check_date": "2023-08-17", "level": "0", "operator": "Bankomat AB"}}, {"type": "node", "id": 286076142, "lat": 57.7086156, "lon": 11.9729581, "tags": {"amenity": "atm", "cash_in": "no", "check_date": "2022-09-21", "level": "0", "operator": "Bankomat"}}, {"type": "node", "id": 287451212, "lat": 57.700838, "lon": 11.9535459, "tags": {"amenity": "bank", "atm": "yes", "brand": "Swedbank", "brand:wikidata": "Q1145493", "brand:wikipedia": "sv:Swedbank", "name": "Swedbank"}}, {"type": "node", "id": 290671810, "lat": 57.5609772, "lon": 11.9610399, "tags": {"amenity": "atm", "created_by": "Potlatch 0.10b"}}, {"type": "node", "id": 313791872, "lat": 57.7151292, "lon": 12.0472761, "tags": {"amenity": "atm"}}, {"type": "node", "id": 325996032, "lat": 57.6888383, "lon": 11.9743336, "tags": {"amenity": "atm", "indoor": "yes"}}, {"type": "node", "id": 392640782, "lat": 57.7167711, "lon": 11.9214666, "tags": {"amenity": "atm"}}, {"type": "node", "id": 409752615, "lat": 57.7072016, "lon": 11.9680578, "tags": {"amenity": "atm", "brand": "Bankomat", "brand:wikipedia": "sv:Bankomat", "drive_through": "no", "operator": "Bankomat AB"}}, {"type": "node", "id": 412046616, "lat": 57.7046504, "lon": 12.0070309, "tags": {"amenity": "atm", "brand": "Bankomat", "brand:wikipedia": "sv:Bankomat", "check_date": "2021-05-07", "operator": "Bankomat AB"}}, {"type": "node", "id": 412258589, "lat": 57.65505, "lon": 12.0114231, "tags": {"addr:country": "SE", "addr:housenumber": "32A", "addr:street": "Storgatan", "amenity": "bank", "atm": "yes", "brand": "Nordea", "brand:wikidata": "Q1123823", "brand:wikipedia": "sv:Nordea", "name": "Nordea", "opening_hours": "Mo 10:00-18:00; Tu-We 10:00-16:00; Th 10:00-18:00; Fr 10:00-16:00", "phone:business": "+46771335599", "phone:private": "+46771224488"}}, {"type": "node", "id": 441267961, "lat": 57.7082777, "lon": 11.9675743, "tags": {"amenity": "atm", "brand": "Bankomat", "brand:wikipedia": "sv:Bankomat", "operator": "Bankomat AB"}}, {"type": "node", "id": 508739752, "lat": 57.73321, "lon": 11.893396, "tags": {"amenity": "atm", "brand": "Bankomat", "brand:wikipedia": "sv:Bankomat", "fixme": "atm fortfarande kvar?", "operator": "Bankomat AB"}}, {"type": "node", "id": 672273124, "lat": 57.6873815, "lon": 11.9216742, "tags": {"amenity": "atm", "brand": "Bankomat", "brand:wikipedia": "sv:Bankomat", "contact:phone": "+46 10-588 90 90", "operator": "Bankomat AB", "ref": "245501"}}, {"type": "node", "id": 727537242, "lat": 57.6964999, "lon": 11.9516534, "tags": {"amenity": "atm", "brand": "Bankomat", "brand:wikipedia": "sv:Bankomat", "check_date": "2023-09-20", "contact:phone": "+46 10-588 90 90", "operator": "Bankomat AB", "ref": "200901"}}, {"type": "node", "id": 791109884, "lat": 57.7208171, "lon": 11.9538835, "tags": {"amenity": "atm", "brand": "Bankomat", "brand:wikipedia": "sv:Bankomat", "cash_in": "no", "check_date": "2023-09-25", "operator": "Bankomat AB"}}, {"type": "node", "id": 856433716, "lat": 57.7001626, "lon": 11.9757762, "tags": {"amenity": "atm", "brand": "Bankomat", "brand:wikipedia": "sv:Bankomat", "operator": "Bankomat AB"}}, {"type": "node", "id": 895197178, "lat": 57.6949316, "lon": 11.8188336, "tags": {"amenity": "atm"}}, {"type": "node", "id": 1015929956, "lat": 57.7302371, "lon": 11.9468031, "tags": {"amenity": "atm"}}, {"type": "node", "id": 1024931994, "lat": 57.7060838, "lon": 11.940594, "tags": {"amenity": "bank", "atm": "no", "branch": "Lindholmen", "brand": "Swedbank", "brand:wikidata": "Q1145493", "brand:wikipedia": "sv:Swedbank", "name": "Swedbank", "opening_hours": "Mo-Th 10:00-18:00; Fr 10:00-15:00"}}, {"type": "node", "id": 1029187441, "lat": 57.6893512, "lon": 11.995322, "tags": {"addr:country": "SE", "addr:housenumber": "22", "addr:postcode": "40020", "addr:street": "M\u00f6lndalsv\u00e4gen", "amenity": "bank", "atm": "yes", "brand": "Handelsbanken", "brand:wikidata": "Q1421630", "brand:wikipedia": "sv:Handelsbanken", "name": "Handelsbanken", "operator": "Handelsbanken"}}, {"type": "node", "id": 1052384797, "lat": 57.7278669, "lon": 11.8610448, "tags": {"amenity": "atm"}}, {"type": "node", "id": 1170431731, "lat": 57.7214768, "lon": 11.9360545, "tags": {"amenity": "atm", "location": "outdoor", "operator": "Bankomat"}}, {"type": "node", "id": 1170431733, "lat": 57.7209436, "lon": 11.9336058, "tags": {"amenity": "atm", "brand": "Bankomat", "brand:wikipedia": "sv:Bankomat", "fixme": "atm fortfarande kvar?", "operator": "Bankomat AB"}}, {"type": "node", "id": 1270656132, "lat": 57.5465012, "lon": 11.946555, "tags": {"amenity": "bank", "atm": "yes", "operator": "Swedbank"}}, {"type": "node", "id": 1275935047, "lat": 57.716418, "lon": 12.0049952, "tags": {"amenity": "atm", "check_date": "2024-02-06"}}, {"type": "node", "id": 1349579120, "lat": 57.7041527, "lon": 11.9700475, "tags": {"amenity": "atm", "brand": "Bankomat", "brand:wikipedia": "sv:Bankomat", "operator": "Bankomat AB"}}, {"type": "node", "id": 1349579123, "lat": 57.7042459, "lon": 11.9698985, "tags": {"amenity": "atm", "brand": "Bankomat", "brand:wikipedia": "sv:Bankomat", "cash_in": "yes", "operator": "Bankomat AB"}}, {"type": "node", "id": 1497906060, "lat": 57.7083269, "lon": 11.9395887, "tags": {"addr:country": "SE", "addr:postcode": "40271", "addr:street": "Lindholmsall\u00e9n", "amenity": "bank", "atm": "yes", "brand": "Handelsbanken", "brand:wikidata": "Q1421630", "brand:wikipedia": "sv:Handelsbanken", "drive_through": "no", "name": "Handelsbanken", "opening_hours": "Mo-Fr 10:00-16:00", "website": "https://www.handelsbanken.se/"}}, {"type": "node", "id": 1501494519, "lat": 57.7126912, "lon": 11.8925521, "tags": {"amenity": "atm", "brand": "Bankomat", "brand:wikipedia": "sv:Bankomat", "operator": "ICA Banken"}}, {"type": "node", "id": 1629179192, "lat": 57.7081797, "lon": 11.9676325, "tags": {"amenity": "bank", "brand": "SEB", "brand:wikidata": "Q975655", "brand:wikipedia": "sv:Skandinaviska Enskilda Banken", "level": "1", "name": "SEB", "operator": "SEB"}}, {"type": "node", "id": 1657464718, "lat": 57.6932441, "lon": 11.9709272, "tags": {"amenity": "atm", "brand": "Bankomat", "brand:wikipedia": "sv:Bankomat", "operator": "Bankomat AB"}}, {"type": "node", "id": 1673848862, "lat": 57.7080651, "lon": 11.6550551, "tags": {"amenity": "atm", "brand": "Bankomat", "brand:wikipedia": "sv:Bankomat", "check_date": "2021-08-15", "drive_through": "no", "operator": "Bankomat AB"}}, {"type": "node", "id": 1673850546, "lat": 57.6965605, "lon": 11.6510325, "tags": {"amenity": "atm", "brand": "Bankomat", "brand:wikipedia": "sv:Bankomat", "check_date": "2021-08-15", "drive_through": "no", "operator": "Bankomat AB"}}, {"type": "node", "id": 1673937925, "lat": 57.6967088, "lon": 11.6510425, "tags": {"amenity": "bank", "atm": "yes", "brand": "SEB", "brand:wikidata": "Q975655", "brand:wikipedia": "sv:Skandinaviska Enskilda Banken", "name": "SEB"}}, {"type": "node", "id": 1691294796, "lat": 57.6944047, "lon": 11.9189206, "tags": {"amenity": "atm", "brand": "Bankomat", "brand:wikipedia": "sv:Bankomat", "contact:phone": "+46 10-588 90 90", "operator": "Bankomat AB", "ref": "216301", "source": "survey"}}, {"type": "node", "id": 1899998849, "lat": 57.7193487, "lon": 12.02589, "tags": {"amenity": "atm"}}, {"type": "node", "id": 1934164665, "lat": 57.6980181, "lon": 11.9998239, "tags": {"amenity": "bank", "atm": "yes", "brand": "SEB", "brand:wikidata": "Q975655", "brand:wikipedia": "sv:Skandinaviska Enskilda Banken", "name": "SEB", "wheelchair": "limited"}}, {"type": "node", "id": 1934164675, "lat": 57.6981894, "lon": 12.0005266, "tags": {"amenity": "atm", "brand": "Bankomat", "brand:wikipedia": "sv:Bankomat", "operator": "Bankomat AB", "wheelchair": "yes"}}, {"type": "node", "id": 2025011585, "lat": 57.704416, "lon": 11.968969, "tags": {"amenity": "bank", "atm": "no", "brand": "Danske Bank", "brand:wikidata": "Q1636974", "brand:wikipedia": "sv:Danske Bank", "drive_through": "no", "name": "Danske Bank", "opening_hours": "Mo-Fr 08:00-17:00", "website": "https://www.danskebank.se/"}}, {"type": "node", "id": 2033520029, "lat": 57.7000772, "lon": 11.9759033, "tags": {"amenity": "bank", "name": "Forex Bank", "opening_hours": "Mo-Fr 09:00-19:00; Sa 10:00-15:00"}}, {"type": "node", "id": 2033520047, "lat": 57.7013001, "lon": 11.9741353, "tags": {"addr:city": "G\u00f6teborg", "addr:country": "SE", "addr:housenumber": "10", "addr:postcode": "41136", "addr:street": "Kungsportsavenyen", "amenity": "bank", "atm": "yes", "brand": "Handelsbanken", "brand:wikidata": "Q1421630", "brand:wikipedia": "sv:Handelsbanken", "name": "Handelsbanken", "operator": "Handelsbanken"}}, {"type": "node", "id": 2033520123, "lat": 57.700259, "lon": 11.975654, "tags": {"amenity": "bank", "brand": "SEB", "brand:wikidata": "Q975655", "brand:wikipedia": "sv:Skandinaviska Enskilda Banken", "name": "SEB", "opening_hours": "Mo-We,Fr 10:00-15:00; Th 10:00-18:00"}}, {"type": "node", "id": 2033520126, "lat": 57.69908, "lon": 11.977328, "tags": {"amenity": "bank", "brand": "Handelsbanken", "brand:wikidata": "Q1421630", "check_date": "2022-12-11", "level": "1", "name": "Handelsbanken"}}, {"type": "node", "id": 2041695051, "lat": 57.709081, "lon": 11.920327, "tags": {"addr:city": "G\u00f6teborg", "addr:country": "SE", "addr:housenumber": "5", "addr:postcode": "41761", "addr:street": "Kolhamnsgatan", "amenity": "bank", "atm": "yes", "branch": "Eriksberg", "brand": "Handelsbanken", "brand:wikidata": "Q1421630", "brand:wikipedia": "sv:Handelsbanken", "name": "Handelsbanken", "opening_hours": "Mo-Th 09:30-18:00; Fr 09:30-15:00", "operator": "Handelsbanken"}}, {"type": "node", "id": 2078806869, "lat": 57.7009849, "lon": 11.9735876, "tags": {"amenity": "bank", "brand": "Nordea", "brand:wikidata": "Q1123823", "brand:wikipedia": "sv:Nordea", "name": "Nordea"}}, {"type": "node", "id": 2110449676, "lat": 57.712076, "lon": 11.9077179, "tags": {"amenity": "atm"}}, {"type": "node", "id": 2137607193, "lat": 57.701835, "lon": 11.974715, "tags": {"amenity": "bank", "brand": "Swedbank", "brand:wikidata": "Q1145493", "brand:wikipedia": "sv:Swedbank", "name": "Swedbank"}}, {"type": "node", "id": 2137607226, "lat": 57.7019413, "lon": 11.9745044, "tags": {"amenity": "atm", "brand": "Bankomat", "brand:wikipedia": "sv:Bankomat", "operator": "Bankomat AB"}}, {"type": "node", "id": 2144014674, "lat": 57.7052544, "lon": 11.9711837, "tags": {"amenity": "atm", "brand": "Bankomat", "brand:wikipedia": "sv:Bankomat", "check_date": "2021-08-15", "operator": "Bankomat AB"}}, {"type": "node", "id": 2152022663, "lat": 57.7047858, "lon": 11.9702774, "tags": {"amenity": "bank", "name": "Forex Bank", "opening_hours": "Mo-Fr 10:00-18:00; Sa 10:00-15:00"}}, {"type": "node", "id": 2154571600, "lat": 57.704227, "lon": 11.96649, "tags": {"amenity": "atm", "brand": "Bankomat", "brand:wikipedia": "sv:Bankomat", "check_date": "2023-09-26", "drive_through": "no", "operator": "Bankomat AB"}}, {"type": "node", "id": 2163840886, "lat": 57.7054811, "lon": 11.9626927, "tags": {"amenity": "bank", "brand": "Nordea", "brand:wikidata": "Q1123823", "brand:wikipedia": "sv:Nordea", "name": "Nordea", "opening_hours": "Mo-Fr 10:00-16:00"}}, {"type": "node", "id": 2163840927, "lat": 57.7037964, "lon": 11.9642167, "tags": {"amenity": "atm", "brand": "Bankomat", "brand:wikipedia": "sv:Bankomat", "operator": "Bankomat AB"}}, {"type": "node", "id": 2165234282, "lat": 57.7236243, "lon": 11.9545339, "tags": {"amenity": "atm", "brand": "Bankomat", "brand:wikipedia": "sv:Bankomat", "operator": "Bankomat AB"}}, {"type": "node", "id": 2165497414, "lat": 57.6515596, "lon": 11.9118379, "tags": {"amenity": "bank", "brand": "Nordea", "brand:wikidata": "Q1123823", "brand:wikipedia": "sv:Nordea", "layer": "2", "name": "Nordea"}}, {"type": "node", "id": 2165497423, "lat": 57.6515846, "lon": 11.9118288, "tags": {"amenity": "atm", "brand": "Bankomat", "brand:wikipedia": "sv:Bankomat", "layer": "2", "operator": "Bankomat AB"}}, {"type": "node", "id": 2168909972, "lat": 57.698466, "lon": 11.9672773, "tags": {"amenity": "atm", "brand": "Bankomat", "brand:wikipedia": "sv:Bankomat", "cash_in": "no", "contact:phone": "+46 10-588 90 90", "operator": "Bankomat AB", "ref": "216401"}}, {"type": "node", "id": 2203059570, "lat": 57.7236325, "lon": 11.954545, "tags": {"amenity": "atm", "operator": "Kontanten"}}, {"type": "node", "id": 2217514977, "lat": 57.7125542, "lon": 11.9668329, "tags": {"addr:city": "G\u00f6teborg", "addr:country": "SE", "addr:housenumber": "2", "addr:street": "Lilla Bommen", "amenity": "bank", "atm": "yes", "brand": "Handelsbanken", "brand:wikidata": "Q1421630", "brand:wikipedia": "sv:Handelsbanken", "name": "Handelsbanken", "website": "https://www.handelsbanken.se/lilla_bommen"}}, {"type": "node", "id": 2244866499, "lat": 57.706508, "lon": 11.938444, "tags": {"amenity": "atm", "brand": "Bankomat", "brand:wikipedia": "sv:Bankomat", "opening_hours": "Mo,We-Fr 10:00-15:00; Tu 10:00-18:00", "operator": "Bankomat AB"}}, {"type": "node", "id": 2249151971, "lat": 57.7062903, "lon": 11.9692053, "tags": {"amenity": "atm"}}, {"type": "node", "id": 2287945248, "lat": 57.716003, "lon": 11.910226, "tags": {"amenity": "atm", "brand": "Bankomat", "brand:wikipedia": "sv:Bankomat", "cash_in": "no", "check_date": "2022-03-05", "operator": "Bankomat AB"}}, {"type": "node", "id": 2315926261, "lat": 57.7015285, "lon": 11.9609508, "tags": {"amenity": "atm", "brand": "Bankomat", "brand:wikipedia": "sv:Bankomat", "fixme": "atm fortfarande kvar?", "operator": "Bankomat AB"}}, {"type": "node", "id": 2318390719, "lat": 57.7060928, "lon": 11.9665662, "tags": {"amenity": "bank", "brand": "Danske Bank", "brand:wikidata": "Q1636974", "brand:wikipedia": "sv:Danske Bank", "name": "Danske Bank", "operator": "Danske Bank"}}, {"type": "node", "id": 2318390758, "lat": 57.7060393, "lon": 11.9662012, "tags": {"amenity": "bank", "brand": "Swedbank", "brand:wikidata": "Q1145493", "brand:wikipedia": "sv:Swedbank", "name": "Swedbank", "opening_hours": "Mo-Fr 09:00-16:00"}}, {"type": "node", "id": 2318390766, "lat": 57.7064995, "lon": 11.9689857, "tags": {"amenity": "atm", "cash_in": "no", "check_date": "2023-06-15", "indoor": "no", "operator": "Bankomat"}}, {"type": "node", "id": 2466927542, "lat": 57.7209188, "lon": 11.9335527, "tags": {"amenity": "bank", "atm": "yes", "brand": "Nordea", "brand:wikidata": "Q1123823", "brand:wikipedia": "sv:Nordea", "name": "Nordea"}}, {"type": "node", "id": 2468128473, "lat": 57.7099364, "lon": 11.7740861, "tags": {"amenity": "bank", "atm": "yes", "brand": "Handelsbanken", "brand:wikidata": "Q1421630", "brand:wikipedia": "sv:Handelsbanken", "name": "Handelsbanken"}}, {"type": "node", "id": 2468128478, "lat": 57.7099454, "lon": 11.7743256, "tags": {"amenity": "bank", "atm": "yes", "brand": "Nordea", "brand:wikidata": "Q1123823", "brand:wikipedia": "sv:Nordea", "name": "Nordea"}}, {"type": "node", "id": 2468128482, "lat": 57.7099448, "lon": 11.7741626, "tags": {"amenity": "atm"}}, {"type": "node", "id": 2469279868, "lat": 57.5991114, "lon": 11.9532856, "tags": {"amenity": "atm", "check_date": "2022-05-28"}}, {"type": "node", "id": 2931105401, "lat": 57.7217829, "lon": 11.9524397, "tags": {"amenity": "atm", "operator": "Bankomat"}}, {"type": "node", "id": 2932698002, "lat": 57.719601, "lon": 11.944878, "tags": {"amenity": "bank", "brand": "Nordea", "brand:wikidata": "Q1123823", "brand:wikipedia": "sv:Nordea", "name": "Nordea", "opening_hours": "Mo 10:00-18:00; Tu-We 10:00-16:00; Th 10:00-18:00; Fr 10:00-16:00"}}, {"type": "node", "id": 2932698003, "lat": 57.719629, "lon": 11.9449, "tags": {"amenity": "atm"}}, {"type": "node", "id": 2932698901, "lat": 57.719542, "lon": 11.944881, "tags": {"amenity": "atm"}}, {"type": "node", "id": 2947519633, "lat": 57.704731, "lon": 11.992801, "tags": {"amenity": "atm"}}, {"type": "node", "id": 3104126476, "lat": 57.7196606, "lon": 11.8484656, "tags": {"amenity": "bank", "atm": "no", "brand": "SEB", "brand:wikidata": "Q975655", "brand:wikipedia": "sv:Skandinaviska Enskilda Banken", "name": "SEB", "opening_hours": "Mo 10:00-17:30; Tu-Fr 10:00-16:00"}}, {"type": "node", "id": 3104126483, "lat": 57.7196734, "lon": 11.8484758, "tags": {"amenity": "atm", "brand": "Bankomat", "brand:wikipedia": "sv:Bankomat", "fixme": "atm fortfarande kvar?", "opening_hours": "Mo-Su 06:00-01:00", "operator": "Bankomat AB"}}, {"type": "node", "id": 3105082731, "lat": 57.727823, "lon": 11.861154, "tags": {"amenity": "bank", "brand": "Handelsbanken", "brand:wikidata": "Q1421630", "brand:wikipedia": "sv:Handelsbanken", "drive_through": "no", "name": "Handelsbanken", "opening_hours": "Mo-We 09:30-16:00; Th 07:30-16:00; Fr 09:30-16:00"}}, {"type": "node", "id": 3148902029, "lat": 57.7098617, "lon": 11.9292886, "tags": {"amenity": "atm", "operator": "ICA Banken"}}, {"type": "node", "id": 3173338053, "lat": 57.7092846, "lon": 11.9723403, "tags": {"amenity": "atm", "cash_in": "yes", "check_date": "2023-12-26", "level": "0", "operator": "Bankomat"}}, {"type": "node", "id": 3668973677, "lat": 57.721689, "lon": 11.952543, "tags": {"amenity": "atm", "check_date": "2023-04-12"}}, {"type": "node", "id": 4073958548, "lat": 57.7006716, "lon": 11.9465269, "tags": {"amenity": "bank", "atm": "yes", "brand": "Handelsbanken", "brand:wikidata": "Q1421630", "brand:wikipedia": "sv:Handelsbanken", "name": "Handelsbanken", "operator": "Svenska Handelsbanken AB (publ)", "wheelchair": "no"}}, {"type": "node", "id": 4073958549, "lat": 57.6995411, "lon": 11.946512, "tags": {"amenity": "atm", "brand": "Bankomat", "brand:wikipedia": "sv:Bankomat", "contact:phone": "+46 10-588 90 90", "operator": "Bankomat AB", "ref": "224501"}}, {"type": "node", "id": 4426166031, "lat": 57.7045934, "lon": 12.0070442, "tags": {"addr:city": "G\u00f6teborg", "addr:country": "SE", "addr:housenumber": "1", "addr:street": "Pr\u00e4stg\u00e5rds\u00e4ngen", "amenity": "bank", "name": "Handelsbanken", "website": "https://www.handelsbanken.se/orgryte"}}, {"type": "node", "id": 4520847095, "lat": 57.6508685, "lon": 11.9109334, "tags": {"amenity": "atm"}}, {"type": "node", "id": 4520847292, "lat": 57.6506746, "lon": 11.9110647, "tags": {"amenity": "bank", "level": "1", "name": "Forex Bank"}}, {"type": "node", "id": 4537401111, "lat": 57.6711896, "lon": 11.9283304, "tags": {"amenity": "atm", "brand": "Bankomat", "brand:wikipedia": "sv:Bankomat", "cash_in": "no", "check_date": "2022-08-08", "operator": "Bankomat AB"}}, {"type": "node", "id": 4895552207, "lat": 57.646181, "lon": 11.9158171}, {"type": "node", "id": 4895552208, "lat": 57.646113, "lon": 11.9163246}, {"type": "node", "id": 4895552209, "lat": 57.6458345, "lon": 11.9163394}, {"type": "node", "id": 4895552210, "lat": 57.6458466, "lon": 11.9156945}, {"type": "node", "id": 4895552211, "lat": 57.646127, "lon": 11.9161187}, {"type": "node", "id": 4895552212, "lat": 57.6458444, "lon": 11.9159973}, {"type": "node", "id": 4895552213, "lat": 57.6459986, "lon": 11.9157048}, {"type": "node", "id": 4930321840, "lat": 57.6721589, "lon": 11.8800871, "tags": {"amenity": "bank", "atm": "yes", "branch": "\u00c4lvsborg", "brand": "Handelsbanken", "brand:wikidata": "Q1421630", "contact:website": "https://www.handelsbanken.se/sv/hitta-bankkontor/alvsborg", "name": "Handelsbanken", "operator": "Handelsbanken", "ref": "6247"}}, {"type": "node", "id": 5088316005, "lat": 57.7058526, "lon": 11.9679896, "tags": {"access": "customers", "amenity": "bank", "atm": "no", "branch": "G\u00f6teborg City", "brand": "Handelsbanken", "brand:wikidata": "Q1421630", "brand:wikipedia": "sv:Handelsbanken", "contact:email": "goteborg.city@handelsbanken.se", "contact:website": "www.handelsbanken.se/goteborg_city", "level": "2", "name": "Handelsbanken", "operator": "Svenska Handelsbanken AB (publ)"}}, {"type": "node", "id": 5177313238, "lat": 57.6410597, "lon": 11.9475782, "tags": {"amenity": "bank", "atm": "yes", "branch": "G\u00f6teborg Sisj\u00f6n", "brand": "Handelsbanken", "brand:wikidata": "Q1421630", "name": "Handelsbanken"}}, {"type": "node", "id": 5586794434, "lat": 57.6990943, "lon": 11.9351561, "tags": {"amenity": "atm", "brand": "Bankomat", "brand:wikipedia": "sv:Bankomat", "cash_in": "no", "contact:phone": "+46 10-588 90 90", "operator": "Bankomat AB", "ref": "269701"}}, {"type": "node", "id": 5633396421, "lat": 57.7062471, "lon": 11.9573949, "tags": {"amenity": "atm", "opening_hours": "24/7", "wheelchair": "yes"}}, {"type": "node", "id": 5764479229, "lat": 57.660949, "lon": 11.8431097, "tags": {"amenity": "atm", "currency:SEK": "yes", "operator": "Bankomat AB"}}, {"type": "node", "id": 5873176891, "lat": 57.652244, "lon": 11.9872937, "tags": {"amenity": "bank", "atm": "no", "brand": "Handelsbanken", "name": "Handelsbanken", "opening_hours": "Mo-We 10:00-16:00; Th 10:00-18:00; Fr 10:00-15:00", "operator": "Handelsbanken"}}, {"type": "node", "id": 6282045443, "lat": 57.7136366, "lon": 11.7837049, "tags": {"amenity": "atm", "brand": "Bankomat", "brand:wikipedia": "sv:Bankomat", "operator": "Bankomat AB"}}, {"type": "node", "id": 6855460683, "lat": 57.6095021, "lon": 12.044414, "tags": {"amenity": "atm"}}, {"type": "node", "id": 7150710097, "lat": 57.6734399, "lon": 12.0097149, "tags": {"amenity": "bank", "brand": "Swedbank", "brand:wikidata": "Q1145493", "brand:wikipedia": "sv:Swedbank", "name": "Swedbank"}}, {"type": "node", "id": 7345353627, "lat": 57.6425599, "lon": 11.9473945, "tags": {"amenity": "bank", "atm": "yes", "brand": "Danske Bank", "brand:wikidata": "Q1636974", "name": "Danske Bank"}}, {"type": "node", "id": 9041848386, "lat": 57.6692347, "lon": 12.0105264, "tags": {"amenity": "bank", "brand": "SEB", "brand:wikidata": "Q975655", "brand:wikipedia": "sv:Skandinaviska Enskilda Banken", "name": "SEB"}}, {"type": "node", "id": 9041848559, "lat": 57.6691906, "lon": 12.0105324, "tags": {"amenity": "atm", "atm": "yes"}}, {"type": "node", "id": 9971989821, "lat": 57.6988265, "lon": 11.9693359, "tags": {"amenity": "atm", "operator": "Kontanten"}}, {"type": "node", "id": 9971989822, "lat": 57.6993898, "lon": 11.9519073, "tags": {"amenity": "atm", "operator": "Kontanten", "wheelchair": "yes"}}, {"type": "node", "id": 9971989823, "lat": 57.6971094, "lon": 11.9514419, "tags": {"amenity": "atm", "operator": "Kontanten"}}, {"type": "node", "id": 9971989824, "lat": 57.6927396, "lon": 11.9513118, "tags": {"amenity": "atm", "operator": "Kontanten"}}, {"type": "node", "id": 10039703612, "lat": 57.6974536, "lon": 11.9876503, "tags": {"amenity": "atm", "check_date": "2022-09-20"}}, {"type": "node", "id": 10042944620, "lat": 57.7145042, "lon": 11.9991227, "tags": {"amenity": "atm", "check_date": "2023-06-26", "drive_through": "no"}}, {"type": "node", "id": 10541881823, "lat": 57.6411756, "lon": 11.9475735, "tags": {"amenity": "bank", "brand": "Nordea", "brand:wikidata": "Q1123823", "name": "Nordea"}}, {"type": "node", "id": 10887304024, "lat": 57.6817521, "lon": 12.000822, "tags": {"amenity": "atm"}}, {"type": "node", "id": 11662867258, "lat": 57.6481828, "lon": 11.9136981, "tags": {"addr:city": "V\u00e4stra Fr\u00f6lunda", "addr:country": "SE", "addr:housenumber": "3", "addr:postcode": "421 48", "addr:street": "Topasgatan", "amenity": "bank", "brand": "Handelsbanken", "name": "Handelsbanken Fr\u00f6lunda", "opening_hours": "Mo 10:00-18:00; Tu-Fr 10:00-15:00"}}, {"type": "way", "id": 498075326, "nodes": [4895552207, 4895552211, 4895552208, 4895552209, 4895552212, 4895552210, 4895552213, 4895552207], "tags": {"addr:city": "V\u00e4stra Fr\u00f6lunda", "addr:country": "SE", "addr:housenumber": "1", "addr:postcode": "42148", "addr:street": "Topasgatan", "amenity": "bank", "brand": "Swedbank", "brand:wikidata": "Q1145493", "brand:wikipedia": "sv:Swedbank", "building": "yes", "name": "Swedbank"}}]}