{
"type": "FeatureCollection",
"crs": { "type": "name", "properties": { "name": "urn:ogc:def:crs:OGC:1.3:CRS84" } },
"features": [
{ "type": "Feature", "properties": { "element_type": "node", "osmid": 315517399, "amenity": "atm", "brand": "Bankomat", "opening_hours": "24/7", "operator": "Bankomat AB", "wheelchair": "yes", "addr:city": null, "addr:country": null, "addr:housenumber": null, "addr:street": null, "atm": null, "brand:wikidata": null, "brand:wikipedia": null, "name": null, "cash_in": null, "check_date": null, "addr:postcode": null, "check_date:opening_hours": null, "phone": null, "currency:SEK": null, "indoor": null, "level": null, "nodes": null, "building": null, "office": null, "room": null }, "geometry": { "type": "Point", "coordinates": [ 15.6783825, 58.4263283 ] } },
{ "type": "Feature", "properties": { "element_type": "node", "osmid": 430816459, "amenity": "bank", "brand": "SEB", "opening_hours": "Mo-Fr 10:00-13:00", "operator": null, "wheelchair": null, "addr:city": "Linköping", "addr:country": "SE", "addr:housenumber": "5", "addr:street": "Stora torget", "atm": "yes", "brand:wikidata": "Q975655", "brand:wikipedia": "sv:Skandinaviska Enskilda Banken", "name": "SEB", "cash_in": null, "check_date": null, "addr:postcode": null, "check_date:opening_hours": null, "phone": null, "currency:SEK": null, "indoor": null, "level": null, "nodes": null, "building": null, "office": null, "room": null }, "geometry": { "type": "Point", "coordinates": [ 15.6209222, 58.4109112 ] } },
{ "type": "Feature", "properties": { "element_type": "node", "osmid": 452236317, "amenity": "bank", "brand": "Danske Bank", "opening_hours": null, "operator": null, "wheelchair": null, "addr:city": "Linköping", "addr:country": "SE", "addr:housenumber": "1", "addr:street": "Gottorpsgatan", "atm": null, "brand:wikidata": "Q1636974", "brand:wikipedia": "sv:Danske Bank", "name": "Danske Bank", "cash_in": null, "check_date": null, "addr:postcode": null, "check_date:opening_hours": null, "phone": null, "currency:SEK": null, "indoor": null, "level": null, "nodes": null, "building": null, "office": null, "room": null }, "geometry": { "type": "Point", "coordinates": [ 15.6119011, 58.4281817 ] } },
{ "type": "Feature", "properties": { "element_type": "node", "osmid": 582718223, "amenity": "atm", "brand": null, "opening_hours": "24/7", "operator": null, "wheelchair": null, "addr:city": null, "addr:country": null, "addr:housenumber": null, "addr:street": null, "atm": null, "brand:wikidata": null, "brand:wikipedia": null, "name": "Bankomat", "cash_in": "no", "check_date": "2024-01-26", "addr:postcode": null, "check_date:opening_hours": null, "phone": null, "currency:SEK": null, "indoor": null, "level": null, "nodes": null, "building": null, "office": null, "room": null }, "geometry": { "type": "Point", "coordinates": [ 15.6253596, 58.416264 ] } },
{ "type": "Feature", "properties": { "element_type": "node", "osmid": 616765356, "amenity": "atm", "brand": null, "opening_hours": null, "operator": null, "wheelchair": null, "addr:city": null, "addr:country": null, "addr:housenumber": null, "addr:street": null, "atm": null, "brand:wikidata": null, "brand:wikipedia": null, "name": null, "cash_in": null, "check_date": null, "addr:postcode": null, "check_date:opening_hours": null, "phone": null, "currency:SEK": null, "indoor": null, "level": null, "nodes": null, "building": null, "office": null, "room": null }, "geometry": { "type": "Point", "coordinates": [ 15.5826993, 58.4275716 ] } },
{ "type": "Feature", "properties": { "element_type": "node", "osmid": 634123148, "amenity": "bank", "brand": "Swedbank", "opening_hours": "Mo-We 10:00-15:00; Th 10:00-18:00; Fr 10:00-15:00", "operator": null, "wheelchair": null, "addr:city": "Linköping", "addr:country": "SE", "addr:housenumber": "23A", "addr:street": "Repslagaregatan", "atm": null, "brand:wikidata": "Q1145493", "brand:wikipedia": "sv:Swedbank", "name": "Swedbank", "cash_in": null, "check_date": null, "addr:postcode": "582 22", "check_date:opening_hours": "2021-10-17", "phone": "+46 13-31 90 00", "currency:SEK": null, "indoor": null, "level": null, "nodes": null, "building": null, "office": null, "room": null }, "geometry": { "type": "Point", "coordinates": [ 15.6269725, 58.4110914 ] } },
{ "type": "Feature", "properties": { "element_type": "node", "osmid": 634123151, "amenity": "bank", "brand": null, "opening_hours": "Mo-Fr 10:00-18:00; Sa 10:00-16:00; Su 12:00-16:00", "operator": null, "wheelchair": "yes", "addr:city": null, "addr:country": "SE", "addr:housenumber": "34", "addr:street": "Storgatan", "atm": null, "brand:wikidata": null, "brand:wikipedia": null, "name": "Forex Bank", "cash_in": null, "check_date": null, "addr:postcode": "582 23", "check_date:opening_hours": null, "phone": null, "currency:SEK": null, "indoor": null, "level": null, "nodes": null, "building": null, "office": null, "room": null }, "geometry": { "type": "Point", "coordinates": [ 15.6254286, 58.4109662 ] } },
{ "type": "Feature", "properties": { "element_type": "node", "osmid": 738673236, "amenity": "atm", "brand": null, "opening_hours": null, "operator": null, "wheelchair": null, "addr:city": null, "addr:country": null, "addr:housenumber": null, "addr:street": null, "atm": null, "brand:wikidata": null, "brand:wikipedia": null, "name": null, "cash_in": null, "check_date": "2021-02-13", "addr:postcode": null, "check_date:opening_hours": null, "phone": null, "currency:SEK": "yes", "indoor": null, "level": null, "nodes": null, "building": null, "office": null, "room": null }, "geometry": { "type": "Point", "coordinates": [ 15.5651016, 58.3883475 ] } },
{ "type": "Feature", "properties": { "element_type": "node", "osmid": 841102233, "amenity": "atm", "brand": "Bankomat", "opening_hours": null, "operator": "Bankomat AB", "wheelchair": null, "addr:city": null, "addr:country": null, "addr:housenumber": null, "addr:street": null, "atm": null, "brand:wikidata": null, "brand:wikipedia": null, "name": "Bankomat", "cash_in": "yes", "check_date": null, "addr:postcode": null, "check_date:opening_hours": null, "phone": null, "currency:SEK": null, "indoor": "yes", "level": null, "nodes": null, "building": null, "office": null, "room": null }, "geometry": { "type": "Point", "coordinates": [ 15.679741, 58.3806884 ] } },
{ "type": "Feature", "properties": { "element_type": "node", "osmid": 907846502, "amenity": "atm", "brand": "Kontanten", "opening_hours": "24/7", "operator": "Nokas", "wheelchair": null, "addr:city": null, "addr:country": null, "addr:housenumber": null, "addr:street": null, "atm": null, "brand:wikidata": null, "brand:wikipedia": null, "name": null, "cash_in": "no", "check_date": null, "addr:postcode": null, "check_date:opening_hours": null, "phone": null, "currency:SEK": null, "indoor": null, "level": null, "nodes": null, "building": null, "office": null, "room": null }, "geometry": { "type": "Point", "coordinates": [ 15.6205115, 58.4119012 ] } },
{ "type": "Feature", "properties": { "element_type": "node", "osmid": 1162999656, "amenity": "atm", "brand": null, "opening_hours": "24/7", "operator": "Nordea", "wheelchair": null, "addr:city": null, "addr:country": null, "addr:housenumber": null, "addr:street": null, "atm": null, "brand:wikidata": null, "brand:wikipedia": null, "name": "Bankomat", "cash_in": null, "check_date": "2021-03-21", "addr:postcode": null, "check_date:opening_hours": null, "phone": null, "currency:SEK": null, "indoor": null, "level": null, "nodes": null, "building": null, "office": null, "room": null }, "geometry": { "type": "Point", "coordinates": [ 15.6238158, 58.4098372 ] } },
{ "type": "Feature", "properties": { "element_type": "node", "osmid": 1169989657, "amenity": "bank", "brand": "Handelsbanken", "opening_hours": "Th 10:00-18:00; Mo-We,Fr 10:00-15:00", "operator": null, "wheelchair": null, "addr:city": "Linköping", "addr:country": "SE", "addr:housenumber": "1", "addr:street": "Farbror Mellins Torg", "atm": null, "brand:wikidata": "Q1421630", "brand:wikipedia": "sv:Handelsbanken", "name": "Handelsbanken", "cash_in": null, "check_date": null, "addr:postcode": null, "check_date:opening_hours": null, "phone": null, "currency:SEK": null, "indoor": null, "level": null, "nodes": null, "building": null, "office": null, "room": null }, "geometry": { "type": "Point", "coordinates": [ 15.6271542, 58.4122767 ] } },
{ "type": "Feature", "properties": { "element_type": "node", "osmid": 1393875699, "amenity": "atm", "brand": null, "opening_hours": null, "operator": "ICA Banken", "wheelchair": null, "addr:city": null, "addr:country": null, "addr:housenumber": null, "addr:street": null, "atm": null, "brand:wikidata": null, "brand:wikipedia": null, "name": null, "cash_in": "no", "check_date": "2021-02-05", "addr:postcode": null, "check_date:opening_hours": null, "phone": null, "currency:SEK": null, "indoor": "yes", "level": null, "nodes": null, "building": null, "office": null, "room": null }, "geometry": { "type": "Point", "coordinates": [ 15.6624502, 58.3956011 ] } },
{ "type": "Feature", "properties": { "element_type": "node", "osmid": 1595788736, "amenity": "atm", "brand": null, "opening_hours": "24/7", "operator": null, "wheelchair": null, "addr:city": null, "addr:country": null, "addr:housenumber": null, "addr:street": null, "atm": null, "brand:wikidata": null, "brand:wikipedia": null, "name": "Kontanten Uttag", "cash_in": null, "check_date": "2021-08-22", "addr:postcode": null, "check_date:opening_hours": null, "phone": null, "currency:SEK": null, "indoor": null, "level": null, "nodes": null, "building": null, "office": null, "room": null }, "geometry": { "type": "Point", "coordinates": [ 15.6254831, 58.4090073 ] } },
{ "type": "Feature", "properties": { "element_type": "node", "osmid": 1608663869, "amenity": "atm", "brand": "Kontanten", "opening_hours": "24/7", "operator": "Nokas", "wheelchair": "yes", "addr:city": null, "addr:country": null, "addr:housenumber": null, "addr:street": null, "atm": null, "brand:wikidata": null, "brand:wikipedia": null, "name": null, "cash_in": null, "check_date": "2020-12-16", "addr:postcode": null, "check_date:opening_hours": null, "phone": null, "currency:SEK": null, "indoor": null, "level": null, "nodes": null, "building": null, "office": null, "room": null }, "geometry": { "type": "Point", "coordinates": [ 15.6245376, 58.3913281 ] } },
{ "type": "Feature", "properties": { "element_type": "node", "osmid": 4075443810, "amenity": "atm", "brand": "Bankomat", "opening_hours": null, "operator": "Bankomat AB", "wheelchair": null, "addr:city": null, "addr:country": null, "addr:housenumber": null, "addr:street": null, "atm": null, "brand:wikidata": null, "brand:wikipedia": null, "name": null, "cash_in": null, "check_date": null, "addr:postcode": null, "check_date:opening_hours": null, "phone": null, "currency:SEK": null, "indoor": null, "level": null, "nodes": null, "building": null, "office": null, "room": null }, "geometry": { "type": "Point", "coordinates": [ 15.5780023, 58.4007629 ] } },
{ "type": "Feature", "properties": { "element_type": "node", "osmid": 4095706816, "amenity": "atm", "brand": null, "opening_hours": null, "operator": "Bankomat AB", "wheelchair": null, "addr:city": null, "addr:country": null, "addr:housenumber": null, "addr:street": null, "atm": null, "brand:wikidata": null, "brand:wikipedia": null, "name": null, "cash_in": null, "check_date": "2021-08-05", "addr:postcode": null, "check_date:opening_hours": null, "phone": null, "currency:SEK": null, "indoor": null, "level": null, "nodes": null, "building": null, "office": null, "room": null }, "geometry": { "type": "Point", "coordinates": [ 15.6209936, 58.4108625 ] } },
{ "type": "Feature", "properties": { "element_type": "node", "osmid": 4158417269, "amenity": "atm", "brand": null, "opening_hours": "24/7", "operator": "Bankomat AB", "wheelchair": "yes", "addr:city": null, "addr:country": null, "addr:housenumber": null, "addr:street": null, "atm": null, "brand:wikidata": null, "brand:wikipedia": null, "name": null, "cash_in": null, "check_date": null, "addr:postcode": null, "check_date:opening_hours": null, "phone": null, "currency:SEK": null, "indoor": null, "level": null, "nodes": null, "building": null, "office": null, "room": null }, "geometry": { "type": "Point", "coordinates": [ 15.5630006, 58.4089464 ] } },
{ "type": "Feature", "properties": { "element_type": "node", "osmid": 4646007680, "amenity": "bank", "brand": "Nordea", "opening_hours": "Mo-Fr 10:00-15:00", "operator": null, "wheelchair": null, "addr:city": "Linköping", "addr:country": "SE", "addr:housenumber": "30", "addr:street": "Nygatan", "atm": "no", "brand:wikidata": "Q1123823", "brand:wikipedia": "sv:Nordea", "name": "Nordea", "cash_in": null, "check_date": null, "addr:postcode": null, "check_date:opening_hours": "2021-03-22", "phone": null, "currency:SEK": null, "indoor": null, "level": null, "nodes": null, "building": null, "office": null, "room": null }, "geometry": { "type": "Point", "coordinates": [ 15.623748, 58.4097633 ] } },
{ "type": "Feature", "properties": { "element_type": "node", "osmid": 4813914985, "amenity": "atm", "brand": null, "opening_hours": null, "operator": "Bankomat AB", "wheelchair": null, "addr:city": null, "addr:country": null, "addr:housenumber": null, "addr:street": null, "atm": null, "brand:wikidata": null, "brand:wikipedia": null, "name": null, "cash_in": "no", "check_date": "2024-01-02", "addr:postcode": null, "check_date:opening_hours": null, "phone": null, "currency:SEK": null, "indoor": "no", "level": null, "nodes": null, "building": null, "office": null, "room": null }, "geometry": { "type": "Point", "coordinates": [ 15.6429254, 58.3923352 ] } },
{ "type": "Feature", "properties": { "element_type": "node", "osmid": 4881547324, "amenity": "atm", "brand": "Icabanken", "opening_hours": "24/7", "operator": "ICA Banken", "wheelchair": null, "addr:city": null, "addr:country": null, "addr:housenumber": null, "addr:street": null, "atm": null, "brand:wikidata": null, "brand:wikipedia": null, "name": null, "cash_in": null, "check_date": "2021-04-12", "addr:postcode": null, "check_date:opening_hours": null, "phone": null, "currency:SEK": null, "indoor": null, "level": null, "nodes": null, "building": null, "office": null, "room": null }, "geometry": { "type": "Point", "coordinates": [ 15.5916989, 58.43192 ] } },
{ "type": "Feature", "properties": { "element_type": "node", "osmid": 8406283124, "amenity": "atm", "brand": "Ica Banken", "opening_hours": null, "operator": "Ica Banken", "wheelchair": null, "addr:city": null, "addr:country": null, "addr:housenumber": null, "addr:street": null, "atm": null, "brand:wikidata": null, "brand:wikipedia": null, "name": null, "cash_in": "no", "check_date": "2023-11-05", "addr:postcode": null, "check_date:opening_hours": null, "phone": null, "currency:SEK": null, "indoor": "yes", "level": null, "nodes": null, "building": null, "office": null, "room": null }, "geometry": { "type": "Point", "coordinates": [ 15.6803137, 58.380442 ] } },
{ "type": "Feature", "properties": { "element_type": "node", "osmid": 8426742931, "amenity": "atm", "brand": "Bankomat", "opening_hours": null, "operator": "Bankomat AB", "wheelchair": null, "addr:city": null, "addr:country": null, "addr:housenumber": null, "addr:street": null, "atm": null, "brand:wikidata": null, "brand:wikipedia": null, "name": "Uttagsautomat", "cash_in": "no", "check_date": null, "addr:postcode": null, "check_date:opening_hours": null, "phone": null, "currency:SEK": null, "indoor": "yes", "level": null, "nodes": null, "building": null, "office": null, "room": null }, "geometry": { "type": "Point", "coordinates": [ 15.6797467, 58.3806796 ] } },
{ "type": "Feature", "properties": { "element_type": "node", "osmid": 9024597415, "amenity": "bank", "brand": null, "opening_hours": null, "operator": null, "wheelchair": null, "addr:city": null, "addr:country": null, "addr:housenumber": null, "addr:street": null, "atm": null, "brand:wikidata": null, "brand:wikipedia": null, "name": "Landshypotek Bank", "cash_in": null, "check_date": null, "addr:postcode": null, "check_date:opening_hours": null, "phone": null, "currency:SEK": null, "indoor": null, "level": null, "nodes": null, "building": null, "office": null, "room": null }, "geometry": { "type": "Point", "coordinates": [ 15.6212684, 58.4147493 ] } },
{ "type": "Feature", "properties": { "element_type": "node", "osmid": 9026121717, "amenity": "atm", "brand": null, "opening_hours": null, "operator": "Bankomat AB", "wheelchair": null, "addr:city": null, "addr:country": null, "addr:housenumber": null, "addr:street": null, "atm": null, "brand:wikidata": null, "brand:wikipedia": null, "name": null, "cash_in": null, "check_date": null, "addr:postcode": null, "check_date:opening_hours": null, "phone": null, "currency:SEK": null, "indoor": null, "level": null, "nodes": null, "building": null, "office": null, "room": null }, "geometry": { "type": "Point", "coordinates": [ 15.6270054, 58.4109517 ] } },
{ "type": "Feature", "properties": { "element_type": "node", "osmid": 9535205935, "amenity": "atm", "brand": "Bankomat", "opening_hours": null, "operator": null, "wheelchair": null, "addr:city": null, "addr:country": null, "addr:housenumber": null, "addr:street": null, "atm": null, "brand:wikidata": null, "brand:wikipedia": null, "name": null, "cash_in": null, "check_date": null, "addr:postcode": null, "check_date:opening_hours": null, "phone": null, "currency:SEK": null, "indoor": null, "level": "0", "nodes": null, "building": null, "office": null, "room": null }, "geometry": { "type": "Point", "coordinates": [ 15.5857268, 58.4332364 ] } },
{ "type": "Feature", "properties": { "element_type": "node", "osmid": 10033873809, "amenity": "bank", "brand": null, "opening_hours": null, "operator": null, "wheelchair": null, "addr:city": null, "addr:country": null, "addr:housenumber": null, "addr:street": null, "atm": null, "brand:wikidata": null, "brand:wikipedia": null, "name": "Danske Bank", "cash_in": null, "check_date": null, "addr:postcode": null, "check_date:opening_hours": null, "phone": null, "currency:SEK": null, "indoor": null, "level": null, "nodes": null, "building": null, "office": null, "room": null }, "geometry": { "type": "Point", "coordinates": [ 15.6333552, 58.4118533 ] } }
]
}
